{"type":"Topology","arcs":[[[2910581,4744166],[1591,-6070],[-2638,-9933],[-5317,-7285],[-2973,-8277],[-2512,-12361],[-1591,1214],[-4104,-1656],[-1926,2980],[-3768,-221],[-1633,-4304],[-42,-3973],[1507,-8940],[1424,-3973],[-1466,-2208],[-2930,3643],[-3518,-4305],[-3600,-6180],[418,-8719],[-4522,-663],[-2805,-4304],[-377,-5077],[-1591,-2538],[-3266,662],[-2973,-6070],[-4103,-3974],[-921,2318],[-2261,-2318],[-1340,4084],[-2554,-7947],[-1507,-10485],[-2010,-8388],[-2554,-3090],[-963,-10926],[-4397,-13134],[84,-8388],[-3308,883],[-2931,-8940],[-1423,2208],[-4564,0],[-1842,-1877],[-3350,994],[-2094,-5850],[-3475,5518],[-2763,11148],[-4732,5077],[-3391,7063],[-6867,4746],[-10174,3201],[-4355,-79686],[11138,-3863],[-8458,-166214],[-42247,12913],[-5485,-102090],[-23197,7174],[-53008,15893],[754,-10485],[754,-20970],[-293,-3532],[11681,-22957],[1298,-12140],[-3600,-23508],[-4899,1324],[-7076,-139947],[-21354,6291],[-8123,-160144],[-10342,2980],[-34125,9492],[-4898,-101318],[-3099,-66221],[41201,-12140],[-1047,-5849],[1675,-10044],[3140,-9602],[1842,-10375],[1591,-12471],[210,-25054],[-461,-19756],[1801,-3090],[-628,-5297],[2637,-13355],[796,-8278],[-2345,-10485],[796,-2097],[7118,-5297],[1591,-2428],[3056,-442],[1089,-5518],[5317,-1214],[3141,-3973],[2470,-221],[5108,4083],[1968,-9933],[1466,-2538],[2093,221],[2596,-2760],[11221,-29468],[3936,-5187],[1801,3090],[5568,-441],[1508,-3753],[3224,-2207],[2135,331],[4145,-2097],[1550,-2428],[-545,-12472],[-4689,-20418],[-168,-3532],[2680,-4414],[-251,-11810],[921,-14899],[-84,-11148],[-3349,-8277],[-252,-6181],[1215,-1655],[1842,-13907],[1256,-2759],[-3015,-58274],[-4229,-6622],[-7871,2428],[-3308,-6070],[-2805,5408],[-7453,5408],[-2680,-4856],[-2387,-1656],[-2386,-4084],[-2387,-13575],[419,-9271],[-377,-10043],[4438,-8719],[-1298,-12803],[293,-1987],[-3433,-23066],[-1507,-25937],[9756,-2870],[-377,-10264],[-2052,-39953],[-12310,4415],[-5610,-97455],[-252,110],[-3433,-63130],[-251,-8388],[-1424,883],[-5317,-101980],[-30901,9160],[-6280,-10485],[-2638,-49776],[13691,-4083],[1550,-3973],[1172,-15562],[-1968,-7505],[-2512,-47790],[-335,-59709],[-6783,-48120],[-42,-48452],[-628,-96792],[-2345,-38850],[-3517,-63572],[-30105,6512],[42,-662],[-29142,6291],[-2847,-48783],[-3517,-11699],[-2512,-41940],[-2010,-38187],[-2931,993],[-502,-10374],[27592,-7726],[251,-552],[-4019,-78692],[-2303,662],[-7327,-82003],[-4313,-82666],[-2763,-50549],[-1424,-45140],[2512,-773],[-2847,-50659],[-1256,-24612],[5317,-883],[545,-10043],[3140,-65448],[1256,-14017],[-502,-9823],[33329,-9712],[-9170,-152860],[84,-552],[-1884,-45692],[209,-6732],[-3810,-62248],[586,-7726],[3559,-35980],[-3475,-42381],[6071,-2428],[-1926,-33331],[-4648,-49666],[-1465,-23839],[-15241,4304],[-14739,883],[-18088,221],[-8834,-157274],[-168,-552],[-8206,-143589],[-7118,2539],[-2429,-23730],[-4438,-79354],[21856,-6733],[-3307,-58163],[2135,-1435],[-1968,-27482],[126,-12803],[1130,-61143],[-2386,-33442],[-8291,-25495],[-4187,-77589],[4397,-1324],[-4355,-78692],[-1172,-24060],[-13734,2979],[-3182,-50769],[-1465,-15672],[-3894,-36311],[-2722,-29137],[-921,-14790],[35213,-7173],[2219,-663],[-1424,-31896],[-1800,-31786],[-2428,-45803],[-1466,-33772],[3894,-8719]],[[2489490,198773],[-43461,0],[-38354,0],[-72980,110],[-33873,0],[-69128,-110],[-55311,0],[-48402,0],[-69128,0],[-69128,0],[-69170,0],[-36637,0],[-67118,0],[-70301,0],[-67997,0],[-39233,0],[-69923,0],[-63685,0],[-34585,0],[-43629,0],[-66365,0],[-69798,0],[-56609,-111],[-40949,111],[-68375,0],[-36427,110],[-62010,-110],[-60586,0],[-54851,110],[-73399,110],[-37725,-110],[-46392,0],[-41871,0],[-41870,0],[-41870,-110],[-41871,110],[-41870,-110],[-41871,110],[-41284,0],[-34543,0],[-49784,-110],[-41870,110],[-41871,-110],[-45681,220],[-38060,-110],[-52757,-110],[-72854,110],[-37307,-110],[-46727,0],[0,194909],[0,112355],[42,200870],[42,428117],[0,160475],[42,144472],[0,228130],[0,92930],[0,112354],[0,144583],[0,64234],[0,128578],[-42,80348],[0,215107],[45680,-11919],[33204,-8499],[12142,272499],[15576,2538],[251,15893],[59205,883],[61717,-15562],[16916,-49996],[29644,-7837],[3349,3201],[4104,-5077],[4103,-2649],[4103,-1324],[2136,993],[2428,-3200],[2806,1655],[6741,883],[12812,-3421],[6867,-4967],[22191,-6512],[-754,3863],[796,4415],[2052,-221],[1423,2980],[-1130,3422],[1591,5187],[-1214,7836],[1842,552],[921,3863],[-1005,4414],[-2093,2428],[2931,10596],[-1005,8940],[-2094,-1435],[-1591,1435],[-1842,-2429],[-1131,10375],[-1423,3311],[-1759,7616],[921,7725],[-1465,7285],[-2680,4966],[1884,11809],[-209,5740],[1088,1655],[629,11258],[-712,4856],[-1424,221],[-1591,6180],[-2010,2318],[-1926,11920],[-1800,4194],[0,5077],[-2052,772],[-795,10706],[-2764,8609],[-84,5628],[-2261,3422],[-963,9271],[-2679,6180],[-1382,6512],[837,4635],[-1088,2870],[-2512,-221],[-4229,15231],[628,4856],[-1968,4415],[1298,10816],[-1173,1766],[587,4746],[-1340,6511],[-1466,3422],[796,3311],[-2345,5960],[-1214,7394],[-2638,2760],[-1382,18652],[-1256,1214],[-1591,17438],[1382,-442],[628,6291],[-1926,10706],[-2219,5739],[42,5077],[2177,3753],[-712,10154],[-1340,10264],[335,4635],[-1465,12803],[963,8829],[2428,13465],[2052,8278],[670,9381],[32868,-7726],[335,8057],[39023,-8829],[-84,-9161],[70008,-16334],[335,7174],[6490,-11589],[1842,18321],[712,9933],[167,19204],[1424,3753],[3056,11699],[1759,13134],[-84,4414],[1382,5850],[2889,4635],[2010,5629],[-419,5298],[1507,5959],[-251,8609],[4062,12141],[1549,6401],[-921,4967],[795,7505],[4439,29578],[1046,442],[1675,9050],[1424,1435],[4187,10485],[418,4525],[1717,5960],[-7537,113458],[7202,161578],[5234,100877],[8709,-2428],[1884,31123],[6699,-331],[5946,9271],[19763,43927],[4606,0],[6615,6070],[4857,7836],[1801,5408],[7871,7947],[8416,3531],[2429,-1655],[6448,5518],[1088,12361],[9379,6622],[1549,3312],[3936,882],[4857,4526],[3141,110],[3182,7174],[5568,9381],[10342,14127],[252,2428],[7118,11258],[5652,7505],[251,7946],[5067,11479],[27550,56729],[62178,-12803],[-1172,-5408],[-168,-6622],[-1382,-11037],[-3307,-2538],[-2471,-221],[3852,-9161],[40698,-10485],[32115,-8167],[-2931,-68097],[-4271,-91605],[7579,-2208],[28723,-7394],[4983,115665],[26043,-6291],[63894,-15341],[3057,79796],[1884,44368],[50077,-12140],[14236,-3201],[1842,-3532],[3015,773],[5359,-6512],[2010,-3863],[838,3422],[22191,-4856],[2512,59929],[-15283,3422],[4313,104408],[879,4746],[-1884,10043],[1842,6512],[2513,66000],[-461,110],[1842,37636],[-1339,3642],[502,10374],[1800,6071],[13734,-2870],[29937,59157],[19721,38850],[6323,-18652],[2805,-5850],[1214,-6622],[1298,-2428],[2764,1545],[4480,7174],[2847,-2207],[2177,-5408],[4941,-5077],[2470,-6402],[3811,-2538],[1214,-4746],[8625,-16114],[503,-6070],[1716,-3863],[4020,-4083],[7955,-6402],[7495,-18873],[-209,-3973],[6280,-20087],[9170,-56067],[-3308,-2317],[-921,-8830],[-4983,-9160],[-8206,1655],[-796,-662],[-1549,-7836],[-209,-8609],[2721,-6401],[377,8829],[31026,-6180],[126,2979],[41661,-10485],[21605,-63792],[11305,-34435],[209,1324],[13943,552],[1926,2428],[2429,5960],[10802,17438],[586,17880],[5109,8388],[2637,662],[2429,12030],[4187,9050],[-419,4636],[2973,7395],[712,4304],[-1131,23067],[3601,5077],[2010,10595],[-209,4856],[-1466,7836],[-377,5739],[628,5298],[12101,10706],[4857,23398],[2805,19645],[-2973,20970],[-2512,4856],[838,14128],[6196,26267],[10384,43154],[7956,33993],[3642,9823],[11598,50549],[54097,107167],[7411,-20749],[25960,111140],[8458,-52425],[61047,122178],[2763,96130],[7369,240492],[14027,15010],[-1465,-33110],[14570,-3863],[-1465,-29027],[-6155,-134759],[44215,-10596],[-3349,-80127],[27048,-6732],[-3182,-8499],[2261,-11257],[-377,-10926],[-1633,-14128],[-1633,-10816],[-335,-6070],[-1633,-10374],[754,-6402],[6490,-10595],[5150,-21743],[4229,-441],[1716,-4304],[419,-5740],[3685,-10264],[2386,773],[3475,5960],[5611,-1877],[3057,1435],[3600,-1435],[7495,2318],[2345,6401],[4313,5519],[3642,7505],[2722,3201],[-1842,-54081],[-1968,-42491],[-4355,-92709],[-4187,-2760],[-1130,-3421],[-5276,-3311],[-3098,-6291],[837,-13465],[-4103,-4304],[-25709,-49335],[4480,-662],[922,2980],[2889,-3090],[2596,-773],[14947,-1876],[13734,-2428],[4061,-7616],[4104,1766],[6573,-1655],[2429,993],[3642,-2538],[7746,-442],[419,-1545],[11808,-2870],[0,-9160],[-1131,-4305],[-4731,-6953],[4480,-7725],[837,-2980],[-293,-10485],[-1549,-8278],[126,-4415],[-1466,-9050],[15032,-4304],[3433,-2097],[4271,883],[2428,2538],[4062,-4414],[34040,-10154],[335,-1104],[33078,-9492],[293,883],[-5192,-104187],[-7704,1987],[-1465,-31014],[15910,-4635],[3517,19535],[8584,6180],[3978,14569],[9965,-3532],[19218,-24501],[4564,-25937],[7495,5408],[1633,-1545],[5192,-662],[2679,-8057],[2596,-773],[2513,-3863],[1130,221],[36637,-6622],[-210,-7946],[-879,-1987],[-1465,-34987],[-2261,-58715],[-4355,-22515],[-8332,1655],[-2219,5298],[-251,-55957],[-3978,-86087],[38311,-9271],[2889,12472],[2261,2097],[1005,2980],[-83,7394],[2386,8278],[293,8940],[3350,6070],[3140,10154],[461,7174],[1172,4525],[3936,4194],[-42,6070],[1507,6401],[-460,3422],[837,14789],[2931,5077],[921,5629],[3936,2097],[1633,7063],[1382,13796],[963,1877],[-1005,6401],[628,6181],[2847,3973],[754,4194],[1758,-221],[29770,-7726],[-3224,-64234],[1466,-8498],[377,-11147],[3894,-994],[20600,-6732],[8541,-3090],[17544,-5739],[22275,-7947],[4187,-5408],[6406,-1987],[7746,10927],[2178,10816],[-293,34104],[-1759,35207],[1633,2980],[-13901,77809],[1926,34766],[-209,6843],[1381,30793],[-711,9271],[-796,3752],[15869,-110],[-1047,-26599],[-419,-16997],[126,-25274],[-879,-20859],[27886,-7947],[41,-552],[24997,-7063],[15325,-2428],[628,-552],[15366,-2649],[4313,91385],[4019,-1214],[335,9160],[6113,92047],[168,12030],[1047,13906],[-4187,1214],[2847,55074],[1591,33442],[1968,39291],[18465,-5298],[13607,-3422],[4481,-2317],[19972,-6181],[502,883],[7328,-2207],[-1633,-30683],[60335,-17769],[-3685,27151],[-2219,7284],[25416,-7284],[753,3311],[3099,-1104],[1842,33773],[1591,33331],[-2470,8829],[3140,72181],[4564,5408],[26085,-7395],[45890,-13354],[-2135,-47790],[-2596,-53307],[-3517,-75161],[460,-7505],[1466,1214],[22484,42712],[19679,39512],[210,5077],[2135,8057],[2973,7174],[2805,11920],[6825,32006],[7997,14459],[16706,-2097],[3057,68097],[23196,-5740],[377,10596],[1633,29137],[544,5849],[-1884,5298],[1926,35207],[10007,-2538],[6951,13465],[17208,-5187],[1843,993],[-14446,80017],[2555,7394],[1926,111],[2805,-2539],[2010,-5960],[2428,-3752],[4229,-1325],[4983,7505],[1340,5629],[-754,8388],[628,4746],[2010,5408],[1172,6512],[3182,4304],[1842,4525],[1675,1104],[4899,-3753],[3601,-1324],[1382,-2318],[293,-8719],[-1759,-9381],[2345,-552],[2638,-7836],[5862,-4084],[10384,1766],[6155,12030],[2512,111],[2554,-7505],[2052,883],[6866,12030],[3559,9160],[921,6622],[2387,4415],[3182,221],[1926,7836],[-2261,10485],[-502,16555],[1340,6732],[1716,221],[4439,18211],[921,7395],[502,3973],[2680,2759],[586,5187],[4564,883],[1382,1987],[-461,10816],[1507,2318],[1466,-2760],[6699,1877],[3434,-4636],[4731,331],[921,-2097],[2722,442],[1130,5408],[3559,1104],[3810,-3201],[1298,-5408],[1298,2538],[4020,-1876],[3056,-2759],[2722,-993],[6113,551],[9212,2428],[8415,552],[3978,2649],[1089,2428],[1340,8719],[2009,20639],[2052,2539],[1298,6953],[1884,3863],[-963,6511],[-42,6402],[5067,-7726],[2219,1324],[4271,6181],[2512,441],[921,6071],[3308,-3974],[3349,2097],[377,-15341],[4815,-2980],[3266,-220],[1717,4635],[167,4635],[3852,10375],[6616,7284],[1633,4415],[2261,2980],[5694,1214],[1256,2539],[4690,1434],[1465,5629],[377,7064],[-1591,1545],[-544,11368],[921,4194],[2052,2317],[6071,111],[3098,993],[2512,-3863],[1005,552],[2094,9271],[2805,3973],[3601,773],[1172,8057],[2345,-221],[2345,3421],[1591,8057],[1884,2207],[2470,8720],[2052,2979],[4522,1766],[2429,-2097],[2093,2428],[2680,-551],[2973,-4746],[628,-4746],[2093,-1656],[2806,5850],[3265,3311],[4229,-4635],[712,1655],[3559,-4084],[2387,2318],[2512,0],[1800,-10485],[-418,-6511],[1591,-4746],[1549,441],[4480,-8719],[1549,-6512],[1675,-3642],[-670,-4966],[3266,-8609],[2219,-2870],[4690,-2207],[5652,-9602],[2052,-7505],[2596,-5408],[628,-6070],[2638,-773],[4815,-11037],[-1131,-4966],[-1298,-11037],[838,-9050],[2512,-2428],[5318,-12251],[1632,-773],[1885,-6622],[-377,-2869],[2345,-3091],[-377,-3531],[1884,-4967]],[[4458572,2501048],[-460,-7174],[3391,-6512],[1131,-5408],[1298,0],[1465,-6291],[2178,-2428],[711,-16224],[1466,-5960],[-5150,-23177],[-335,-5298],[1256,-6401],[-2973,-3311],[-4354,-2870],[-3434,-1103],[-795,-7836],[-3852,1324],[-1884,-30461],[-6239,2207],[-3057,-2649],[-1716,-30351],[-6490,2318],[-2136,-35097],[963,-442],[-879,-12913],[-2931,883],[-712,-12361],[1382,-552],[-586,-8388],[-9798,3311],[-2721,-7064],[-5527,2429],[-377,-6623],[-12017,3974],[-293,-4856],[-6197,2207],[754,12140],[-7621,2649],[-502,-8167],[1005,-4194],[1800,-18652],[-879,221],[-544,-9051],[-3727,1325],[-2261,-36311],[586,-1877],[-1633,-23066],[4187,-1546],[-2805,-43264],[1214,-441],[-2470,-40285],[-47272,78362],[-4647,-73836],[-335,-8499],[-3392,-54301],[-2093,773],[-712,-26268],[-1214,-65227],[-17670,5960],[-18758,6180],[-11849,4305],[1968,16334],[-8165,2649],[-5066,-2318],[-22233,7284],[-2010,-1986],[-8458,2869],[-3852,-61144],[-963,-21301],[209,-13244],[-209,-9381],[419,-10375],[1884,-13244],[586,-220],[-2428,-38077],[2931,-8388],[-1340,-15783],[-2471,-5518],[-83,-6512],[-1382,-3532],[1968,-8940],[-12059,-13133],[-2763,4856],[-12896,4746],[-1340,-2318],[-9589,-2318],[-4605,-2759],[-3434,3201],[-15827,7615],[126,18873],[-84,22956],[-10133,-5739],[-14822,-7394],[-13901,42381],[-3894,-3311],[-4103,-13686],[-4145,-19424],[-5276,-14569],[-1716,-12141],[-2680,-11699],[125,-1434],[-5066,-4084],[-5820,-20970],[-4271,-71187],[293,-111],[-3098,-51431],[-879,-31455],[1214,-4304],[-3475,-56950],[-2973,1214],[-9421,-155729]],[[4062855,1373750],[-3643,1545],[-6908,15783],[-1382,16776],[-11640,9381],[-670,49114],[-4731,27702],[-5150,16003],[-7370,5408],[-4731,17880],[-7243,11699],[-22694,7615],[-2973,7064],[-10342,-24171],[-12896,30462],[-2512,-7285],[-1089,221],[-2219,6953],[-1968,-1765],[-251,-6733],[-12101,23950],[-9002,-15341],[-2303,-4415],[3852,-10926],[252,-4415],[-2513,-5629],[-3391,883],[-7411,19425],[-10887,3863],[-3642,-52204],[-21857,6622],[1047,-53970],[-12812,-111],[921,-61806],[-6783,2097],[-3936,12472],[-27634,-31013],[-8542,13464],[-5192,-37414],[-2847,441],[84,-5077],[1800,-2207],[-1968,-14017],[-19846,5519],[-1508,-30131],[-12310,3973],[-43629,16445],[-11388,-8388],[-3350,37415],[-17502,-10926],[754,-4526],[4103,-5297],[7495,-22184],[-20768,-14348],[-20391,-15231],[-49658,16555],[-15199,4746],[-1800,-30351],[-40112,13575],[1088,17659],[-5527,-2980],[-10760,-441],[-670,-8830],[-15115,5077]],[[3541485,1309405],[921,16997],[5652,97676],[3224,50327],[3475,56509],[-35254,9602],[9337,41829],[28681,-9160],[4229,67545],[921,16334],[-17586,6181],[2178,35097],[-13901,4194],[1674,2538],[3894,12803],[1131,0],[209,6843],[3015,13354],[1968,-551],[1298,3090],[628,6953],[1758,110],[1550,3201],[1674,27813],[2973,53639],[3434,66441],[-2094,9492],[1173,20197],[-6281,20970],[-168,3973],[-5652,16997],[-4355,19756],[670,10043],[6197,26268],[3643,14458],[-838,10816],[2638,4856],[712,3311],[5946,21301],[7453,13024],[1088,331],[2931,7395],[9589,17327],[5317,11699],[11640,29137],[-15283,33994],[51208,128468],[-2261,662],[-963,3863],[-4690,3311],[-3810,442],[-1884,-1104],[-419,-5518],[-1465,-1766],[-3978,6401],[-251,6953],[-2387,7616],[3643,6953],[921,6511],[-2721,1325],[-6030,-221],[-293,10375],[670,2207],[4773,2318],[5653,5297],[2010,-4414],[3224,-2208],[4312,994],[1131,7836],[-42,8719],[-2094,4746],[377,4194],[-7620,46134],[-6281,22404],[-7201,54080],[-10217,72954],[10007,11588],[-1758,5298],[-2471,-1214],[-2428,8388],[-1968,-993],[38814,38187],[-4020,15451],[-4731,1546],[-209,7284],[2930,5187],[1633,6953],[963,15783],[-418,32117],[-1591,31786],[8709,21963],[293,5188],[1675,110],[2177,36311],[-14529,5187],[1256,20198],[10970,-3643],[1675,27151],[-1968,662],[1005,16666],[3977,-2318],[1298,21301],[-3265,1104],[963,16003],[-3392,1214],[1884,13796],[-84,6732],[1298,7174],[1257,1656],[2805,10043],[5611,12031],[-17670,5959],[7788,13907],[7537,17438],[2638,-662],[1423,22625],[6071,-2097],[1926,31565],[3015,1104],[5904,-4635],[460,-8830],[13357,8388],[6909,15341],[4061,68759],[-7285,9161],[1088,6843],[-18506,6180],[0,-441],[-22610,7726],[-4355,-15452],[586,-1545],[-3224,-6070],[-1340,1986],[-2931,-1324],[-2009,3863],[-4564,1324],[-796,-3752],[-10509,2980],[-2219,7063],[-8584,2208],[-3768,-5188],[293,-5187],[-18967,5408],[-1633,-32338],[-1340,1325],[-2554,-1987],[-2471,552],[-1507,5408],[-1340,-3532],[-1800,1435],[-3350,-4967],[-1256,663],[-5066,-2208],[-4648,-552],[-628,3091],[2763,6843],[880,4304],[-1843,16003],[-5861,7395],[7411,7836],[251,4746],[-15827,4525],[628,-10595],[-4815,-17107],[-586,1324],[-8165,8167],[-3936,5629],[-2805,7505],[-11263,16003],[-168,-8057],[586,-4083],[-11012,1104],[-10551,-5298],[-3559,1214],[-6867,6843],[-11430,1876],[-6239,-6291],[-502,-5629],[-1717,-1655],[-2052,-5408],[-23531,-4746],[-4271,-2980],[-9211,-16997],[-1675,9382],[-2847,3090],[-7160,2759],[-1214,3201],[2638,9381],[3014,14127],[-1968,26820],[-3182,9602],[2052,5297],[1423,8167],[-293,8609],[880,21963],[-210,15010],[3434,8057],[2805,14458],[-1591,15562],[3726,883],[2680,9492],[3433,5739],[2303,10816],[293,12030],[6741,13465],[-1256,25164],[-2303,18983],[2052,7726],[419,16776],[-34669,10264],[-1130,4636],[-3392,23398],[2136,5959],[251,13134],[-2847,111],[-545,3752],[-2261,-441],[-8081,55515]],[[3390667,3566430],[3685,2538],[6406,-4414],[1340,-1766],[5527,5518],[11095,-3421],[25541,-10044],[10091,-2759],[21982,-6291],[10593,45582],[3224,6401],[2973,-1545],[2471,6512],[3098,5849],[84,3311],[3098,2097],[712,7505],[4103,8278],[3266,1655],[6574,14017],[2010,-7284],[33747,-9933],[-2721,-46134],[41158,-12030],[3727,63903],[209,331],[26881,-9160],[6113,12140],[3559,4746],[921,3311],[3182,4415],[4397,3752],[18255,21411],[7830,-36311],[5192,-25053],[2135,-1656],[4857,17107],[-7202,34987],[1926,7615],[6993,-6401],[2596,8278],[1800,2538],[2261,-221],[1633,-3752],[2638,-1325],[3936,3974],[2093,9602],[-2596,883],[754,12913],[1507,-552],[4774,-9492],[4815,-110],[13733,8940],[1591,9381],[2806,-3201],[1381,7064],[2889,-1656],[1256,1987],[3601,-5298],[1843,-5297],[3559,-5740],[1884,-8387],[2303,-883],[5317,441],[1633,-1655],[3015,-10044],[2638,-331],[2428,3311],[6909,662],[4019,-5739],[5737,-5739],[3475,-8609],[2512,34435],[1424,-2538],[1968,110],[1674,4084],[1550,331],[586,-7726],[1675,-1545],[1172,2649],[1759,27812],[12309,1104],[2220,6732],[586,5298],[1758,7836],[963,-3090],[2219,1655],[4397,-17107],[5862,-7946],[5108,-4525],[5108,3421],[2554,331],[2303,4525],[3768,3863],[2010,6953],[838,0],[-42,11368],[-2513,16335],[13776,-4967],[2763,331],[4020,-2648],[5527,-1987],[2679,-6401],[2178,-883],[460,7946],[3517,-110],[6448,-8719],[2429,-221],[1130,19425],[5402,-1656],[17418,-11147],[1884,-27371],[1926,-3201],[6364,-772],[4104,3200],[7704,1104],[-838,9492],[2555,4966],[1046,6070],[4020,5960],[5485,1325],[3433,16444],[1382,41168],[1968,3752],[-5192,43927],[419,7946],[-1926,12803],[3391,11147],[4187,3973],[2596,44147],[-2303,16666],[1633,5408],[2136,2870],[15031,-7174],[837,-883],[4816,-24502],[3475,-8388],[5610,-5187],[2931,-5188],[5695,4084],[3349,1435],[3015,-1325],[3433,2429],[3811,1324],[6280,-5850],[2471,-10153],[8709,-1766],[17669,-6071],[586,-13464],[1340,-7395],[2093,-2759],[-83,-3422],[-2973,-8719],[-84,-5739],[-1884,-1435],[-2219,-7174],[-1382,-11478],[2680,-11699],[6155,-7174],[-586,-13465],[335,-14016],[1172,-6733],[-2805,-10595],[-4020,-993],[-1549,-5077],[-1005,-8168],[5359,-16334],[-3224,-2539],[3559,-11478],[5318,-7505],[586,-7174],[2931,-3752],[6825,-21853],[1507,-7174],[-1633,-8609],[-711,-8388],[-2471,-7615],[-3015,-4084],[-669,-6953],[586,-9933],[2219,-7946],[-42,-9603],[-1842,-9491],[-461,-6622],[-4438,-15672],[167,-7174],[1591,-8830],[587,-6622],[-712,-7063],[3768,-663],[3727,-2428],[4773,-1655],[5150,-12030],[2219,-442],[2470,4636],[1759,883],[3852,-994],[7495,442],[2805,-994],[1424,-10485],[2763,-7946],[1633,-11368],[-712,-3973],[3099,-3753],[1172,-3311],[-251,-4194],[-1884,-6732],[3810,-22515],[24955,-8278],[22735,40836],[1047,7395],[-167,4856],[3391,4636],[2638,-994],[2680,-7505],[2386,-1435],[7244,3422],[5192,-4304],[9128,6732],[-252,-4084],[2429,-4083],[1968,-17659],[3810,-13355],[-419,-6953],[2722,-11037],[795,-12692],[2303,-6622],[6951,-8829],[3182,-2760],[3475,-1214],[4522,552],[3434,3311],[2679,-11037],[2094,-1655],[2470,-3753],[1424,-5628],[2051,-1214],[2010,-4857],[1842,331],[3769,-2538],[1758,-6622],[2178,1104],[2386,3531],[3392,10154],[1256,-2649],[2303,4084],[2931,-1545],[753,-6291],[3266,-10706],[-1256,-14237],[335,-5188],[1424,-3973],[544,-8277],[-1340,-5519],[-3643,-5629],[-1298,1877],[-3224,-1435],[-5694,8609],[-2135,9271],[-1968,2317],[-7202,-9933],[461,-11478],[-2890,1104],[-6908,-2760],[-1340,-11919],[-21145,-25164],[-1884,3200],[-2051,552],[1423,-70856],[20852,1656],[29267,-9161],[-963,-10154],[-5359,-80568],[-2554,-38077],[-15911,-91054],[42,-331],[43796,-14238],[10803,-3752],[293,-2097],[-2010,-5518],[-84,-3532],[1968,-6181],[-1633,-7063],[3350,-14348],[2721,-3973],[1340,-4194],[3266,-6402],[3434,4856],[2177,-5518],[1968,-221],[-293,-9712],[2009,-6401],[2638,-5850],[3266,-2318],[2345,1104],[3224,5739],[3433,-1324],[-293,-9823],[377,-3863],[3015,-10154],[2721,-4414],[1466,-10154],[2931,-7616],[795,-4856],[1843,662],[1926,5077],[1256,-6953],[1926,-1104],[1381,-5739],[-376,-2649],[3852,-6953],[2973,-772],[1172,-10485],[2470,-1656],[2345,-5408],[2219,-662],[1424,-8719],[2721,2759],[2596,-7615],[4145,-5408],[5569,-16776],[503,-4415],[-838,-14679],[-6406,-11368],[1005,-883],[1382,-6953],[3224,-4194],[4899,-3201],[418,-4966],[-1716,-8719],[1381,-7505],[-1633,-8830],[2052,-4083],[335,-12693],[754,-6070],[1172,-221],[4522,-6732],[2554,-4856],[4103,-1435],[5946,-4304],[3894,1655],[921,3642],[2764,2980],[2554,-2207],[1800,-6843],[4773,-552],[838,-4083],[3517,1214],[2093,-994],[-837,-6511],[167,-8168],[-711,-3090],[376,-6070],[1759,-5739],[-2135,-6291],[1046,-1987],[2094,-10926],[1800,-1104],[1089,-7063],[2135,-2539],[1466,773],[3768,-10816],[377,-6733],[2680,-4525],[1130,-7063],[1675,-6071],[2303,-1876],[-126,-5298],[1466,-2869],[418,-9933],[2345,-11589],[1842,993],[2052,-2428],[921,-4414],[4104,0],[544,-3201],[3140,-5077],[1717,662],[4271,-9271],[3349,2097],[3685,-8829],[1465,-442],[2219,-6401]],[[4774527,1451890],[-377,11589],[-1298,14569],[-1507,6511],[41,3532],[2429,6843],[-837,6732],[-2806,994],[586,8829],[-3559,1324],[377,5960],[8919,-2649],[711,10375],[-2596,883],[42,6512],[-3056,8277],[-2429,13576],[963,14127],[1550,-4967],[2679,-1766],[1215,13796],[2177,32669],[-1382,552],[963,13906],[1340,-552],[502,8057],[-9546,3422],[586,8608],[1382,3422],[3182,2097],[3433,3973],[754,9381],[1172,6402],[1382,-1545],[1466,5297],[-4229,2539],[293,4525],[2177,-662],[1926,3642],[3015,-2318],[377,5629],[3224,1545],[1507,-4304],[2261,-2097],[1047,3090],[3098,-10154],[670,9492],[1424,-552],[1088,7726],[-670,4304],[2261,5518],[1382,11589],[3392,11920],[586,5187],[2344,6181],[168,3752],[6909,8278],[-3099,14348],[2554,2979],[1968,-993],[628,9492],[1340,-2097],[1005,16334],[1047,-441],[544,8829],[-8039,1435],[-3015,-1435],[2931,44478],[-10216,3974],[84,6070],[1088,6953],[-2345,10485],[2931,5518],[-2554,8720],[-3517,6622],[-1423,-994],[-1508,4746],[-2428,773],[-251,-4084],[-2764,4304],[335,5077],[-3978,1214],[419,7616],[-795,6291],[293,5739],[-11138,3863],[1800,1986],[294,5077],[-6113,1987],[879,14789],[-4564,3091],[-4731,8608],[-2513,2649],[-3642,-110],[-8709,3090],[-503,-2980],[-11389,3753],[-2135,-33883],[-2680,4083],[-4061,-1876],[-1256,29910],[-3434,-1435],[-1800,-8719],[-3559,-5077],[-3099,-2318],[-1967,7836],[1172,18101],[-13985,4966],[-1591,-2207],[-6280,0],[-2931,3973],[-3769,1435],[-837,3421],[3182,4967],[1298,19756],[-4187,-6733],[1131,19535],[753,8057],[1382,-441],[84,9381],[837,11809],[-4731,1877],[1256,6401],[-251,3642],[1465,4084],[1549,221],[126,4745],[1214,4194],[-84,4194],[1424,3753],[-2889,3863],[-2010,14458],[796,3532],[-5150,1876],[-545,-3421],[-3056,-9492],[-2136,-4967],[-3768,883],[419,3974],[-1633,6622],[-1801,1655],[-921,6070],[1214,2539],[1424,8498],[2847,2980],[2680,-2759],[2303,-5187],[712,3642],[-2638,7394],[4019,1766],[2806,-2869],[921,14127],[4271,-1435],[167,3532],[3015,4966],[4103,3201],[963,3311],[2010,993],[3140,7174],[1298,20749],[-6574,2429],[-2261,-8388],[-11849,4194],[-2931,-332],[-2428,-6290],[-2178,441],[-1004,3532],[-3099,1655],[1172,18542],[3266,2318],[1591,5739],[1508,221],[3559,6070],[1256,7946],[-19470,25164],[-3308,5188],[2806,9160],[460,7395],[2764,5077],[3936,11147],[6908,15672],[1131,6953],[2219,2097],[-461,3642],[1675,27261],[2512,-12030],[9630,-3090],[0,5739],[3183,3642],[2302,6181],[-13607,4746],[1800,31896],[-2889,773],[293,4525],[10845,-3643],[921,4305],[-1424,4415],[-1298,-442],[-3852,4746],[-2847,993],[-210,5960],[-4857,1766],[880,13906],[-5736,2097],[-712,2870],[2805,3090],[-1382,3311],[2806,6070],[-1843,2649],[-4103,-3973],[84,9712],[-1759,-2207],[-3810,3973],[-2680,-1545],[293,5077],[-4898,1214],[-3057,3532],[-628,6953],[-1842,1104],[1005,4746],[125,6180],[4690,15121],[2009,3642],[-544,11037],[419,7173],[2512,7064],[-1130,6070],[-3811,-1324]],[[4663821,2515396],[1424,13575],[2345,9492],[3098,5960],[2135,0],[4606,6953],[-418,-5077],[1339,-3422],[6700,-2428],[-1843,7064],[-335,19425],[-1046,7615],[670,10264],[2135,-772],[1005,15782],[-6699,2428],[963,13686],[-2387,13796],[1633,4967],[-168,8056],[1005,5408],[-2303,3091],[-1172,4525],[-1800,-2980],[-3434,7505],[-42,16114],[545,3973],[2177,4856],[712,4525],[-5485,1766],[753,13796],[-4145,773],[-586,-4525],[1675,-2429],[-963,-5408],[-4229,-2980],[-1340,7726],[1842,4084],[-1884,3090],[-628,5298],[-1800,6180],[-1926,3422],[-2847,8829],[-3392,-3642],[-2094,3973],[712,2870],[-5024,3863],[-2471,6401],[-83,5187],[-2889,3863],[-84,8057],[-1005,11147],[670,5519],[2554,5960],[3768,4525],[3601,220],[2722,3091],[879,3532],[4899,5628],[251,5739],[3015,-662],[1340,6953],[-712,5077],[3182,14127],[-2303,15231],[3099,4305],[2051,5408],[-1675,2428],[-586,7394],[-2303,4194],[-376,4415],[2051,9492],[-293,6291],[-1005,4194],[-293,7505],[-837,1766],[-712,11036],[921,1656],[-1759,5960],[1592,4966],[669,5739],[-1800,3643],[126,8388],[-838,4856],[3392,6843],[1047,7173],[-1633,6733],[1339,8388],[3643,552],[2177,-3532],[1801,2759],[335,5187],[2345,-2317],[2596,3421],[3265,-7726],[4355,-4966],[1256,-4305],[3015,-6070],[1130,-5077],[2973,-7505],[1172,-5187],[3308,-552],[1549,7726],[1089,1545],[3308,-4635],[1298,4304],[-210,9823],[-1172,2759],[2429,4304],[3684,993],[712,2539],[3224,1324],[1214,6512],[1298,2207],[168,5629],[1046,2759],[2429,0],[2093,5077],[335,11920],[4439,1214],[1968,-4635],[2135,-2318],[1298,-3863],[3350,-5077],[-335,-2207],[2889,-3973],[1716,-9271],[1717,4194],[4522,1876],[3727,4083],[1967,4084],[2555,-1545],[2512,4525],[1884,-1214],[1591,3532],[2680,772],[963,-6401],[1675,-4415],[4061,0],[1507,-4083],[3769,5628],[1591,-3421],[1884,3090],[2052,7616],[3642,-3311],[1591,3311],[4229,1545],[670,3421],[2805,-331],[-1758,-28475],[2638,-883],[1088,2870],[-1381,-22846],[-2471,-7285],[293,-6622],[-1758,-7174],[-126,-5297],[1466,-7174],[1633,1986],[376,6181],[2555,-3421],[-3894,-29027],[4396,-1435],[-754,-12582],[3978,-1324],[-628,-10927],[26336,-8388],[1047,2208],[-3014,9712],[-1550,11258],[17837,-5519],[2638,-10264],[1926,-2097],[1884,1324],[2387,-1655],[377,-7836],[-880,-4856],[4229,-1325],[-1088,-3311],[209,-5077],[1424,-8498],[1005,-2207],[-1927,-34656],[-4898,-13906],[335,-1325],[-8416,-23839],[1465,331],[-42,-7616],[880,-4414],[-2513,-6181],[-251,-6732],[754,-3201],[3894,-2207],[1214,883],[3266,-4636],[2721,-5298],[1089,-4414],[-628,-2870],[2093,-11478],[-1339,-2870],[418,-5077],[3141,-7505],[2219,-993],[1675,-4084],[1004,-6732],[6155,-1766],[963,-2759],[3099,-442],[2345,-2207],[2763,2870],[879,-6291],[1884,-6733],[3141,5408],[3475,-441],[2429,-4305],[669,-18431],[1466,-5077],[2763,-2649],[84,-3531],[-167,-9823],[1046,-1214],[-963,-7174],[-2931,-2759],[2722,-12582],[-2428,-4525],[-2220,-1877],[-251,-4635],[1675,-5187],[-335,-10816],[3182,-9713],[-712,-2759],[1801,-3642],[2680,-9050],[293,-9713],[837,-2759],[-293,-8829],[-4062,1434],[-125,-2428],[-4648,1766],[-42,-8719],[-2177,-6622],[10551,-3863],[-2135,-1655],[-1675,-3643],[-3601,-12030],[126,-8608],[-1926,-6291],[-963,-5960],[-1759,-1766],[-2344,883],[-628,-5298],[6657,-5849],[-754,-10927],[2345,4194],[1089,-1103],[2763,2207],[1591,-4856],[-1800,-3753],[-126,-7063],[2889,-1325],[-125,-5628],[-1340,-8168],[1591,-5297],[1675,-8388],[2512,-5519],[84,-7174],[1465,-2538],[-251,-4856],[963,-8940],[-2094,-2980],[252,-6622],[-2429,-7947],[-1298,-1765],[628,-4857],[1968,-3863],[-167,-3090],[-7244,2318],[2429,-9602],[879,-7064],[544,-12471],[-4522,-6291],[1340,-6402],[1675,-331],[2721,2539],[2513,-2318],[5108,-1545],[4229,-6512],[3391,-1103],[3475,993],[-418,-5629],[-1340,-1435],[-84,-10705],[-837,-3863],[1005,-4415],[1800,-17438],[1884,-10154],[-4271,-14237],[1801,-7505],[-1842,-2870],[-2513,-8057],[-1842,-2428],[-963,-4304],[-1675,-2318],[-3684,-11589],[-754,-5628],[1047,-4967],[-1550,-12140],[712,-7174],[-837,-4305],[-3894,-6291],[754,-4966],[-2220,-9492],[-2344,-5518],[-84,-10816],[837,-8609],[1382,-3642],[1507,552],[5904,-2870],[419,-10043],[-754,-4746],[1424,-1987],[2470,2870],[1884,-3422],[7328,-4746],[1758,3643],[2638,331],[2764,-2208],[1926,-5849],[-335,-10044],[-2889,-3752],[-252,-6070],[-1507,-331],[-2387,-4746],[-5987,1214],[-2219,-1325],[-963,-7946],[-2973,-2097],[-6071,-11368],[-2052,-883],[-2763,-5739],[-1885,-25937],[2806,-993],[1716,3421],[754,11148],[3015,-1104],[335,5408],[2763,-993],[377,5739],[6741,-2428],[-795,-12251],[4689,-1656],[-419,-6732],[1968,-662],[-1633,-25054],[1759,3422],[2596,-1987],[-1256,-6070],[418,-6622],[2429,-994],[-586,-8939],[963,-332],[-251,-8608],[-1382,-4967],[-628,-9491],[1382,-442],[502,-6843],[-1298,-18873],[-2428,883],[-210,-5849],[1173,-12251],[837,-4525],[-1214,-3090],[-712,-13245],[-3140,-2869],[3852,-8940],[1800,-9492],[3182,-4083],[3141,441],[1298,-1876],[41,-5629],[-2763,662],[-2470,-1655],[-1801,-10154],[-2177,-27371],[0,-5850],[1214,-3200],[2471,1986],[1967,-3311],[5695,13575],[2177,-3862],[3015,-221],[2303,3863],[-1089,5077],[1591,1324],[1172,-4525],[5862,-1545],[796,-1766],[6239,1766],[1423,6070],[3768,3863],[3476,1876],[-419,5960],[-3894,3311],[419,4084],[4271,2428],[2302,-2097],[2303,-10927],[-335,-7725],[-1005,-5629],[-209,-10816],[1842,-10816],[963,-8940],[293,-14900],[2973,442],[2680,16113],[2763,1215],[6323,-14569],[1256,-7064],[2596,-3200],[1256,-3532],[3517,-993],[1382,1655],[2638,-1324],[2763,-5519],[2471,-3200],[2679,-10265],[84,-5849],[-963,-12472],[-1005,-5408],[-4857,-14237],[2847,-9492],[-3391,-46134],[-13650,5077],[-3308,-48230],[-3391,1103],[-586,-7836],[-6407,2539],[-502,-6843],[-5569,2207],[-3140,-441],[-879,3311],[293,5628],[-2219,883],[-461,-6511],[-2177,772],[-293,-4856],[-4564,1656],[-1424,-4084],[-1968,-29799],[3392,-1325],[2889,2097],[2554,-9822],[879,-15121],[-42,-8277],[-4187,1545],[-963,-13907],[-4187,1545],[628,8609],[-2428,2759],[1130,17770],[-7076,2428],[419,5849],[-1884,2980],[-8961,3201],[838,13685],[-1968,6071],[-8458,3311],[-125,993],[-12520,5739],[-1340,9602],[-7536,3090],[-880,-6291],[-7034,2760],[461,7394],[-5527,2097],[251,3422],[-7076,1986],[-377,-5628],[-12770,4966],[418,6070],[-1716,331],[502,6954],[-3182,-1435],[-7704,2980],[377,4966],[-7830,2870],[-84,-4967],[-8248,2980],[-5276,773],[-2093,-4856],[-629,-5519],[294,-10264],[-1843,-27482],[-8499,3201],[-1885,-27702],[-5275,1986],[-293,-3862],[-5778,2207],[-84,-6733],[-1382,-5076],[-670,-9603],[-4647,552],[-3266,-47237],[-2973,3532],[-3266,1214],[-1256,-18432],[-1926,662],[-670,-9822],[-7076,1986]],[[2910581,4744166],[1591,1766],[4564,-662],[4522,1214],[3726,-13465],[3852,-10816],[2848,3642],[5778,-1766],[1842,-6291],[3098,-3421],[1298,-3532],[2764,-1435],[3266,2649],[4480,-3090],[3350,-13465],[-252,-5739],[1550,-5850],[4103,-6953],[1088,-7395],[-1716,-9822],[2219,-14238],[-1549,-2759],[0,-6843],[1005,-3642],[335,-6512],[2009,-9381],[-209,-4746],[1507,-1876],[963,-7174],[1968,-5077],[4439,-4084],[1800,-4635],[1926,773],[1675,-3422],[-921,-4635],[418,-3863],[1926,-3753],[168,-7063],[2554,-3753],[2722,1877],[4563,-20087],[2010,0],[4564,-25054],[4229,-1214],[1759,883],[2470,5408],[2805,-1987],[4564,-662],[2973,2870],[1758,-994],[1382,-6953],[4983,-9160],[1549,-4305],[2345,-2207],[879,-10816],[-167,-4304],[4898,-12251],[1675,-2428],[1591,-6622],[2261,-2208],[3266,-8940],[3392,-5518],[-335,-4746],[3475,-6401],[2805,-2539],[1466,-5077],[-1131,-10153],[1005,-3091],[-586,-4304],[1507,-7615],[4187,-16556],[-377,-9271],[2890,-882],[5778,2759],[1633,-4194],[2847,-4415],[4522,-2649],[1758,-10043],[2387,-1987],[1298,-3863],[3433,3863],[4104,-4746],[41,-4635],[2094,-5960],[3894,2538],[2763,-1103],[3350,-11368],[126,-4525],[2512,-1766],[2889,11478],[2135,883],[1675,-2869],[4271,-2208],[3894,-3421],[8541,12913],[4899,1876],[2764,-3752],[6322,1876],[3140,-1545],[2387,3311],[3643,-1545],[2470,551],[5234,-3200],[1926,-5408],[3768,-1545],[4941,3973],[2805,-5629],[2261,-441],[4480,-6843],[2136,-5519],[-42,-3311],[3057,-5408],[2847,-552],[963,-1986],[5317,-3753],[4899,552],[2680,-5298],[2219,-8608],[4983,-16224],[2386,-4084],[1340,5298],[1465,331],[1633,5077],[628,10043],[1592,3973],[753,8057],[3978,-4635],[3517,1104],[2470,6401],[3224,-3422],[2220,-5518],[2805,-1324],[3894,2759],[-838,5739],[1298,1545],[2931,-1655],[3057,-18873],[2763,-15341],[-2763,-2318],[-2303,-6401],[126,-6071],[-3559,-3752],[-2261,-6733],[-126,-4525],[-2722,-5297],[-3265,-48893],[2470,-3753],[419,-11589],[4731,-9822],[2931,-3863],[7369,-4525],[1591,-7616],[3894,-8277],[461,-3532],[3266,-1104],[3098,-3531],[2889,-6954],[2680,5077],[1968,111],[1968,-3422],[-587,-2759],[1131,-6732],[4019,-1877],[3727,-6953],[12645,-5298],[3810,3863],[1717,-9491],[9881,-2980],[1926,1214],[879,4415],[4983,-221],[3685,4746],[2931,-1987],[1423,7064],[36051,-110920],[-16414,-30572],[1089,-2980],[-670,-9271],[293,-4967],[-628,-10153],[2722,-7174],[1465,4414],[-1465,5077],[-754,7174],[837,3201],[4606,-1325],[3015,221],[4061,-2207],[2680,-6291],[-1089,-2759],[-4019,3421],[-168,-5298],[3434,-5076],[1758,-552],[2680,-9161],[2010,-1545],[418,-3532],[-2428,-7505],[921,-4304],[2554,6291],[293,5629],[1382,3421],[-209,4525],[1423,1545],[5276,-4304],[42,-6070],[-3475,-5298],[-1592,-6732],[587,-6181],[1256,-1435],[3182,4304],[0,-5849],[-2680,-11147],[-251,-2980],[1214,-6070],[-6908,-6512],[-3518,3311],[-5066,-9712],[-1549,-221],[-2596,-12582],[-3392,-4746],[-2344,-221],[-6113,-11809],[-1340,-331],[-2177,-5077],[-1466,1987],[-837,8388],[-1298,4966],[-3015,7064],[-3182,110],[-2847,8057],[-1801,-2649],[712,-6622],[-2345,-6181],[-963,442],[-2805,-4525],[1382,-5960],[-1466,-7615],[1382,-5740],[-670,-4525],[-2303,-662],[-670,-3752],[1675,-12913],[-9672,-21633],[3726,-1214],[545,-7063],[14278,-3973],[7787,-23730],[1968,3311],[3601,2318],[3810,5629],[4397,1876],[6908,6843],[3643,6401],[3978,331],[0,-7836],[-2429,-21411],[-209,-4525],[2638,-10154],[5359,-16224],[3685,-1766],[963,-4525],[4271,-10816],[1172,-4194],[3182,-1324],[3852,-12031],[2847,-5408],[2261,-1434],[3057,-6402],[1633,-7615],[-5820,-73947],[1214,-8277]],[[3541485,1309405],[-5109,-86639],[-6113,1656],[-4019,-66331],[-6532,-108933],[-33413,11036],[126,1656],[-57279,19094],[-209,-4305],[-18130,5077],[-921,-1214],[-28472,7836],[209,4194],[-14319,3642],[-16162,-52535],[-18214,-60923],[-3601,-70415],[-7495,-146237],[1089,-331],[-1968,-38519],[-628,111],[-2177,-42382],[4898,-1324],[-3391,-66441],[-1675,-1215],[-1717,-39511],[11850,-3311],[16497,-3974],[-1633,-32227],[-3475,-73284],[6741,-1325],[-3978,-66220],[14571,-46245],[11431,-33551],[1800,6842],[2554,-7725],[796,-7285]],[[3373417,308147],[963,-12140],[-1424,-993],[-1675,-6181],[-1298,552],[-335,-8830],[-1716,-1766],[1130,-6732],[-2345,-10706],[-1465,-1434],[-879,-10044],[-1382,-4856],[-1340,2980],[-4229,-4194],[-2805,2980],[-168,-4856],[-1884,220],[-1340,-9381],[-2344,-4635],[-1885,993],[-8667,-7284],[-502,-7837],[-2429,-6401],[-1005,-5960],[-2009,-2869],[-42164,110],[-59121,-110],[-51919,0],[-70803,0],[-47942,0],[-33789,0],[-58619,0],[-38186,0],[-62219,0],[-43629,0],[-73860,0],[-34585,0],[-61423,0],[-42248,0],[-69128,0],[-53259,0]],[[4458572,2501048],[1759,-2207],[3182,1214],[2764,3752],[1591,-6732],[3433,-5960],[1424,331],[3307,-5298],[1005,-5628],[1215,-773],[2219,-6843],[2051,111],[3601,-6512],[4145,-3973],[3057,3642],[2931,-2539],[3266,1656],[2386,-2208],[3099,111],[5275,3642],[5695,6070],[3349,8830],[3727,-5077],[2847,4746],[1382,-1215],[3140,4194],[2345,9602],[3726,7395],[1717,6622],[2010,4305],[167,5739],[18130,20197],[335,6181],[2136,6070],[1842,2318],[754,12030],[-670,4635],[460,5408],[1675,5077],[-84,4967],[1926,5739],[3936,5077],[2554,6070],[1508,7063],[83,5409],[3182,10153],[712,111],[16078,-5188],[503,8278],[1172,331],[754,12803],[3057,4635],[4187,-883],[502,7947],[4145,7174],[3350,-10706],[1884,-2207],[5024,-1766],[880,4746],[2303,4745],[2051,883],[1256,3974],[2261,3090],[-586,-11258],[5108,-1545],[670,-10264],[-921,-5298],[168,-11368],[1339,-6842],[1424,-111],[1298,-5960],[-502,-6401],[-3518,110],[-1884,-8829],[1298,-5960],[-1842,-6622],[-3810,-5960],[-2596,1545],[-838,-6070],[-2177,662],[-586,-5960],[1633,-3642],[1591,2649],[2052,-1545],[2512,1656],[1298,-3863],[8500,-2760],[-3224,-9270],[-754,-5077],[-1507,-2980],[1758,-5850],[293,-17769],[-2051,-6070],[-1885,-2428],[-502,-4636],[-1801,-993],[-837,-9492],[2847,-1103],[2764,-7064],[2805,-442],[7327,9051],[1633,5628],[4104,2980],[2386,8830],[2722,-442],[2847,3863],[3391,-2318],[2722,-4414],[879,6622]],[[4774527,1451890],[-251,-3090],[1465,-5187],[335,-6512],[2303,-6843],[-377,-19756],[-2763,-4966],[628,-14790],[2093,-8387],[-42,-8278],[2261,-11478],[-4564,-10816],[-1130,-5077],[-209,-13686],[-3015,-6732],[-2303,3752]],[[4768958,1330044],[-2805,8940],[-3601,2538],[-6993,1656],[-4061,-3311],[-1800,4856],[-3685,-4304],[-2889,-1987],[-2303,1987],[-2345,-1104],[-3349,3201],[-3936,7174],[-2136,110],[0,-5518],[-3098,-1987],[-3852,-7395],[-3392,-441],[-4438,-2539],[-2512,6071],[-4606,6953],[-4229,3421],[-3433,0],[-5653,3753],[-753,-11699],[-3392,441],[-2219,3090],[-1214,-2979],[-3099,-1435],[-7243,-773],[-879,-1876],[-4313,1655],[-2805,-331],[-587,4084],[-2763,5187],[167,4967],[1340,2538],[-125,4084],[-1633,4083],[-13566,4857],[-3685,-5298],[0,-2870],[-6573,-13023],[-3266,-2649],[-20517,7505],[-628,-9491],[-12226,4304],[1591,-13023],[-9463,3421],[-1088,-13796],[-21606,7836],[-1214,-18321],[-4103,5298],[-754,-6622],[4145,-19204],[-335,-3974],[-45513,16666],[-670,-9713],[-3810,6512],[-1633,221],[-3391,-11368],[2219,-5077],[-5318,-9160],[-2470,8498],[-3098,13796],[-2890,-3201],[-1800,1656],[-2010,5849],[-7034,4636],[-4061,441],[-11557,3422],[-335,-883],[-12561,4414],[-209,-441],[-18842,5739],[-963,-441],[-15952,5187],[-14236,5187],[-3015,-49997],[-12352,3974],[-4689,-81783],[-8751,2759],[-1926,-1655],[-2806,-6071],[-1298,-12913],[-3265,1877],[-2848,-552],[-1172,-7174],[1591,-5629],[-3098,-21411],[753,-17438],[-1591,-2649],[-5820,-1876],[-5610,-8057],[-2889,662],[-2555,-5408],[-2177,7946],[-4396,2980],[-2052,3753],[-4145,-2318],[-754,-4856],[-2177,-5960],[-4648,-3421],[-1423,-2428],[-1089,-5960],[-1968,-2318],[-4019,-662],[-2931,1876],[-1340,4746],[-3517,1214],[-2973,-8719],[-2052,-3091],[-4019,2097],[-3057,-3531],[-3098,-8940],[-28179,9823],[461,6732],[-2261,-1104],[-3057,3091],[-3810,-9050],[-6113,1986],[1130,16555],[-12477,-2648],[-1382,-3643],[-2679,773],[-3476,-4967],[-14487,2428],[377,7505],[-15660,5740],[-3224,-5298],[-2303,6401],[629,3091],[-2136,19093],[963,7285],[1968,3642],[1926,8057],[335,8167],[1047,1214],[1926,16555],[-586,7174],[-47230,15562],[-36092,11920],[-2010,10264],[-6490,-5850],[-4522,12030],[460,16666],[1968,9823],[-10970,16886],[-3642,11809],[-587,12913],[-11640,9161],[-2805,1104],[-586,7063],[-3475,7726],[-3727,-6401],[-2680,5077],[-251,24832],[-4731,8940],[-6113,2207],[-251,4857],[-2429,-552]],[[4768958,1330044],[-2638,-5187],[335,-5408],[-2345,-7505],[0,-9602],[-1298,-14458],[2680,-9382],[628,-3973],[3140,-7174],[-753,-5960],[2428,-8277],[293,-5739],[-2093,-11148],[3936,-3973],[1256,-2869],[3433,-3753],[2387,-1104],[-670,-9933],[1591,-10816],[-3810,-8057],[-335,-4746],[1381,-8277],[-209,-5519],[1047,-4083],[2135,-2649],[1047,-6291],[1926,-5187],[3350,-2097],[-838,-12803],[1173,-5408],[251,-9712],[1214,-4305],[3475,-6842],[-1926,-10596],[2178,-11699],[3559,-9933],[6322,662],[0,-6070],[963,-4194],[-3182,-13686],[-3099,-4745],[335,-6181],[4564,-2538],[-209,-3422],[2512,-1655],[377,5849],[2554,-1435],[2345,-5739],[1842,-9933],[-1633,-2869],[-335,-7837],[-1633,-4745],[-3307,-552],[-1215,1435],[-3977,-2539],[-1591,-6181],[628,-5408],[-1340,-2979],[-1215,-6623],[-1256,-441],[-2763,-7284],[-1214,-7505],[670,-5519],[-3559,-2538],[-2010,2318],[-3936,-2097],[-2010,2759],[-1465,-5298],[293,-6070],[-1340,-3642],[-42,-11037],[2931,-12361],[-837,-5077],[-2261,-5850],[-3811,-6180],[-921,-5629],[-2261,-5629],[-753,-5629],[-2722,-7063],[-2847,3532],[-1507,-1435],[-4020,883],[-3601,5408],[-6155,-7505],[-2596,1545],[-1591,-1876],[-2219,1766],[-2596,-221],[-1926,3642],[-2680,883],[-879,-6843],[-5569,-11257],[-1465,-4194],[-586,-7064],[-1089,-3311],[-1968,-441],[-6322,2317],[-2638,-11147],[-1884,-2759],[-2889,-9050],[-4104,-7064],[-460,-6180],[-2973,-6733],[-963,-8167],[-1256,-221],[-1717,-8388],[-1842,-4746],[-1340,3422],[-2764,2538],[-1130,6181],[-4020,2207],[-2051,2318],[-1633,-5077],[-9044,6622],[-3476,-2207],[-795,-3753],[-3433,-1435],[-1801,-3421],[-2763,-10816],[-3141,-1876],[-2512,-7505],[-4229,-3974],[-2135,1325],[-6574,-5850],[-3014,-331],[-1675,-2097],[-4229,2318],[-419,-8829],[-795,-2429],[125,-7063],[-3098,-6291],[-1926,221],[-3978,-5077],[-754,-4525],[-3391,-8940],[-6992,-11810],[418,-3421],[-1381,-4415],[-6784,-3200],[-3642,3752],[-1256,-993],[-1801,9602],[503,6512],[-1298,8498],[-3936,-1876],[-1424,-4967],[-6029,-10706],[1172,-8719],[-1716,-7836],[-377,-6291],[1298,-3311],[-754,-11699],[1633,-5739],[-670,-5077],[1089,-3752],[1758,-994],[1340,-5518],[3894,-993],[4103,-9492],[1005,-10926],[1591,-3201],[-1256,-7174],[754,-9050],[1172,-5408],[-1507,-6843],[377,-4304],[3977,-12913],[796,-4415],[-167,-11368],[1716,-3311],[1173,-6181],[2219,-7284],[2763,2097],[4522,-2428],[3140,1655],[2429,-4083],[-168,-5298],[3350,-10043],[4522,3090],[2010,-6291],[-1424,-6070],[754,-6843],[2303,-8940],[1675,-3752],[-1968,-7285],[-3852,-3642],[-3434,-8057],[-4857,-6953],[1591,-2207],[670,-7284],[-2847,-7837],[126,-5849],[-2010,-4304],[628,-17659],[-963,-4856],[2052,-3753],[-1131,-7174],[-1465,-2097],[209,-5187],[1298,-4194],[-1130,-6843],[544,-7836],[-796,-4856],[-502,-14348],[-2764,-4084],[-1633,994],[-753,-6291],[-1759,-1435],[545,-7064],[-1382,-6511],[3433,-4967],[1214,-3863],[1508,3532],[3349,3752],[587,-3311],[-1466,-4194],[838,-6511],[-3099,-6181],[544,-4415],[-1339,-2980],[-1968,-15672],[-2764,-4304],[-2596,-13244],[-3810,-1987],[-795,5518],[669,4194],[-1381,4746],[-1340,-3642],[-4815,-8829],[-4564,-3863],[-1633,-7174],[-3140,-2649],[-2010,2207],[-1884,-2648],[-6113,-2649],[-3978,-3532],[-1968,-3421],[-2763,-1215],[335,4967],[-1424,5187],[-2554,3311],[-5025,4084],[-1214,-2207],[-4689,4304],[-1131,-1987],[-4145,-441],[-1465,4856],[-2345,2759],[-5276,-1876],[-3098,-4856],[-1173,-7947],[168,-3752],[-921,-9492],[1968,-11809],[-1633,-6181],[-168,-9271],[-2051,-5408],[-2094,-2538],[-5192,4635],[-628,4525],[1172,5629],[-3224,5850],[-5652,-4636],[-1717,-4304],[-2721,-552],[-2261,-3642],[-2848,1545],[1340,8829],[-209,10706],[-4397,3311],[-1884,5629],[-377,4635],[-1549,3311],[-2763,1656],[-461,6622],[-2721,15452],[586,4194],[-1759,2096],[-125,4084],[-2010,11920],[879,2869],[84,7837],[-3140,4966],[-1591,-1766],[-1340,-5297],[-2596,-2429],[-921,4746],[-1926,-552],[-1592,-7394],[-209,-4084],[-2596,-6953],[-3978,-662],[-502,-4636],[-3098,-7725],[-1256,-8278],[-3685,2318],[-3140,-7064],[-3517,-6291],[-2471,442],[-2973,-5629],[-125,-5187],[-1466,-3532],[-3056,7174],[-3769,-2759],[-2219,2979],[-2721,-1765],[-670,-2649],[-5485,-3753],[-2303,-5739],[-2554,-8719],[-3559,-110],[-1549,2649],[-7788,-12251],[-1382,-442],[-335,-8167],[-1214,-10264],[-2178,-6291],[670,-4194],[-2261,-6181],[-3684,-4746],[-921,-6842],[-2010,-1435],[-2805,-8940],[-1466,-1987],[-1382,-9933],[-2093,-5629],[84,-5187],[-1215,-5187],[922,-13134],[-1340,-5739],[-1591,-10926],[2889,-6071],[2177,-2980],[167,-4856],[-3935,-2097],[-2596,-17438],[-1047,-2207],[-3350,-1877],[-5778,-7725],[-2135,-20750],[-1508,-8056],[-2805,-7064],[-6322,-10264],[-1215,-6843],[-1884,-2980],[-3559,-221],[-2763,-5187],[-1843,-9933],[-1256,-3201],[-167,-6070],[-2805,-6622],[-3266,2428],[-3183,-2097],[-9002,5187],[-2219,-3752],[-6071,-3863],[-1591,4856],[-5276,8940],[-2805,662],[-1549,5408],[167,4194],[-1130,4194],[-126,7726],[963,3973],[2722,4967],[-2303,8940],[-3475,10264],[-1340,7836],[-2596,1435],[-1298,-1545],[-1801,6070],[-1926,3642],[-1591,6843],[-418,16224],[-1466,2869],[209,5960],[4481,12803],[-42,8057],[1046,552],[1005,6511],[-1884,3311],[-460,13907],[-3601,-221],[-1926,5518],[921,6733],[3978,7836],[251,11809],[-377,4525],[-1884,6512],[-880,13355],[1927,5739],[-3894,7505],[586,5518],[3098,4305],[377,16334],[-2387,6953],[-502,4525],[-2973,2649],[-1758,4746],[-2345,-110],[-3224,6401],[-2722,2207],[-1298,4856],[-795,11589],[-1675,4967],[-2177,-4415],[-3643,2207],[-2387,2759],[-3349,6623],[-84,6953],[-3015,8608],[-6532,6623],[-2344,-2429],[-2554,442],[-461,2869],[-3475,8168],[-754,5077],[-3978,0],[-3559,5739],[-1381,-3201],[-3308,3311],[-2805,10595],[-4104,0],[-2847,8609],[-1340,-2318],[-879,9051],[-3098,-1766],[-1717,2759],[-3810,1324],[-4690,-7505],[0,-3973],[-5317,-1435],[-2136,-3973],[-293,5408],[-2763,-331],[-1173,5518],[-1842,4084],[1591,3752],[-2386,5740],[-84,8829],[2010,3973],[-377,4746],[125,15672],[-1381,111],[-1968,4194],[-3392,-111],[461,10596],[-796,7615],[-2093,3532],[795,3532],[3266,1765],[-1214,15783],[-1005,3090],[-5318,9823],[-502,2870],[-3224,662],[-5276,4635],[-3140,552],[-1089,3311],[-3433,883],[-3308,-6622],[-1130,2318],[-3475,-1104],[-2052,3201],[-670,5518],[-3392,-1986],[252,4745],[-2094,3311],[-1005,19204],[-2805,7837],[-1968,-2097],[-3433,5849],[-1466,7174],[-1256,1656],[-4522,-1435],[-1591,-7285],[-2470,332],[125,4525],[-2261,1324],[-2051,-5298],[-2178,9713],[-2261,-2870],[-4857,8940],[-963,6291],[-2679,2649],[-1550,-552],[-3349,5187],[-5108,883],[-1298,3753],[1130,6401],[-1842,221],[-4313,4415],[-4396,-1104],[-4815,10154],[-4229,552],[-1675,6401],[-5904,-552],[-921,5518],[-3350,221],[-7243,-1435],[-1047,-5739],[-4731,-4525],[-1717,-3090],[293,-4636],[-3433,-3531],[-3601,1655],[-2052,-4856],[-3182,-3642],[-3056,12030],[-1173,-3532],[-4857,-5849],[-6825,-6402],[-1423,-3090],[-2512,-10043],[-2513,4304],[-209,3973],[-2722,-221],[-586,-4304],[-3391,1876],[-4145,442],[-210,6843],[-7285,9712],[-3769,-2649],[-2009,552],[-3811,-3863],[-1591,8498],[-2512,-2097],[-670,-4083],[2554,-5187],[-1214,-7947],[-5653,662],[-1591,-1435],[-2805,3201],[-921,3090],[3266,5188],[2554,2207],[-3224,4746],[-2889,1104],[-1591,-1656],[-628,-4525],[-2261,-2428],[-4104,1214],[-1967,1987],[-3015,220],[-2471,2097],[-1004,-5408],[-1759,-2097],[-2680,3753],[-3140,-6181],[-2387,-2759],[-1088,5077],[-1884,-1876],[-4522,1766],[-2094,3200],[-1675,5850],[-2219,4304],[-2931,2207],[-2721,-1986],[-1005,4635],[1591,2649],[42,10927],[-2931,1655],[-2806,7395],[-2219,-1877],[-2177,-5518],[-2763,1987],[837,6291],[-3433,-442],[-3643,6401],[-670,8499],[377,3973],[-2094,993],[-293,3643],[1759,4966],[-1884,4084],[-419,9381],[-3559,0],[-1968,6732],[335,8830],[-3559,-221],[-5024,3201],[-2722,6070],[-1214,10706],[-2722,1435],[-1842,5518],[-3517,2097],[-3350,12140],[-1591,442],[-2345,-5298],[-2847,221],[-1758,2428],[-2052,-993],[-2638,-4746],[-2596,-993],[-2596,-7064],[-5736,-2980],[1717,-3090],[-5318,-12030],[-2973,2207],[-2973,-1876],[461,-5519],[-4690,994],[-1800,5628],[-2596,773],[-5527,3421],[1717,4857],[-5318,-1766],[-460,4856],[-1424,2649],[-5276,-3753],[-502,6843],[-1800,-2207],[-1885,-9713],[-1800,1545],[-1005,-3752],[-4941,2428],[-2386,-110],[-1214,-5298],[-2345,-3863],[-5067,6843],[-2972,-1435],[921,-13354],[-2596,-3753],[-3015,-441],[-1172,-2649],[-2219,4856],[-3308,1766],[-2387,-1656],[-251,-5077],[-2512,-1876],[-1214,-4525],[-1675,2649],[-3350,1104],[-2512,6291],[-1549,1434],[-1424,-3642],[-4396,-1545],[-1759,-8057],[-4606,-4966],[-1381,1214],[-670,-7064],[-2219,-662],[-3601,-7726],[-4857,-1545],[-1968,-2980],[-3475,4525],[-4648,-6070],[-502,-4967],[-2094,3201],[-167,3973],[-2722,-331],[-2093,3201],[-6951,-1324],[-1465,-9492],[-2471,-883],[-4019,1104],[-1173,4304],[-3684,3201],[-1424,5739],[-2638,-662],[-1507,5187],[-1675,-4746],[-4103,1104],[-1508,-4525],[-3349,6953],[-3601,-221],[-1633,-5518],[-3685,-5188],[-1591,6181],[-4564,662],[-2344,-3090],[-4648,-1545],[-1047,-2870],[-1800,4636],[-1717,-3422],[-4815,-1545],[-3643,3421],[-3768,-441],[-1172,-6512],[-2848,2208],[-2554,-1435],[-2093,2207],[1591,4746],[-1968,1656],[-2889,-2870],[-1591,-5077],[-1884,3863],[-2638,-6512],[1633,-4194],[-1675,-3863],[1465,-4414],[-1842,-3974],[-2303,2649],[-7118,-1435],[-4396,2318],[1465,4415],[-1465,7174],[-2512,3200],[251,5519],[-1759,2869],[-1339,-5076],[-3769,2207],[-1214,5298],[335,3642],[-1842,5518],[-2052,993],[-2680,3753],[-4271,-1656],[-3600,-5187],[-293,4084],[-2010,-994],[251,7064],[-1382,5960],[-2219,-1987],[42,10485],[-1842,2980],[-3685,1656],[-1926,2207],[-2093,-1656],[-1005,2429],[-4857,-4084],[-1759,-3532],[-2931,2318],[-4899,1876],[-2554,-2097],[-1172,2759],[-1633,-5628],[-2345,-1987],[-3224,5739],[-3391,-2097],[-2973,-331],[-2638,-7064],[-1800,2760],[-1717,-2428],[-712,-6402],[-2010,-3973],[-5401,552],[-2722,-2318],[-1758,-9712],[-1675,-552],[-3685,-7616],[-41,-4635],[1465,-5739],[-2973,-5629],[-2219,-331],[-419,-6401],[922,-6512],[-880,-2759],[-209,-6733],[-963,-3090],[-3182,-773],[84,-4194],[-2471,-9160],[-209,-4856],[-2973,-9602],[-2763,662],[-2513,-8278],[545,-4194],[-1047,-5849],[-1507,-3201],[-2889,4856],[-2303,-2980],[-1801,5188],[-3349,-1435],[-503,4635],[-1717,773],[-2261,-7064],[-2051,-220],[-879,-6181],[-4020,-1876],[-2052,1103],[377,-5739],[-1758,-2980],[-3308,-993],[-1549,-5629],[-2261,-1214],[-4020,2428],[-3140,-1434],[-293,-3311],[-2680,-8168],[502,-3863],[-2261,-3421],[-1130,-3973],[-3768,-2870],[879,-6180],[-2889,-3091],[-1675,8388],[-4438,-5628],[-2094,1324],[-2847,-10485],[-2973,-552],[-1800,-7726],[-293,-6291],[-3182,-3862],[-419,2869],[-3475,-5187],[-1675,883],[-1759,-4305],[-3266,-331],[-2554,-6732],[1633,-3753],[-2596,-1766],[335,-4966],[-1172,-3532],[1088,-5298],[-2763,-4193],[-4145,-8720],[-4062,-4856],[-3935,3532],[-2680,-773],[-2136,1546],[0,-6071],[1340,-5849],[-83,-7395],[-1508,-4083],[-3433,-1877],[-1214,-6511],[-2764,4304],[-1340,-1766],[-2093,3642],[-1675,-3532],[-2387,-1434],[-2386,2869],[-4355,-6843],[-502,-4414],[-2554,-1656],[0,-16224],[-1968,-1104],[-1256,-5077],[-712,-8608],[-1759,-1325],[-1214,-6291],[-1800,-993],[-1926,-7505],[3810,-1214],[-2512,-6953],[-670,-7064]]],"transform":{"scale":[0.0000023883204776640943,9.060601812120365e-7],"translate":[140.9993,-29.1792]},"objects":{"qld_southern_ddmg_boundaries_gda2020_simp200m":{"type":"GeometryCollection","geometries":[{"arcs":[[0,1]],"type":"Polygon","properties":{"District Name":"Charleville","DDMG Name":"Charleville","Area Sq Km":229018.35,"Police Region Name":"Southern Region","Police Region Code":"SR","Police Region Short Name":"Southern","Region Slug":"southern","Layer Id":"qld_southern_ddmg_boundaries_gda2020_simp200m","Layer Group":"per-region","Layer Kind":"ddmg","Source":"QPS Disaster Districts, Queensland Police Service, via the Queensland Government Open Data Portal","Source URL":"https://www.data.qld.gov.au/dataset/qps-disaster-districts","Licence":"CC BY 4.0","Licence URL":"https://creativecommons.org/licenses/by/4.0/","Dataset Date":"19/05/2025","Simplification Tolerance M":200,"Coordinate Precision Decimals":4,"CRS":"GDA2020 (EPSG:7844)","Modified":"Simplified and repackaged from the source dataset; see Source URL"},"id":"Charleville"},{"arcs":[[2,3,4,5]],"type":"Polygon","properties":{"District Name":"Dalby","DDMG Name":"Dalby","Area Sq Km":37942.32,"Police Region Name":"Southern Region","Police Region Code":"SR","Police Region Short Name":"Southern","Region Slug":"southern","Layer Id":"qld_southern_ddmg_boundaries_gda2020_simp200m","Layer Group":"per-region","Layer Kind":"ddmg","Source":"QPS Disaster Districts, Queensland Police Service, via the Queensland Government Open Data Portal","Source URL":"https://www.data.qld.gov.au/dataset/qps-disaster-districts","Licence":"CC BY 4.0","Licence URL":"https://creativecommons.org/licenses/by/4.0/","Dataset Date":"19/05/2025","Simplification Tolerance M":200,"Coordinate Precision Decimals":4,"CRS":"GDA2020 (EPSG:7844)","Modified":"Simplified and repackaged from the source dataset; see Source URL"},"id":"Dalby"},{"arcs":[[6,7]],"type":"Polygon","properties":{"District Name":"Ipswich","DDMG Name":"Ipswich","Area Sq Km":6466.45,"Police Region Name":"Southern Region","Police Region Code":"SR","Police Region Short Name":"Southern","Region Slug":"southern","Layer Id":"qld_southern_ddmg_boundaries_gda2020_simp200m","Layer Group":"per-region","Layer Kind":"ddmg","Source":"QPS Disaster Districts, Queensland Police Service, via the Queensland Government Open Data Portal","Source URL":"https://www.data.qld.gov.au/dataset/qps-disaster-districts","Licence":"CC BY 4.0","Licence URL":"https://creativecommons.org/licenses/by/4.0/","Dataset Date":"19/05/2025","Simplification Tolerance M":200,"Coordinate Precision Decimals":4,"CRS":"GDA2020 (EPSG:7844)","Modified":"Simplified and repackaged from the source dataset; see Source URL"},"id":"Ipswich"},{"arcs":[[-1,8,-5,9,10]],"type":"Polygon","properties":{"District Name":"Roma","DDMG Name":"Roma","Area Sq Km":89788.04,"Police Region Name":"Southern Region","Police Region Code":"SR","Police Region Short Name":"Southern","Region Slug":"southern","Layer Id":"qld_southern_ddmg_boundaries_gda2020_simp200m","Layer Group":"per-region","Layer Kind":"ddmg","Source":"QPS Disaster Districts, Queensland Police Service, via the Queensland Government Open Data Portal","Source URL":"https://www.data.qld.gov.au/dataset/qps-disaster-districts","Licence":"CC BY 4.0","Licence URL":"https://creativecommons.org/licenses/by/4.0/","Dataset Date":"19/05/2025","Simplification Tolerance M":200,"Coordinate Precision Decimals":4,"CRS":"GDA2020 (EPSG:7844)","Modified":"Simplified and repackaged from the source dataset; see Source URL"},"id":"Roma"},{"arcs":[[-3,11,-7,12,13]],"type":"Polygon","properties":{"District Name":"Toowoomba","DDMG Name":"Toowoomba","Area Sq Km":15245.1,"Police Region Name":"Southern Region","Police Region Code":"SR","Police Region Short Name":"Southern","Region Slug":"southern","Layer Id":"qld_southern_ddmg_boundaries_gda2020_simp200m","Layer Group":"per-region","Layer Kind":"ddmg","Source":"QPS Disaster Districts, Queensland Police Service, via the Queensland Government Open Data Portal","Source URL":"https://www.data.qld.gov.au/dataset/qps-disaster-districts","Licence":"CC BY 4.0","Licence URL":"https://creativecommons.org/licenses/by/4.0/","Dataset Date":"19/05/2025","Simplification Tolerance M":200,"Coordinate Precision Decimals":4,"CRS":"GDA2020 (EPSG:7844)","Modified":"Simplified and repackaged from the source dataset; see Source URL"},"id":"Toowoomba"},{"arcs":[[-4,-14,14,-10]],"type":"Polygon","properties":{"District Name":"Warwick","DDMG Name":"Warwick","Area Sq Km":26370.42,"Police Region Name":"Southern Region","Police Region Code":"SR","Police Region Short Name":"Southern","Region Slug":"southern","Layer Id":"qld_southern_ddmg_boundaries_gda2020_simp200m","Layer Group":"per-region","Layer Kind":"ddmg","Source":"QPS Disaster Districts, Queensland Police Service, via the Queensland Government Open Data Portal","Source URL":"https://www.data.qld.gov.au/dataset/qps-disaster-districts","Licence":"CC BY 4.0","Licence URL":"https://creativecommons.org/licenses/by/4.0/","Dataset Date":"19/05/2025","Simplification Tolerance M":200,"Coordinate Precision Decimals":4,"CRS":"GDA2020 (EPSG:7844)","Modified":"Simplified and repackaged from the source dataset; see Source URL"},"id":"Warwick"}]}}}