{"type":"Topology","arcs":[[[4844251,4405638],[-12714,4628],[-10205,579],[-25930,-13114],[-33793,-19670],[-12547,-9064],[-43161,-37413],[-14554,-15621],[-13216,-17742],[-13885,-24106],[-8532,-11185],[-38645,-42620],[-8531,-12921],[-10707,-22756],[9703,-3857],[13885,5014],[9034,-964],[17900,-6557],[13551,-7907],[15223,-12149],[14387,-14271],[16060,-19864],[22919,-37412],[26097,-50141],[22083,-37220],[8030,-18128],[4517,-16585],[1673,-19863],[-2677,-28542],[-9703,-43005],[-1171,-15814],[-6524,-21406],[-21916,-44548],[-14554,-26228],[-37975,-56312],[-15391,-24877],[-14220,-19092],[-38309,-40113],[-13384,-16007],[-27268,-22563],[-11710,-11764],[-19239,-16199],[-20409,-19285],[-32120,-25070],[-18570,-10800],[-34127,-16585],[-10205,-9835],[-41153,578],[-200583,0],[-134000,0],[-295436,579],[-16562,3664],[-7695,8678],[-12045,5014],[-26600,-1157],[-14219,8486],[-15056,385],[-11544,-6557],[-7360,-7906],[-6023,-11186],[-16394,-12535],[-3681,-10799],[9703,-13307],[-1004,-11764],[-22919,-11378],[-13383,3664],[-1505,-7907],[-12715,-12342],[-8364,4821],[334,11378],[-3513,7136],[-10372,578],[-4684,-3664],[-11878,2122],[-17732,-13885],[-16060,192],[-8365,3279],[-15893,-16778],[-14554,-8678],[-2677,-9836],[-13383,-29313],[-42157,-80032],[-10540,-43584],[-5520,-42041],[-35968,-41848],[-20577,6171],[1004,-19285],[-14387,-964],[-9034,-5786],[-7528,772],[-12547,-17357],[-20744,-14271],[3513,-6557],[-4349,-6749],[2676,-5400],[-14554,-18128],[-5019,0],[-6691,-11378],[-20075,2121],[-14889,-3278],[-837,-4050],[-43663,-42427],[-17565,-51683],[-3011,-5593],[5688,-16392],[-2677,-11764],[10874,-10028],[8197,-2700],[1673,-8871],[-6190,-4050],[-3513,-26420],[6859,-5400],[-1004,-12342],[-4684,-5207],[-502,-14078],[-9201,2121],[-18736,579],[-21748,11764],[-10205,385],[-4851,-8292],[-5019,9257],[-20577,2892],[1171,-13692],[-9536,-1736],[-5018,4629],[-9703,-2122],[-12714,1157],[-23756,-7521],[0,-11763],[-6189,-12728],[-11376,-11957],[-5186,-10414],[-4517,-23913],[2509,-28156],[-17231,-16971],[-14052,-2314],[-10205,-5207],[-17064,-1157],[837,-6557],[-8532,-2314],[-1338,-7136],[-21246,-4821],[-2510,-9835],[3681,-14464],[6189,-8485],[-836,-14850],[-5521,-7135],[-5520,1543],[-7528,-5786],[-19406,-6557],[-3179,-7714],[-13383,7136],[-11041,14078],[-19239,7521],[-14721,-11571],[-5354,22371],[-11375,5592],[-7361,-12728],[-5354,-44355],[-14052,771],[-4684,-15813],[-14053,-13307],[-10372,-15042],[-2509,-17164],[11041,-11956],[-3847,-11186],[1840,-7328],[-3848,-36448],[-7193,-9643],[-11376,-7907],[-10540,12150],[-14052,-6171],[-10372,-1157],[502,-26421],[-3681,-8485],[25261,-7136],[4015,-18513],[-2007,-7907],[2007,-38955]],[[2724504,2340803],[-4517,-5207],[-7862,0],[-6357,-9257],[4182,-9064],[-5855,-10800],[-1339,-9449],[2342,-14271],[-12212,-23913],[-9368,5399],[-2008,-10992],[-5520,-12535],[2509,-14464],[-12212,-6750],[-6023,1736],[-6858,-18321],[-7361,-5592],[-4350,-10221],[-6524,-193],[-11041,-10028],[-5186,-12921],[-7027,-386],[-3346,-8871],[-11877,-771],[-14387,-8871],[-15893,4242],[-12547,9836],[-6190,12149],[-1672,13307],[2342,5978],[-5688,12728],[-11543,579],[-2677,14078],[-5688,3085],[-1338,10607],[-6692,14078],[3681,10028],[-19908,16007],[-28105,5592],[-9201,10800],[-18904,7328],[-502,18706],[-3848,3665],[-13550,-7714],[-8867,3664],[1004,9449],[-3847,17742],[-5019,8100],[3680,6364],[-7863,7907],[-9201,4628],[-17398,-3085],[1840,-16392],[-3847,-9836],[-15391,-2700],[-6859,-11185],[9034,-13114],[0,-6364],[-8365,-578],[-13718,4435],[-8699,-22756],[-7695,-4050],[-168,-6942],[11376,-3664],[837,-6943],[13383,-2700],[2844,-4821],[-5019,-13885],[-8030,-3279],[-3680,-7521],[3513,-10992],[-669,-12921],[5688,-7328],[502,-11764],[-4685,-7328],[3513,-12728],[5688,-4243],[4685,-17935],[167,-13307],[-2677,-12149],[2510,-7907],[8197,-10800],[-2008,-11956],[-5018,-8486],[0,-15042],[3011,-4628],[-1506,-14850],[-12212,-12342],[-9870,-4821],[-2008,-9257],[-9870,-3278],[-13383,7328],[-8532,1350],[-12380,-10028],[-18067,9835],[-16729,2507],[-21581,12728],[-18736,15235],[-44165,10221],[-13384,772],[7529,29313],[-6859,7328],[3680,8292],[-16227,14078],[5353,16585],[-14220,386],[-5688,6943],[-10539,-3857],[-5353,5014],[-6525,14849],[-13885,2507],[-11543,9064],[-14387,-964],[-6190,-9835],[-19071,-9064],[-7695,1350],[-6859,8678],[-34462,5785],[-10038,-4050],[-12546,8486],[-12380,-3471],[-4517,4435],[-13216,-4243],[-6524,2507],[-11711,-4242],[-14889,-101439],[-15223,-964],[-8197,9449],[669,9643],[-6023,10800],[-6691,1157],[-7696,-10993],[-836,-6171],[13550,-8678],[1506,-10221],[-6859,-10221],[4015,-4243],[12045,4436],[12380,-5400],[1673,-8100],[-9871,-34134],[4852,-16971],[-10038,-16392],[-13885,-11571],[2677,-16006],[-9368,-4243],[-1506,-20828],[-5688,-5592],[-9870,2121],[-1506,-5593],[1339,-18320],[-8198,-3279],[-144539,-11956],[-45336,6942],[-11041,-11764],[-14053,579],[-26766,-26806],[1505,-8100],[9536,-10607],[-1840,-12149],[-5186,-3664],[-22919,-29120],[-7194,-14078],[-16394,-14464],[-18402,9642],[-14387,-2121],[-8198,5014],[-43663,7136],[-161938,24106],[-15892,1157],[-12547,6364],[-40485,7907],[168,-10414],[-3346,-27578],[-12045,-15620],[-1673,-8871],[11041,-7907],[13551,4050],[1004,-10607],[-4015,-11764],[2676,-3857],[-59555,-11378]],[[1187266,1712693],[-8365,2893],[-10707,19285],[-13718,-5786],[-18067,-964],[-13885,2121],[-12714,4821],[-27771,15428],[-9201,11571],[-3178,22178],[-10874,19285],[1673,12149],[-15224,23335],[-7862,30856],[-9703,7135],[1004,7136],[-36470,-11764],[-20744,7521],[-28941,-5978],[-9536,2507],[-10707,13114],[-10539,1735],[-13551,-8099],[670,-8486],[-4183,-12921],[-90839,-71354],[-99705,14464],[-15224,39341],[7528,11764],[1004,7328],[-4684,5786],[-12380,6556],[2844,6943],[-6524,19864],[-11041,13885],[-5688,18320],[-11209,1736],[-29945,-771],[-15391,1735],[-7026,-1543],[-9870,-8099],[-8867,771],[-20576,21021],[-19072,2892],[-14888,4243],[-15057,1157],[2844,12343],[-2342,11571],[-6357,15427],[-669,12536],[17733,27384],[1840,11571],[7361,16585],[167,16778],[-8866,13885],[-2342,17357],[2676,12149],[12045,7136],[9870,13306],[2844,14657],[6525,15042],[-6023,12535],[-27268,38184],[-11711,6557],[-2342,12535],[-21246,13114],[-14219,20056],[12881,4436],[-21413,28541],[4015,14271],[6190,8871],[16059,1736],[11209,18514],[-4684,11763],[-1338,24492],[2342,23528],[-24592,12535],[-10707,20442],[5521,20056],[8866,12535],[7528,2508],[335,10028],[11878,15235],[334,5978],[-8364,4821],[-5354,12921],[-2342,23528],[-70597,10606],[-34796,3086],[-9870,17742],[-25094,10221],[-15224,-2314],[-13718,-4243],[-12044,2314],[-13384,-2507],[-22751,-7135],[-11711,9064],[-22417,9064],[-13885,14656],[-19238,42813],[-3346,1543],[-60058,12535],[-8532,-5014],[-6524,-9450],[-17733,6943],[-18904,2893],[-1673,8099],[-12045,1350],[-8364,-4243],[-1673,9643],[4684,19092],[7026,6750],[7528,24299],[-3847,11956],[-11543,18514],[-1171,19863],[2843,8293],[-20409,10992],[3680,9064],[-4182,13114],[18235,23720],[-1673,8293],[-6692,5400],[-14219,-4822],[-6525,1929],[4182,14078],[-4015,13114],[-14554,-4629],[-3513,1929],[2342,12728],[-9870,4050],[-1673,8678],[9368,8485],[1506,20249],[37139,26999],[11710,30663],[-8699,6557],[-14555,17742],[4685,5014],[13718,4243],[-4685,21599],[9034,10028],[-15056,13885],[19071,22949],[8197,3279],[3681,9064],[6524,4242],[-17733,9064],[-1338,6171],[15056,10800],[6524,12921],[-2509,5207],[1004,21213],[-3346,10028],[16896,13114],[18235,-2700],[8532,9257],[-1338,7714],[11208,26227],[-4015,8871],[502,11571],[-7026,7522],[2342,12728],[17900,1735],[7194,5786],[-10707,27770],[3513,11764],[12380,1350],[5688,16778],[-670,12149],[11376,14657],[5186,2699],[3011,21600],[-7193,36641],[-3346,7328],[3513,5786],[-1338,10221],[10707,-579],[14387,-8100],[26599,4629],[-7026,11571],[16896,25070],[17231,5978],[20911,10993],[34128,193],[10205,5978],[167,10800],[7361,7714],[0,12342],[-5019,7135],[-4015,15621],[6692,13114],[7862,5978],[8030,16585],[14555,5593],[-21414,21599],[-11543,7714],[-4349,5978],[2676,20828],[-3847,7328],[-2677,13307],[-9368,24492],[-502,16392],[2342,12728],[-837,46091],[-2174,10028],[669,19092],[8364,37798],[-11710,16971],[-11209,32206],[4685,3471],[26432,68269],[-2677,16971],[3346,29120],[37306,100667],[18234,4050],[4852,13499],[5855,5014],[8867,66726],[4182,5014],[-7026,17164],[-25596,112045],[836,1929],[40820,36448],[17900,4628],[24759,-385],[2342,17742],[5855,8292],[23254,5014],[12379,-18320],[6190,-1736],[21580,9064],[16228,-6557],[16896,579],[16060,-3086],[26097,4050],[10707,7135],[9703,-771],[16562,-7907],[21580,-2700],[12045,-6942],[15391,-15428],[9368,-386],[14889,7136],[63738,-11764],[43329,-11186],[6357,2508],[11376,-3665],[13048,5014],[5688,11186],[4350,29506],[-6859,8485],[5186,13885],[6022,2121],[4517,20442],[10038,2893],[6524,13692],[13049,13886],[9368,16006],[5855,5593],[-17231,15621],[-4349,10413],[-1004,12343],[-13216,-2507],[-11543,12728],[-25428,-11186],[-16897,10414],[-3178,5400],[-11042,5593],[-17231,3471],[-26264,25842],[-7027,2314],[12213,92568],[6357,-8679],[13216,3857],[11543,-7714],[6022,9836],[1339,10992],[6022,-771],[5019,-12921],[19573,-3086],[6357,8293],[13216,-1929],[2844,8871],[85988,-29313],[19740,-4821],[41823,-17164],[6357,4243],[-5019,12921],[-1171,16585],[1171,16971],[8197,6557],[11209,-579],[-14554,23913],[-8030,6557],[-3179,24685],[-3680,11571],[0,11764],[8699,8678],[2844,15621],[6022,964],[8699,7714],[0,16199],[5688,8293],[0,12728],[4517,4435],[1171,12535],[4015,13693],[-1004,17935],[8532,8099],[1673,35677],[-3847,14850],[2007,13306],[10707,6943],[2007,13692],[7194,8486],[19740,-4822],[8365,6172],[10874,-579],[2174,3857],[24759,-4243],[5688,-14463],[-4517,-5786],[335,-15621],[11878,-14078],[4182,0],[4182,-14270],[6023,2892],[14554,-12535],[3848,-10221],[29945,-5978],[13718,-17935],[2844,-15621],[10539,-7907],[1506,-14849],[13216,-8486],[5353,14464],[7361,-2314],[19406,8678],[6357,15814],[9535,-6750],[16395,-2893],[1338,-9256],[25094,-26228],[-502,-10607],[-7695,-4435],[-4517,-12535],[-335,-10800],[-10037,-16778],[-2175,-9835],[3011,-17356],[-6022,-10029],[3345,-10028],[-2342,-10799],[6525,-6943],[1171,-10992],[7695,-6364],[11543,1157],[7528,8292],[17064,6364],[26432,4436],[4350,16392],[11877,-2700],[20242,5978],[11209,-5978],[669,-8678],[-6691,-52069],[2509,-5400],[-3848,-9064],[-8532,-7328],[3681,-7714],[-3346,-12728],[19238,-80611],[-11208,385],[-12547,6172],[-13885,-193],[-5521,-6364],[-10204,-3664],[-7696,-9836],[1673,-14656],[7528,-2700],[12045,6942],[1004,5015],[21915,7328],[7026,-9064],[9870,-771],[168,-7714],[11877,-19864],[16897,-6171],[10205,-18321],[3513,6750],[14219,5014],[4517,11764],[8699,-4629],[4517,4629],[14555,-2507],[13885,-4629],[9201,-19670],[8364,-1157],[7027,3471],[669,16585],[5688,2700],[-1673,7907],[10037,10028],[4015,-1736],[8532,7521],[7026,-2507],[15224,193],[9535,-7521],[16060,26806],[10707,9257],[1171,10414],[4684,3278],[9536,21792],[11710,4628],[3346,-5978],[9034,1350],[5353,7521],[10539,-12342],[11878,-4629],[14722,3279],[5018,16006],[1506,20250],[8365,3085],[14721,-1543],[14555,8100],[15223,28349],[-11208,11185],[-3514,14657],[8867,964],[23421,-14271],[7026,-386],[2509,9064],[8699,11378],[8030,32206],[-3011,7521],[6524,5400],[11544,1157],[15390,-9835],[4015,-13307],[-6691,-8099],[5353,-10029],[3346,-16392],[13216,-10221],[-1840,-7135],[13216,-6364],[5353,-6750],[1673,-8871],[-7361,-14078],[11543,-8678],[20242,-3471],[16562,-14464],[5521,-12921],[8866,-6364],[-3346,-12921],[3012,-8100],[-6357,-24106],[5520,-9257],[-5186,-4628],[-10205,-23913],[-7862,-1543],[-5521,-8871],[-10037,2700],[-6357,-10414],[8531,-11764],[1506,-10414],[5855,-6171],[1840,-7714],[10038,-14849],[3011,964],[17733,-9450],[15223,4436],[15057,-11185],[6022,-12343],[6525,579],[11710,15814],[6692,-4436],[21915,8485],[13383,-3664],[16896,-13499],[9703,-3857],[15726,-21792],[13216,-5786],[7528,-10221],[10037,2122],[12547,11956],[-334,10414],[-12380,6171],[15056,14271],[11543,-385],[12714,8292],[5354,9643],[9201,5014],[9033,-11764],[3179,-11957],[5521,-5592],[18402,-5786],[6022,-10799],[11878,-13500],[4349,-8100],[14555,-11185],[2342,-17163],[10372,-19864],[25093,-19863],[3012,-7907],[9535,65569],[61898,-9064],[17900,-7907],[9034,-10221],[3680,-11378],[9034,-6557],[4684,-13307],[18570,-4821],[10037,-9064],[11878,-6364],[5688,-10221],[-3681,-15813],[10707,-1350],[5186,8292],[19740,-193],[7026,5014],[2844,12150],[14220,2893],[14722,14463],[6691,19864],[9536,8871],[-6022,15042],[3847,6750],[7361,-3472],[17398,3472],[8532,4050],[17900,3278],[-6859,11764],[502,8099],[6357,18321],[7863,13692],[6692,7329],[17565,771],[18570,10800],[12714,-2507],[2342,4435],[-4517,22563],[1338,24685],[28942,-4243],[21580,-4242],[5855,47055],[-13216,1928],[1841,13886],[13216,-1929],[1171,9835],[-13886,1350],[-6691,-2121],[-20744,7521],[-14722,-2314],[-5855,3278],[2342,17935],[6692,-3857],[2174,15814],[-7528,15621],[-2007,15813],[42826,-5592],[5019,38570],[-49184,7135],[6525,3857],[9368,10607],[2175,10414],[-1673,11570],[8532,10029],[4349,12535],[12213,6557],[5018,8292],[3346,17357],[-4182,7714],[14554,-193],[2175,3471],[-10205,14078],[4517,10607],[9201,11956],[20075,3664],[10205,-4242],[13718,-20057],[11041,-7135],[25596,6750],[16729,9835],[8699,10414],[37473,0],[1338162,1350],[570798,-1350],[62232,-317237],[3346,-38184]],[[2724504,2340803],[6692,-2315],[2509,-8292],[8365,-11378],[17231,-7714],[5688,-5400],[12212,4243],[16395,-6171],[-6190,-9643],[1171,-16585],[-11543,-12342],[334,-17935],[4350,-4436],[-5019,-14656],[4517,-14464],[1171,-12150],[-4851,-3856],[-1171,-9450],[7528,-4050],[8699,1736],[18067,-965],[2510,-7521],[-5856,-23334],[-6691,-14078],[7026,-6557],[16896,-8486],[2510,-6749],[20242,5399],[3011,11957],[13049,4628],[7193,6943],[8532,-2700],[16897,9643],[3011,10799],[7361,-193],[11543,9836],[6524,-9450],[-4182,-14078],[3513,-13885],[8532,-10221],[2007,-7714],[11711,386],[167,15428],[5353,8099],[6525,-7328],[10037,-5978],[4852,-6364],[10706,-579],[11711,10221],[16394,-6171],[168,-10607],[60559,-7714],[42826,-6364],[502,1929],[53199,-7907],[112587,-18706],[4517,29698],[12379,-2892],[8030,58433],[49184,-7136],[4182,-13306],[5688,-1929],[9703,4436],[5186,18321],[36469,-5400],[-1171,-8678],[19574,-2893],[-3179,-21406],[42325,-6750],[4851,-9835],[24425,-4050],[2174,-9450],[13216,-578],[3681,-12536],[36804,-5592],[5855,4821],[9201,-3857],[66080,-9835],[8699,-16971],[-3178,-16199],[15391,-4629],[2843,21985],[14220,-1736],[-7361,-12342],[7194,-10221],[-2008,-18128],[56545,-8678],[2844,-3471],[-2175,-10993],[21915,-3471],[-5019,-31627],[18068,-2700],[-1338,-12921],[56711,-9064],[3513,11571],[13216,1736],[4685,33941],[10204,-1543],[2510,16778],[-9369,1543],[4183,28542],[26766,-4243],[10372,8293],[0,5978],[15893,10221],[0,8485],[6190,12343],[20744,8485],[15056,-1157],[10205,2121],[5855,5978],[-335,13307],[8198,17356],[1338,9064],[13049,2893],[-2510,17742],[-10037,5593],[-16897,3471],[-1505,10800],[-7194,-1157],[-17565,29120],[8030,10414],[-6692,3471],[-12212,-193],[1171,8100],[8699,-193],[18067,-5207],[11878,-6171],[-1338,9642],[154410,-27384],[22082,-4243],[251773,-44355],[6357,5978],[17064,5014],[23253,17935],[12045,12921],[17231,8100],[3346,18513],[-6022,25071],[-837,16585],[3513,17549],[5186,15621],[7696,13113],[31618,193],[20242,-3085]],[[4527234,2280634],[-7863,-15621],[4685,-21985],[1840,-31627],[6524,-50141],[7194,-31242],[7360,-22756],[6190,-13306],[6859,-8293],[15391,-26613],[8365,-11957],[15390,-17742],[23254,-18899],[21413,-10221],[14722,-3857],[17900,-1157],[10205,1736],[7695,7135],[11209,28735],[7695,7328],[8364,-10993],[-167,-6749],[-8866,-3857],[-16562,-36449],[-25094,-58626],[-25428,-64219],[-21246,-58240],[-18402,-58433],[-21413,-64991],[-21748,-76946]],[[4562700,1600648],[-205266,34134],[-2175,-15621],[3680,-3857],[-4684,-33941],[-9201,-16585],[-2175,-13114],[-6357,-2121],[-836,-7136],[-7027,-9642],[-18903,-4050],[-1506,-8485],[-7194,-3665],[-10372,3472],[-18904,-4050],[502,-21021],[-31116,4822],[-1171,-8100],[-9870,1543],[-2342,-16778],[-6190,5014],[-13049,18128],[-14052,11571],[-39146,5399],[-4852,-38569],[-32120,4435],[-1003,-8485],[-8532,-5979],[4182,-29505],[-8364,-2315],[4516,-15620],[-28941,-98739],[-2844,-17742],[-11543,-18707],[-3848,-12728],[-7695,-51105],[-15893,2700],[-18402,8293],[-7695,-32785],[-3848,772],[167,-19478],[8867,-579],[-3681,-24684],[1004,-16200],[16897,-2699],[-2008,-13693],[6023,-4050],[13048,1929],[6859,-6557],[5019,-23528],[-4851,2315],[-3848,-26806],[6859,-1543],[-11209,-77911],[-51860,8871],[167,-13500],[12882,-771],[334,-11957],[-6691,-3278],[-15391,-14849],[-5186,-12343],[-7528,-2893],[-1840,-17163],[30781,-4628],[-4015,-27771],[12882,-4435],[3513,-7521],[-3848,-11764],[-6357,-2700],[-8197,4435],[-502,-14463],[-9201,-11378],[-4852,5014],[-7862,-4629],[-12380,18128],[-7193,-5400],[-8198,11571],[-23086,-17935],[-3848,193],[-3011,-20056],[-16394,-16585],[-9871,-5207],[168,-14849],[-15056,-2700],[-8365,-13307],[3178,-10414],[-4015,-16199],[-17565,3086],[-16227,-1929],[-11209,8293],[-1673,5014],[-14889,7714],[-13216,2121],[-17063,5978],[-11543,-4435],[-10874,2507],[-9871,-2507],[-669,8871],[-5688,3471],[-11710,-11957],[-5521,-578],[-7193,9064],[-14387,-2314],[-6859,-5979]],[[3690611,772939],[-9536,2893],[-7528,-2314],[-7695,3664],[-10540,17935],[-71266,9642],[6190,-19670],[12045,-16971],[-4182,-3857],[-105226,14657],[2509,19092],[-15893,2314],[3012,21985],[-17566,2507],[15558,50719],[-10205,5978],[-1505,-10799],[-6525,-3472],[-5855,12536],[502,9256],[7026,12536],[-1171,11571],[9870,12728],[5521,39919],[-4349,-5014],[-10540,1543],[7026,49755],[-11208,579],[-2677,-5979],[-16896,-2700],[-6357,-5785],[-14555,5785],[-8197,-13306],[-7528,-5400],[-6357,5978],[-15056,-9835],[-6023,7136],[-16227,0],[-6692,7714],[-3847,11185],[-10707,-1350],[-6357,-6171],[-7528,2121],[-10038,-7907],[-10204,2700],[-7863,-7135],[-14889,-7136],[-18067,-3278],[-6859,-7328],[-6859,16199],[-11543,6942],[1338,3857],[-13383,8871],[-5186,6750],[-8532,4050],[-7863,8100],[-17733,-2122],[-1338,-20827],[-8365,-8871],[-9703,0],[-4182,-4822],[-669,-9835],[-5186,-3857],[-4851,-11378],[-12882,-2314],[-2844,-4436],[-14721,-1735],[-9703,-7522],[4684,-4821],[836,-17163],[-5186,-7521],[-13216,8099],[-4349,-2700],[-6190,-13499],[-13216,964],[-4684,9064],[-11878,13114],[-4517,8871],[-12045,10607],[-5018,7521],[-17399,8678],[-13048,13499],[-10373,-5978],[-9368,4050],[-1338,-9064],[-7194,-4821],[-8699,6171],[-14554,-964],[-5353,-14657],[6524,-11764],[-4182,-12535],[-13551,-11957],[3346,-8485],[-502,-14656],[7193,-6364],[-2676,-10029],[-6357,-8678],[7026,-10414],[-3680,-2892],[2844,-19285],[3345,-3086],[1171,-13114],[4015,-7328],[1171,-10992],[-8197,-16585],[1506,-7714],[9201,-7329],[2342,-12920],[6691,-4243],[-8197,-9450],[-12379,-7521],[9201,-26613],[-12714,-24685],[2844,-8871],[-5354,-12149],[-12045,1157],[-1004,-10028],[-19573,-9836],[-3513,-6171],[-10874,-5400],[-14387,-385],[-15056,-7907],[-10205,-10414],[-2676,-9642],[4015,-19478],[334,-14078],[11543,-6750],[335,-9064],[9870,-11185],[20075,-6750],[-2844,-5014],[8365,-6942],[13550,6364],[11376,-15428],[7695,-5979],[7194,-10799],[2509,-9257],[7528,-5400],[-7360,-7135],[5353,-13500],[16896,5207],[3848,9450],[-6692,4243],[2342,7906],[16562,-1349],[-3011,-24107],[21915,-3085],[-2844,-7907],[-8699,-8485],[-2175,-6943],[168,-28156],[13718,-13114],[7193,5207],[4684,-7907],[9201,-5399],[-4015,-9450],[669,-14078],[-6524,-8678],[9536,-24106],[-3848,-23914],[26767,-4242],[-4015,-27578],[-8532,1350],[-2677,-17935],[4182,-13306],[1339,-33942],[7360,-12342],[-26766,4243],[-5353,5978],[1672,8871],[-18402,-12149],[-8531,0],[-12380,-10414],[-9368,-16585],[-5688,-23721],[-3513,-11571],[-10874,7714],[-13551,4050],[-11376,-6750],[-10874,772],[-9535,-15428],[-16395,-5207],[-6524,-9835],[-29276,-15814],[-11209,771],[-11041,12343],[-11376,1928],[3346,16585],[7194,1736],[2007,8099],[7528,4243],[8198,10607],[-1171,31049],[-7027,10221],[6023,5207],[3011,8871],[12882,16199],[-33961,4821],[-5186,6750],[-10037,-2893],[-8197,2700],[-6357,-4628],[-6525,6364],[2342,10413],[8699,-1157],[3346,10607],[10372,-2700],[15224,10414],[7361,11571],[-5186,10414],[7528,15428],[14052,-193],[2008,11185],[-5186,10414],[-5688,193],[-5354,11957],[-669,19863],[3681,9257],[-2677,17935],[-20409,2700],[2342,19670],[-9034,-5400],[-5019,-6942],[-8197,-1543],[-9201,-8292],[-3513,-8293],[-20075,3086],[-7528,3857],[-13384,18706],[-16561,-12535],[-2008,-13885],[-16729,1542],[-12212,-8099],[-3012,-22371],[-4684,-578],[-2007,-14464],[-64240,9064],[-2844,-193],[-12714,-17742],[-335,-9450],[-6022,-12342],[-10205,-10607],[-15725,-8871],[-7696,-10028],[335,-8678],[-6692,-8871],[-1840,-9450],[2677,-8099],[-3012,-21021],[-7360,-4050],[-8532,-10606],[-1339,-10800],[-72437,-35291],[-669,-10029],[-8030,-7521],[-6859,-11571],[-14889,-12921],[-9368,-16777],[-12547,-7329],[-5520,2122],[-11376,-8293],[-14889,8871],[-13383,-15428],[-22752,-10606],[-21079,-6364],[-12379,-193],[-9536,3857],[-13049,-2893],[-11710,4435],[-12212,-6364],[-16562,6943],[-14387,11378],[-8197,-193],[-8867,11957],[-4851,1350],[-4015,9835],[-13216,9257],[-5688,-579],[-13718,10414],[-6357,11764],[-11041,-6557],[-12714,-2121],[-7027,3857],[-8866,11185],[-5855,771],[-14722,15428],[-13383,-3664],[-17064,16200],[-6859,-1158],[-12547,8872],[-2174,5592],[-16395,0],[-3680,7714],[-8198,4243],[-7360,-1736],[-9369,20249],[-1673,17357],[-5855,5014],[502,9257],[-9201,3278],[-6692,10607],[-4516,12342],[-10707,7907],[-1506,11764],[-15056,18899],[-5855,-1350],[-8532,4435],[-4350,12343],[-7193,1928],[-8365,19092],[-4182,3472],[8532,10992],[-7026,10028],[-1506,10607],[2844,5400],[-669,14271],[3346,11378],[-8365,1735],[-14052,-2121],[-3346,7135],[-19071,965],[-7194,11956],[-10205,3857],[-11041,-5207],[-3680,-6364],[-15558,-2892],[-23756,7521],[-16394,2507],[-10205,8485],[-18067,11764],[-4685,386],[-3011,10606],[-1338,22178],[-8197,7135],[6524,15428],[-5521,13114],[6859,15235],[-1673,8678],[-19573,5593],[-12881,7328],[-5521,12150],[-4015,1542],[25596,19864],[3346,25649],[-2008,7714],[-22250,29313],[-16561,9449],[-10372,13307],[-10874,-4821],[-5688,15235],[-8867,1157],[-9368,9450],[-9870,2892],[-4684,18321],[-11878,1350],[-15391,12149],[1506,4629],[-5521,10028],[-7695,1928],[-5019,12150],[-7695,-8871],[-7361,-1157],[-3179,8485],[-11710,13307],[-5855,17742],[-10874,7714],[-12045,17742],[-1506,6750],[1171,17163],[-13718,2314],[-12881,-10028],[-9368,-1928],[-13049,4050],[-10539,10221],[-8030,11185],[1171,16971],[-7863,385],[-8699,9643],[-13718,-8486],[-13049,11186],[-5353,7328],[-10874,6942],[-13383,25071],[6524,12342],[-7863,10800],[335,6171],[8030,9642],[-1171,3665],[-43161,6556],[-174987,24878],[-167,578],[63571,159101],[10204,66533],[21414,140780],[3847,17742],[-116936,16006],[-83311,-2892],[-5688,123809],[8197,-964],[7528,-5593],[84482,43970],[5354,20827],[27603,4821],[11543,-1928],[-1840,20056],[28774,17357],[7862,-4050],[8532,-16199],[22752,-15043],[12881,2507],[5186,-3278],[14555,9835],[5353,9643],[-2175,14463],[-5688,6943],[-1338,9064],[5019,24877],[-13049,18707],[-3011,10992],[-11711,2700],[-9201,-7135],[-5019,4628],[-13550,-17742],[-9536,-6171],[-8699,-1929],[-7026,11571],[-15056,4436],[-7361,-579],[-8030,8485],[-8197,2122],[-5688,9835],[-9870,6557]],[[4844251,4405638],[3848,-9642],[-335,-18321],[-3513,-39341],[-4852,-68462],[-2843,-61904],[-837,-31049],[2175,-57662],[4349,-34713],[4685,-27191],[8866,-32013],[2844,-3665],[10037,-29120],[8867,-21599],[8030,-16006],[15892,-21407],[19574,-18899],[17900,-14271],[22082,-6942],[12212,-579],[12547,3279],[2008,-7329],[-335,-37027],[4015,-25456],[8532,-16585],[-6357,-27963],[-10372,-25263],[-13216,-27385],[-28941,-66918],[-14555,-38184],[-8030,-17935],[-68255,-172600],[-11877,-25456],[-15893,-40499],[-33625,-78489],[-4517,-12150],[-28273,-64604],[-14554,-38763],[-14722,-34713],[-26264,-67111],[-19406,-52455],[-12547,-31628],[-32956,-86974],[-6692,-20057],[-17733,-48019],[-34127,-102017],[-18402,-63255],[-14220,-58433],[-6692,-34906],[-6022,-38955],[-1506,-37992],[2342,-34520],[3179,-25649],[6524,-33941],[5521,-20635],[1171,-21985],[-11710,-48598],[-8867,-15813],[-1171,-15235]],[[4562700,1600648],[-8867,-33170],[-20075,-83890],[-8866,-41848],[-15056,-86204],[-4350,-35677],[-1505,-48790],[3345,-37220],[9871,-35870],[10539,-21985],[8030,-12150],[8030,-5399],[13551,-4243],[12881,13307],[7695,-579],[4350,4821],[14554,-5592],[-3346,-13307],[4183,-5400],[-3681,-11956],[-16896,-85240],[-7361,-41655],[-6692,-61712],[-4182,-25070],[-2509,-33749],[0,-14849],[5019,-12150],[11543,-16006],[-3346,-14464],[-3513,-29699],[-1673,-46669],[1505,-19864],[6023,-23913],[-1338,-14271],[501,-32013],[3179,-14656],[3011,-26035],[5688,-16778],[11376,-9064],[10874,-11956],[14052,-5014],[12045,3085],[-3346,-45705],[-1673,-46669],[670,-17550],[4015,-38762],[-2008,-9257],[4517,-34327],[4015,-13114],[12212,-5207],[0,-11185],[3681,-9643],[-14555,-2507],[-12212,-13306],[-9034,-51684],[-1171,-11185],[2510,-31049],[502,-23527],[3178,-23914],[12212,-53612],[12380,-49948],[-100375,-28156],[-334,-5399],[-12547,-11571],[1003,-17357],[-4014,-12728],[-18737,-14271],[-11710,7329],[-7027,-965],[-3011,8871],[-6190,1543],[-11376,10800],[-40651,5978],[-2677,-24685],[-8866,193],[-14387,-11185],[-24425,3278],[-5521,-3085],[-11710,8678],[-5186,11185],[-14052,-8485],[-8867,12149],[-13216,7907],[-3011,4629],[-31785,5207],[-15224,6171],[-6357,8871],[-10707,2893],[-16060,192],[-8866,-7906],[-12045,-5207],[-9536,9256],[-19238,-4628],[-26599,4050],[5520,38377],[11543,5207],[7027,6557],[5018,32205],[-26766,4243],[2844,16585],[-9871,1543],[-1672,14078],[2007,13885],[18904,-2893],[4517,30856],[-20075,3279],[1338,9835],[-11041,1736],[2509,17356],[-8699,-3664],[-15725,5978],[-10372,-2121],[-5688,11378],[-7528,1543],[-10707,17742],[502,5207],[-11710,17549],[-10874,8100],[-6525,-4050],[-14889,-1543],[-9033,9257],[3178,17935],[-18904,6942],[3681,23721],[-14220,2314],[-6859,5014],[-9703,1736],[-3178,-20442],[-10205,10992],[-6023,-36641],[-17231,16006],[-10372,-13306],[-6524,-3279],[-4182,9836],[-9369,5785],[-19907,-5014],[-21079,3857],[3848,11764],[-32789,5978],[-335,6171],[-11041,4629],[-5855,8871],[-2677,32205],[-9703,7522],[-13885,771],[-12547,-9450],[-7528,11764],[-3513,10993],[-11041,-5015],[-9369,3857],[-12379,772],[-3848,4821],[-24592,3086],[-4015,11763],[-6691,7136],[-8867,1735],[-12547,13114],[-1672,8871],[5353,5014],[-8365,20057],[2510,5014],[-4350,7714],[-10874,9256],[-13049,8100],[-4851,-1543],[-15558,3857],[-3011,5593],[1003,11764],[10038,10799],[-3513,7714],[167,13307],[-5855,-579],[33625,41656],[-1338,2314],[19573,24299],[7696,60555],[-4015,3857],[-5688,14849],[-837,8871],[4350,5785],[-16897,2315],[3513,8485],[-1505,13692]],[[4150327,188221],[1004,2507],[1840,578],[2677,-1157],[334,-1350],[-2676,-2314],[334,-1928],[-1338,-386],[502,-3664],[2509,-2700],[-11543,1543],[1338,8292],[5019,579]],[[4595991,713349],[-2175,-1543],[-3848,3279],[1841,771],[4182,-2507]]],"transform":{"scale":[5.977601195520234e-7,5.185401037080209e-7],"translate":[150.3691,-26.9848]},"objects":{"qld_north_coast_ddmg_boundaries_gda2020_simp200m":{"type":"GeometryCollection","geometries":[{"arcs":[[0,1,2]],"type":"Polygon","properties":{"District Name":"Bundaberg","DDMG Name":"Bundaberg","Area Sq Km":32074.33,"Police Region Name":"North Coast Region","Police Region Code":"NCR","Police Region Short Name":"North Coast","Region Slug":"north_coast","Layer Id":"qld_north_coast_ddmg_boundaries_gda2020_simp200m","Layer Group":"per-region","Layer Kind":"ddmg","Source":"QPS Disaster Districts, Queensland Police Service, via the Queensland Government Open Data Portal","Source URL":"https://www.data.qld.gov.au/dataset/qps-disaster-districts","Licence":"CC BY 4.0","Licence URL":"https://creativecommons.org/licenses/by/4.0/","Dataset Date":"19/05/2025","Simplification Tolerance M":200,"Coordinate Precision Decimals":4,"CRS":"GDA2020 (EPSG:7844)","Modified":"Simplified and repackaged from the source dataset; see Source URL"},"id":"Bundaberg"},{"arcs":[[-2,3,4,5,6]],"type":"Polygon","properties":{"District Name":"Gympie","DDMG Name":"Gympie","Area Sq Km":15347.81,"Police Region Name":"North Coast Region","Police Region Code":"NCR","Police Region Short Name":"North Coast","Region Slug":"north_coast","Layer Id":"qld_north_coast_ddmg_boundaries_gda2020_simp200m","Layer Group":"per-region","Layer Kind":"ddmg","Source":"QPS Disaster Districts, Queensland Police Service, via the Queensland Government Open Data Portal","Source URL":"https://www.data.qld.gov.au/dataset/qps-disaster-districts","Licence":"CC BY 4.0","Licence URL":"https://creativecommons.org/licenses/by/4.0/","Dataset Date":"19/05/2025","Simplification Tolerance M":200,"Coordinate Precision Decimals":4,"CRS":"GDA2020 (EPSG:7844)","Modified":"Simplified and repackaged from the source dataset; see Source URL"},"id":"Gympie"},{"arcs":[[-1,7,-4]],"type":"Polygon","properties":{"District Name":"Maryborough","DDMG Name":"Maryborough","Area Sq Km":7996.27,"Police Region Name":"North Coast Region","Police Region Code":"NCR","Police Region Short Name":"North Coast","Region Slug":"north_coast","Layer Id":"qld_north_coast_ddmg_boundaries_gda2020_simp200m","Layer Group":"per-region","Layer Kind":"ddmg","Source":"QPS Disaster Districts, Queensland Police Service, via the Queensland Government Open Data Portal","Source URL":"https://www.data.qld.gov.au/dataset/qps-disaster-districts","Licence":"CC BY 4.0","Licence URL":"https://creativecommons.org/licenses/by/4.0/","Dataset Date":"19/05/2025","Simplification Tolerance M":200,"Coordinate Precision Decimals":4,"CRS":"GDA2020 (EPSG:7844)","Modified":"Simplified and repackaged from the source dataset; see Source URL"},"id":"Maryborough"},{"arcs":[[[8,-6]],[[9]],[[10]]],"type":"MultiPolygon","properties":{"District Name":"Sunshine Coast","DDMG Name":"Sunshine Coast","Area Sq Km":3156.9,"Police Region Name":"North Coast Region","Police Region Code":"NCR","Police Region Short Name":"North Coast","Region Slug":"north_coast","Layer Id":"qld_north_coast_ddmg_boundaries_gda2020_simp200m","Layer Group":"per-region","Layer Kind":"ddmg","Source":"QPS Disaster Districts, Queensland Police Service, via the Queensland Government Open Data Portal","Source URL":"https://www.data.qld.gov.au/dataset/qps-disaster-districts","Licence":"CC BY 4.0","Licence URL":"https://creativecommons.org/licenses/by/4.0/","Dataset Date":"19/05/2025","Simplification Tolerance M":200,"Coordinate Precision Decimals":4,"CRS":"GDA2020 (EPSG:7844)","Modified":"Simplified and repackaged from the source dataset; see Source URL"},"id":"Sunshine Coast"}]}}}