{"type":"Topology","arcs":[[[3186167,2995911],[-2342,24492],[-11543,10414],[-5354,1928],[-13216,19478],[-25429,5785],[-8031,-1928],[-17399,12149],[-8699,12343],[-6692,-5207],[-8365,0],[-11543,-9257],[-5521,771],[-17566,22950],[-8700,2507],[-12212,17356],[-7529,5593],[-2509,7714],[5688,10413],[-4684,21214],[2509,4435],[-2677,11764],[-6022,8678],[-26099,-2121],[-19741,1736],[-11543,4049],[-14555,13693],[-30615,-1543],[-14220,10992],[-11544,17550],[-9034,-2700],[-836,-7136],[-14221,-4242],[-4015,11185],[-9870,578],[-13551,13114],[-7027,22178],[-7193,1735],[-3681,14271],[-18235,6750],[-2343,9643],[-10037,8678],[-8700,2892],[-21748,-1735],[1171,-19671],[-5521,-10028],[-10707,-6557],[-11209,3857],[-22418,16971],[-16562,5400],[-12547,-1929],[-10875,-11956],[-13551,-10029],[-12045,-17356],[-11042,-30470],[-3513,-13500],[-19741,-37798],[-7194,-8678],[-6022,-12921],[-10038,-2893],[-14220,6171],[-9704,-2700],[-9870,-9835],[-13718,-3471],[-4852,8099],[3848,27578],[-4852,5014],[-9034,386],[-6692,-6750],[-3346,7135],[-9536,4243],[0,12728],[5521,-964],[4517,7521],[2342,12535],[-4517,7328],[-5353,31820],[17231,-3471],[-3345,14464],[8364,5593],[10540,-6172],[8365,2122],[3011,17163],[-9536,7907],[-4182,9257],[-13551,5592],[2677,8486],[8699,5400],[6023,26034],[-2677,16971],[4517,6750],[13551,11571],[5186,0],[14053,10413],[-3178,8293],[4182,7714],[1004,12728],[-12046,6750],[12380,23913],[9536,-5785],[8365,4435],[-167,5786],[-13719,8871],[4852,12920],[8699,8486],[16228,1735],[2342,8293],[8031,-579],[-12046,30663],[-6190,-385],[-8532,10221],[2342,9064],[-18068,5785],[-6859,9643],[-18403,-1350],[-6357,-6172],[-2677,-8485],[-12380,-5400],[-13551,3664],[-1840,5979],[-14722,9835],[-6525,-3857],[-10037,-20249],[-2510,-9835],[5688,-17550],[-2676,-10606],[3680,-4050],[-6859,-13307],[-8867,-1157],[-7695,3086],[-18738,-193],[-6692,-7907],[-7026,7328],[-11376,19478],[-13886,-4821],[-5688,20828],[-10540,4242],[-167,6171],[-14387,5015],[3011,13306],[-4517,8678],[-167,20057],[-4685,7906],[4852,14850],[-2342,14849],[-6023,2507],[-3680,10028],[-7362,-2892],[-50858,70390],[-8532,-3279],[-1004,-11571],[-13049,4050],[-4684,-8678],[-13217,1928],[-10707,-8292],[2677,-5979],[-22418,-5206],[-8364,5399],[-502,6750],[-5688,6750],[-15057,-13500],[-8532,4436],[-5354,7521],[-5019,-6943],[-13885,-2121],[-837,-11185],[-9034,386],[-6859,5014],[-6023,-46863],[-46174,6557],[-7361,-4435],[-14722,578],[2008,17935],[-3513,4050],[-13886,5207],[-1338,-4050],[-14723,7521],[-9368,-2893],[-9536,2315],[-13217,-6557],[-15391,6171],[-4015,-7136],[-7026,7907],[-17399,5400],[-7529,7521],[7027,11571],[9034,6557],[5186,19863],[3681,5015],[14722,31048],[1338,7714],[-13886,4436],[1673,5978],[-2174,13500],[5520,25070],[0,11764],[-7193,7714],[1673,8678],[-23255,32399],[-10874,1542],[-5688,6943],[-2677,13692],[5856,15621],[-16897,19863],[4684,12343],[-2175,8099],[8365,13500],[6357,-1543],[9034,-7521],[4350,8871],[7863,7328],[17399,1350],[16227,6750],[1172,8485],[7528,2893],[-5186,12921],[2175,16971],[7695,8871],[-334,19477],[-3346,8100],[5855,9450],[-502,16970],[-9201,3086],[-8365,11571],[5019,10414],[-9201,18706],[-10875,2507],[502,14271],[-12714,18321],[1505,13499],[-7528,5786],[-8699,-772],[-7362,-5014],[-13049,5207],[-5186,-10221],[-10707,-5400],[-8699,-771],[-13886,-6557],[-6190,-5785],[-18570,-4822],[-7528,4822],[-2510,10413],[-7863,2507],[-13049,-18899],[-19239,3857],[-5688,-2892],[-10372,8292],[-8533,13114],[-5353,-579],[-14889,7714],[501,16007],[-11543,13499],[-1840,11185],[7193,14464],[502,7714],[-8866,4628],[-4517,13886],[4349,7521],[-10707,17356],[3012,5593],[12714,-5207],[11209,2892],[10038,-964],[8365,3279],[8365,-3086],[3847,7328],[-19741,68462],[-1171,21020],[-9368,19864],[-8700,13114],[1506,9449],[-3011,8678],[-7194,8293],[-6525,-1543],[-14889,7714],[-17566,-7135],[-7529,-7714],[-18904,-8293],[-7529,-578],[-14554,-9450],[-10038,2893],[2342,-16200],[-18068,-22370],[-7194,193],[-12045,9064],[-4015,9449],[9368,13500],[-7863,12728],[1339,13885],[12547,32013],[10707,5978],[-6023,15235],[-10038,9450],[-3345,17356],[-8867,18128]],[[1627296,4503991],[16060,26806],[10707,9257],[1171,10414],[4685,3278],[9536,21792],[11710,4628],[3346,-5978],[9034,1350],[5354,7521],[10540,-12342],[11878,-4629],[14722,3279],[5019,16006],[1505,20250],[8365,3085],[14722,-1543],[14555,8100],[15224,28349],[-11209,11185],[-3513,14657],[8867,964],[23421,-14271],[7027,-386],[2509,9064],[8700,11378],[8030,32206],[-3011,7521],[6524,5400],[11544,1157],[15391,-9835],[4015,-13307],[-6692,-8099],[5354,-10029],[3346,-16392],[13216,-10221],[-1840,-7135],[13216,-6364],[5354,-6750],[1673,-8871],[-7361,-14078],[11543,-8678],[20243,-3471],[16562,-14464],[5521,-12921],[8867,-6364],[-3346,-12921],[3011,-8100],[-6357,-24106],[5521,-9257],[-5186,-4628],[-10206,-23913],[-7862,-1543],[-5521,-8871],[-10038,2700],[-6357,-10414],[8532,-11764],[1505,-10414],[5856,-6171],[1840,-7714],[10038,-14849],[3011,964],[17734,-9450],[15224,4436],[15056,-11185],[6023,-12343],[6525,579],[11710,15814],[6692,-4436],[21916,8485],[13384,-3664],[16897,-13499],[9703,-3857],[15726,-21792],[13217,-5786],[7528,-10221],[10038,2122],[12547,11956],[-335,10414],[-12380,6171],[15057,14271],[11544,-385],[12714,8292],[5354,9643],[9201,5014],[9034,-11764],[3179,-11957],[5520,-5592],[18403,-5786],[6023,-10799],[11878,-13500],[4350,-8100],[14554,-11185],[2342,-17163],[10373,-19864],[25094,-19863],[3012,-7907],[9536,65569],[61899,-9064],[17901,-7907],[9034,-10221],[3681,-11378],[9034,-6557],[4684,-13307],[18570,-4821],[10038,-9064],[11878,-6364],[5688,-10221],[-3680,-15813],[10707,-1350],[5186,8292],[19741,-193],[7026,5014],[2844,12150],[14220,2893],[14723,14463],[6691,19864],[9536,8871],[-6022,15042],[3848,6750],[7361,-3472],[17398,3472],[8533,4050],[17900,3278],[-6859,11764],[502,8099],[6357,18321],[7863,13692],[6692,7329],[17566,771],[18570,10800],[12715,-2507],[2342,4435],[-4517,22563],[1338,24685],[28943,-4243],[21581,-4242],[5855,47055],[-13216,1928],[1840,13886],[13217,-1929],[1171,9835],[-13886,1350],[-6692,-2121],[-20745,7521],[-14722,-2314],[-5855,3278],[2342,17935],[6692,-3857],[2175,15814],[-7529,15621],[-2007,15813],[42828,-5592],[5019,38570],[-49186,7135],[6525,3857],[9369,10607],[2175,10414],[-1673,11570],[8532,10029],[4349,12535],[12213,6557],[5019,8292],[3346,17357],[-4183,7714],[14555,-193],[2175,3471],[-10205,14078],[4517,10607],[9201,11956],[20076,3664],[10205,-4242],[13718,-20057],[11042,-7135],[25596,6750],[16730,9835],[8700,10414],[37474,0],[1338207,1350],[570817,-1350],[62234,-317237],[3346,-38184]],[[4844413,4405638],[-12715,4628],[-10205,579],[-25931,-13114],[-33794,-19670],[-12547,-9064],[-43162,-37413],[-14555,-15621],[-13217,-17742],[-13885,-24106],[-8532,-11185],[-38646,-42620],[-8532,-12921],[-10707,-22756],[9703,-3857],[13886,5014],[9034,-964],[17900,-6557],[13551,-7907],[15225,-12149],[14387,-14271],[16061,-19864],[22919,-37412],[26098,-50141],[22084,-37220],[8030,-18128],[4517,-16585],[1673,-19863],[-2677,-28542],[-9703,-43005],[-1171,-15814],[-6525,-21406],[-21916,-44548],[-14554,-26228],[-37977,-56312],[-15391,-24877],[-14220,-19092],[-22920,-24107],[-1171,-1157],[-27604,-30856],[-27269,-22563],[-11711,-11764],[-19239,-16199],[-20411,-19285],[-32121,-25070],[-18569,-10800],[-34129,-16585],[-10205,-9835],[-41155,578],[-200589,0],[-134005,0],[-295446,579],[-16562,3664],[-7696,8678],[-12045,5014],[-26600,-1157],[-14221,8486],[-15056,385],[-11544,-6557],[-7361,-7906],[-6023,-11186],[-16395,-12535],[-3680,-10799],[9703,-13307],[-1004,-11764],[-22919,-11378],[-13384,3664],[-1506,-7907],[-12714,-12342],[-10707,9064],[-502,1543],[3178,5592],[-3513,7136],[-10372,578],[-4685,-3664],[-11878,2122],[-17733,-13885],[-16061,192],[-8364,3279],[-15894,-16778],[-14554,-8678],[-2677,-9836],[-13384,-29313],[-42493,-80418],[-10205,-43198],[-5521,-42041],[-35969,-41848],[-20578,6171],[1004,-19285],[-14387,-964],[-9034,-5786],[-7529,772],[-12547,-17357],[-20745,-14271],[3514,-6557],[-4350,-6749],[2677,-5400],[-14555,-18128],[-5019,0],[-6692,-11378],[-20076,2121],[-14889,-3278],[-837,-4050],[-41824,-40691]],[[2676247,1284182],[-3012,13500],[-133001,18128],[670,8485],[17566,10992],[4015,25456],[8532,5593],[13886,-8871],[4349,2314],[-167,15235],[-4350,8293],[13049,20635],[5354,-10414],[11209,-4822],[8699,5593],[5521,10607],[11544,-11571],[-11544,-12342],[1673,-7329],[8198,-3471],[10372,1736],[3681,6364],[-1841,13885],[9703,-8678],[13050,192],[5688,-3664],[-2844,-13499],[-8198,-2122],[-9034,-20249],[1840,-6749],[12548,-6943],[8866,11378],[8198,-5978],[-11878,-26421],[7528,-2892],[-3513,-8678],[5186,-8100],[-11543,-5593]],[[4844413,4405638],[3848,-9642],[-335,-18321],[-3513,-39341],[-4852,-68462],[-2844,-61904],[-836,-31049],[2175,-57662],[4349,-34713],[4685,-27191],[8866,-32013],[2845,-3665],[10037,-29120],[8867,-21599],[8030,-16006],[15893,-21407],[19574,-18899],[17901,-14271],[22083,-6942],[12213,-579],[12547,3279],[2008,-7329],[-1004,-23913],[1673,-20442],[3011,-18128],[7027,-10992],[1338,-8871],[-6190,-24685],[-10372,-25263],[-13217,-27385],[-28942,-66918],[-14555,-38184],[-8030,-17935],[-68257,-172600],[-11878,-25456],[-15894,-40113],[-33626,-78875],[-4517,-12150],[-28273,-64604],[-14555,-38763],[-14722,-34713],[-26266,-67111],[-19406,-52455],[-12548,-31628],[-32957,-86974],[-6692,-20057],[-17733,-48019],[-34129,-102017],[-18403,-63255],[-14220,-58433],[-6692,-34906],[-6022,-38955],[-1506,-37992],[2342,-34520],[3179,-25649],[6524,-33941],[5521,-20635],[1171,-21985],[-11711,-48598],[-8866,-15813],[-1171,-15235]],[[4527386,2280634],[-20243,3085],[-31619,-193],[-7696,-13113],[-5186,-15621],[-3514,-17549],[837,-16585],[6023,-25071],[-3346,-18513],[-17232,-8100],[-12045,-12921],[-23254,-17935],[-17065,-5014],[-6357,-5978],[-251782,44355],[-22083,4243],[-154415,27384],[1339,-9642],[-11878,6171],[-18069,5207],[-8699,193],[-1171,-8100],[12213,193],[6691,-3471],[-8030,-10414],[17566,-29120],[7194,1157],[1506,-10800],[16897,-3471],[10038,-5593],[2509,-17742],[-13049,-2893],[-1338,-9064],[-8198,-17356],[335,-13307],[-5856,-5978],[-10205,-2121],[-15057,1157],[-20744,-8485],[-6190,-12343],[0,-8485],[-15894,-10221],[0,-5978],[-10372,-8293],[-26767,4243],[-4183,-28542],[9369,-1543],[-2510,-16778],[-10205,1543],[-4684,-33941],[-13217,-1736],[-3513,-11571],[-56713,9064],[1338,12921],[-18068,2700],[5019,31627],[-21916,3471],[2175,10993],[-2844,3471],[-56547,8678],[2008,18128],[-7194,10221],[7361,12342],[-14220,1736],[-2844,-21985],[-15391,4629],[3178,16199],[-8699,16971],[-66082,9835],[-9202,3857],[-5855,-4821],[-36805,5592],[-3681,12536],[-13216,578],[-2175,9450],[-24425,4050],[-4852,9835],[-42326,6750],[3178,21406],[-19573,2893],[1171,8678],[-36471,5400],[-5186,-18321],[-9703,-4436],[-5688,1929],[-4183,13306],[-49185,7136],[-8030,-58433],[-12380,2892],[-4517,-29698],[-112591,18706],[-53200,7907],[-502,-1929],[-42828,6364],[-60562,7714],[-167,10607],[-16395,6171],[-11711,-10221],[-10707,579],[-4851,6364],[-10038,5978],[-6525,7328],[-5353,-8099],[-168,-15428],[-11878,-386],[-1840,7714],[-8532,10221],[-3513,13885],[4182,14078],[-6524,9450],[-11544,-9836],[-7361,193],[-3011,-10799],[-16897,-9643],[-8532,2700],[-7194,-6943],[-13049,-4628],[-3179,-11957],[-20076,-5399],[-2509,6749],[-16897,8486],[-7027,6557],[6692,14078],[5856,23334],[-2510,7521],[-18068,965],[-8699,-1736],[-7529,4050],[1172,9450],[4851,3856],[-1171,12150],[-4517,14464],[5019,14656],[-4350,4436],[-334,17935],[11543,12342],[-1171,16585],[6190,9643],[-16395,6171],[-12213,-4243],[-5688,5400],[-17231,7714],[-8365,11378],[-2510,8292],[-6692,2315]],[[2724595,2340803],[-2007,38955],[2007,7907],[-4015,18513],[-25262,7136],[3681,8485],[-502,26421],[10373,1157],[14052,6171],[10540,-12150],[11376,7907],[7194,9643],[3848,36448],[-1840,7328],[3847,11186],[-11041,11956],[2509,17164],[10373,15042],[14053,13307],[4684,15813],[14053,-771],[5353,44355],[7361,12728],[11377,-5592],[5353,-22371],[14722,11571],[19239,-7521],[11042,-14078],[13216,-7136],[3346,7714],[19407,6557],[7528,5786],[5521,-1543],[5521,7135],[836,14850],[-6190,8485],[-3680,14464],[2509,9835],[21247,4821],[1338,7136],[8532,2314],[-836,6557],[17064,1157],[10205,5207],[14053,2314],[17232,16971],[-2510,28156],[4517,23913],[5187,10414],[11376,11957],[6190,12728],[0,11763],[23756,7521],[12714,-1157],[9704,2122],[5019,-4629],[9535,1736],[-1171,13692],[20578,-2892],[5019,-9257],[4851,8292],[10205,-385],[21749,-11764],[18737,-579],[9202,-2121],[502,14078],[4684,5207],[1004,12342],[-6860,5400],[3514,26420],[6190,4050],[-1673,8871],[-8198,2700],[-10874,10028],[2677,11764],[-5689,16392],[3012,5593],[17566,51683],[1840,1736]],[[4527386,2280634],[-7863,-15621],[4684,-21985],[1840,-31627],[6525,-50141],[7194,-31242],[7361,-22756],[6190,-13306],[6859,-8293],[15391,-26613],[8365,-11957],[15391,-17742],[23254,-18899],[21414,-10221],[14723,-3857],[17900,-1157],[10205,1736],[7696,7135],[11209,28735],[7696,7328],[8364,-10993],[-167,-6749],[-8867,-3857],[-16562,-36449],[-25094,-58626],[-25430,-64219],[-21246,-58240],[-18403,-58433],[-21414,-64991],[-21748,-76946]],[[4562853,1600648],[-205274,34134],[-2175,-15621],[3681,-3857],[-4684,-33941],[-9202,-16585],[-2174,-13114],[-6358,-2121],[-836,-7136],[-7027,-9642],[-18904,-4050],[-1506,-8485],[-7194,-3665],[-10372,3472],[-18905,-4050],[502,-21021],[-31117,4822],[-1171,-8100],[-9871,1543],[-2342,-16778],[-6190,5014],[-13049,18128],[-14053,11571],[-39147,5399],[-4852,-38569],[-32121,4435],[-1004,-8485],[-8532,-5979],[4183,-29505],[-8365,-2315],[4517,-15620],[-28942,-98739],[-2844,-17742],[-11544,-18707],[-3848,-12728],[-7695,-51105],[-15894,2700],[-18402,8293],[-7696,-32785],[-3848,772],[168,-19478],[8866,-579],[-3680,-24684],[1004,-16200],[16897,-2699],[-2008,-13693],[6023,-4050],[13049,1929],[6859,-6557],[5019,-23528],[-4852,2315],[-3848,-26806],[6860,-1543],[-10206,-70969]],[[4048749,993944],[-1003,-6942],[-51862,8871],[167,-13500],[12882,-771],[334,-11957],[-6691,-3278],[-15392,-14849],[-5186,-12343],[-7528,-2893],[-1841,-17163],[30783,-4628],[-4015,-27771],[12882,-4435],[3513,-7521],[-3848,-11764],[-6357,-2700],[-8198,4435],[-502,-14463],[-9201,-11378],[-4851,5014],[-7863,-4629],[-12380,18128],[-7194,-5400],[-8198,11571],[-23087,-17935],[-3847,193],[-3012,-20056],[-16395,-16585],[-9870,-5207],[167,-14849],[-15057,-2700],[-8365,-13307],[3179,-10414],[-4015,-16199],[-17566,3086],[-16228,-1929],[-11209,8293],[-1673,5014],[-14889,7714],[-13217,2121],[-17064,5978],[-11544,-4435],[-10874,2507],[-9870,-2507],[-670,8871],[-5688,3471],[-11710,-11957],[-5521,-578],[-7194,9064],[-14387,-2314],[-6860,-5979]],[[3690734,772939],[-9536,2893],[-7528,-2314],[-7696,3664],[-10539,17935],[-71269,9642],[6190,-19670],[12046,-16971],[-4183,-3857],[-105229,14657],[2509,19092],[-15893,2314],[3011,21985],[-17566,2507],[15559,50719],[-10206,5978],[-1505,-10799],[-6525,-3472],[-5855,12536],[502,9256],[7026,12536],[-1171,11571],[9871,12728],[5520,39919],[-4349,-5014],[-10540,1543],[7026,49755],[-11208,579],[-2677,-5979],[-16897,-2700],[-6357,-5785],[-14555,5785],[-8198,-13306],[-7528,-5400],[-6357,5978],[-15057,-9835],[-6023,7136],[-16228,0],[-6691,7714],[-3848,11185],[-10707,-1350],[-6358,-6171],[-7528,2121],[-10038,-7907],[-10205,2700],[-7863,-7135],[-14889,-7136],[-18068,-3278],[-6859,-7328],[-6860,16199],[-11543,6942],[1338,3857],[-13383,8871],[-5187,6750],[-8532,4050],[-7863,8100],[-17733,-2122],[-1339,-20827],[-8364,-8871],[-9704,0],[-4182,-4822],[-669,-9835],[-5186,-3857],[-4852,-11378],[-12882,-2314],[-2844,-4436],[-14722,-1735],[-9703,-7522],[4684,-4821],[837,-17163],[-5187,-7521],[-13216,8099],[-4350,-2700],[-6190,-13499],[-14555,2121],[-3346,7907],[-11878,13114],[-4517,8871],[-12045,10607],[-5019,7521],[-17399,8678],[-11376,11764]],[[3008498,981988],[10372,71547],[-2844,3471],[-1505,17356],[-6358,7907],[-167,13693],[-12547,1542],[-4182,9257],[-6692,3471],[-2175,7521],[-8198,4629],[-7863,-8100],[-4015,11185],[-9201,7714],[-13217,1543],[-8699,6364],[3680,16200],[-6357,1349],[1339,11957],[-14053,193],[-20411,8100],[-6022,-965],[-13551,15043],[-7027,4821],[-19072,8100],[-6190,-45513],[-4349,2893],[-85656,12149],[-9369,5207],[-9870,-2314],[669,13500],[-5521,8292],[19239,13114],[2510,5592],[-8031,7329],[70265,-9450],[11878,17549],[7696,1736],[9201,23142],[3513,578],[5019,18321],[5186,40113],[6525,12535],[-1171,15235],[-8867,9642],[-5186,9836],[-7361,3278],[-2342,20249],[-6190,25842],[-168,15814],[-15725,11185],[-20076,-15621],[-13551,18707],[-4182,-1543],[-15224,21213],[-19072,-5978],[-6692,25070],[4851,6943],[5187,14078],[-670,11185],[-16227,9835],[1840,10607],[-19072,24106],[-24091,3857],[4685,34906],[-5354,6750],[1506,6364],[-2008,29698],[-17733,3857],[-13384,5014],[-6859,22757],[12882,4435],[11376,-1735],[12045,13113],[7027,964],[9870,18321],[-82310,13114],[8532,58047],[-8364,6750],[0,7521],[13049,5014],[7528,17357],[-6525,8485],[-8532,16971],[837,18706],[-45170,7136],[167,-4436],[-105564,16007],[-25597,3471],[-3513,-27963],[-34798,4628],[670,6750],[6859,5593],[3848,13885],[-19072,2507],[12714,95460],[-82812,12149],[-14722,7907],[-4517,16200]],[[2315220,2019902],[10038,-1929],[6357,3857],[2008,9257],[9870,4821],[12213,12342],[1506,14850],[-3012,4628],[0,15042],[5019,8486],[2008,11956],[-8198,10800],[-2509,7907],[2677,12149],[-168,13307],[-4684,17935],[-5688,4243],[-3513,12728],[4684,7328],[-502,11764],[-5688,7328],[669,12921],[-3513,10992],[3680,7521],[8031,3279],[5019,13885],[-2844,4821],[-13384,2700],[-837,6943],[-11376,3664],[167,6942],[7696,4050],[8700,22756],[13718,-4435],[8365,578],[0,6364],[-9034,13114],[6859,11185],[15391,2700],[3848,9836],[-1840,16392],[17399,3085],[9201,-4628],[7863,-7907],[-3681,-6364],[5019,-8100],[3848,-17742],[-1004,-9449],[8867,-3664],[13551,7714],[3848,-3665],[502,-18706],[18904,-7328],[9202,-10800],[28105,-5592],[19909,-16007],[-3681,-10028],[6692,-14078],[1339,-10607],[5688,-3085],[2676,-14078],[11544,-579],[5688,-12728],[-2342,-5978],[1673,-13307],[6190,-12149],[12547,-9836],[15893,-4242],[14388,8871],[11878,771],[3346,8871],[7026,386],[5186,12921],[11042,10028],[6525,193],[4349,10221],[7361,5592],[6859,18321],[6023,-1736],[12213,6750],[-2510,14464],[5521,12535],[2008,10992],[9368,-5399],[12213,23913],[-2342,14271],[1338,9449],[5856,10800],[-4183,9064],[6357,9257],[7863,0],[4517,5207]],[[4562853,1600648],[-8867,-33170],[-20076,-83890],[-8867,-41848],[-15056,-86204],[-4350,-35677],[-1506,-48790],[3346,-37220],[9871,-35870],[10539,-21985],[8031,-12150],[8030,-5399],[13551,-4243],[12882,13307],[7696,-579],[4349,4821],[13384,-6749],[-2175,-12150],[3513,-10800],[-4851,-13499],[-9034,-46091],[-13384,-73861],[-3011,-31242],[-5187,-39727]],[[4561681,937632],[-22919,5786],[-1673,3471],[3178,21599],[-23087,5014],[10540,13693],[5019,12342],[1506,17935],[-10373,-2700],[-20912,4821],[-10707,8486],[837,9449],[8197,13693],[6859,1157],[-5018,12535],[-17901,3085],[-3179,-21792],[-8699,1543],[-12882,-2892],[-10373,192],[-36805,5786],[-2342,8871],[-14889,3664],[-17232,-3086],[-33794,5400],[-2175,-15621],[-31284,5979],[-2175,-14271],[-15224,2893],[-502,-3664],[-22920,3857],[-7528,-11957],[-8365,-2893],[-15057,-386],[-5855,-5978],[-12547,-1928],[-11878,-13886],[167,-14656],[-9703,5978],[-14555,2314],[-2677,-16777],[-26767,-14078],[-12213,-10029],[-3680,5207],[-13384,-10221],[-12882,-6557],[-1840,-12920],[-21080,2314],[-3346,7135],[1673,10993],[-8030,13306],[-8867,8678],[1673,11379],[-25262,4049]],[[2315220,2019902],[-6859,5978],[-8532,1350],[-12380,-10028],[-18068,9835],[-16730,2507],[-21581,12728],[-18737,15235],[-44167,10221],[-13383,772],[7528,29313],[-6859,7328],[3680,8292],[-16227,14078],[5353,16585],[-14220,386],[-5688,6943],[-10540,-3857],[-5354,5014],[-6524,14849],[-13886,2507],[-11543,9064],[-14388,-964],[-6190,-9835],[-19072,-9064],[-7695,1350],[-6859,8678],[-34463,5785],[-10038,-4050],[-12548,8486],[-12380,-3471],[-4517,4435],[-13216,-4243],[-6525,2507],[-11710,-4242],[-14890,-101439],[-15224,-964],[-8197,9449],[669,9643],[-6023,10800],[-6692,1157],[-7695,-10993],[-837,-6171],[13551,-8678],[1506,-10221],[-6859,-10221],[4015,-4243],[12045,4436],[12380,-5400],[1673,-8100],[-9870,-34134],[4851,-16971],[-10038,-16392],[-13885,-11571],[2677,-16006],[-9369,-4243],[-1506,-20828],[-5688,-5592],[-9870,2121],[-1506,-5593],[1338,-18320],[-8197,-3279],[-144545,-11956],[-45337,6942],[-11042,-11764],[-14053,579],[-26767,-26806],[1506,-8100],[9536,-10607],[-1841,-12149],[-5186,-3664],[-22920,-29120],[-7193,-14078],[-16395,-14464],[-18403,9642],[-14388,-2121],[-8197,5014],[-43665,7136],[-161943,24106],[-15893,1157],[-12547,6364],[-40486,7907],[167,-10414],[-3346,-27578],[-12045,-15620],[-1673,-8871],[11041,-7907],[13552,4050],[1003,-10607],[-4015,-11764],[2677,-3857],[-59558,-11378]],[[1187305,1712693],[-8365,2893],[-10707,19285],[-13718,-5786],[-18068,-964],[-13886,2121],[-12714,4821],[-27771,15428],[-9202,11571],[-3178,22178],[-10875,19285],[1673,12149],[-15224,23335],[-7863,30856],[-9703,7135],[1004,7136],[-36471,-11764],[-20745,7521],[-28942,-5978],[-9536,2507],[-10707,13114],[-10540,1735],[-13551,-8099],[670,-8486],[-4183,-12921],[-90842,-71354],[-99709,14464],[-15224,39341],[7529,11764],[1003,7328],[-4684,5786],[-12380,6556],[2844,6943],[-6525,19864],[-11041,13885],[-5688,18320],[-11209,1736],[-29946,-771],[-15391,1735],[-7027,-1543],[-9870,-8099],[-8867,771],[-20578,21021],[-19072,2892],[-14889,4243],[-15057,1157],[2844,12343],[-2342,11571],[-6357,15427],[-669,12536],[17733,27384],[1840,11571],[7362,16585],[167,16778],[-8867,13885],[-2342,17357],[2677,12149],[12045,7136],[9871,13306],[2844,14657],[6357,15042],[-5855,12535],[-27270,38184],[-11711,6557],[-2342,12535],[-21246,13114],[-14221,20056],[12882,4436],[-21414,28541],[4015,14271],[6190,8871],[16061,1736],[11209,18514],[-4685,11763],[-1338,24492],[2342,23528],[-24593,12535],[-10707,20442],[5521,20056],[8867,12535],[7528,2508],[335,10028],[11878,15235],[335,5978],[-8365,4821],[-5354,12921],[-2342,23528],[-70599,10606],[-34798,3086],[-9870,17742],[-25095,10221],[-15224,-2314],[-13718,-4243],[-12046,2314],[-13383,-2507],[-22753,-7135],[-11710,9064],[-22418,9064],[-13886,14656],[-19239,42813],[-3346,1543],[-60059,12535],[-8533,-5014],[-6524,-9450],[-17734,6943],[-18904,2893],[-1673,8099],[-12046,1350],[-8364,-4243],[-1673,9643],[4684,19092],[7026,6750],[7529,24299],[-3848,11956],[-11543,18514],[-1172,19863],[2844,8293],[-20410,10992],[3681,9064],[-4183,13114],[18236,23720],[-1673,8293],[-6692,5400],[-14220,-4822],[-6525,1929],[4182,14078],[-4015,13114],[-14554,-4629],[-3514,1929],[2342,12728],[-9870,4050],[-1673,8678],[9369,8485],[1505,20249],[37140,26999],[11711,30663],[-8699,6557],[-14555,17742],[4684,5014],[13718,4243],[-4684,21599],[9034,10028],[-15057,13885],[19072,22949],[8198,3279],[3680,9064],[6525,4242],[-17734,9064],[-1338,6171],[15057,10800],[6524,12921],[-2509,5207],[1004,21213],[-3346,10028],[16897,13114],[18235,-2700],[8532,9257],[-1338,7714],[11209,26227],[-4015,8871],[501,11571],[-7026,7522],[2342,12728],[17901,1735],[7194,5786],[-10707,27770],[3513,11764],[12380,1350],[5688,16778],[-669,12149],[11376,14657],[5186,2699],[3011,21600],[-7193,36641],[-3346,7328],[3513,5786],[-1338,10221],[10707,-579],[14387,-8100],[26600,4629],[-7026,11571],[16897,25070],[17231,5978],[20912,10993],[34129,193],[10205,5978],[167,10800],[7361,7714],[0,12342],[-5018,7135],[-4016,15621],[6692,13114],[7863,5978],[8031,16585],[14554,5593],[-21414,21599],[-11543,7714],[-4350,5978],[2677,20828],[-3848,7328],[-2677,13307],[-9368,24492],[-502,16392],[2342,12728],[-836,46091],[-2510,21020],[9369,45898],[-11711,16971],[-11209,32206],[4684,3471],[26433,68269],[-2677,16971],[3346,29120],[37308,100667],[18235,4050],[4852,13499],[5855,5014],[8867,66726],[4182,5014],[-7026,17164],[-25597,112045],[837,1929],[40820,36448],[17901,4628],[24760,-385],[2342,17742],[5855,8292],[23255,5207],[12380,-18513],[6190,-1736],[21581,9064],[16228,-6557],[16897,579],[16060,-3086],[26098,4050],[10707,7135],[9704,-771],[16562,-7907],[21581,-2700],[12046,-6942],[15391,-15428],[9369,-386],[14889,7136],[63740,-11764],[43330,-11186],[6357,2508],[11376,-3665],[13049,5014],[5689,11186],[4349,29506],[-6859,8485],[5186,13885],[6023,2121],[4517,20442],[10038,2893],[6524,13692],[13050,13886],[9368,16006],[5856,5593],[-17232,15621],[-4350,10413],[-1003,12343],[-13217,-2507],[-11543,12728],[-25430,-11186],[-16897,10414],[-3178,5400],[-10874,5593],[-17399,3471],[-26266,25842],[-7026,2314],[12212,92568],[6358,-8679],[13216,3857],[11544,-7714],[6022,9836],[1339,10992],[6022,-771],[5019,-12921],[19574,-3086],[6357,8293],[13217,-1929],[2844,8871],[85990,-29313],[19741,-4821],[26768,-11185],[15056,-5979],[6358,4436],[-5019,12728],[-1171,16585],[1171,16971],[8197,6557],[11209,-579],[-14555,23913],[-8030,6557],[-3178,24685],[-3681,11571],[0,11764],[8699,8678],[2844,15621],[6023,964],[8700,7714],[0,16199],[5688,8293],[334,13306],[4183,3857],[1171,12535],[4015,13693],[-1004,17935],[8532,8099],[1673,35677],[-3848,14850],[2008,13306],[10707,6943],[2007,13692],[7194,8486],[19741,-4822],[8365,6172],[10874,-579],[2175,3857],[24760,-4243],[5688,-14463],[-4517,-5786],[335,-15621],[11878,-14078],[4182,0],[4183,-14270],[6022,2892],[14555,-12535],[3848,-10221],[29946,-5978],[13719,-17935],[2844,-15621],[10539,-7907],[1506,-14849],[13216,-8486],[5354,14464],[7361,-2314],[19406,8678],[6358,15814],[9536,-6750],[16395,-2893],[1338,-9256],[25095,-26228],[-502,-10607],[-7696,-4435],[-4517,-12535],[-335,-10800],[-10037,-16778],[-2175,-9835],[3011,-17356],[-6023,-10029],[3346,-10028],[-2342,-10799],[6525,-6943],[1171,-10992],[7696,-6364],[11543,1157],[7528,8292],[17065,6364],[26432,4436],[4350,16392],[11878,-2700],[20243,5978],[11209,-5978],[669,-8678],[-6692,-52069],[2510,-5400],[-3848,-9064],[-8532,-7328],[3680,-7714],[-3346,-12728],[19240,-80611],[-11209,385],[-12548,6172],[-13885,-193],[-5521,-6364],[-10205,-3664],[-7696,-9836],[1673,-14656],[7529,-2700],[12045,6942],[1004,5015],[21916,7328],[7026,-9064],[9871,-771],[167,-7714],[11878,-19864],[16897,-6171],[10205,-18321],[3513,6750],[14221,5014],[4517,11764],[8699,-4629],[4517,4629],[14555,-2507],[13885,-4629],[9202,-19670],[8365,-1157],[7026,3471],[669,16585],[5688,2700],[-1673,7907],[10038,10028],[4015,-1736],[8532,7521],[7027,-2507],[15224,193],[9536,-7521]],[[3008498,981988],[-8030,1542],[-4015,-5785],[-9369,4050],[-1338,-9064],[-7194,-4821],[-8699,6171],[-14555,-964],[-5354,-14657],[6525,-11764],[-4183,-12535],[-13551,-11957],[3346,-8485],[-502,-14656],[7194,-6364],[-2677,-10029],[-6357,-8678],[7027,-10414],[-3681,-2892],[2844,-19285],[3346,-3086],[1171,-13114],[4015,-7328],[1171,-10992],[-8197,-16585],[1505,-7714],[9202,-7329],[2342,-12920],[6692,-4243],[-8198,-9450],[-12380,-7521],[9202,-26613],[-12715,-24685],[2844,-8871],[-5353,-12149],[-12046,1157],[-1004,-10028],[-19573,-9836],[-3514,-6171],[-10874,-5400],[-14387,-385],[-15057,-7907],[-10205,-10414],[-2677,-9642],[4015,-19478],[335,-14078],[11543,-6750],[335,-9064],[9870,-11185],[20076,-6750],[-2844,-5014],[8365,-6942],[13551,6364],[11376,-15428],[7696,-5979],[7193,-10799],[2510,-9257],[7528,-5400],[-7361,-7135],[5354,-13500],[16897,5207],[3847,9450],[-6691,4243],[2342,7906],[16562,-1349],[-3011,-24107],[21916,-3085],[-2844,-7907],[-8700,-8485],[-2175,-6943],[168,-28156],[13718,-13114],[7194,5207],[4684,-7907],[9201,-5399],[-4015,-9450],[669,-14078],[-6524,-8678],[9536,-24106],[-3848,-23914],[26767,-4242],[-4015,-27578],[-8532,1350],[-2677,-17935],[4183,-13306],[1338,-33942],[7361,-12342],[-26767,4243],[-5354,5978],[1673,8871],[-18402,-12149],[-8533,0],[-12379,-10414],[-9369,-16585],[-5688,-23721],[-3513,-11571],[-10875,7714],[-13551,4050],[-11376,-6750],[-10874,772],[-9536,-15428],[-16395,-5207],[-6525,-9835],[-29277,-15814],[-11209,771],[-11041,12343],[-11376,1928],[3346,16585],[7193,1736],[2008,8099],[7528,4243],[8198,10607],[-1171,31049],[-7027,10221],[6023,5207],[3011,8871],[12882,16199],[-33961,4821],[-5186,6750],[-10038,-2893],[-8198,2700],[-6357,-4628],[-6525,6364],[2343,10413],[8699,-1157],[3346,10607],[10372,-2700],[15224,10414],[7361,11571],[-5186,10414],[7529,15428],[14053,-193],[2007,11185],[-5186,10414],[-5688,193],[-5354,11957],[-669,19863],[3681,9257],[-2677,17935],[-20410,2700],[2342,19670],[-9034,-5400],[-5019,-6942],[-8198,-1543],[-9201,-8292],[-3513,-8293],[-20076,3086],[-7528,3857],[-13384,18706],[-16562,-12535],[-2008,-13885],[-16730,1542],[-12212,-8099],[-3012,-22371],[-4684,-578],[-2007,-14464],[-64242,9064],[-2844,-193],[-12715,-17742],[-335,-9450],[-6022,-12342],[-10205,-10607],[-15726,-8871],[-7696,-10028],[335,-8678],[-6692,-8871],[-1840,-9450],[2676,-8099],[-3011,-21021],[-7361,-4050],[-8532,-10606],[-1339,-10800],[-72439,-35291],[-669,-10029],[-8031,-7521],[-6859,-11571],[-14889,-12921],[-9369,-16777],[-12547,-7329],[-5521,2122],[-11376,-8293],[-14889,8871],[-13384,-15428],[-22752,-10606],[-21080,-6364],[-12380,-193],[-9536,3857],[-13049,-2893],[-11711,4435],[-12212,-6364],[-16563,6943],[-14387,11378],[-8198,-193],[-8867,11957],[-4851,1350],[-4015,9835],[-13217,9257],[-5688,-579],[-13718,10414],[-6357,11764],[-11042,-6557],[-12715,-2121],[-7026,3857],[-8867,11185],[-5855,771],[-14722,15428],[-13384,-3664],[-17064,16200],[-6859,-1158],[-12548,8872],[-2175,5592],[-16395,0],[-3680,7714],[-8198,4243],[-7361,-1736],[-9368,20249],[-1673,17357],[-6190,6749],[836,7522],[-9201,3278],[-6692,10607],[-4517,12342],[-10707,7907],[-1506,11764],[-15056,18899],[-5856,-1350],[-8532,4435],[-4350,12343],[-7193,1928],[-8365,19092],[-4183,3472],[8532,10992],[-7026,10028],[-1506,10607],[2844,5400],[-669,14271],[3346,11378],[-8365,1735],[-14053,-2121],[-3346,7135],[-19071,965],[-7194,11956],[-10205,3857],[-11042,-5207],[-3680,-6364],[-15559,-2892],[-23756,7521],[-16395,2507],[-10205,8485],[-18068,11764],[-4685,386],[-3011,10606],[-1338,22178],[-8198,7135],[6525,15428],[-5521,13114],[6859,15235],[-1673,8678],[-19574,5593],[-12882,7328],[-5520,12150],[-4015,1542],[25596,19864],[3346,25649],[-2008,7714],[-22250,29313],[-16563,9449],[-10372,13307],[-10874,-4821],[-5688,15235],[-8867,1157],[-9369,9450],[-9870,2892],[-4685,18321],[-11878,1350],[-15391,12149],[1506,4629],[-5521,10028],[-7696,1928],[-5019,12150],[-7695,-8871],[-7361,-1157],[-3179,8485],[-11711,13307],[-5855,17742],[-10874,7714],[-12046,17742],[-1505,6750],[1171,17163],[-13719,2314],[-12882,-10028],[-9368,-1928],[-13049,4050],[-10540,10221],[-8030,11185],[1171,16971],[-7863,385],[-8700,9643],[-13718,-8486],[-13049,11186],[-5354,7328],[-10874,6942],[-13384,25071],[6525,12342],[-7863,10800],[335,6171],[8030,9642],[-1171,3665],[-43163,6556],[-174992,24878],[-167,578],[63572,159101],[10205,66533],[21414,140780],[3848,17742],[-116940,16006],[-83314,-2892],[-5688,123809],[8197,-964],[7529,-5593],[84485,43970],[5353,20827],[27604,4821],[11544,-1928],[-1841,20056],[28775,17357],[7863,-4050],[8532,-16199],[22753,-15043],[12882,2507],[5186,-3278],[14555,9835],[5353,9643],[-2175,14463],[-5688,6943],[-1338,9064],[5019,24877],[-13049,18707],[-3012,10992],[-11710,2700],[-9202,-7135],[-5019,4628],[-13551,-17742],[-9536,-6171],[-8699,-1929],[-7027,11571],[-15056,4436],[-7361,-579],[-8031,8485],[-8197,2122],[-5688,9835],[-9871,6557]],[[4561681,937632],[-2676,-15813],[-2510,-33749],[0,-14849],[5019,-12150],[11544,-16006],[-3346,-14464],[-4852,-50912],[-167,-29506],[1338,-15814],[6023,-23913],[-1339,-14464],[502,-31820],[3179,-14656],[3011,-26035],[5688,-16778],[7027,-4628],[15224,-16392],[13384,-5207],[12714,3278],[-3346,-45705],[-1673,-46669],[669,-17550],[4016,-38762],[-2008,-9257],[4517,-34327],[4015,-13114],[12213,-5207],[0,-11185],[3680,-9643],[-14554,-2507],[-12213,-13306],[-9034,-51684],[-1171,-11185],[2509,-31049],[502,-23527],[3179,-23914],[12212,-53612],[12380,-49948],[-100378,-28156],[-334,-5399],[-12548,-11571],[1004,-17357],[-4015,-12728],[-18737,-14271],[-11711,7329],[-7026,-965],[-3012,8871],[-6190,1543],[-11376,10800],[-40653,5978],[-2677,-24685],[-8866,193],[-14388,-11185],[-24425,3278],[-5521,-3085],[-11711,8678],[-5186,11185],[-14053,-8485],[-8867,12149],[-13216,7907],[-3012,4629],[-31786,5207],[-15224,6171],[-6357,8871],[-10707,2893],[-16061,192],[-8866,-7906],[-12046,-5207],[-9536,9256],[-19239,-4628],[-26600,4050],[5521,38377],[11543,5207],[7027,6557],[5019,32205],[-26768,4243],[2844,16585],[-9870,1543],[-1673,14078],[2007,13885],[18905,-2893],[4517,30856],[-20076,3279],[1339,9835],[-11042,1736],[2509,17356],[-8699,-3664],[-15726,5978],[-10372,-2121],[-5688,11378],[-7529,1543],[-10707,17742],[502,5207],[-11711,17549],[-10874,8100],[-6524,-4050],[-14890,-1543],[-9034,9257],[3179,17935],[-18905,6942],[3681,23721],[-14221,2314],[-6859,5014],[-9703,1736],[-3179,-20442],[-10205,10992],[-6022,-36641],[-17232,16006],[-10372,-13306],[-6525,-3279],[-4182,9836],[-9369,5785],[-19908,-5014],[-21080,3857],[3848,11764],[-32790,5978],[-335,6171],[-11041,4629],[-5856,8871],[-2676,32205],[-9704,7522],[-13885,771],[-12547,-9450],[-7529,11764],[-3513,10993],[-11042,-5015],[-9368,3857],[-12380,772],[-3848,4821],[-24593,3086],[-4015,11763],[-6692,7136],[-8866,1735],[-12548,13114],[-1673,8871],[5354,5014],[-8365,20057],[2510,5014],[-4350,7714],[-10874,9256],[-13050,8100],[-4851,-1543],[-15559,3857],[-3011,5593],[1004,11764],[10037,10799],[-3513,7714],[167,13307],[-5855,-579],[33627,41656],[-1339,2314],[19574,24299],[7696,60555],[-4015,3857],[-5688,14849],[-837,8871],[4350,5785],[-16897,2315],[3513,8485],[-1506,13692]],[[4150466,188221],[1004,2507],[1840,578],[2677,-1157],[334,-1350],[-2676,-2314],[334,-1928],[-1338,-386],[502,-3664],[2509,-2700],[-11543,1543],[1338,8292],[5019,579]],[[4596145,713349],[-2175,-1543],[-3848,3086],[1840,964],[4183,-2507]]],"transform":{"scale":[5.977401195480229e-7,5.185401037080209e-7],"translate":[150.3691,-26.9848]},"objects":{"qld_north_coast_ldmg_boundaries_gda2020_simp200m":{"type":"GeometryCollection","geometries":[{"arcs":[[0,1,2]],"type":"Polygon","properties":{"LGA Code":"1820","Abbreviated Name":"Bundaberg","LGA Name":"Bundaberg Regional","Area Sq Km":12403.96,"LDMG Name":"Bundaberg","Source Area Sq Km":12403.99881,"Police Region Name":"North Coast Region","Police Region Code":"NCR","Police Region Short Name":"North Coast","Region Slug":"north_coast","Layer Id":"qld_north_coast_ldmg_boundaries_gda2020_simp200m","Layer Group":"per-region","Layer Kind":"ldmg","Source":"Local government area boundaries - Queensland, Department of Natural Resources and Mines, Manufacturing and Regional and Rural Development; ASGS Edition 3 (2021) Local Government Areas, Australian Bureau of Statistics","Source URL":"https://www.data.qld.gov.au/dataset/local-government-area-boundaries-queensland","Licence":"CC BY 4.0","Licence URL":"https://creativecommons.org/licenses/by/4.0/","Dataset Date":"extract of 11/05/2026","Simplification Tolerance M":200,"Coordinate Precision Decimals":4,"CRS":"GDA2020 (EPSG:7844)","Modified":"Simplified and repackaged from the source dataset; see Source URL"},"id":"1820"},{"arcs":[[3]],"type":"Polygon","properties":{"LGA Code":"2330","Abbreviated Name":"Cherbourg Aboriginal","LGA Name":"Cherbourg Aboriginal Shire","Area Sq Km":31.58,"LDMG Name":"Cherbourg","Source Area Sq Km":31.7648,"Police Region Name":"North Coast Region","Police Region Code":"NCR","Police Region Short Name":"North Coast","Region Slug":"north_coast","Layer Id":"qld_north_coast_ldmg_boundaries_gda2020_simp200m","Layer Group":"per-region","Layer Kind":"ldmg","Source":"Local government area boundaries - Queensland, Department of Natural Resources and Mines, Manufacturing and Regional and Rural Development; ASGS Edition 3 (2021) Local Government Areas, Australian Bureau of Statistics","Source URL":"https://www.data.qld.gov.au/dataset/local-government-area-boundaries-queensland","Licence":"CC BY 4.0","Licence URL":"https://creativecommons.org/licenses/by/4.0/","Dataset Date":"extract of 11/05/2026","Simplification Tolerance M":200,"Coordinate Precision Decimals":4,"CRS":"GDA2020 (EPSG:7844)","Modified":"Simplified and repackaged from the source dataset; see Source URL"},"id":"2330"},{"arcs":[[-3,4,5,6]],"type":"Polygon","properties":{"LGA Code":"3220","Abbreviated Name":"Fraser Coast","LGA Name":"Fraser Coast Regional","Area Sq Km":7996.2,"LDMG Name":"Fraser Coast","Source Area Sq Km":7995.76593,"Police Region Name":"North Coast Region","Police Region Code":"NCR","Police Region Short Name":"North Coast","Region Slug":"north_coast","Layer Id":"qld_north_coast_ldmg_boundaries_gda2020_simp200m","Layer Group":"per-region","Layer Kind":"ldmg","Source":"Local government area boundaries - Queensland, Department of Natural Resources and Mines, Manufacturing and Regional and Rural Development; ASGS Edition 3 (2021) Local Government Areas, Australian Bureau of Statistics","Source URL":"https://www.data.qld.gov.au/dataset/local-government-area-boundaries-queensland","Licence":"CC BY 4.0","Licence URL":"https://creativecommons.org/licenses/by/4.0/","Dataset Date":"extract of 11/05/2026","Simplification Tolerance M":200,"Coordinate Precision Decimals":4,"CRS":"GDA2020 (EPSG:7844)","Modified":"Simplified and repackaged from the source dataset; see Source URL"},"id":"3220"},{"arcs":[[-6,7,8,9,10,11,12]],"type":"Polygon","properties":{"LGA Code":"3620","Abbreviated Name":"Gympie","LGA Name":"Gympie Regional","Area Sq Km":6936.31,"LDMG Name":"Gympie","Source Area Sq Km":6936.26533,"Police Region Name":"North Coast Region","Police Region Code":"NCR","Police Region Short Name":"North Coast","Region Slug":"north_coast","Layer Id":"qld_north_coast_ldmg_boundaries_gda2020_simp200m","Layer Group":"per-region","Layer Kind":"ldmg","Source":"Local government area boundaries - Queensland, Department of Natural Resources and Mines, Manufacturing and Regional and Rural Development; ASGS Edition 3 (2021) Local Government Areas, Australian Bureau of Statistics","Source URL":"https://www.data.qld.gov.au/dataset/local-government-area-boundaries-queensland","Licence":"CC BY 4.0","Licence URL":"https://creativecommons.org/licenses/by/4.0/","Dataset Date":"extract of 11/05/2026","Simplification Tolerance M":200,"Coordinate Precision Decimals":4,"CRS":"GDA2020 (EPSG:7844)","Modified":"Simplified and repackaged from the source dataset; see Source URL"},"id":"3620"},{"arcs":[[-9,13,14]],"type":"Polygon","properties":{"LGA Code":"5740","Abbreviated Name":"Noosa","LGA Name":"Noosa Shire","Area Sq Km":869.6,"LDMG Name":"Noosa","Source Area Sq Km":870.10279,"Police Region Name":"North Coast Region","Police Region Code":"NCR","Police Region Short Name":"North Coast","Region Slug":"north_coast","Layer Id":"qld_north_coast_ldmg_boundaries_gda2020_simp200m","Layer Group":"per-region","Layer Kind":"ldmg","Source":"Local government area boundaries - Queensland, Department of Natural Resources and Mines, Manufacturing and Regional and Rural Development; ASGS Edition 3 (2021) Local Government Areas, Australian Bureau of Statistics","Source URL":"https://www.data.qld.gov.au/dataset/local-government-area-boundaries-queensland","Licence":"CC BY 4.0","Licence URL":"https://creativecommons.org/licenses/by/4.0/","Dataset Date":"extract of 11/05/2026","Simplification Tolerance M":200,"Coordinate Precision Decimals":4,"CRS":"GDA2020 (EPSG:7844)","Modified":"Simplified and repackaged from the source dataset; see Source URL"},"id":"5740"},{"arcs":[[-1,-7,-13,15,16]],"type":"Polygon","properties":{"LGA Code":"5760","Abbreviated Name":"North Burnett","LGA Name":"North Burnett Regional","Area Sq Km":19670.43,"LDMG Name":"North Burnett","Source Area Sq Km":19670.52276,"Police Region Name":"North Coast Region","Police Region Code":"NCR","Police Region Short Name":"North Coast","Region Slug":"north_coast","Layer Id":"qld_north_coast_ldmg_boundaries_gda2020_simp200m","Layer Group":"per-region","Layer Kind":"ldmg","Source":"Local government area boundaries - Queensland, Department of Natural Resources and Mines, Manufacturing and Regional and Rural Development; ASGS Edition 3 (2021) Local Government Areas, Australian Bureau of Statistics","Source URL":"https://www.data.qld.gov.au/dataset/local-government-area-boundaries-queensland","Licence":"CC BY 4.0","Licence URL":"https://creativecommons.org/licenses/by/4.0/","Dataset Date":"extract of 11/05/2026","Simplification Tolerance M":200,"Coordinate Precision Decimals":4,"CRS":"GDA2020 (EPSG:7844)","Modified":"Simplified and repackaged from the source dataset; see Source URL"},"id":"5760"},{"arcs":[[-12,17,-16],[-4]],"type":"Polygon","properties":{"LGA Code":"6630","Abbreviated Name":"South Burnett","LGA Name":"South Burnett Regional","Area Sq Km":8379.78,"LDMG Name":"South Burnett","Source Area Sq Km":8378.58755,"Police Region Name":"North Coast Region","Police Region Code":"NCR","Police Region Short Name":"North Coast","Region Slug":"north_coast","Layer Id":"qld_north_coast_ldmg_boundaries_gda2020_simp200m","Layer Group":"per-region","Layer Kind":"ldmg","Source":"Local government area boundaries - Queensland, Department of Natural Resources and Mines, Manufacturing and Regional and Rural Development; ASGS Edition 3 (2021) Local Government Areas, Australian Bureau of Statistics","Source URL":"https://www.data.qld.gov.au/dataset/local-government-area-boundaries-queensland","Licence":"CC BY 4.0","Licence URL":"https://creativecommons.org/licenses/by/4.0/","Dataset Date":"extract of 11/05/2026","Simplification Tolerance M":200,"Coordinate Precision Decimals":4,"CRS":"GDA2020 (EPSG:7844)","Modified":"Simplified and repackaged from the source dataset; see Source URL"},"id":"6630"},{"arcs":[[[-15,18,-10]],[[19]],[[20]]],"type":"MultiPolygon","properties":{"LGA Code":"6720","Abbreviated Name":"Sunshine Coast","LGA Name":"Sunshine Coast Regional","Area Sq Km":2287.2,"LDMG Name":"Sunshine Coast","Source Area Sq Km":2286.58942,"Police Region Name":"North Coast Region","Police Region Code":"NCR","Police Region Short Name":"North Coast","Region Slug":"north_coast","Layer Id":"qld_north_coast_ldmg_boundaries_gda2020_simp200m","Layer Group":"per-region","Layer Kind":"ldmg","Source":"Local government area boundaries - Queensland, Department of Natural Resources and Mines, Manufacturing and Regional and Rural Development; ASGS Edition 3 (2021) Local Government Areas, Australian Bureau of Statistics","Source URL":"https://www.data.qld.gov.au/dataset/local-government-area-boundaries-queensland","Licence":"CC BY 4.0","Licence URL":"https://creativecommons.org/licenses/by/4.0/","Dataset Date":"extract of 11/05/2026","Simplification Tolerance M":200,"Coordinate Precision Decimals":4,"CRS":"GDA2020 (EPSG:7844)","Modified":"Simplified and repackaged from the source dataset; see Source URL"},"id":"6720"}]}}}