{"type":"FeatureCollection","name":"qld_far_north_ddmg_boundaries_gda2020_simp200m","crs":{"type":"name","properties":{"name":"urn:ogc:def:crs:EPSG::7844"}},"features":[{"type":"Feature","properties":{"District Name":"Cairns","DDMG Name":"Cairns","Area Sq Km":268659.12,"Police Region Name":"Far Northern Region","Police Region Code":"FNR","Police Region Short Name":"Far North","Region Slug":"far_north","Layer Id":"qld_far_north_ddmg_boundaries_gda2020_simp200m","Layer Group":"per-region","Layer Kind":"ddmg","Source":"QPS Disaster Districts, Queensland Police Service, via the Queensland Government Open Data Portal","Source URL":"https://www.data.qld.gov.au/dataset/qps-disaster-districts","Licence":"CC BY 4.0","Licence URL":"https://creativecommons.org/licenses/by/4.0/","Dataset Date":"19/05/2025","Simplification Tolerance M":200,"Coordinate Precision Decimals":4,"CRS":"GDA2020 (EPSG:7844)","Fidelity":"standard: source boundaries, simplified","Modified":"Simplified and repackaged from the source dataset; see Source URL"},"geometry":{"type":"MultiPolygon","coordinates":[[[[145.1664,-16.3589],[145.169,-16.3595],[145.1748,-16.3696],[145.172,-16.3723],[145.1779,-16.3825],[145.1904,-16.394],[145.1954,-16.3947],[145.1994,-16.3981],[145.2062,-16.3967],[145.214,-16.3999],[145.2156,-16.4104],[145.213,-16.4143],[145.2085,-16.4169],[145.2088,-16.42],[145.2191,-16.4241],[145.2217,-16.4291],[145.2256,-16.4311],[145.2267,-16.4391],[145.2286,-16.4421],[145.2359,-16.4459],[145.2404,-16.4456],[145.2443,-16.4575],[145.2429,-16.4643],[145.2523,-16.4643],[145.2594,-16.4682],[145.2677,-16.4658],[145.2658,-16.4719],[145.2595,-16.479],[145.2585,-16.4846],[145.2695,-16.4901],[145.2644,-16.4933],[145.2648,-16.5],[145.272,-16.4994],[145.272,-16.5043],[145.2739,-16.5126],[145.2786,-16.5142],[145.2792,-16.5181],[145.2866,-16.5229],[145.2902,-16.5298],[145.2972,-16.5311],[145.295,-16.5342],[145.2982,-16.5381],[145.3027,-16.5375],[145.3071,-16.5312],[145.3111,-16.532],[145.3133,-16.5362],[145.3201,-16.5381],[145.3198,-16.5408],[145.3263,-16.5418],[145.3258,-16.5518],[145.3301,-16.5516],[145.3364,-16.5466],[145.3456,-16.5475],[145.3515,-16.5516],[145.3547,-16.5564],[145.3611,-16.5496],[145.363,-16.5432],[145.3672,-16.5397],[145.3675,-16.5366],[145.3721,-16.5329],[145.3736,-16.5191],[145.3843,-16.5202],[145.3854,-16.5104],[145.4041,-16.5123],[145.4107,-16.52],[145.4077,-16.5223],[145.4155,-16.5296],[145.4332,-16.552],[145.4319,-16.5688],[145.4393,-16.5697],[145.4449,-16.5744],[145.4423,-16.5788],[145.4444,-16.5937],[145.4418,-16.5986],[145.4491,-16.5994],[145.4486,-16.6045],[145.4365,-16.6033],[145.4438,-16.6101],[145.4493,-16.6106],[145.4472,-16.6435],[145.4549,-16.6444],[145.4588,-16.6488],[145.4697,-16.649],[145.4696,-16.6458],[145.4777,-16.6431],[145.4874,-16.6417],[145.4907,-16.645],[145.4952,-16.642],[145.5018,-16.6406],[145.5074,-16.6351],[145.5147,-16.6297],[145.5171,-16.6302],[145.5227,-16.6231],[145.5299,-16.6234],[145.5211,-16.634],[145.5238,-16.6464],[145.52,-16.6488],[145.5213,-16.6536],[145.5137,-16.6647],[145.5179,-16.675],[145.5224,-16.6715],[145.5265,-16.6714],[145.529,-16.6747],[145.5388,-16.678],[145.5439,-16.687],[145.5515,-16.6925],[145.5572,-16.6922],[145.5654,-16.6937],[145.5718,-16.6974],[145.5755,-16.7012],[145.5824,-16.7015],[145.5865,-16.7059],[145.6031,-16.7111],[145.6057,-16.7146],[145.6158,-16.7151],[145.6231,-16.721],[145.6313,-16.7246],[145.6308,-16.7311],[145.6335,-16.7361],[145.6393,-16.737],[145.6476,-16.7423],[145.6419,-16.751],[145.6451,-16.754],[145.6491,-16.7617],[145.6486,-16.7688],[145.6517,-16.773],[145.652,-16.7837],[145.6558,-16.7906],[145.6539,-16.8032],[145.6549,-16.8065],[145.6597,-16.8124],[145.6603,-16.8171],[145.666,-16.8198],[145.6654,-16.8295],[145.664,-16.8342],[145.6599,-16.8382],[145.6694,-16.8453],[145.6623,-16.8481],[145.6599,-16.8462],[145.6474,-16.8513],[145.6491,-16.8574],[145.6554,-16.859],[145.6588,-16.8634],[145.6661,-16.8662],[145.6661,-16.8689],[145.6553,-16.8741],[145.6509,-16.88],[145.6633,-16.881],[145.6693,-16.8896],[145.6736,-16.8941],[145.6681,-16.9096],[145.6609,-16.9169],[145.6635,-16.9203],[145.6615,-16.9287],[145.6575,-16.9303],[145.6499,-16.9453],[145.6518,-16.9501],[145.6499,-16.9568],[145.6512,-16.9695],[145.6544,-16.9715],[145.6514,-16.9774],[145.6397,-16.9857],[145.6371,-16.9961],[145.6336,-16.9986],[145.633,-17.0033],[145.6303,-17.0046],[145.6319,-17.013],[145.6347,-17.0183],[145.6396,-17.0216],[145.6355,-17.0319],[145.6215,-17.0444],[145.615,-17.049],[145.6196,-17.0596],[145.6164,-17.0632],[145.6173,-17.0692],[145.6226,-17.0677],[145.6323,-17.0725],[145.633,-17.0775],[145.6275,-17.0837],[145.6236,-17.0856],[145.6239,-17.0968],[145.6305,-17.0989],[145.6316,-17.1016],[145.6372,-17.1032],[145.6393,-17.1059],[145.6365,-17.1091],[145.6393,-17.1176],[145.6422,-17.1224],[145.6526,-17.1245],[145.6546,-17.1263],[145.6559,-17.1353],[145.6542,-17.1391],[145.6602,-17.1539],[145.6696,-17.1544],[145.6705,-17.1583],[145.6752,-17.1616],[145.6701,-17.1718],[145.7045,-17.1746],[145.7041,-17.2125],[145.7131,-17.2134],[145.7206,-17.2318],[145.7563,-17.2485],[145.7614,-17.2386],[145.7709,-17.2362],[145.7742,-17.2408],[145.7727,-17.2473],[145.775,-17.2521],[145.7793,-17.2555],[145.7794,-17.2629],[145.7826,-17.2633],[145.7857,-17.27],[145.7853,-17.2796],[145.7912,-17.2815],[145.7925,-17.2874],[145.8005,-17.2965],[145.8,-17.3018],[145.7949,-17.3037],[145.7973,-17.3121],[145.7907,-17.3127],[145.7856,-17.3183],[145.7877,-17.3216],[145.7867,-17.3332],[145.7808,-17.3453],[145.7826,-17.3481],[145.7812,-17.3533],[145.7919,-17.3649],[145.8015,-17.3702],[145.8118,-17.3837],[145.8178,-17.3887],[145.8213,-17.3939],[145.8183,-17.3993],[145.8215,-17.4044],[145.8243,-17.4123],[145.8236,-17.421],[145.8263,-17.4279],[145.8321,-17.4376],[145.8318,-17.4457],[145.8342,-17.4501],[145.8399,-17.4542],[145.8351,-17.4974],[145.8415,-17.4995],[145.8503,-17.5001],[145.8558,-17.5023],[145.858,-17.5055],[145.8665,-17.5048],[145.8748,-17.5013],[145.8786,-17.4982],[145.8823,-17.4905],[145.8864,-17.4917],[145.8926,-17.49],[145.8946,-17.4813],[145.9038,-17.4763],[145.9061,-17.4801],[145.9136,-17.4849],[145.9182,-17.4957],[145.9217,-17.5003],[145.93,-17.5032],[145.9365,-17.4944],[145.9403,-17.4945],[145.9504,-17.4914],[145.9476,-17.487],[145.9475,-17.4792],[145.9497,-17.4566],[145.9536,-17.457],[145.9555,-17.4455],[145.9593,-17.4484],[145.9656,-17.4497],[145.9661,-17.445],[145.9782,-17.4452],[145.9935,-17.4466],[145.9937,-17.4447],[146.0226,-17.4474],[146.0222,-17.4512],[146.0316,-17.452],[146.0366,-17.4495],[146.0407,-17.4379],[146.0351,-17.4343],[146.0384,-17.4301],[146.0459,-17.433],[146.0471,-17.4223],[146.0445,-17.419],[146.0541,-17.4159],[146.0625,-17.4079],[146.0614,-17.4024],[146.0719,-17.4034],[146.0851,-17.4029],[146.151,-17.4031],[146.5602,-17.4015],[146.5607,-17.387],[146.5634,-17.3756],[146.5588,-17.3714],[146.5426,-17.3491],[146.5418,-17.3438],[146.5345,-17.321],[146.5418,-17.3162],[146.5571,-17.302],[146.5485,-17.2784],[146.55,-17.2734],[146.5495,-17.2675],[146.5448,-17.2573],[146.5403,-17.2554],[146.5447,-17.211],[146.5496,-17.204],[146.5529,-17.1945],[146.551,-17.1834],[146.5465,-17.1763],[146.5143,-17.0972],[146.4694,-17.0466],[146.4713,-17.0386],[146.4695,-17.0303],[146.5243,-16.9941],[146.5291,-16.9917],[146.5284,-16.989],[146.523,-16.9879],[146.4884,-16.967],[146.4598,-16.9484],[146.4568,-16.9365],[146.4523,-16.926],[146.4493,-16.9247],[146.4049,-16.8669],[146.3572,-16.8545],[146.3553,-16.8478],[146.3564,-16.8307],[146.36,-16.814],[146.3557,-16.803],[146.2843,-16.7823],[146.2811,-16.7789],[146.2805,-16.7381],[146.2813,-16.7351],[146.2779,-16.7307],[146.2706,-16.7288],[146.2596,-16.6985],[146.259,-16.6927],[146.2564,-16.6868],[146.2516,-16.6842],[146.1664,-16.609],[146.1637,-16.6044],[146.1325,-16.5292],[146.133,-16.5265],[146.1283,-16.5237],[146.1149,-16.5043],[146.1009,-16.4851],[146.0836,-16.4283],[146.081,-16.4234],[146.0544,-16.4033],[146.0508,-16.3949],[146.0489,-16.3951],[145.9224,-16.3342],[145.922,-16.3247],[145.9186,-16.3186],[145.9141,-16.3163],[145.9024,-16.279],[145.891,-16.245],[145.901,-16.2385],[145.9105,-16.2155],[145.9113,-16.2095],[145.9115,-16.1945],[145.9072,-16.184],[145.8999,-16.1792],[145.8884,-16.1742],[145.8651,-16.1149],[145.8686,-16.1092],[145.8706,-16.0969],[145.8628,-16.0863],[145.8637,-16.0651],[145.8663,-16.0638],[145.8705,-16.0526],[145.8694,-16.0438],[145.8651,-16.0306],[145.8619,-16.0247],[145.854,-16.0163],[145.8478,-16.0109],[145.841,-15.9919],[145.8401,-15.9826],[145.836,-15.9765],[145.8286,-15.9704],[145.8288,-15.9602],[145.8319,-15.9526],[145.8324,-15.9382],[145.8243,-15.9132],[145.8181,-15.8813],[145.8191,-15.8742],[145.8175,-15.8684],[145.8171,-15.8575],[145.8284,-15.8307],[145.828,-15.8241],[145.8229,-15.8145],[145.8168,-15.7819],[145.8141,-15.7763],[145.7966,-15.7544],[145.7959,-15.7484],[145.7965,-15.7389],[145.799,-15.7347],[145.8063,-15.7292],[145.8073,-15.7185],[145.8061,-15.7078],[145.8139,-15.6625],[145.8159,-15.6569],[145.8146,-15.6528],[145.8173,-15.6369],[145.8153,-15.6339],[145.8055,-15.613],[145.8038,-15.598],[145.7942,-15.579],[145.8003,-15.5626],[145.7989,-15.5569],[145.8048,-15.546],[145.8061,-15.5362],[145.8006,-15.5205],[145.8059,-15.5109],[145.8111,-15.4913],[145.8104,-15.4867],[145.8111,-15.4723],[145.8083,-15.4634],[145.802,-15.447],[145.804,-15.4414],[145.8046,-15.4294],[145.8031,-15.4214],[145.7924,-15.4024],[145.7876,-15.375],[145.7868,-15.368],[145.784,-15.3579],[145.7835,-15.3482],[145.7799,-15.3352],[145.767,-15.3148],[145.7661,-15.3066],[145.7609,-15.3007],[145.7562,-15.2882],[145.7567,-15.281],[145.7551,-15.2763],[145.7547,-15.266],[145.7531,-15.2608],[145.7488,-15.2553],[145.7485,-15.2333],[145.7496,-15.2308],[145.749,-15.218],[145.7523,-15.208],[145.7526,-15.2033],[145.743,-15.1983],[145.7398,-15.1942],[145.7383,-15.1868],[145.7392,-15.1791],[145.7418,-15.1738],[145.7411,-15.1663],[145.7348,-15.1606],[145.7331,-15.1545],[145.736,-15.1414],[145.7334,-15.1373],[145.7255,-15.1153],[145.7287,-15.0944],[145.7366,-15.0802],[145.7357,-15.0683],[145.7304,-15.0602],[145.7283,-15.053],[145.729,-15.0447],[145.7206,-15.0391],[145.7168,-15.0335],[145.7137,-15.0141],[145.7159,-15.0097],[145.7178,-14.9984],[145.7164,-14.9891],[145.7183,-14.9839],[145.7159,-14.9717],[145.711,-14.9689],[145.7043,-14.9527],[145.7166,-14.9206],[145.7246,-14.9117],[145.728,-14.8986],[145.7329,-14.8823],[145.7333,-14.8663],[145.7319,-14.8522],[145.7269,-14.834],[145.7274,-14.8259],[145.7242,-14.8192],[145.7246,-14.8123],[145.7184,-14.7843],[145.7174,-14.7757],[145.7145,-14.767],[145.7118,-14.745],[145.7072,-14.7438],[145.7046,-14.7391],[145.7045,-14.7246],[145.7006,-14.7187],[145.6994,-14.7058],[145.6955,-14.6989],[145.6848,-14.6904],[145.6815,-14.6894],[145.6787,-14.6765],[145.6726,-14.6758],[145.668,-14.672],[145.6657,-14.6594],[145.6539,-14.6465],[145.652,-14.6343],[145.6473,-14.625],[145.6376,-14.6229],[145.6339,-14.618],[145.6285,-14.6072],[145.6257,-14.5951],[145.6279,-14.5918],[145.6265,-14.582],[145.6181,-14.5748],[145.6106,-14.567],[145.6099,-14.556],[145.6,-14.5453],[145.5958,-14.5442],[145.5911,-14.5335],[145.5811,-14.5235],[145.5746,-14.5221],[145.5615,-14.5062],[145.5611,-14.5013],[145.5518,-14.4914],[145.5494,-14.4867],[145.538,-14.4756],[145.5335,-14.4727],[145.5285,-14.4717],[145.5225,-14.4727],[145.5117,-14.4625],[145.5091,-14.4553],[145.5017,-14.4464],[145.4923,-14.4372],[145.4851,-14.4317],[145.4723,-14.4294],[145.4674,-14.4276],[145.4517,-14.4281],[145.4481,-14.4315],[145.4274,-14.4268],[145.4269,-14.4245],[145.4214,-14.4201],[145.4049,-14.3926],[145.4049,-14.3869],[145.3994,-14.3788],[145.3847,-14.3707],[145.3783,-14.371],[145.3731,-14.369],[145.359,-14.356],[145.351,-14.3535],[145.3382,-14.3459],[145.3173,-14.3463],[145.3054,-14.3436],[145.2955,-14.3436],[145.2927,-14.3425],[145.288,-14.3346],[145.2777,-14.3356],[145.2641,-14.325],[145.2564,-14.317],[145.2531,-14.3088],[145.2414,-14.301],[145.2167,-14.2961],[145.2124,-14.2946],[145.2016,-14.2938],[145.1892,-14.29],[145.1876,-14.288],[145.1774,-14.2841],[145.1682,-14.2822],[145.1617,-14.2776],[145.1556,-14.2766],[145.144,-14.2782],[145.1322,-14.2758],[145.1307,-14.2723],[145.1262,-14.2698],[145.1169,-14.2618],[145.1136,-14.2619],[145.1062,-14.258],[145.0958,-14.2541],[145.0869,-14.2539],[145.0807,-14.252],[145.0767,-14.2488],[145.0711,-14.2417],[145.0564,-14.2318],[145.0404,-14.233],[145.0291,-14.2323],[145.0166,-14.2297],[145.0141,-14.2274],[145.0058,-14.2271],[144.9996,-14.2255],[144.9893,-14.2268],[144.9856,-14.2287],[144.962,-14.2243],[144.958,-14.2225],[144.9519,-14.2172],[144.95,-14.2104],[144.9458,-14.2067],[144.9432,-14.1996],[144.9321,-14.1932],[144.9272,-14.1919],[144.9185,-14.197],[144.9139,-14.1983],[144.9073,-14.1954],[144.9062,-14.1925],[144.8967,-14.19],[144.89,-14.191],[144.8833,-14.19],[144.8669,-14.1821],[144.8667,-14.1777],[144.8615,-14.164],[144.855,-14.1593],[144.8497,-14.1491],[144.8417,-14.1406],[144.8302,-14.1341],[144.8108,-14.1249],[144.8052,-14.1203],[144.8041,-14.1138],[144.8011,-14.1059],[144.7931,-14.0971],[144.7864,-14.0883],[144.7852,-14.0785],[144.7814,-14.0664],[144.7784,-14.0622],[144.7761,-14.0514],[144.78,-14.0457],[144.7784,-14.0435],[144.7794,-14.0373],[144.7874,-14.026],[144.7875,-14.0191],[144.7801,-14.0114],[144.769,-14.0075],[144.7584,-14.0071],[144.7534,-14.0057],[144.7461,-13.9998],[144.7418,-13.9987],[144.7325,-13.9918],[144.7202,-13.9893],[144.7187,-13.9904],[144.6972,-13.9905],[144.6944,-13.9886],[144.6944,-13.979],[144.6901,-13.971],[144.6787,-13.9627],[144.6749,-13.9547],[144.6738,-13.9466],[144.6701,-13.9452],[144.6518,-13.9207],[144.6156,-13.9196],[144.6052,-13.9143],[144.6021,-13.9163],[144.6012,-13.9235],[144.5974,-13.9266],[144.5894,-13.9297],[144.5889,-13.9329],[144.5749,-13.9578],[144.5707,-13.9615],[144.5407,-13.9719],[144.5295,-13.9696],[144.5118,-13.9714],[144.5031,-13.9707],[144.5012,-13.9729],[144.4739,-13.9769],[144.465,-13.9719],[144.4565,-13.9657],[144.4474,-13.9653],[144.4283,-13.9545],[144.4263,-13.9501],[144.4212,-13.9478],[144.4061,-13.9352],[144.3996,-13.9334],[144.3941,-13.9339],[144.3866,-13.9373],[144.365,-13.9236],[144.3642,-13.9138],[144.3613,-13.9107],[144.3615,-13.9046],[144.3552,-13.8841],[144.3385,-13.862],[144.3231,-13.8452],[144.3066,-13.8314],[144.302,-13.8152],[144.2943,-13.8049],[144.2854,-13.8015],[144.2742,-13.79],[144.2745,-13.7827],[144.2632,-13.7665],[144.2597,-13.7548],[144.2604,-13.7477],[144.2563,-13.7387],[144.24,-13.7257],[144.2329,-13.7237],[144.2244,-13.7162],[144.2121,-13.7109],[144.1948,-13.696],[144.1885,-13.6939],[144.1877,-13.6906],[144.1827,-13.6815],[144.1729,-13.6749],[144.1648,-13.6663],[144.1619,-13.6475],[144.1578,-13.6443],[144.1124,-13.6206],[144.1091,-13.616],[144.1063,-13.6023],[144.1101,-13.5826],[144.1078,-13.5702],[144.1158,-13.5559],[144.1165,-13.5463],[144.1142,-13.5436],[144.1084,-13.5461],[144.1,-13.5458],[144.0962,-13.5438],[144.091,-13.532],[144.0909,-13.5199],[144.0952,-13.5125],[144.0952,-13.5065],[144.0744,-13.504],[144.0698,-13.4979],[144.0649,-13.4939],[144.0606,-13.4831],[144.0638,-13.4762],[144.0715,-13.4687],[144.0734,-13.4633],[144.0727,-13.4543],[144.0696,-13.4534],[144.0659,-13.4572],[144.0569,-13.4576],[144.0532,-13.4654],[144.0487,-13.4688],[144.0316,-13.4766],[144.0164,-13.4747],[144.0042,-13.462],[144.0,-13.4613],[143.9855,-13.4433],[143.9865,-13.436],[143.9844,-13.4285],[143.9876,-13.4223],[143.9914,-13.421],[143.9931,-13.4146],[143.9919,-13.4104],[143.9841,-13.3959],[143.9839,-13.3915],[143.9723,-13.3769],[143.9712,-13.3664],[143.9676,-13.3623],[143.9687,-13.3575],[143.9761,-13.3519],[143.9789,-13.3445],[143.9846,-13.3375],[143.9945,-13.334],[143.9955,-13.3306],[143.9935,-13.3251],[143.9886,-13.3225],[143.9856,-13.3176],[143.9854,-13.3085],[143.9797,-13.299],[143.9725,-13.2927],[143.9675,-13.2925],[143.958,-13.2885],[143.9521,-13.2832],[143.9555,-13.276],[143.9558,-13.2721],[143.9523,-13.2649],[143.9544,-13.2591],[143.9591,-13.2581],[143.9689,-13.2522],[143.9767,-13.2486],[143.9812,-13.2369],[143.9812,-13.2328],[143.9776,-13.23],[143.9699,-13.2207],[143.9666,-13.2099],[143.9691,-13.1996],[143.9624,-13.1901],[143.9586,-13.1751],[143.9509,-13.1637],[143.9504,-13.1572],[143.9535,-13.1506],[143.9634,-13.1394],[143.9745,-13.1255],[143.982,-13.114],[143.9823,-13.1063],[143.979,-13.0971],[143.9755,-13.0957],[143.9635,-13.0871],[143.9625,-13.0812],[143.9666,-13.0711],[143.966,-13.0552],[143.9602,-13.0509],[143.9545,-13.0532],[143.9511,-13.0575],[143.9472,-13.067],[143.9427,-13.0704],[143.9057,-13.069],[143.9019,-13.0669],[143.8812,-13.0469],[143.8795,-13.0447],[143.8782,-13.0353],[143.8767,-13.0317],[143.866,-13.0225],[143.8628,-13.0143],[143.8609,-13.0052],[143.8617,-12.9977],[143.848,-12.9836],[143.8461,-12.9804],[143.836,-12.9747],[143.8397,-12.9642],[143.8326,-12.9561],[143.8316,-12.9473],[143.8344,-12.9382],[143.831,-12.9291],[143.8319,-12.9218],[143.8253,-12.9053],[143.8234,-12.8989],[143.8279,-12.8872],[143.8298,-12.8765],[143.8287,-12.869],[143.8311,-12.8659],[143.8353,-12.8659],[143.8454,-12.8624],[143.8553,-12.8516],[143.8552,-12.84],[143.8512,-12.8234],[143.8455,-12.818],[143.8397,-12.8147],[143.836,-12.8099],[143.829,-12.8051],[143.8211,-12.7984],[143.8149,-12.7962],[143.8107,-12.7892],[143.8127,-12.7841],[143.8169,-12.7673],[143.8155,-12.7585],[143.8172,-12.7567],[143.8283,-12.754],[143.8327,-12.7516],[143.8338,-12.7467],[143.827,-12.7423],[143.8207,-12.7365],[143.8188,-12.7325],[143.8141,-12.7287],[143.8165,-12.7214],[143.8152,-12.7106],[143.8187,-12.7061],[143.8254,-12.7016],[143.8424,-12.7014],[143.8506,-12.7024],[143.8542,-12.7004],[143.8624,-12.6908],[143.8623,-12.6862],[143.8559,-12.6791],[143.8516,-12.6721],[143.8509,-12.66],[143.8476,-12.6559],[143.8454,-12.6453],[143.8477,-12.6355],[143.8362,-12.6254],[143.8322,-12.6232],[143.825,-12.6146],[143.8241,-12.6044],[143.8143,-12.5941],[143.8088,-12.5898],[143.8011,-12.578],[143.7968,-12.5759],[143.7989,-12.5606],[143.7979,-12.555],[143.7983,-12.5482],[143.8005,-12.5351],[143.8009,-12.5221],[143.7974,-12.5169],[143.7922,-12.5033],[143.7853,-12.4964],[143.7788,-12.4884],[143.7737,-12.4804],[143.7734,-12.4755],[143.7756,-12.4721],[143.7682,-12.4566],[143.7643,-12.452],[143.7577,-12.4363],[143.7532,-12.4277],[143.7532,-12.4221],[143.7632,-12.4155],[143.7683,-12.4157],[143.7696,-12.4105],[143.789,-12.3982],[143.7902,-12.3884],[143.7884,-12.3874],[143.7872,-12.3756],[143.7914,-12.3724],[143.7959,-12.3641],[143.8125,-12.3544],[143.8246,-12.3504],[143.8291,-12.3462],[143.8364,-12.3435],[143.8372,-12.3352],[143.8468,-12.3344],[143.8522,-12.3329],[143.8542,-12.337],[143.8665,-12.3429],[143.8682,-12.3487],[143.8743,-12.351],[143.8795,-12.3465],[143.8812,-12.342],[143.8753,-12.3322],[143.874,-12.3258],[143.8748,-12.3213],[143.8837,-12.3171],[143.8925,-12.3179],[143.8932,-12.3129],[143.8865,-12.305],[143.8875,-12.2997],[143.8974,-12.2987],[143.9028,-12.3007],[143.9057,-12.2998],[143.9076,-12.2907],[143.9217,-12.2783],[143.9299,-12.2726],[143.9388,-12.2642],[143.9402,-12.2586],[143.9316,-12.2547],[143.9281,-12.2427],[143.931,-12.2363],[143.9322,-12.2271],[143.9378,-12.2193],[143.9478,-12.2178],[143.9511,-12.2127],[143.9468,-12.2095],[143.9688,-12.1001],[143.9743,-12.0957],[143.9703,-12.0913],[143.9658,-12.0828],[143.965,-12.0777],[143.9683,-12.0749],[143.979,-12.0714],[143.9806,-12.0609],[143.9766,-12.057],[143.9732,-12.0448],[143.9775,-12.0396],[143.9835,-12.0375],[143.9827,-12.033],[143.9991,-11.9695],[144.0035,-11.9686],[144.0109,-11.9629],[144.0182,-11.9555],[144.0181,-11.9509],[144.0103,-11.9432],[144.0277,-11.8418],[144.0355,-11.8427],[144.0404,-11.8392],[144.054,-11.8389],[144.058,-11.8366],[144.0687,-11.8352],[144.0798,-11.8348],[144.0848,-11.8336],[144.0906,-11.8293],[144.0931,-11.8213],[144.0822,-11.8086],[144.0829,-11.794],[144.0742,-11.7848],[144.0732,-11.7805],[144.0614,-11.7702],[144.0599,-11.7557],[144.0602,-11.7522],[144.0672,-11.7439],[144.0765,-11.7448],[144.087,-11.7436],[144.0965,-11.7464],[144.1,-11.75],[144.1,-11.7203],[144.0976,-11.7146],[144.0948,-11.7126],[144.0863,-11.7115],[144.0747,-11.7051],[144.0683,-11.7054],[144.0611,-11.7035],[144.051,-11.7061],[144.0355,-11.7014],[144.0282,-11.6942],[144.0308,-11.6854],[144.0242,-11.6711],[144.019,-11.6642],[144.0517,-11.6008],[144.0545,-11.6008],[144.0569,-11.5967],[144.0508,-11.5919],[144.0661,-11.5202],[144.078,-11.52],[144.0836,-11.5172],[144.0868,-11.5121],[144.088,-11.5056],[144.0876,-11.4888],[144.0824,-11.4698],[144.0822,-11.4629],[144.0805,-11.4569],[144.0823,-11.4538],[144.0803,-11.4501],[144.0685,-11.4428],[144.0666,-11.4432],[144.0593,-11.437],[144.0508,-11.4321],[144.0343,-11.4181],[144.0312,-11.4125],[144.0211,-11.3997],[144.0171,-11.4002],[143.9659,-11.3726],[143.9669,-11.3701],[143.965,-11.3501],[143.9659,-11.3321],[143.9699,-11.3269],[143.9712,-11.3217],[143.9989,-11.2934],[144.0001,-11.2929],[144.036,-11.2877],[144.0466,-11.2934],[144.0526,-11.2978],[144.0561,-11.297],[144.0609,-11.2919],[144.0629,-11.2828],[144.0687,-11.2746],[144.0714,-11.2685],[144.0737,-11.2576],[144.0741,-11.2466],[144.0761,-11.2403],[144.075,-11.2268],[144.0719,-11.2145],[144.069,-11.2121],[144.0654,-11.1883],[144.0664,-11.1818],[144.0626,-11.1725],[144.0619,-11.1668],[144.0664,-11.1596],[144.0667,-11.1545],[144.0693,-11.1485],[144.0781,-11.1404],[144.0815,-11.1351],[144.0799,-11.127],[144.0618,-11.1066],[144.0615,-11.0943],[144.058,-11.0902],[144.0556,-11.0801],[144.0522,-11.0775],[144.0495,-11.0714],[144.0495,-11.0643],[144.0481,-11.0558],[144.0433,-11.0396],[144.0321,-11.0228],[144.0137,-11.0129],[144.0126,-11.0043],[144.0147,-11.0033],[144.0287,-11.0011],[144.0344,-11.0024],[144.0428,-11.0013],[144.0448,-10.9976],[144.0417,-10.9885],[144.0419,-10.9794],[144.0383,-10.9726],[144.0385,-10.9643],[144.0369,-10.9505],[144.0371,-10.9422],[144.0404,-10.936],[144.0375,-10.9252],[144.034,-10.9184],[144.0365,-10.9046],[144.0342,-10.8954],[144.022,-10.8644],[144.0192,-10.8563],[144.0216,-10.8532],[144.025,-10.8425],[144.0253,-10.8319],[144.0204,-10.8251],[144.0186,-10.8167],[144.0193,-10.8113],[144.0179,-10.8052],[144.0118,-10.8004],[144.01,-10.7937],[144.0067,-10.7902],[144.0069,-10.7864],[144.0037,-10.7821],[144.0042,-10.7649],[144.0038,-10.7516],[143.9962,-10.7341],[143.9953,-10.729],[143.99,-10.7148],[143.9866,-10.7137],[143.9874,-10.7081],[143.9859,-10.7014],[143.9836,-10.6999],[143.983,-10.691],[143.981,-10.6836],[143.9746,-10.6721],[143.9701,-10.6689],[143.9684,-10.6622],[143.9655,-10.6566],[143.9661,-10.6514],[143.9608,-10.6433],[143.9593,-10.6387],[143.9603,-10.6339],[143.9565,-10.6278],[143.9519,-10.6242],[143.9495,-10.6196],[143.9486,-10.6135],[143.9414,-10.6084],[143.9411,-10.604],[143.9439,-10.6021],[143.9435,-10.5969],[143.9378,-10.5896],[143.9387,-10.5859],[143.9364,-10.5813],[143.936,-10.5643],[143.9312,-10.5598],[143.9327,-10.5526],[143.9334,-10.5436],[143.9264,-10.5448],[143.9259,-10.5307],[143.9294,-10.5295],[143.9325,-10.5252],[143.9328,-10.5183],[143.9305,-10.5093],[143.9242,-10.5046],[143.9233,-10.4993],[143.9312,-10.4942],[143.931,-10.4863],[143.9273,-10.4857],[143.9259,-10.4807],[143.9283,-10.4729],[143.9381,-10.4715],[143.9405,-10.4664],[143.9351,-10.4592],[143.9329,-10.4527],[143.9404,-10.4496],[143.9501,-10.4483],[143.9537,-10.4439],[143.9529,-10.4333],[143.95,-10.4286],[143.9527,-10.4246],[143.9507,-10.4135],[143.9482,-10.4128],[143.9477,-10.4075],[143.9508,-10.4066],[143.949,-10.3949],[143.9533,-10.3875],[143.9493,-10.383],[143.9488,-10.3635],[143.9581,-10.356],[143.9515,-10.3469],[143.9539,-10.3445],[143.9544,-10.3368],[143.9502,-10.3259],[143.9556,-10.3201],[143.955,-10.3134],[143.9579,-10.2907],[143.9607,-10.2856],[143.9574,-10.2821],[143.9607,-10.2765],[143.9637,-10.2778],[143.9658,-10.2729],[143.972,-10.2633],[143.9728,-10.2595],[143.9689,-10.2479],[143.9707,-10.2469],[143.9687,-10.2389],[143.9747,-10.2313],[143.9741,-10.2246],[143.9817,-10.2106],[143.9788,-10.2061],[144.0,-10.196],[144.0015,-10.1937],[143.9997,-10.1875],[144.0063,-10.179],[144.0079,-10.1746],[144.0131,-10.1682],[144.0128,-10.1655],[144.0184,-10.1543],[144.0215,-10.1433],[144.0218,-10.1381],[144.0269,-10.1226],[144.0244,-10.1168],[144.0676,-10.0659],[144.0835,-10.0341],[144.0863,-10.0292],[144.1407,-9.9773],[144.1446,-9.9723],[144.1567,-9.9706],[144.1588,-9.9664],[144.1711,-9.9053],[144.1751,-9.9021],[144.1739,-9.8942],[144.1847,-9.8795],[144.1886,-9.8773],[144.2044,-9.8737],[144.2048,-9.8692],[144.219,-9.8652],[144.2225,-9.8597],[144.2331,-9.8547],[144.2455,-9.855],[144.2548,-9.8466],[144.2511,-9.4986],[143.9794,-9.4181],[143.8011,-9.3652],[143.5011,-9.3985],[143.3344,-9.5485],[143.3355,-9.5433],[143.3424,-9.5322],[143.3454,-9.5234],[143.3466,-9.516],[143.3469,-9.5067],[143.3458,-9.4992],[143.3405,-9.4853],[143.3326,-9.4748],[143.3222,-9.4667],[143.3137,-9.4627],[143.3064,-9.4606],[143.2933,-9.4597],[143.2811,-9.4613],[143.2659,-9.4666],[143.2521,-9.4753],[143.2444,-9.4836],[143.2404,-9.49],[143.2368,-9.4987],[143.2352,-9.5061],[143.2347,-9.5155],[143.2369,-9.5286],[143.2405,-9.5374],[143.2486,-9.5485],[143.0845,-9.5485],[143.0011,-9.6652],[142.8393,-9.6741],[142.5009,-9.6922],[142.3845,-9.6985],[142.0595,-9.7552],[142.0011,-9.7652],[141.6536,-9.9747],[141.5011,-10.0735],[141.2568,-10.2214],[141.0026,-10.375],[141.0011,-10.9986],[140.9993,-11.3033],[140.9956,-11.9585],[140.9983,-13.3391],[141.0011,-14.7652],[141.5515,-14.7645],[141.573,-14.7664],[141.5752,-14.7754],[141.5847,-14.8108],[141.5881,-14.8329],[141.5895,-14.8474],[141.5915,-14.8489],[141.5906,-14.8545],[141.5946,-14.8662],[141.6076,-14.8965],[141.6175,-14.9159],[141.6216,-14.9174],[141.6216,-14.9237],[141.6244,-14.9327],[141.6288,-14.9419],[141.6314,-14.9389],[141.6347,-14.9439],[141.634,-14.9483],[141.6407,-14.9587],[141.6563,-14.9763],[141.6621,-14.9868],[141.6665,-15.0022],[141.6678,-15.0111],[141.6668,-15.0309],[141.6682,-15.0331],[141.664,-15.0373],[141.6581,-15.0616],[141.6535,-15.0623],[141.6507,-15.0689],[141.6513,-15.0815],[141.6633,-15.0957],[141.6707,-15.1036],[141.6739,-15.11],[141.6847,-15.1096],[141.6867,-15.1039],[141.6903,-15.1],[141.6963,-15.0986],[141.7061,-15.1057],[141.7102,-15.11],[141.7137,-15.1073],[141.7185,-15.1077],[141.7208,-15.1102],[141.7194,-15.1156],[141.7125,-15.1144],[141.7101,-15.1182],[141.7149,-15.1208],[141.7197,-15.1167],[141.7252,-15.1198],[141.7217,-15.1269],[141.7242,-15.1391],[141.7284,-15.1389],[141.7321,-15.1417],[141.7424,-15.1388],[141.7543,-15.1408],[141.7561,-15.1359],[141.763,-15.1368],[141.7657,-15.1407],[141.771,-15.1396],[141.7748,-15.141],[141.7792,-15.1393],[141.784,-15.1405],[141.7863,-15.1446],[141.8049,-15.14],[141.8047,-15.1368],[141.8187,-15.1318],[141.8233,-15.1356],[141.8317,-15.1312],[141.8368,-15.13],[141.8432,-15.1254],[141.8496,-15.1269],[141.8525,-15.1257],[141.8582,-15.1258],[141.8663,-15.1243],[141.8711,-15.1256],[141.8729,-15.1229],[141.8794,-15.1195],[141.8839,-15.1207],[141.8918,-15.1158],[141.8973,-15.1141],[141.9038,-15.1159],[141.9124,-15.1147],[141.9143,-15.1108],[141.9192,-15.1099],[141.9256,-15.1109],[141.9296,-15.1142],[141.9339,-15.1136],[141.9467,-15.0983],[141.9549,-15.0951],[141.9582,-15.0924],[141.9629,-15.0932],[141.9689,-15.0916],[141.9742,-15.0882],[141.9847,-15.0886],[141.9928,-15.0843],[141.9956,-15.087],[142.0036,-15.0878],[142.0182,-15.0783],[142.0229,-15.0778],[142.031,-15.0728],[142.0372,-15.0706],[142.0432,-15.0736],[142.047,-15.0706],[142.0594,-15.0678],[142.0595,-15.0624],[142.0815,-15.0504],[142.0866,-15.0453],[142.0864,-15.0433],[142.0927,-15.0356],[142.0931,-15.0313],[142.1044,-15.0188],[142.1108,-15.009],[142.1133,-15.0101],[142.112,-15.0164],[142.1139,-15.02],[142.0993,-15.0336],[142.0989,-15.0397],[142.0866,-15.0474],[142.0789,-15.0582],[142.0746,-15.0582],[142.0706,-15.0605],[142.0641,-15.0689],[142.0573,-15.0712],[142.0527,-15.0775],[142.0482,-15.0769],[142.0393,-15.0787],[142.0353,-15.0781],[142.0307,-15.0812],[142.0248,-15.0818],[142.0184,-15.0872],[142.0146,-15.0879],[142.0124,-15.0914],[142.0008,-15.094],[141.9955,-15.0925],[141.9898,-15.0863],[141.9834,-15.0894],[141.9775,-15.0941],[141.9708,-15.0963],[141.9666,-15.0995],[141.9611,-15.1013],[141.9561,-15.1049],[141.9457,-15.1067],[141.9408,-15.1065],[141.9343,-15.114],[141.9282,-15.1148],[141.9253,-15.1113],[141.9202,-15.1105],[141.9138,-15.1122],[141.9128,-15.1157],[141.8996,-15.1164],[141.897,-15.115],[141.8919,-15.1163],[141.8837,-15.1214],[141.8802,-15.12],[141.8747,-15.1223],[141.8715,-15.1262],[141.8662,-15.1246],[141.8602,-15.1273],[141.8517,-15.1262],[141.8482,-15.1274],[141.8436,-15.1267],[141.8367,-15.1306],[141.8233,-15.1365],[141.8187,-15.1326],[141.8116,-15.1345],[141.805,-15.1378],[141.8054,-15.1409],[141.7952,-15.1444],[141.7865,-15.146],[141.7827,-15.1407],[141.7776,-15.14],[141.775,-15.1421],[141.7731,-15.1405],[141.7684,-15.1427],[141.7643,-15.1405],[141.7584,-15.1397],[141.7535,-15.1449],[141.746,-15.1422],[141.7466,-15.1489],[141.7412,-15.1499],[141.7382,-15.1456],[141.7311,-15.1452],[141.7306,-15.1422],[141.7232,-15.1397],[141.7204,-15.1302],[141.7174,-15.127],[141.7207,-15.1245],[141.7195,-15.1214],[141.7139,-15.1222],[141.71,-15.1205],[141.7098,-15.1124],[141.7064,-15.1078],[141.7015,-15.1094],[141.7007,-15.104],[141.6969,-15.1005],[141.6929,-15.1007],[141.6884,-15.1042],[141.686,-15.1103],[141.6742,-15.1118],[141.6666,-15.1023],[141.6549,-15.092],[141.6493,-15.09],[141.6445,-15.0837],[141.6434,-15.0788],[141.6453,-15.0704],[141.637,-15.09],[141.6398,-15.0971],[141.6384,-15.0999],[141.6323,-15.1046],[141.6322,-15.1086],[141.6353,-15.1112],[141.6399,-15.1227],[141.6407,-15.1292],[141.6373,-15.145],[141.6355,-15.1497],[141.6267,-15.1614],[141.6196,-15.1696],[141.6097,-15.1781],[141.5985,-15.1889],[141.5939,-15.1984],[141.5839,-15.2042],[141.5813,-15.2072],[141.5802,-15.2309],[141.5786,-15.2453],[141.5745,-15.2704],[141.5719,-15.2828],[141.5666,-15.3024],[141.5602,-15.3132],[141.5514,-15.3252],[141.5435,-15.3378],[141.549,-15.34],[141.5492,-15.3458],[141.5475,-15.3492],[141.548,-15.3547],[141.5415,-15.3628],[141.5362,-15.3743],[141.5354,-15.379],[141.5202,-15.4174],[141.5131,-15.4334],[141.4976,-15.4763],[141.493,-15.4839],[141.4859,-15.493],[141.4848,-15.4992],[141.4915,-15.4969],[141.493,-15.4881],[141.4997,-15.4855],[141.5025,-15.4914],[141.5073,-15.4922],[141.4994,-15.5019],[141.4922,-15.508],[141.4926,-15.5153],[141.4961,-15.5164],[141.4961,-15.5101],[141.5024,-15.5056],[141.5051,-15.5073],[141.507,-15.5144],[141.5027,-15.5162],[141.5031,-15.5191],[141.5098,-15.522],[141.5121,-15.5196],[141.5187,-15.5227],[141.5218,-15.5268],[141.5282,-15.5268],[141.5281,-15.522],[141.5222,-15.5212],[141.5217,-15.5128],[141.5319,-15.5136],[141.531,-15.5087],[141.5355,-15.5069],[141.5385,-15.5108],[141.5431,-15.5124],[141.5494,-15.5108],[141.5519,-15.5125],[141.5518,-15.5177],[141.5598,-15.5169],[141.5569,-15.5233],[141.5562,-15.5309],[141.5631,-15.5347],[141.5654,-15.5305],[141.5742,-15.5261],[141.5794,-15.5261],[141.5816,-15.5193],[141.5871,-15.5217],[141.5929,-15.5207],[141.5981,-15.5252],[141.5988,-15.5292],[141.6042,-15.5354],[141.6173,-15.5364],[141.6262,-15.5404],[141.6281,-15.5438],[141.639,-15.5411],[141.7992,-15.5547],[141.9726,-15.5691],[141.9953,-15.4535],[141.9917,-15.4476],[141.9839,-15.4422],[141.9825,-15.438],[141.9712,-15.4267],[141.969,-15.422],[141.9645,-15.4189],[141.9573,-15.4169],[141.956,-15.411],[141.951,-15.4059],[141.945,-15.4047],[141.9402,-15.3976],[141.9403,-15.3906],[141.944,-15.3861],[141.9565,-15.3802],[141.9631,-15.3655],[141.9683,-15.3556],[141.9757,-15.3578],[141.9841,-15.3624],[141.9958,-15.3647],[142.0012,-15.3681],[142.0123,-15.373],[142.0189,-15.3795],[142.0245,-15.3788],[142.0931,-15.1902],[142.1927,-15.3476],[142.2401,-15.4231],[142.5351,-15.4501],[142.6501,-15.4605],[142.6517,-15.443],[142.6674,-15.3114],[142.8392,-15.3237],[142.9724,-15.3331],[142.9596,-15.4793],[142.9031,-15.4747],[142.8904,-15.6196],[142.7798,-15.6131],[142.7701,-15.7524],[142.7063,-15.7477],[142.6958,-15.8965],[142.6305,-15.9545],[142.622,-16.0169],[142.6309,-16.0206],[142.6365,-16.0279],[142.6412,-16.038],[142.6488,-16.0501],[142.6603,-16.0608],[142.6718,-16.0665],[142.6801,-16.0695],[142.6884,-16.0704],[142.6986,-16.0704],[142.7061,-16.074],[142.711,-16.0794],[142.72,-16.0823],[142.7306,-16.0895],[142.7391,-16.0833],[142.743,-16.0824],[142.7455,-16.0783],[142.7523,-16.0782],[142.7722,-16.0746],[142.7853,-16.0774],[142.7922,-16.0809],[142.8031,-16.0793],[142.82,-16.0792],[142.8371,-16.0801],[142.8557,-16.0849],[142.8744,-16.0865],[142.8968,-16.0842],[142.9046,-16.0847],[142.9247,-16.0769],[142.9406,-16.0759],[142.9557,-16.0766],[142.9859,-16.0833],[143.004,-16.095],[143.0114,-16.0966],[143.0155,-16.0932],[143.0207,-16.0919],[143.0427,-16.113],[143.0543,-16.1134],[143.0608,-16.1098],[143.0732,-16.1081],[143.1043,-16.1021],[143.1131,-16.1051],[143.122,-16.1048],[143.1406,-16.1029],[143.1483,-16.1043],[143.1686,-16.1015],[143.1843,-16.0964],[143.1933,-16.1019],[143.2126,-16.1059],[143.2231,-16.1075],[143.2369,-16.105],[143.2486,-16.1008],[143.2546,-16.0943],[143.2617,-16.0933],[143.2678,-16.0939],[143.2755,-16.0923],[143.2903,-16.0839],[143.2987,-16.0832],[143.3033,-16.0762],[143.3224,-16.0666],[143.3408,-16.0552],[143.3558,-16.0479],[143.3658,-16.0445],[143.3763,-16.0431],[143.3902,-16.0425],[143.402,-16.0454],[143.4121,-16.0557],[143.421,-16.0546],[143.4273,-16.0514],[143.4309,-16.0447],[143.4372,-16.046],[143.4398,-16.0506],[143.4463,-16.0548],[143.4568,-16.0561],[143.4655,-16.0548],[143.4703,-16.0584],[143.4654,-16.0633],[143.4654,-16.0686],[143.4748,-16.071],[143.4805,-16.0744],[143.4843,-16.0792],[143.489,-16.0809],[143.4946,-16.0806],[143.5013,-16.0867],[143.5176,-16.0888],[143.5209,-16.091],[143.5301,-16.0941],[143.5333,-16.0907],[143.5397,-16.0884],[143.5456,-16.0887],[143.5471,-16.0859],[143.5549,-16.081],[143.5637,-16.0789],[143.573,-16.0811],[143.5843,-16.0772],[143.5888,-16.0796],[143.5948,-16.0791],[143.601,-16.0752],[143.6124,-16.0781],[143.6142,-16.074],[143.6177,-16.0726],[143.6217,-16.0773],[143.6258,-16.0776],[143.6319,-16.0755],[143.6384,-16.0765],[143.6421,-16.079],[143.6436,-16.0855],[143.639,-16.0928],[143.6422,-16.0954],[143.6451,-16.103],[143.6525,-16.1067],[143.6547,-16.1136],[143.6599,-16.1197],[143.666,-16.1164],[143.6699,-16.1182],[143.6725,-16.1234],[143.68,-16.1264],[143.6826,-16.1245],[143.692,-16.1307],[143.6953,-16.1298],[143.7037,-16.1343],[143.7124,-16.1334],[143.7175,-16.1447],[143.7257,-16.154],[143.733,-16.154],[143.742,-16.1578],[143.7465,-16.1572],[143.7513,-16.1596],[143.7522,-16.1633],[143.7581,-16.1653],[143.7646,-16.1608],[143.7666,-16.1628],[143.7736,-16.1644],[143.7757,-16.1583],[143.779,-16.1568],[143.7861,-16.1585],[143.7993,-16.1562],[143.8028,-16.1576],[143.8088,-16.1542],[143.8136,-16.1458],[143.8184,-16.1442],[143.8221,-16.1375],[143.8317,-16.1324],[143.8438,-16.1367],[143.8513,-16.1371],[143.854,-16.1357],[143.8534,-16.1296],[143.8596,-16.1239],[143.8644,-16.1223],[143.8693,-16.1166],[143.8713,-16.1081],[143.874,-16.1061],[143.8799,-16.1063],[143.8804,-16.1109],[143.8905,-16.1159],[143.8932,-16.1184],[143.8982,-16.1165],[143.8994,-16.1208],[143.9027,-16.1222],[143.9028,-16.1273],[143.9096,-16.128],[143.9108,-16.1321],[143.9149,-16.1364],[143.9209,-16.1326],[143.9291,-16.1299],[143.9338,-16.1266],[143.9344,-16.1203],[143.9406,-16.1144],[143.9489,-16.1122],[143.9501,-16.1085],[143.9597,-16.1117],[143.9656,-16.1162],[143.9662,-16.1194],[143.9735,-16.1161],[143.9775,-16.1187],[143.9912,-16.1241],[143.9967,-16.1244],[144.0062,-16.1284],[144.0103,-16.1316],[144.016,-16.1387],[144.0226,-16.1392],[144.027,-16.1418],[144.0317,-16.1419],[144.041,-16.1471],[144.0482,-16.1472],[144.0506,-16.1417],[144.0569,-16.1436],[144.0619,-16.1388],[144.0678,-16.1357],[144.0701,-16.1306],[144.0748,-16.1316],[144.0826,-16.1308],[144.0864,-16.1289],[144.0929,-16.1347],[144.0981,-16.1337],[144.1005,-16.1393],[144.1076,-16.1432],[144.1178,-16.1419],[144.1163,-16.1493],[144.1187,-16.1646],[144.1209,-16.1828],[144.1226,-16.1844],[144.1303,-16.1838],[144.1367,-16.187],[144.138,-16.2],[144.1418,-16.2042],[144.1458,-16.2161],[144.1511,-16.2248],[144.1574,-16.2297],[144.1595,-16.2343],[144.1612,-16.2445],[144.1604,-16.2478],[144.1642,-16.2495],[144.1681,-16.2541],[144.1762,-16.2553],[144.176,-16.2624],[144.1868,-16.2659],[144.1966,-16.2622],[144.1992,-16.264],[144.2066,-16.264],[144.2115,-16.2674],[144.2124,-16.2718],[144.2227,-16.282],[144.2178,-16.2868],[144.2202,-16.2905],[144.2258,-16.2902],[144.2279,-16.3091],[144.2247,-16.3125],[144.2256,-16.3166],[144.2313,-16.3196],[144.2335,-16.3262],[144.2378,-16.3294],[144.2422,-16.3301],[144.2447,-16.3354],[144.2448,-16.3419],[144.2472,-16.3438],[144.2525,-16.3419],[144.2595,-16.3353],[144.263,-16.3365],[144.2674,-16.3344],[144.2679,-16.3288],[144.2764,-16.3233],[144.2875,-16.3345],[144.2928,-16.3377],[144.3014,-16.3376],[144.3065,-16.3294],[144.3135,-16.3278],[144.3199,-16.3169],[144.3236,-16.3138],[144.3282,-16.2987],[144.3352,-16.2903],[144.34,-16.2902],[144.3445,-16.2858],[144.3528,-16.2893],[144.3583,-16.2941],[144.3631,-16.3004],[144.3782,-16.3104],[144.3825,-16.3104],[144.3864,-16.3148],[144.3899,-16.3246],[144.3934,-16.3283],[144.3992,-16.3304],[144.4063,-16.3393],[144.407,-16.3477],[144.4152,-16.3499],[144.4248,-16.3471],[144.4322,-16.3406],[144.4381,-16.3422],[144.4423,-16.3394],[144.4508,-16.3315],[144.4573,-16.3357],[144.4662,-16.3382],[144.4709,-16.3367],[144.4746,-16.3435],[144.4823,-16.3485],[144.4885,-16.3474],[144.4941,-16.3485],[144.4957,-16.3521],[144.5001,-16.3554],[144.5037,-16.3532],[144.5068,-16.3546],[144.515,-16.3493],[144.5189,-16.3497],[144.5251,-16.3404],[144.5251,-16.337],[144.5211,-16.3338],[144.518,-16.3232],[144.5114,-16.3216],[144.5097,-16.3168],[144.5141,-16.3143],[144.5146,-16.3091],[144.5212,-16.3033],[144.5294,-16.2983],[144.5392,-16.2982],[144.5458,-16.3033],[144.5503,-16.301],[144.5576,-16.2999],[144.5585,-16.2941],[144.5709,-16.29],[144.5772,-16.2899],[144.5819,-16.2988],[144.5919,-16.3041],[144.5974,-16.3049],[144.6005,-16.3074],[144.6059,-16.3081],[144.6155,-16.3129],[144.6203,-16.319],[144.6276,-16.3217],[144.6344,-16.3185],[144.6427,-16.3172],[144.6448,-16.32],[144.653,-16.323],[144.655,-16.3255],[144.6724,-16.3312],[144.6788,-16.3327],[144.6839,-16.3276],[144.6897,-16.324],[144.6934,-16.3104],[144.6926,-16.303],[144.6899,-16.2978],[144.6905,-16.2917],[144.6953,-16.2788],[144.695,-16.2699],[144.6976,-16.2657],[144.7052,-16.2676],[144.7105,-16.2663],[144.7123,-16.2602],[144.7123,-16.2529],[144.7172,-16.2513],[144.7316,-16.2605],[144.75,-16.2614],[144.7617,-16.2625],[144.7647,-16.2671],[144.7649,-16.2718],[144.7709,-16.2755],[144.7733,-16.2837],[144.7714,-16.2939],[144.7849,-16.3026],[144.8013,-16.3223],[144.8076,-16.3338],[144.8086,-16.3379],[144.8171,-16.3386],[144.8209,-16.3444],[144.82,-16.3485],[144.8232,-16.3521],[144.8256,-16.3592],[144.8296,-16.3591],[144.8365,-16.363],[144.8365,-16.3554],[144.8396,-16.3499],[144.8453,-16.3525],[144.8522,-16.3523],[144.8557,-16.3471],[144.8542,-16.3445],[144.8577,-16.3396],[144.8602,-16.3316],[144.8684,-16.3283],[144.87,-16.3244],[144.8762,-16.3199],[144.88,-16.3257],[144.8843,-16.3423],[144.8877,-16.3465],[144.891,-16.3458],[144.8935,-16.3411],[144.9017,-16.3368],[144.9027,-16.3288],[144.9057,-16.3275],[144.9108,-16.3345],[144.9141,-16.3326],[144.9202,-16.3336],[144.9276,-16.3409],[144.9387,-16.3459],[144.9443,-16.3399],[144.9544,-16.3361],[144.9618,-16.3382],[144.965,-16.3343],[144.9716,-16.332],[144.9709,-16.327],[144.9752,-16.3261],[144.9806,-16.3209],[144.9908,-16.3172],[144.9937,-16.315],[144.9925,-16.3036],[144.9879,-16.301],[144.9846,-16.2947],[144.9833,-16.2864],[144.9784,-16.2853],[144.9758,-16.2796],[144.9785,-16.2749],[144.9866,-16.2662],[144.9949,-16.2637],[144.9982,-16.2588],[144.9931,-16.257],[144.9925,-16.253],[144.9972,-16.2508],[145.0004,-16.246],[145.0002,-16.2412],[145.0049,-16.2358],[145.0116,-16.2249],[145.021,-16.2209],[145.0262,-16.2244],[145.0209,-16.2264],[145.0248,-16.2313],[145.0336,-16.2306],[145.0544,-16.2408],[145.054,-16.243],[145.0617,-16.249],[145.0587,-16.2509],[145.0552,-16.2592],[145.061,-16.264],[145.0645,-16.2621],[145.0734,-16.265],[145.0794,-16.268],[145.0868,-16.2629],[145.0963,-16.2644],[145.1028,-16.2692],[145.1071,-16.2687],[145.1093,-16.2757],[145.1165,-16.2796],[145.1203,-16.2802],[145.1336,-16.2863],[145.1338,-16.2909],[145.1316,-16.2946],[145.1308,-16.3051],[145.1379,-16.3092],[145.1363,-16.3195],[145.1367,-16.3293],[145.1406,-16.3324],[145.1423,-16.3366],[145.1421,-16.343],[145.1403,-16.3465],[145.1449,-16.3508],[145.152,-16.3491],[145.1591,-16.3502],[145.1648,-16.3568],[145.1664,-16.3589]]],[[[144.2429,-9.4646],[144.2522,-9.4635],[144.2662,-9.4584],[144.2784,-9.4497],[144.2869,-9.4397],[144.2907,-9.4334],[144.2954,-9.4194],[144.2961,-9.412],[144.2948,-9.3983],[144.2902,-9.3807],[144.2845,-9.3695],[144.2801,-9.3634],[144.2597,-9.3445],[144.2535,-9.3404],[144.2377,-9.334],[144.2273,-9.3323],[144.2127,-9.3323],[144.2015,-9.3344],[144.1894,-9.3399],[144.1827,-9.3302],[144.1766,-9.324],[144.1646,-9.3161],[144.1494,-9.3093],[144.134,-9.3055],[144.1231,-9.3053],[144.1155,-9.3062],[144.1029,-9.3105],[144.0948,-9.3156],[144.0853,-9.325],[144.0795,-9.3348],[144.0761,-9.3434],[144.0745,-9.3506],[144.0739,-9.3597],[144.0754,-9.3705],[144.0808,-9.3841],[144.0869,-9.3928],[144.0986,-9.4034],[144.113,-9.4108],[144.1197,-9.4132],[144.136,-9.4169],[144.1455,-9.4173],[144.153,-9.4164],[144.1636,-9.4136],[144.1739,-9.4345],[144.1782,-9.4404],[144.1889,-9.4504],[144.2002,-9.4565],[144.2055,-9.4582],[144.22,-9.4609],[144.229,-9.4634],[144.2429,-9.4646]]],[[[143.8344,-9.2232],[143.8477,-9.2213],[143.86,-9.2161],[143.8677,-9.2105],[143.8765,-9.2004],[143.8895,-9.2007],[143.8987,-9.1989],[143.9057,-9.1963],[143.9138,-9.1918],[143.9214,-9.1862],[143.9291,-9.1778],[143.933,-9.1714],[143.9377,-9.1611],[143.9403,-9.1463],[143.9396,-9.1354],[143.9351,-9.1217],[143.9284,-9.1108],[143.9222,-9.1039],[143.9166,-9.0992],[143.9055,-9.0929],[143.8919,-9.0891],[143.8781,-9.0881],[143.8684,-9.0894],[143.856,-9.0932],[143.8418,-9.1022],[143.8366,-9.1071],[143.8301,-9.1158],[143.8265,-9.1233],[143.8155,-9.1263],[143.8086,-9.1296],[143.7994,-9.1365],[143.792,-9.1452],[143.7868,-9.1553],[143.7847,-9.1627],[143.7836,-9.174],[143.7852,-9.1853],[143.7902,-9.1977],[143.7944,-9.204],[143.8056,-9.2144],[143.8139,-9.219],[143.8212,-9.2215],[143.8344,-9.2232]]],[[[142.5317,-9.4868],[142.5443,-9.4853],[142.5562,-9.4808],[142.5667,-9.4735],[142.5725,-9.468],[142.5853,-9.4598],[142.602,-9.4669],[142.6194,-9.4728],[142.6329,-9.475],[142.6398,-9.4772],[142.6539,-9.4794],[142.6611,-9.4794],[142.674,-9.4774],[142.7023,-9.4801],[142.7146,-9.4804],[142.7278,-9.4781],[142.7374,-9.4816],[142.7495,-9.485],[142.7659,-9.4862],[142.7747,-9.4851],[142.7915,-9.4794],[142.8079,-9.4689],[142.8161,-9.4613],[142.8224,-9.4521],[142.826,-9.4436],[142.8282,-9.4327],[142.8371,-9.4232],[142.8417,-9.4152],[142.8472,-9.4036],[142.8511,-9.3929],[142.8519,-9.3856],[142.8509,-9.3698],[142.8483,-9.3601],[142.8436,-9.3488],[142.8383,-9.3411],[142.8272,-9.3308],[142.8189,-9.3261],[142.8061,-9.3224],[142.7324,-9.3363],[142.6964,-9.3377],[142.5925,-9.3554],[142.5589,-9.3743],[142.5258,-9.3618],[142.4959,-9.3663],[142.4866,-9.3733],[142.4777,-9.3855],[142.4747,-9.3925],[142.472,-9.4054],[142.4726,-9.4167],[142.4774,-9.4328],[142.482,-9.4502],[142.4871,-9.4618],[142.4913,-9.4677],[142.5005,-9.4765],[142.51,-9.4822],[142.5243,-9.4863],[142.5317,-9.4868]]],[[[142.3214,-9.6298],[142.3313,-9.6296],[142.3424,-9.628],[142.3526,-9.6248],[142.3635,-9.6187],[142.372,-9.6114],[142.3796,-9.6023],[142.3857,-9.5914],[142.3881,-9.5844],[142.3898,-9.5698],[142.389,-9.5625],[142.3851,-9.5499],[142.3781,-9.5387],[142.3729,-9.5332],[142.3604,-9.5227],[142.3527,-9.5175],[142.3423,-9.5133],[142.3269,-9.5093],[142.3032,-9.5015],[142.2894,-9.4981],[142.2608,-9.4921],[142.2554,-9.4916],[142.2428,-9.4925],[142.2303,-9.4962],[142.2213,-9.4906],[142.2095,-9.4859],[142.2005,-9.4845],[142.1896,-9.4849],[142.167,-9.4905],[142.1537,-9.4971],[142.148,-9.5017],[142.1359,-9.5159],[142.1313,-9.5242],[142.1284,-9.5331],[142.1272,-9.5403],[142.1271,-9.5493],[142.1281,-9.5564],[142.1332,-9.5701],[142.1421,-9.5818],[142.1507,-9.5887],[142.1573,-9.5922],[142.1681,-9.5959],[142.1757,-9.597],[142.1859,-9.5968],[142.1931,-9.5956],[142.2034,-9.5918],[142.2096,-9.5955],[142.218,-9.5988],[142.2284,-9.6056],[142.246,-9.6132],[142.2676,-9.6195],[142.2796,-9.6212],[142.294,-9.6255],[142.316,-9.6295],[142.3214,-9.6298]]],[[[142.276,-9.3476],[142.2868,-9.3467],[142.2959,-9.3443],[142.306,-9.3393],[142.3237,-9.3257],[142.3293,-9.3208],[142.335,-9.3136],[142.3387,-9.3072],[142.3429,-9.2931],[142.3458,-9.2662],[142.275,-9.2299],[142.2367,-9.1913],[142.2161,-9.1879],[142.1728,-9.1979],[142.1436,-9.196],[142.1081,-9.2124],[142.0595,-9.2604],[142.0625,-9.2706],[142.065,-9.2756],[142.0673,-9.2863],[142.071,-9.2947],[142.0788,-9.3055],[142.0909,-9.3148],[142.0978,-9.318],[142.1071,-9.3205],[142.1117,-9.3231],[142.135,-9.333],[142.1511,-9.3362],[142.1577,-9.3387],[142.1669,-9.3408],[142.1802,-9.3408],[142.1862,-9.342],[142.2022,-9.3428],[142.2179,-9.3409],[142.2392,-9.3442],[142.2545,-9.3442],[142.261,-9.3458],[142.276,-9.3476]]],[[[141.5586,-9.6696],[141.5717,-9.6687],[141.5842,-9.6652],[141.5978,-9.6582],[141.6041,-9.6542],[141.611,-9.6479],[141.6167,-9.6406],[141.623,-9.6291],[141.6268,-9.6167],[141.6278,-9.6074],[141.6276,-9.5999],[141.6257,-9.5907],[141.6232,-9.5839],[141.6178,-9.5746],[141.6229,-9.5716],[141.6321,-9.5646],[141.6398,-9.5564],[141.6476,-9.5443],[141.6521,-9.5343],[141.6547,-9.5262],[141.6567,-9.5142],[141.6567,-9.5038],[141.6555,-9.4917],[141.652,-9.4797],[141.6467,-9.4699],[141.6394,-9.4613],[141.627,-9.4528],[141.6199,-9.45],[141.6107,-9.448],[141.6031,-9.4477],[141.5919,-9.4494],[141.5796,-9.4462],[141.5705,-9.4458],[141.5574,-9.4478],[141.5503,-9.4505],[141.5377,-9.4588],[141.5313,-9.4654],[141.5241,-9.4742],[141.5108,-9.481],[141.5038,-9.4871],[141.4981,-9.4939],[141.4896,-9.5059],[141.4843,-9.5161],[141.4813,-9.529],[141.4815,-9.5403],[141.4837,-9.5496],[141.4885,-9.5599],[141.4973,-9.572],[141.5047,-9.5799],[141.5149,-9.587],[141.5099,-9.5968],[141.5066,-9.6108],[141.5065,-9.6197],[141.5093,-9.6338],[141.513,-9.6421],[141.5218,-9.6538],[141.5334,-9.6627],[141.5474,-9.6682],[141.5586,-9.6696]]],[[[141.4163,-9.8812],[141.4309,-9.8798],[141.4429,-9.8761],[141.457,-9.8691],[141.4699,-9.8599],[141.4775,-9.8516],[141.4816,-9.8453],[141.4853,-9.8365],[141.4873,-9.8273],[141.4871,-9.8141],[141.4842,-9.8032],[141.4771,-9.79],[141.468,-9.7806],[141.455,-9.7732],[141.446,-9.7705],[141.4385,-9.7697],[141.4272,-9.77],[141.4161,-9.7712],[141.4055,-9.7735],[141.3954,-9.7773],[141.3864,-9.7827],[141.381,-9.7871],[141.3712,-9.7981],[141.3654,-9.8099],[141.3624,-9.8246],[141.3625,-9.8359],[141.3645,-9.845],[141.3691,-9.8553],[141.3786,-9.867],[141.391,-9.8757],[141.3999,-9.8791],[141.4163,-9.8812]]]]},"id":"Cairns"},{"type":"Feature","properties":{"District Name":"Innisfail","DDMG Name":"Innisfail","Area Sq Km":15768.83,"Police Region Name":"Far Northern Region","Police Region Code":"FNR","Police Region Short Name":"Far North","Region Slug":"far_north","Layer Id":"qld_far_north_ddmg_boundaries_gda2020_simp200m","Layer Group":"per-region","Layer Kind":"ddmg","Source":"QPS Disaster Districts, Queensland Police Service, via the Queensland Government Open Data Portal","Source URL":"https://www.data.qld.gov.au/dataset/qps-disaster-districts","Licence":"CC BY 4.0","Licence URL":"https://creativecommons.org/licenses/by/4.0/","Dataset Date":"19/05/2025","Simplification Tolerance M":200,"Coordinate Precision Decimals":4,"CRS":"GDA2020 (EPSG:7844)","Fidelity":"standard: source boundaries, simplified","Modified":"Simplified and repackaged from the source dataset; see Source URL"},"geometry":{"type":"Polygon","coordinates":[[[145.8351,-17.4974],[145.8339,-17.5086],[145.7161,-17.497],[145.7235,-17.5067],[145.7201,-17.51],[145.7238,-17.5137],[145.7217,-17.5217],[145.7247,-17.5303],[145.731,-17.5336],[145.7312,-17.5384],[145.74,-17.5427],[145.7399,-17.5509],[145.7306,-17.5582],[145.7223,-17.5572],[145.716,-17.5542],[145.7104,-17.5584],[145.7073,-17.5571],[145.6973,-17.652],[145.6942,-17.6563],[145.6956,-17.6607],[145.6919,-17.6636],[145.6861,-17.6621],[145.6786,-17.6671],[145.6808,-17.6714],[145.6807,-17.6762],[145.674,-17.6754],[145.6733,-17.6691],[145.6681,-17.6657],[145.6599,-17.6671],[145.6543,-17.6626],[145.6547,-17.6581],[145.6407,-17.6568],[145.6459,-17.6681],[145.6485,-17.6684],[145.6612,-17.6784],[145.6567,-17.687],[145.6602,-17.6893],[145.6528,-17.699],[145.6435,-17.7017],[145.641,-17.7071],[145.6476,-17.7178],[145.6473,-17.7218],[145.6515,-17.7269],[145.577,-17.7408],[145.5726,-17.7829],[145.5797,-17.7836],[145.5796,-17.7912],[145.5844,-17.7905],[145.591,-17.7955],[145.6026,-17.7939],[145.6103,-17.7965],[145.6139,-17.8013],[145.6178,-17.7981],[145.622,-17.7975],[145.6272,-17.8006],[145.6321,-17.8018],[145.6343,-17.8061],[145.6421,-17.8025],[145.6463,-17.8085],[145.6555,-17.8158],[145.6581,-17.82],[145.6572,-17.8266],[145.6532,-17.8272],[145.6518,-17.8367],[145.6531,-17.8403],[145.6527,-17.8467],[145.6546,-17.8512],[145.6555,-17.8639],[145.6652,-17.8642],[145.668,-17.8684],[145.6718,-17.8702],[145.6749,-17.8816],[145.6795,-17.8868],[145.6801,-17.8914],[145.6838,-17.8963],[145.6848,-17.9024],[145.6809,-17.9071],[145.6803,-17.9192],[145.6859,-17.9253],[145.6841,-17.9301],[145.6797,-17.9338],[145.6819,-17.94],[145.674,-17.9478],[145.669,-17.9482],[145.6653,-17.946],[145.66,-17.9484],[145.6568,-17.9574],[145.6519,-17.9573],[145.6501,-17.9628],[145.6538,-17.9681],[145.6498,-17.9738],[145.6458,-17.9721],[145.6408,-17.9796],[145.6376,-17.982],[145.6382,-17.9952],[145.6308,-17.9973],[145.6255,-18.0004],[145.6232,-18.0088],[145.6232,-18.0211],[145.6313,-18.023],[145.636,-18.028],[145.6497,-18.0276],[145.654,-18.0315],[145.6495,-18.0337],[145.6499,-18.048],[145.6528,-18.0556],[145.6467,-18.0582],[145.6473,-18.0617],[145.6446,-18.0654],[145.6419,-18.0814],[145.6477,-18.0864],[145.6594,-18.0944],[145.6618,-18.0934],[145.6677,-18.1029],[145.6712,-18.0999],[145.6755,-18.103],[145.6791,-18.1021],[145.6853,-18.0932],[145.6896,-18.0921],[145.6967,-18.0991],[145.7012,-18.1003],[145.707,-18.1075],[145.7076,-18.1104],[145.7038,-18.1204],[145.7043,-18.1272],[145.7007,-18.1288],[145.7031,-18.1325],[145.7039,-18.1386],[145.6985,-18.1504],[145.6904,-18.1512],[145.6886,-18.1548],[145.6836,-18.1586],[145.6833,-18.1648],[145.6852,-18.1684],[145.6932,-18.1711],[145.6962,-18.1751],[145.7058,-18.1789],[145.706,-18.1766],[145.7153,-18.1675],[145.7265,-18.1677],[145.7349,-18.1568],[145.7437,-18.1599],[145.7515,-18.1565],[145.7577,-18.1644],[145.7617,-18.1651],[145.7677,-18.1708],[145.7748,-18.1758],[145.7844,-18.1809],[145.7872,-18.1862],[145.787,-18.1918],[145.7823,-18.1942],[145.7798,-18.1993],[145.7802,-18.2033],[145.7832,-18.2065],[145.7871,-18.2151],[145.7929,-18.2173],[145.7924,-18.228],[145.802,-18.2389],[145.8044,-18.2406],[145.8071,-18.247],[145.804,-18.2516],[145.8047,-18.2579],[145.8005,-18.264],[145.803,-18.2709],[145.8089,-18.275],[145.8117,-18.2815],[145.8152,-18.2857],[145.8155,-18.2934],[145.8082,-18.2995],[145.8096,-18.3046],[145.8025,-18.3057],[145.7955,-18.3086],[145.7866,-18.3042],[145.7181,-18.3569],[145.722,-18.3636],[145.7273,-18.365],[145.7352,-18.3694],[145.7436,-18.3728],[145.7469,-18.3772],[145.7479,-18.3836],[145.7464,-18.3877],[145.7464,-18.3945],[145.7575,-18.3958],[145.7623,-18.3939],[145.769,-18.3995],[145.7757,-18.3989],[145.7825,-18.3942],[145.7878,-18.4024],[145.7924,-18.4034],[145.7954,-18.4012],[145.7937,-18.3975],[145.7939,-18.39],[145.8069,-18.386],[145.8049,-18.3807],[145.8068,-18.3781],[145.8113,-18.3783],[145.8193,-18.3869],[145.8182,-18.3952],[145.816,-18.3979],[145.8188,-18.4031],[145.8256,-18.407],[145.8328,-18.4021],[145.8388,-18.4062],[145.8477,-18.4047],[145.8567,-18.4057],[145.8656,-18.4023],[145.8709,-18.4025],[145.8735,-18.4],[145.8776,-18.4032],[145.8796,-18.4074],[145.8865,-18.4046],[145.8911,-18.3999],[145.8981,-18.3968],[145.9086,-18.3879],[145.9087,-18.3853],[145.9165,-18.378],[145.919,-18.3782],[145.9293,-18.3697],[145.9334,-18.3705],[145.9473,-18.3643],[145.9618,-18.3944],[145.9741,-18.3959],[145.9804,-18.3954],[145.9836,-18.3971],[145.992,-18.3938],[146.001,-18.3936],[146.0089,-18.3911],[146.0106,-18.3889],[146.0205,-18.3895],[146.0265,-18.3918],[146.0367,-18.3881],[146.0464,-18.3967],[146.0492,-18.3926],[146.0526,-18.3951],[146.0742,-18.4034],[146.085,-18.4008],[146.0926,-18.4116],[146.1003,-18.4152],[146.098,-18.4209],[146.0984,-18.4264],[146.1016,-18.4327],[146.0935,-18.4401],[146.0914,-18.4478],[146.0938,-18.4513],[146.1011,-18.4514],[146.1043,-18.4535],[146.1073,-18.4632],[146.1141,-18.4725],[146.1142,-18.478],[146.1185,-18.48],[146.122,-18.4845],[146.1167,-18.4894],[146.1154,-18.4952],[146.1171,-18.5013],[146.1217,-18.5079],[146.1381,-18.5125],[146.1473,-18.5171],[146.1559,-18.5188],[146.165,-18.5174],[146.1749,-18.5213],[146.1796,-18.5247],[146.1805,-18.5298],[146.1834,-18.5323],[146.1909,-18.5283],[146.1907,-18.5236],[146.1954,-18.5211],[146.1994,-18.5218],[146.2069,-18.5165],[146.2104,-18.5082],[146.2242,-18.4941],[146.2299,-18.4895],[146.2415,-18.4923],[146.2511,-18.4924],[146.277,-18.4975],[146.2972,-18.4985],[146.3975,-18.4986],[146.4849,-18.4987],[146.6345,-18.4988],[146.7368,-18.4988],[147.0011,-18.4984],[147.0011,-18.5818],[147.2813,-18.582],[147.5994,-18.5818],[147.557,-18.4842],[147.5556,-18.4744],[147.5523,-18.4609],[147.5307,-18.4349],[147.4626,-18.4047],[147.3975,-18.265],[147.3948,-18.2615],[147.3954,-18.2561],[147.3829,-18.2581],[147.2782,-18.2356],[147.1602,-18.21],[147.0433,-18.1854],[147.0371,-18.1809],[146.9794,-18.1274],[146.9752,-18.1232],[146.9686,-18.1217],[146.9019,-18.0644],[146.9025,-18.0561],[146.8968,-18.0513],[146.8876,-18.0496],[146.8844,-18.0463],[146.8834,-18.0398],[146.8793,-18.0353],[146.8739,-18.0318],[146.8716,-18.0267],[146.8784,-18.0218],[146.8767,-18.0162],[146.8619,-18.0186],[146.8478,-18.0082],[146.85,-18.0],[146.8492,-17.9925],[146.8472,-17.9906],[146.8343,-17.9877],[146.8011,-17.9627],[146.803,-17.9554],[146.8021,-17.9404],[146.8032,-17.9359],[146.7975,-17.9207],[146.7932,-17.921],[146.7467,-17.8776],[146.7444,-17.8646],[146.7387,-17.8519],[146.7354,-17.8502],[146.6876,-17.7812],[146.6879,-17.7772],[146.685,-17.7583],[146.7198,-17.6777],[146.7213,-17.6712],[146.7185,-17.666],[146.7084,-17.6422],[146.6843,-17.581],[146.6603,-17.5532],[146.5599,-17.4384],[146.5591,-17.4309],[146.5536,-17.42],[146.5544,-17.4146],[146.5591,-17.4063],[146.5602,-17.4015],[146.151,-17.4031],[146.0851,-17.4029],[146.0719,-17.4034],[146.0614,-17.4024],[146.0625,-17.4079],[146.0541,-17.4159],[146.0445,-17.419],[146.0471,-17.4223],[146.0459,-17.433],[146.0384,-17.4301],[146.0351,-17.4343],[146.0407,-17.4379],[146.0366,-17.4495],[146.0316,-17.452],[146.0222,-17.4512],[146.0226,-17.4474],[145.9937,-17.4447],[145.9935,-17.4466],[145.9782,-17.4452],[145.9661,-17.445],[145.9656,-17.4497],[145.9593,-17.4484],[145.9555,-17.4455],[145.9536,-17.457],[145.9497,-17.4566],[145.9475,-17.4792],[145.9476,-17.487],[145.9504,-17.4914],[145.9403,-17.4945],[145.9365,-17.4944],[145.93,-17.5032],[145.9217,-17.5003],[145.9182,-17.4957],[145.9136,-17.4849],[145.9061,-17.4801],[145.9038,-17.4763],[145.8946,-17.4813],[145.8926,-17.49],[145.8864,-17.4917],[145.8823,-17.4905],[145.8786,-17.4982],[145.8748,-17.5013],[145.8665,-17.5048],[145.858,-17.5055],[145.8558,-17.5023],[145.8503,-17.5001],[145.8415,-17.4995],[145.8351,-17.4974]]]},"id":"Innisfail"},{"type":"Feature","properties":{"District Name":"Mareeba","DDMG Name":"Mareeba","Area Sq Km":133479.58,"Police Region Name":"Far Northern Region","Police Region Code":"FNR","Police Region Short Name":"Far North","Region Slug":"far_north","Layer Id":"qld_far_north_ddmg_boundaries_gda2020_simp200m","Layer Group":"per-region","Layer Kind":"ddmg","Source":"QPS Disaster Districts, Queensland Police Service, via the Queensland Government Open Data Portal","Source URL":"https://www.data.qld.gov.au/dataset/qps-disaster-districts","Licence":"CC BY 4.0","Licence URL":"https://creativecommons.org/licenses/by/4.0/","Dataset Date":"19/05/2025","Simplification Tolerance M":200,"Coordinate Precision Decimals":4,"CRS":"GDA2020 (EPSG:7844)","Fidelity":"standard: source boundaries, simplified","Modified":"Simplified and repackaged from the source dataset; see Source URL"},"geometry":{"type":"Polygon","coordinates":[[[142.711,-16.0794],[142.7225,-16.0891],[142.7346,-16.1025],[142.7423,-16.1095],[142.7422,-16.112],[142.699,-16.1732],[142.6372,-16.1324],[142.5961,-16.1907],[142.5795,-16.3141],[142.5467,-16.5577],[142.5231,-16.8114],[142.508,-16.9721],[142.4214,-17.0874],[142.4275,-17.0923],[142.4287,-17.096],[142.4359,-17.1008],[142.4402,-17.1012],[142.4452,-17.105],[142.4513,-17.1058],[142.4559,-17.1083],[142.4588,-17.1161],[142.4623,-17.1182],[142.4617,-17.1223],[142.4667,-17.1262],[142.4673,-17.129],[142.4742,-17.1365],[142.4859,-17.1423],[142.487,-17.1458],[142.4936,-17.1489],[142.5053,-17.1605],[142.5083,-17.1621],[142.513,-17.1704],[142.5196,-17.1717],[142.522,-17.1752],[142.5351,-17.1768],[142.5407,-17.1755],[142.5011,-17.2267],[142.4016,-17.3553],[142.3406,-17.2862],[142.175,-17.4324],[142.1843,-17.4379],[142.1933,-17.4405],[142.206,-17.4423],[142.2172,-17.4418],[142.2254,-17.4456],[142.2296,-17.4517],[142.2386,-17.4574],[142.2447,-17.4579],[142.2514,-17.4628],[142.2525,-17.4658],[142.259,-17.4712],[142.263,-17.4806],[142.2679,-17.4873],[142.2677,-17.4918],[142.1784,-17.5662],[142.0578,-17.4343],[142.0123,-17.4712],[141.8977,-17.3307],[141.8909,-17.3364],[141.7853,-17.4224],[141.8367,-17.4825],[141.7256,-17.4695],[141.7287,-17.4329],[141.5764,-17.4204],[141.5727,-17.4584],[141.4223,-17.4438],[141.4137,-17.5348],[141.4066,-17.6099],[141.3822,-17.608],[141.3782,-17.6766],[141.4383,-17.6798],[141.433,-17.7493],[141.4219,-17.7557],[141.4134,-17.7616],[141.4041,-17.7633],[141.3986,-17.7569],[141.3934,-17.7532],[141.3829,-17.7514],[141.3744,-17.7521],[141.3621,-17.7555],[141.3593,-17.7544],[141.3596,-17.7465],[141.3574,-17.7441],[141.348,-17.7432],[141.3388,-17.7445],[141.3283,-17.7332],[141.3169,-17.7367],[141.3044,-17.8989],[141.4682,-17.9104],[141.4661,-17.939],[141.3931,-17.9348],[141.3921,-17.9479],[141.3883,-18.0066],[141.3951,-18.004],[141.4002,-18.004],[141.3952,-18.0571],[141.2817,-18.0467],[141.2838,-18.0232],[141.1999,-18.0154],[141.1921,-18.1133],[141.1468,-18.1104],[141.1405,-18.1127],[141.1363,-18.1223],[141.1341,-18.1253],[141.1359,-18.132],[141.1349,-18.1377],[141.1389,-18.145],[141.1394,-18.1495],[141.1432,-18.1571],[141.144,-18.1648],[141.1433,-18.1695],[141.1379,-18.1797],[141.137,-18.1889],[141.1445,-18.1956],[141.1473,-18.1929],[141.1575,-18.196],[141.1627,-18.2046],[141.1666,-18.2037],[141.17,-18.2071],[141.1801,-18.2119],[141.181,-18.2158],[141.1869,-18.2247],[141.1866,-18.23],[141.1897,-18.2323],[141.1906,-18.2385],[141.1894,-18.2464],[141.1937,-18.2536],[141.2015,-18.2528],[141.2047,-18.2554],[141.205,-18.2596],[141.2094,-18.2628],[141.2114,-18.2703],[141.2108,-18.2748],[141.2131,-18.2794],[141.2108,-18.2826],[141.2125,-18.2884],[141.2199,-18.2951],[141.2183,-18.302],[141.22,-18.3097],[141.2175,-18.3145],[141.2207,-18.3165],[141.2233,-18.3246],[141.2229,-18.3285],[141.2384,-18.3368],[141.2419,-18.3464],[141.2498,-18.3505],[141.2499,-18.3537],[141.2545,-18.364],[141.2618,-18.3653],[141.2661,-18.3688],[141.2674,-18.3778],[141.2694,-18.3821],[141.2748,-18.3887],[141.2815,-18.3912],[141.2838,-18.3982],[141.2825,-18.4052],[141.2839,-18.4096],[141.2806,-18.416],[141.2894,-18.4215],[141.2924,-18.4251],[141.3007,-18.4265],[141.3026,-18.4295],[141.3013,-18.4375],[141.3048,-18.4478],[141.3008,-18.4503],[141.301,-18.4557],[141.2961,-18.4585],[141.2965,-18.4634],[141.2938,-18.4676],[141.2986,-18.4755],[141.2929,-18.48],[141.2929,-18.4851],[141.2993,-18.4929],[141.2977,-18.4996],[141.2904,-18.5002],[141.2848,-18.5054],[141.2856,-18.5149],[141.2837,-18.5187],[141.2862,-18.5229],[141.2855,-18.53],[141.2882,-18.5412],[141.2881,-18.5464],[141.2923,-18.5486],[141.2987,-18.5565],[141.3003,-18.5633],[141.2967,-18.5659],[141.2917,-18.5666],[141.2936,-18.5752],[141.2921,-18.5779],[141.2946,-18.5852],[141.2999,-18.5887],[141.3022,-18.5952],[141.3016,-18.6022],[141.3028,-18.6055],[141.2992,-18.6098],[141.315,-18.6204],[141.37,-18.6255],[141.364,-18.6814],[141.5581,-18.7008],[141.6224,-18.7076],[141.692,-18.7136],[141.6814,-18.8263],[141.6682,-18.9697],[141.6362,-18.9671],[141.6201,-19.1146],[141.6089,-19.1134],[141.61,-19.1212],[141.6132,-19.1242],[141.6112,-19.13],[141.6128,-19.1378],[141.6167,-19.1384],[141.6153,-19.1427],[141.6214,-19.1459],[141.6237,-19.1505],[141.6285,-19.1506],[141.6359,-19.1557],[141.6396,-19.1547],[141.6439,-19.1572],[141.6583,-19.1571],[141.669,-19.1591],[141.6787,-19.1555],[141.6861,-19.1572],[141.6904,-19.1561],[141.6965,-19.1596],[141.7042,-19.1707],[141.709,-19.1727],[141.7155,-19.1791],[141.729,-19.179],[141.7345,-19.184],[141.7391,-19.1851],[141.7445,-19.1917],[141.7532,-19.1932],[141.7622,-19.1918],[141.7711,-19.0782],[141.9311,-19.0896],[141.9415,-18.9784],[142.1267,-18.9934],[142.1291,-18.9695],[142.1766,-18.9721],[142.1594,-19.142],[142.2351,-19.1495],[142.2364,-19.136],[142.3523,-19.1475],[142.3538,-19.1226],[142.4007,-19.1265],[142.3831,-19.3114],[142.3744,-19.4004],[142.3953,-19.4023],[142.3967,-19.3884],[142.5611,-19.4002],[142.6048,-19.4032],[142.5921,-19.5466],[142.6096,-19.5478],[142.6022,-19.62],[142.6007,-19.6355],[142.7936,-19.6518],[142.9745,-19.6669],[143.03,-19.6712],[143.1976,-19.6855],[143.2497,-19.6899],[143.2567,-19.6818],[143.2616,-19.6825],[143.2656,-19.6866],[143.2701,-19.6942],[143.275,-19.6964],[143.2854,-19.6895],[143.2885,-19.6842],[143.2896,-19.6697],[143.2984,-19.6563],[143.3058,-19.6395],[143.3107,-19.6332],[143.3172,-19.6285],[143.333,-19.6211],[143.3367,-19.6167],[143.3419,-19.6056],[143.3461,-19.6037],[143.3514,-19.6043],[143.3677,-19.6127],[143.3728,-19.6139],[143.3831,-19.6126],[143.3943,-19.5968],[143.3947,-19.5863],[143.394,-19.5766],[143.398,-19.5752],[143.4029,-19.5702],[143.4132,-19.5644],[143.417,-19.5671],[143.4299,-19.5632],[143.4341,-19.5653],[143.4438,-19.566],[143.4473,-19.5588],[143.4537,-19.5559],[143.4581,-19.5467],[143.4619,-19.5449],[143.4663,-19.54],[143.4899,-19.5309],[143.5014,-19.5244],[143.5094,-19.516],[143.5132,-19.5053],[143.5111,-19.4916],[143.5077,-19.4839],[143.5138,-19.48],[143.5233,-19.476],[143.5355,-19.4718],[143.5496,-19.4766],[143.5653,-19.4856],[143.5798,-19.4969],[143.5832,-19.5016],[143.5905,-19.5072],[143.6005,-19.5218],[143.6054,-19.5303],[143.6173,-19.5571],[143.619,-19.5599],[143.6467,-19.5838],[143.6541,-19.5875],[143.6775,-19.5971],[143.6823,-19.597],[143.7152,-19.5853],[143.7342,-19.5899],[143.752,-19.5963],[143.7757,-19.6057],[143.797,-19.6175],[143.8245,-19.6304],[143.8518,-19.637],[143.896,-19.6339],[143.9251,-19.6308],[143.938,-19.6273],[143.9475,-19.622],[143.9557,-19.6196],[143.9673,-19.6205],[143.9765,-19.6229],[143.9882,-19.6218],[144.0003,-19.6221],[144.0039,-19.6213],[144.0142,-19.6149],[144.0289,-19.5978],[144.0448,-19.5836],[144.0543,-19.5705],[144.0606,-19.5708],[144.072,-19.5746],[144.0889,-19.5782],[144.1036,-19.5797],[144.1127,-19.5761],[144.1172,-19.5717],[144.1241,-19.5719],[144.1393,-19.5656],[144.147,-19.5657],[144.1569,-19.5676],[144.1722,-19.5764],[144.1747,-19.5884],[144.18,-19.5944],[144.187,-19.5974],[144.197,-19.5998],[144.2065,-19.6037],[144.2123,-19.61],[144.2264,-19.6187],[144.2315,-19.6159],[144.2389,-19.6085],[144.248,-19.5942],[144.2551,-19.5855],[144.2619,-19.5829],[144.2732,-19.5759],[144.2795,-19.576],[144.2926,-19.569],[144.2957,-19.5664],[144.2994,-19.5306],[144.3026,-19.4974],[144.3449,-19.5015],[144.3517,-19.4239],[144.3696,-19.4301],[144.3875,-19.4307],[144.4508,-19.4412],[144.4705,-19.4479],[144.4774,-19.3709],[144.5908,-19.3841],[144.5978,-19.319],[144.6174,-19.3209],[144.619,-19.306],[144.6225,-19.2973],[144.6297,-19.2884],[144.7501,-19.1808],[144.7711,-19.2047],[144.8314,-19.1598],[144.8238,-19.1568],[144.8105,-19.1558],[144.8044,-19.1572],[144.7944,-19.1622],[144.7744,-19.148],[144.7153,-19.0168],[144.6997,-19.0051],[144.698,-18.996],[144.7075,-18.9359],[144.7214,-18.9212],[144.7903,-18.871],[144.7454,-18.818],[144.8084,-18.7696],[144.8076,-18.7645],[144.8046,-18.7617],[144.8068,-18.7573],[144.8059,-18.7523],[144.8016,-18.7509],[144.8025,-18.7444],[144.792,-18.7332],[144.7868,-18.734],[144.7775,-18.7407],[144.7725,-18.7366],[144.7654,-18.7285],[144.758,-18.7285],[144.7556,-18.7252],[144.751,-18.7251],[144.7452,-18.7218],[144.7439,-18.7125],[144.7469,-18.7075],[144.7417,-18.7027],[144.7871,-18.6613],[144.7641,-18.6384],[144.6516,-18.6266],[144.66,-18.5686],[144.6762,-18.4234],[144.6777,-18.311],[144.7411,-18.3174],[144.7463,-18.3267],[144.7473,-18.3305],[144.7604,-18.3564],[144.7712,-18.3575],[144.7741,-18.3588],[144.7801,-18.3579],[144.7998,-18.3592],[144.8172,-18.3717],[144.8224,-18.3691],[144.8346,-18.3688],[144.8435,-18.3718],[144.8496,-18.3696],[144.8552,-18.3695],[144.8516,-18.4],[144.8446,-18.408],[144.8375,-18.44],[144.8414,-18.4524],[144.8367,-18.4931],[144.8804,-18.4973],[144.8782,-18.5179],[144.9241,-18.5228],[144.9206,-18.5188],[144.9202,-18.5128],[144.9224,-18.505],[144.9217,-18.5013],[144.9512,-18.5042],[144.9469,-18.4977],[144.9514,-18.4893],[144.9532,-18.4821],[144.9514,-18.4773],[144.9549,-18.4753],[144.9562,-18.4819],[144.9606,-18.4861],[144.9645,-18.4815],[144.963,-18.4732],[144.9683,-18.4696],[144.9715,-18.4723],[144.9737,-18.4833],[144.9766,-18.4921],[144.9812,-18.4936],[144.9822,-18.4985],[144.981,-18.507],[145.0467,-18.5132],[145.0511,-18.5174],[145.0505,-18.5286],[145.0526,-18.5305],[145.0518,-18.5361],[145.0551,-18.5397],[145.0534,-18.5488],[145.0635,-18.5545],[145.0686,-18.5536],[145.076,-18.5546],[145.0798,-18.5606],[145.0858,-18.5598],[145.0905,-18.5661],[145.1011,-18.5667],[145.1075,-18.5638],[145.1159,-18.5574],[145.1199,-18.5558],[145.1277,-18.5575],[145.1334,-18.5643],[145.1335,-18.5691],[145.1308,-18.573],[145.1354,-18.5747],[145.1407,-18.5727],[145.1404,-18.5656],[145.1486,-18.553],[145.1567,-18.5455],[145.1574,-18.5383],[145.1596,-18.5348],[145.1718,-18.5208],[145.1726,-18.5168],[145.1774,-18.5113],[145.1825,-18.5106],[145.1842,-18.4948],[145.1738,-18.4938],[145.1721,-18.4884],[145.1781,-18.4795],[145.1857,-18.4802],[145.182,-18.4725],[145.1823,-18.4492],[145.18,-18.4466],[145.1832,-18.4313],[145.1775,-18.4251],[145.1721,-18.4233],[145.1642,-18.415],[145.1617,-18.4065],[145.1612,-18.3983],[145.1637,-18.3957],[145.1613,-18.3908],[145.1487,-18.3936],[145.1433,-18.3907],[145.1386,-18.3902],[145.1344,-18.3852],[145.133,-18.3781],[145.1352,-18.376],[145.1324,-18.3715],[145.1344,-18.362],[145.1376,-18.3625],[145.1401,-18.3579],[145.1483,-18.3645],[145.1558,-18.3645],[145.1589,-18.3523],[145.1666,-18.3467],[145.1944,-18.3495],[145.1952,-18.3477],[145.2679,-18.355],[145.2599,-18.4273],[145.2864,-18.43],[145.2792,-18.4395],[145.3017,-18.4552],[145.2968,-18.464],[145.3573,-18.5357],[145.3835,-18.5702],[145.39,-18.565],[145.4945,-18.5764],[145.5012,-18.4619],[145.6238,-18.477],[145.7163,-18.4884],[145.7143,-18.4802],[145.7081,-18.4709],[145.715,-18.4684],[145.7281,-18.4659],[145.7324,-18.4617],[145.7292,-18.4535],[145.7361,-18.4573],[145.7396,-18.45],[145.7442,-18.4505],[145.747,-18.4455],[145.755,-18.4385],[145.7545,-18.4311],[145.7578,-18.4294],[145.7601,-18.4239],[145.7551,-18.4143],[145.7558,-18.408],[145.7692,-18.4094],[145.7596,-18.4032],[145.7575,-18.3958],[145.7464,-18.3945],[145.7464,-18.3877],[145.7479,-18.3836],[145.7469,-18.3772],[145.7436,-18.3728],[145.7352,-18.3694],[145.7273,-18.365],[145.722,-18.3636],[145.7181,-18.3569],[145.7866,-18.3042],[145.7955,-18.3086],[145.8025,-18.3057],[145.8096,-18.3046],[145.8082,-18.2995],[145.8155,-18.2934],[145.8152,-18.2857],[145.8117,-18.2815],[145.8089,-18.275],[145.803,-18.2709],[145.8005,-18.264],[145.8047,-18.2579],[145.804,-18.2516],[145.8071,-18.247],[145.8044,-18.2406],[145.802,-18.2389],[145.7924,-18.228],[145.7929,-18.2173],[145.7871,-18.2151],[145.7832,-18.2065],[145.7802,-18.2033],[145.7798,-18.1993],[145.7823,-18.1942],[145.787,-18.1918],[145.7872,-18.1862],[145.7844,-18.1809],[145.7748,-18.1758],[145.7677,-18.1708],[145.7617,-18.1651],[145.7577,-18.1644],[145.7515,-18.1565],[145.7437,-18.1599],[145.7349,-18.1568],[145.7265,-18.1677],[145.7153,-18.1675],[145.706,-18.1766],[145.7058,-18.1789],[145.6962,-18.1751],[145.6932,-18.1711],[145.6852,-18.1684],[145.6833,-18.1648],[145.6836,-18.1586],[145.6886,-18.1548],[145.6904,-18.1512],[145.6985,-18.1504],[145.7039,-18.1386],[145.7031,-18.1325],[145.7007,-18.1288],[145.7043,-18.1272],[145.7038,-18.1204],[145.7076,-18.1104],[145.707,-18.1075],[145.7012,-18.1003],[145.6967,-18.0991],[145.6896,-18.0921],[145.6853,-18.0932],[145.6791,-18.1021],[145.6755,-18.103],[145.6712,-18.0999],[145.6677,-18.1029],[145.6618,-18.0934],[145.6594,-18.0944],[145.6477,-18.0864],[145.6419,-18.0814],[145.6446,-18.0654],[145.6473,-18.0617],[145.6467,-18.0582],[145.6528,-18.0556],[145.6499,-18.048],[145.6495,-18.0337],[145.654,-18.0315],[145.6497,-18.0276],[145.636,-18.028],[145.6313,-18.023],[145.6232,-18.0211],[145.6232,-18.0088],[145.6255,-18.0004],[145.6308,-17.9973],[145.6382,-17.9952],[145.6376,-17.982],[145.6408,-17.9796],[145.6458,-17.9721],[145.6498,-17.9738],[145.6538,-17.9681],[145.6501,-17.9628],[145.6519,-17.9573],[145.6568,-17.9574],[145.66,-17.9484],[145.6653,-17.946],[145.669,-17.9482],[145.674,-17.9478],[145.6819,-17.94],[145.6797,-17.9338],[145.6841,-17.9301],[145.6859,-17.9253],[145.6803,-17.9192],[145.6809,-17.9071],[145.6848,-17.9024],[145.6838,-17.8963],[145.6801,-17.8914],[145.6795,-17.8868],[145.6749,-17.8816],[145.6718,-17.8702],[145.668,-17.8684],[145.6652,-17.8642],[145.6555,-17.8639],[145.6546,-17.8512],[145.6527,-17.8467],[145.6531,-17.8403],[145.6518,-17.8367],[145.6532,-17.8272],[145.6572,-17.8266],[145.6581,-17.82],[145.6555,-17.8158],[145.6463,-17.8085],[145.6421,-17.8025],[145.6343,-17.8061],[145.6321,-17.8018],[145.6272,-17.8006],[145.622,-17.7975],[145.6178,-17.7981],[145.6139,-17.8013],[145.6103,-17.7965],[145.6026,-17.7939],[145.591,-17.7955],[145.5844,-17.7905],[145.5796,-17.7912],[145.5797,-17.7836],[145.5726,-17.7829],[145.577,-17.7408],[145.6515,-17.7269],[145.6473,-17.7218],[145.6476,-17.7178],[145.641,-17.7071],[145.6435,-17.7017],[145.6528,-17.699],[145.6602,-17.6893],[145.6567,-17.687],[145.6612,-17.6784],[145.6485,-17.6684],[145.6459,-17.6681],[145.6407,-17.6568],[145.6547,-17.6581],[145.6543,-17.6626],[145.6599,-17.6671],[145.6681,-17.6657],[145.6733,-17.6691],[145.674,-17.6754],[145.6807,-17.6762],[145.6808,-17.6714],[145.6786,-17.6671],[145.6861,-17.6621],[145.6919,-17.6636],[145.6956,-17.6607],[145.6942,-17.6563],[145.6973,-17.652],[145.7073,-17.5571],[145.7104,-17.5584],[145.716,-17.5542],[145.7223,-17.5572],[145.7306,-17.5582],[145.7399,-17.5509],[145.74,-17.5427],[145.7312,-17.5384],[145.731,-17.5336],[145.7247,-17.5303],[145.7217,-17.5217],[145.7238,-17.5137],[145.7201,-17.51],[145.7235,-17.5067],[145.7161,-17.497],[145.8339,-17.5086],[145.8351,-17.4974],[145.8399,-17.4542],[145.8342,-17.4501],[145.8318,-17.4457],[145.8321,-17.4376],[145.8263,-17.4279],[145.8236,-17.421],[145.8243,-17.4123],[145.8215,-17.4044],[145.8183,-17.3993],[145.8213,-17.3939],[145.8178,-17.3887],[145.8118,-17.3837],[145.8015,-17.3702],[145.7919,-17.3649],[145.7812,-17.3533],[145.7826,-17.3481],[145.7808,-17.3453],[145.7867,-17.3332],[145.7877,-17.3216],[145.7856,-17.3183],[145.7907,-17.3127],[145.7973,-17.3121],[145.7949,-17.3037],[145.8,-17.3018],[145.8005,-17.2965],[145.7925,-17.2874],[145.7912,-17.2815],[145.7853,-17.2796],[145.7857,-17.27],[145.7826,-17.2633],[145.7794,-17.2629],[145.7793,-17.2555],[145.775,-17.2521],[145.7727,-17.2473],[145.7742,-17.2408],[145.7709,-17.2362],[145.7614,-17.2386],[145.7563,-17.2485],[145.7206,-17.2318],[145.7131,-17.2134],[145.7041,-17.2125],[145.7045,-17.1746],[145.6701,-17.1718],[145.6752,-17.1616],[145.6705,-17.1583],[145.6696,-17.1544],[145.6602,-17.1539],[145.6542,-17.1391],[145.6559,-17.1353],[145.6546,-17.1263],[145.6526,-17.1245],[145.6422,-17.1224],[145.6393,-17.1176],[145.6365,-17.1091],[145.6393,-17.1059],[145.6372,-17.1032],[145.6316,-17.1016],[145.6305,-17.0989],[145.6239,-17.0968],[145.6236,-17.0856],[145.6275,-17.0837],[145.633,-17.0775],[145.6323,-17.0725],[145.6226,-17.0677],[145.6173,-17.0692],[145.6164,-17.0632],[145.6196,-17.0596],[145.615,-17.049],[145.6215,-17.0444],[145.6355,-17.0319],[145.6396,-17.0216],[145.6347,-17.0183],[145.6319,-17.013],[145.6303,-17.0046],[145.633,-17.0033],[145.6336,-16.9986],[145.6371,-16.9961],[145.6397,-16.9857],[145.6514,-16.9774],[145.6544,-16.9715],[145.6512,-16.9695],[145.6499,-16.9568],[145.6518,-16.9501],[145.6499,-16.9453],[145.6575,-16.9303],[145.6615,-16.9287],[145.6635,-16.9203],[145.6609,-16.9169],[145.6681,-16.9096],[145.6736,-16.8941],[145.6693,-16.8896],[145.6633,-16.881],[145.6509,-16.88],[145.6553,-16.8741],[145.6661,-16.8689],[145.6661,-16.8662],[145.6588,-16.8634],[145.6554,-16.859],[145.6491,-16.8574],[145.6474,-16.8513],[145.6599,-16.8462],[145.6623,-16.8481],[145.6694,-16.8453],[145.6599,-16.8382],[145.664,-16.8342],[145.6654,-16.8295],[145.666,-16.8198],[145.6603,-16.8171],[145.6597,-16.8124],[145.6549,-16.8065],[145.6539,-16.8032],[145.6558,-16.7906],[145.652,-16.7837],[145.6517,-16.773],[145.6486,-16.7688],[145.6491,-16.7617],[145.6451,-16.754],[145.6419,-16.751],[145.6476,-16.7423],[145.6393,-16.737],[145.6335,-16.7361],[145.6308,-16.7311],[145.6313,-16.7246],[145.6231,-16.721],[145.6158,-16.7151],[145.6057,-16.7146],[145.6031,-16.7111],[145.5865,-16.7059],[145.5824,-16.7015],[145.5755,-16.7012],[145.5718,-16.6974],[145.5654,-16.6937],[145.5572,-16.6922],[145.5515,-16.6925],[145.5439,-16.687],[145.5388,-16.678],[145.529,-16.6747],[145.5265,-16.6714],[145.5224,-16.6715],[145.5179,-16.675],[145.5137,-16.6647],[145.5213,-16.6536],[145.52,-16.6488],[145.5238,-16.6464],[145.5211,-16.634],[145.5299,-16.6234],[145.5227,-16.6231],[145.5171,-16.6302],[145.5147,-16.6297],[145.5074,-16.6351],[145.5018,-16.6406],[145.4952,-16.642],[145.4907,-16.645],[145.4874,-16.6417],[145.4777,-16.6431],[145.4696,-16.6458],[145.4697,-16.649],[145.4588,-16.6488],[145.4549,-16.6444],[145.4472,-16.6435],[145.4493,-16.6106],[145.4438,-16.6101],[145.4365,-16.6033],[145.4486,-16.6045],[145.4491,-16.5994],[145.4418,-16.5986],[145.4444,-16.5937],[145.4423,-16.5788],[145.4449,-16.5744],[145.4393,-16.5697],[145.4319,-16.5688],[145.4332,-16.552],[145.4155,-16.5296],[145.4077,-16.5223],[145.4107,-16.52],[145.4041,-16.5123],[145.3854,-16.5104],[145.3843,-16.5202],[145.3736,-16.5191],[145.3721,-16.5329],[145.3675,-16.5366],[145.3672,-16.5397],[145.363,-16.5432],[145.3611,-16.5496],[145.3547,-16.5564],[145.3515,-16.5516],[145.3456,-16.5475],[145.3364,-16.5466],[145.3301,-16.5516],[145.3258,-16.5518],[145.3263,-16.5418],[145.3198,-16.5408],[145.3201,-16.5381],[145.3133,-16.5362],[145.3111,-16.532],[145.3071,-16.5312],[145.3027,-16.5375],[145.2982,-16.5381],[145.295,-16.5342],[145.2972,-16.5311],[145.2902,-16.5298],[145.2866,-16.5229],[145.2792,-16.5181],[145.2786,-16.5142],[145.2739,-16.5126],[145.272,-16.5043],[145.272,-16.4994],[145.2648,-16.5],[145.2644,-16.4933],[145.2695,-16.4901],[145.2585,-16.4846],[145.2595,-16.479],[145.2658,-16.4719],[145.2677,-16.4658],[145.2594,-16.4682],[145.2523,-16.4643],[145.2429,-16.4643],[145.2443,-16.4575],[145.2404,-16.4456],[145.2359,-16.4459],[145.2286,-16.4421],[145.2267,-16.4391],[145.2256,-16.4311],[145.2217,-16.4291],[145.2191,-16.4241],[145.2088,-16.42],[145.2085,-16.4169],[145.213,-16.4143],[145.2156,-16.4104],[145.214,-16.3999],[145.2062,-16.3967],[145.1994,-16.3981],[145.1954,-16.3947],[145.1904,-16.394],[145.1779,-16.3825],[145.172,-16.3723],[145.1748,-16.3696],[145.169,-16.3595],[145.1664,-16.3589],[145.1648,-16.3568],[145.1591,-16.3502],[145.152,-16.3491],[145.1449,-16.3508],[145.1403,-16.3465],[145.1421,-16.343],[145.1423,-16.3366],[145.1406,-16.3324],[145.1367,-16.3293],[145.1363,-16.3195],[145.1379,-16.3092],[145.1308,-16.3051],[145.1316,-16.2946],[145.1338,-16.2909],[145.1336,-16.2863],[145.1203,-16.2802],[145.1165,-16.2796],[145.1093,-16.2757],[145.1071,-16.2687],[145.1028,-16.2692],[145.0963,-16.2644],[145.0868,-16.2629],[145.0794,-16.268],[145.0734,-16.265],[145.0645,-16.2621],[145.061,-16.264],[145.0552,-16.2592],[145.0587,-16.2509],[145.0617,-16.249],[145.054,-16.243],[145.0544,-16.2408],[145.0336,-16.2306],[145.0248,-16.2313],[145.0209,-16.2264],[145.0262,-16.2244],[145.021,-16.2209],[145.0116,-16.2249],[145.0049,-16.2358],[145.0002,-16.2412],[145.0004,-16.246],[144.9972,-16.2508],[144.9925,-16.253],[144.9931,-16.257],[144.9982,-16.2588],[144.9949,-16.2637],[144.9866,-16.2662],[144.9785,-16.2749],[144.9758,-16.2796],[144.9784,-16.2853],[144.9833,-16.2864],[144.9846,-16.2947],[144.9879,-16.301],[144.9925,-16.3036],[144.9937,-16.315],[144.9908,-16.3172],[144.9806,-16.3209],[144.9752,-16.3261],[144.9709,-16.327],[144.9716,-16.332],[144.965,-16.3343],[144.9618,-16.3382],[144.9544,-16.3361],[144.9443,-16.3399],[144.9387,-16.3459],[144.9276,-16.3409],[144.9202,-16.3336],[144.9141,-16.3326],[144.9108,-16.3345],[144.9057,-16.3275],[144.9027,-16.3288],[144.9017,-16.3368],[144.8935,-16.3411],[144.891,-16.3458],[144.8877,-16.3465],[144.8843,-16.3423],[144.88,-16.3257],[144.8762,-16.3199],[144.87,-16.3244],[144.8684,-16.3283],[144.8602,-16.3316],[144.8577,-16.3396],[144.8542,-16.3445],[144.8557,-16.3471],[144.8522,-16.3523],[144.8453,-16.3525],[144.8396,-16.3499],[144.8365,-16.3554],[144.8365,-16.363],[144.8296,-16.3591],[144.8256,-16.3592],[144.8232,-16.3521],[144.82,-16.3485],[144.8209,-16.3444],[144.8171,-16.3386],[144.8086,-16.3379],[144.8076,-16.3338],[144.8013,-16.3223],[144.7849,-16.3026],[144.7714,-16.2939],[144.7733,-16.2837],[144.7709,-16.2755],[144.7649,-16.2718],[144.7647,-16.2671],[144.7617,-16.2625],[144.75,-16.2614],[144.7316,-16.2605],[144.7172,-16.2513],[144.7123,-16.2529],[144.7123,-16.2602],[144.7105,-16.2663],[144.7052,-16.2676],[144.6976,-16.2657],[144.695,-16.2699],[144.6953,-16.2788],[144.6905,-16.2917],[144.6899,-16.2978],[144.6926,-16.303],[144.6934,-16.3104],[144.6897,-16.324],[144.6839,-16.3276],[144.6788,-16.3327],[144.6724,-16.3312],[144.655,-16.3255],[144.653,-16.323],[144.6448,-16.32],[144.6427,-16.3172],[144.6344,-16.3185],[144.6276,-16.3217],[144.6203,-16.319],[144.6155,-16.3129],[144.6059,-16.3081],[144.6005,-16.3074],[144.5974,-16.3049],[144.5919,-16.3041],[144.5819,-16.2988],[144.5772,-16.2899],[144.5709,-16.29],[144.5585,-16.2941],[144.5576,-16.2999],[144.5503,-16.301],[144.5458,-16.3033],[144.5392,-16.2982],[144.5294,-16.2983],[144.5212,-16.3033],[144.5146,-16.3091],[144.5141,-16.3143],[144.5097,-16.3168],[144.5114,-16.3216],[144.518,-16.3232],[144.5211,-16.3338],[144.5251,-16.337],[144.5251,-16.3404],[144.5189,-16.3497],[144.515,-16.3493],[144.5068,-16.3546],[144.5037,-16.3532],[144.5001,-16.3554],[144.4957,-16.3521],[144.4941,-16.3485],[144.4885,-16.3474],[144.4823,-16.3485],[144.4746,-16.3435],[144.4709,-16.3367],[144.4662,-16.3382],[144.4573,-16.3357],[144.4508,-16.3315],[144.4423,-16.3394],[144.4381,-16.3422],[144.4322,-16.3406],[144.4248,-16.3471],[144.4152,-16.3499],[144.407,-16.3477],[144.4063,-16.3393],[144.3992,-16.3304],[144.3934,-16.3283],[144.3899,-16.3246],[144.3864,-16.3148],[144.3825,-16.3104],[144.3782,-16.3104],[144.3631,-16.3004],[144.3583,-16.2941],[144.3528,-16.2893],[144.3445,-16.2858],[144.34,-16.2902],[144.3352,-16.2903],[144.3282,-16.2987],[144.3236,-16.3138],[144.3199,-16.3169],[144.3135,-16.3278],[144.3065,-16.3294],[144.3014,-16.3376],[144.2928,-16.3377],[144.2875,-16.3345],[144.2764,-16.3233],[144.2679,-16.3288],[144.2674,-16.3344],[144.263,-16.3365],[144.2595,-16.3353],[144.2525,-16.3419],[144.2472,-16.3438],[144.2448,-16.3419],[144.2447,-16.3354],[144.2422,-16.3301],[144.2378,-16.3294],[144.2335,-16.3262],[144.2313,-16.3196],[144.2256,-16.3166],[144.2247,-16.3125],[144.2279,-16.3091],[144.2258,-16.2902],[144.2202,-16.2905],[144.2178,-16.2868],[144.2227,-16.282],[144.2124,-16.2718],[144.2115,-16.2674],[144.2066,-16.264],[144.1992,-16.264],[144.1966,-16.2622],[144.1868,-16.2659],[144.176,-16.2624],[144.1762,-16.2553],[144.1681,-16.2541],[144.1642,-16.2495],[144.1604,-16.2478],[144.1612,-16.2445],[144.1595,-16.2343],[144.1574,-16.2297],[144.1511,-16.2248],[144.1458,-16.2161],[144.1418,-16.2042],[144.138,-16.2],[144.1367,-16.187],[144.1303,-16.1838],[144.1226,-16.1844],[144.1209,-16.1828],[144.1187,-16.1646],[144.1163,-16.1493],[144.1178,-16.1419],[144.1076,-16.1432],[144.1005,-16.1393],[144.0981,-16.1337],[144.0929,-16.1347],[144.0864,-16.1289],[144.0826,-16.1308],[144.0748,-16.1316],[144.0701,-16.1306],[144.0678,-16.1357],[144.0619,-16.1388],[144.0569,-16.1436],[144.0506,-16.1417],[144.0482,-16.1472],[144.041,-16.1471],[144.0317,-16.1419],[144.027,-16.1418],[144.0226,-16.1392],[144.016,-16.1387],[144.0103,-16.1316],[144.0062,-16.1284],[143.9967,-16.1244],[143.9912,-16.1241],[143.9775,-16.1187],[143.9735,-16.1161],[143.9662,-16.1194],[143.9656,-16.1162],[143.9597,-16.1117],[143.9501,-16.1085],[143.9489,-16.1122],[143.9406,-16.1144],[143.9344,-16.1203],[143.9338,-16.1266],[143.9291,-16.1299],[143.9209,-16.1326],[143.9149,-16.1364],[143.9108,-16.1321],[143.9096,-16.128],[143.9028,-16.1273],[143.9027,-16.1222],[143.8994,-16.1208],[143.8982,-16.1165],[143.8932,-16.1184],[143.8905,-16.1159],[143.8804,-16.1109],[143.8799,-16.1063],[143.874,-16.1061],[143.8713,-16.1081],[143.8693,-16.1166],[143.8644,-16.1223],[143.8596,-16.1239],[143.8534,-16.1296],[143.854,-16.1357],[143.8513,-16.1371],[143.8438,-16.1367],[143.8317,-16.1324],[143.8221,-16.1375],[143.8184,-16.1442],[143.8136,-16.1458],[143.8088,-16.1542],[143.8028,-16.1576],[143.7993,-16.1562],[143.7861,-16.1585],[143.779,-16.1568],[143.7757,-16.1583],[143.7736,-16.1644],[143.7666,-16.1628],[143.7646,-16.1608],[143.7581,-16.1653],[143.7522,-16.1633],[143.7513,-16.1596],[143.7465,-16.1572],[143.742,-16.1578],[143.733,-16.154],[143.7257,-16.154],[143.7175,-16.1447],[143.7124,-16.1334],[143.7037,-16.1343],[143.6953,-16.1298],[143.692,-16.1307],[143.6826,-16.1245],[143.68,-16.1264],[143.6725,-16.1234],[143.6699,-16.1182],[143.666,-16.1164],[143.6599,-16.1197],[143.6547,-16.1136],[143.6525,-16.1067],[143.6451,-16.103],[143.6422,-16.0954],[143.639,-16.0928],[143.6436,-16.0855],[143.6421,-16.079],[143.6384,-16.0765],[143.6319,-16.0755],[143.6258,-16.0776],[143.6217,-16.0773],[143.6177,-16.0726],[143.6142,-16.074],[143.6124,-16.0781],[143.601,-16.0752],[143.5948,-16.0791],[143.5888,-16.0796],[143.5843,-16.0772],[143.573,-16.0811],[143.5637,-16.0789],[143.5549,-16.081],[143.5471,-16.0859],[143.5456,-16.0887],[143.5397,-16.0884],[143.5333,-16.0907],[143.5301,-16.0941],[143.5209,-16.091],[143.5176,-16.0888],[143.5013,-16.0867],[143.4946,-16.0806],[143.489,-16.0809],[143.4843,-16.0792],[143.4805,-16.0744],[143.4748,-16.071],[143.4654,-16.0686],[143.4654,-16.0633],[143.4703,-16.0584],[143.4655,-16.0548],[143.4568,-16.0561],[143.4463,-16.0548],[143.4398,-16.0506],[143.4372,-16.046],[143.4309,-16.0447],[143.4273,-16.0514],[143.421,-16.0546],[143.4121,-16.0557],[143.402,-16.0454],[143.3902,-16.0425],[143.3763,-16.0431],[143.3658,-16.0445],[143.3558,-16.0479],[143.3408,-16.0552],[143.3224,-16.0666],[143.3033,-16.0762],[143.2987,-16.0832],[143.2903,-16.0839],[143.2755,-16.0923],[143.2678,-16.0939],[143.2617,-16.0933],[143.2546,-16.0943],[143.2486,-16.1008],[143.2369,-16.105],[143.2231,-16.1075],[143.2126,-16.1059],[143.1933,-16.1019],[143.1843,-16.0964],[143.1686,-16.1015],[143.1483,-16.1043],[143.1406,-16.1029],[143.122,-16.1048],[143.1131,-16.1051],[143.1043,-16.1021],[143.0732,-16.1081],[143.0608,-16.1098],[143.0543,-16.1134],[143.0427,-16.113],[143.0207,-16.0919],[143.0155,-16.0932],[143.0114,-16.0966],[143.004,-16.095],[142.9859,-16.0833],[142.9557,-16.0766],[142.9406,-16.0759],[142.9247,-16.0769],[142.9046,-16.0847],[142.8968,-16.0842],[142.8744,-16.0865],[142.8557,-16.0849],[142.8371,-16.0801],[142.82,-16.0792],[142.8031,-16.0793],[142.7922,-16.0809],[142.7853,-16.0774],[142.7722,-16.0746],[142.7523,-16.0782],[142.7455,-16.0783],[142.743,-16.0824],[142.7391,-16.0833],[142.7306,-16.0895],[142.72,-16.0823],[142.711,-16.0794]]]},"id":"Mareeba"}]}