{"type":"Topology","arcs":[[[570417,4062459],[3622,364],[5329,-2229],[-2373,-865],[-6328,1593],[-250,1137]],[[519087,4079842],[1416,-3185],[3164,-3822],[4870,-3686],[-5578,-637],[83,2320],[-2248,2276],[-4038,-911],[-2123,1411],[-1374,1957],[-1499,3913],[-2123,182],[-1540,-1046],[-1124,5324],[-1998,2685],[-1041,2411],[333,2003],[2623,182],[2456,-3550],[2706,-1638],[1748,-2639],[5287,-3550]],[[574955,4090946],[0,-456],[-1166,364],[-957,2276],[2123,-2184]],[[501686,4097362],[833,-1411],[-791,501],[-2040,728],[1998,182]],[[527413,4094631],[458,1730],[-874,1956],[3414,637],[1748,-1228],[333,-2276],[-1082,-910],[-3997,91]],[[568794,4114927],[458,182],[791,-865],[-208,-774],[-1000,319],[-41,1138]],[[447234,4137725],[-1832,2548],[-1957,227],[-2414,2549],[-791,1729],[2289,1502],[875,-1593],[3663,-2230],[1374,-3913],[-1207,-819]],[[443112,4150375],[0,774],[-749,1319],[-42,637],[2748,2594],[583,-455],[-84,-1547],[542,-1274],[-1499,-1320],[-1499,-728]],[[468673,4156973],[-41,46],[-167,682],[291,-591],[-83,-137]],[[479330,4177769],[1333,-2139],[-2165,-2912],[-2123,728],[-2332,-45],[-1831,773],[-2831,-1502],[-1166,774],[-1790,-2548],[-916,227],[-3705,-1683],[-3747,-4232],[-1332,3868],[-416,3640],[1624,3458],[-583,1866],[13738,5825],[1873,1547],[1540,-1183],[1457,-4232],[3372,-2230]],[[476291,4189691],[125,-45],[-416,0],[-166,182],[457,-137]],[[481412,4192695],[-250,-319],[125,182],[83,410],[42,-273]],[[483244,4196699],[-84,-136],[-957,-273],[208,273],[833,136]],[[476791,4204025],[1041,911],[1998,-2776],[-1374,-546],[-1415,182],[-416,864],[166,1365]],[[540652,4206528],[-791,1593],[-1207,409],[-84,1957],[417,319],[499,-1456],[2082,-1457],[0,-1228],[-916,-137]],[[487490,4209441],[-1374,1319],[-333,1320],[541,-46],[375,-1638],[999,-1183],[42,-410],[-250,638]],[[496565,4239974],[-1082,-6188],[-1499,-2458],[-125,-1501],[1666,-5097],[458,-2912],[-3331,-4096],[-2789,-136],[-2456,-1820],[-1998,-2503],[-375,-1729],[791,-3322],[-3747,364],[-2581,-683],[-2706,-2093],[-250,1684],[1166,2548],[1748,6462],[-1415,5324],[-1166,1411],[-166,3003],[1790,3640],[416,3186],[2623,3549],[8076,6735],[2581,-319],[2706,-1046],[1665,-2003]],[[534241,4427319],[-42,-501],[-1665,-3367],[-333,455],[166,546],[-333,1410],[-541,1047],[1416,-46],[749,501],[-583,1684],[749,182],[-249,-1320],[666,-591]],[[535448,4428911],[-291,-91],[-292,364],[250,182],[333,-455]],[[523375,4444428],[458,182],[250,-273],[-250,-1137],[-541,819],[83,409]],[[1918113,2901763],[-94501,9147],[-5079,-57155],[-5703,-60840],[12531,-1137],[-4371,-51785],[-3331,-39635],[-2914,-34402],[-2872,-33355],[-4663,-54060],[18650,-1684],[-4121,-48007],[1290,-91],[-5078,-58611],[-5995,-1365],[-1124,137],[-874,-6599],[-542,-6643],[1582,-137],[-2414,-29578],[-1832,227],[-10324,-22570],[22272,-2366],[-3539,-34812],[-9949,1047],[-4205,-41910],[-7910,910],[-2622,-31126],[-1541,-19248],[-36967,3367],[-1666,-10602],[16111,-1502],[-2248,-25574],[-333,91],[-3830,-44276],[13697,-1047],[-2248,-30261],[-38383,683],[-41631,8282],[-4329,-3550],[37634,-45141],[-30682,-25664],[11532,-1229],[-4746,-48099],[-17485,-14470],[14737,-1457],[-708,-7917]],[[1697389,2027749],[-457,-10239],[-625,-18885],[-1957,182],[-83,-1865],[1957,-910],[-708,-19613],[-583,-20113],[-3622,-25984],[-3788,-27758],[-45419,3914],[-82760,7190],[-625,-7190],[-66483,5870],[1415,16473],[-31014,2775],[-10325,-88825],[-72270,3413],[-8076,-17429],[-791,-2685],[-1582,-2229],[-167,-9647],[2748,-6326],[-916,-1092],[1166,-2776],[-500,-5779],[1457,-4050],[250,-3595],[-39840,3049],[-6619,-88370],[19066,-22070],[10491,-10785],[-3330,-6280],[-38466,-32854],[-30640,-26393],[21148,-25392],[28475,-34629],[-22189,-16291],[-4871,5460],[-14529,1366],[-3372,45],[-541,-4550],[958,-4096],[1248,-2139],[3289,-21933],[500,-774],[5537,-4960],[2331,-21159],[-1041,-1366],[-2456,-10147],[3247,-13652],[-51288,-42729],[-3830,-728],[-791,-5552],[499,-455],[13946,-4596],[9867,-11057],[-27976,-23754],[-22730,-20295],[6494,-7099],[2831,-3549],[-51954,-42639],[2997,-3959],[47750,-55015],[12905,-15472],[11157,-12650],[12281,-14061],[999,-137],[5579,4141],[44919,38315],[35927,-43047],[8284,-8601],[14737,-16973],[1499,-2594],[2373,-1866],[29557,-34674],[2998,546],[3497,-1593],[-1832,-1593],[28142,-32490],[31306,-38498],[30307,-3685],[31472,-3641],[416,6644],[61780,-410],[66233,-6598],[542,6325],[6910,-682],[57950,-3140],[-875,-7781],[-3247,-32309],[-5703,-54925],[-3997,-38679],[-4704,-45778],[-19899,-17383],[-12031,-15608],[-43504,50192],[-47250,-44322],[16943,-18293],[35344,-37996],[13863,-14699],[-17734,-14789],[3289,-4232],[-27643,-22980],[44503,-53150],[-1416,-1319],[-999,-2412],[-3622,-2730],[-3164,-1047],[-5037,-910],[-2414,410],[-2706,-1912],[-3497,-1547],[-3039,-1957],[-2873,-3003],[-3497,-955],[-5953,-865],[-2331,-1820],[-2206,-4141],[-3039,-2731],[-958,-2821],[-1582,-1319],[-4746,-2776],[-1415,-1866],[-4205,-2412],[-2914,-3868],[-4579,-3185],[-6078,-819],[-1083,-910],[-2373,500],[-6369,-1410],[-1374,-2094],[-2872,-1638],[-7077,1001],[-4830,-1137],[-1415,-1456],[-9492,2593],[-77099,21570],[83,1956],[-2206,774],[-36593,42820],[-22730,273],[-5995,-66528],[-50872,-43685],[1499,17793],[-65776,5369],[-51164,319],[-51163,2093],[-833,-11695],[19317,-1638],[-4538,-66801],[-25478,1956],[-2456,-48872],[-1124,-17337],[31889,-2913],[-3705,-42956],[-5412,-63298],[-59240,5597],[-5662,1729],[-6161,-76676],[-3539,-40089],[40423,-3504],[20940,-23026],[3747,7372],[1915,4778],[-708,1547],[3081,3049],[6369,2184],[3164,3322],[3039,1274],[292,1274],[2289,1320],[12698,-25983],[-6078,-70215],[10782,-728],[-791,-15517],[6994,-637],[-5079,-55516],[-6619,-72080],[-63029,0],[-66941,-45],[-66941,0],[-66942,0],[-66941,0],[-33471,0],[-66941,0],[-33471,0],[-66900,-46],[-33471,0],[-33512,-45],[-33429,45],[-33471,0],[-42712,0],[-57658,-45],[-66900,0],[-66900,0],[-66899,-46],[-66900,0],[-66858,0],[-66900,0],[-44461,0],[-42,33037],[0,66118],[-42,66119],[0,33037],[0,66073],[0,66119],[0,66073],[0,66119],[0,66073],[0,33037],[0,66119],[-41,33036],[0,66119],[0,33037],[0,66118],[0,66119],[0,66073],[-42,65391],[0,33810],[-41,66119],[-42,33037],[0,66119],[-42,66118],[-41,46279],[0,29078],[-84,56881],[-41,39680],[0,59430],[0,33036],[-42,59521],[0,33037],[-41,41136],[-42,64663],[-42,66118],[0,42093],[-41,63752],[-42,59521],[-83,66118],[0,66165],[-42,33082],[-42,66119],[0,66164],[-41,66164],[-42,37587],[0,61614],[-41,66164],[-42,66165],[-42,66164],[-41,66164],[-42,66164],[0,66210],[-42,33082],[-41,66165],[-42,66209],[0,66165],[0,37678],[83,43912],[-41,50738],[-42,66119],[-41,66164],[-42,18475],[-42,60841],[0,39725],[-41,86050],[0,59521],[-42,66164],[-42,66119],[-41,58929],[-125,93513],[0,107892],[0,37405],[-42,66165],[-41,66164],[-42,66210],[0,71215],[3955,-4005],[5453,-3458],[4496,-4095],[500,-2458],[4080,-1592],[2081,-1411],[2665,-3231],[3955,-7918],[7909,-5597],[958,-1228],[-83,-2185],[1873,46],[4163,-4596],[5578,-5279],[2498,-2912],[5495,-3367],[6203,-4278],[4080,-1911],[1748,-1638],[-416,-3186],[2498,728],[3206,-2548],[4038,-2594],[6619,-3595],[4246,-1956],[8035,-3049],[6036,-1820],[11782,-2867],[2372,-910],[6120,-5870],[3747,-2230],[7243,-2321],[2082,-1729],[4371,1320],[208,1865],[12906,-318],[2206,-637],[8451,-4050],[5953,-3413],[4871,-4187],[5037,-2866],[2248,0],[2290,864],[4121,273],[3164,-364],[2207,-2412],[2289,-136],[5287,-2366],[3081,-319],[874,1638],[1873,455],[8077,-1001],[7660,-136],[3455,-1047],[1332,1957],[14071,1092],[3289,-683],[666,592],[7119,1547],[3538,319],[7036,1228],[1207,1001],[1957,-1365],[1623,-91],[5454,-1729],[1748,-1502],[3872,-5278],[2415,-1957],[8534,-4368],[9075,-3459],[6494,-2002],[1333,-1593],[2206,-273],[6786,-3049],[2331,-2411],[6453,-3277],[5370,-2047],[8742,-2458],[5121,-1228],[2123,-910],[1832,-2731],[2872,-2047],[4413,-2139],[10200,-2457],[4287,-1229],[2956,-455],[8618,637],[5328,-1638],[2790,-1183],[8159,-1457],[5828,-728],[7868,-637],[791,-1183],[3830,-1092],[2498,-2867],[1832,2139],[2456,-819],[6578,-4687],[2331,-1229],[3039,-819],[291,-2776],[-1457,-1137],[-1582,-3004],[916,-910],[333,-3276],[1832,-4642],[2831,-3822],[10074,-7508],[3830,-8282],[5537,-7236],[1499,92],[4329,-2185],[3830,-2412],[10366,-3276],[3039,-591],[3622,-2139],[-1540,-5552],[-2623,-4732],[-1082,-3550],[-1457,-7371],[-208,-5143],[374,-3003],[2040,-7554],[291,-2685],[916,-2229],[125,-2822],[999,-2639],[999,-6280],[1000,-10511],[1623,-3823],[83,-2229],[2706,-5734],[292,-2867],[832,-500],[1999,-5506],[3580,-7236],[2248,-6416],[3414,-6325],[2206,-5370],[1041,-5961],[1457,-1456],[3830,-7190],[1790,-1365],[6827,-7099],[1832,-1001],[5287,-3822],[11740,-7463],[916,-1502],[1582,-136],[3413,-1730],[4788,-3230],[4579,-1001],[6078,-2503],[1957,-1729],[4704,227],[4621,-227],[5329,182],[5869,773],[8077,0],[3580,-773],[2623,-1730],[8117,-4459],[3248,-2867],[5869,-1411],[5621,-2684],[7743,-5871],[4746,-5324],[3705,-2184],[6536,-3231],[3330,-3367],[4121,-4733],[708,-1911],[-2956,-91],[-1706,-864],[5328,-3322],[4371,-1183],[1124,-1593],[1582,409],[2124,-1592],[2206,546],[2081,-910],[2623,-2093],[1749,-5188],[1249,-2548],[2039,-1912],[-208,-1820],[2207,410],[1165,-2412],[2873,-2912],[6411,-2958],[2040,-2366],[3205,-2640],[3497,-364],[6911,-2457],[2872,91],[7535,-1729],[666,-592],[3997,91],[167,-2093],[2581,-182],[2414,1229],[4663,-2048],[1498,-2457],[1541,-592],[1915,-2275],[2040,-273],[1831,1137],[791,-1956],[-832,-2731],[8492,1639],[5246,-592],[2706,-2139],[1831,319],[2248,3049],[3456,-637],[3830,1956],[3122,-1820],[666,-2048],[4579,-4550],[84,-1911],[-2124,-2048],[-124,-3959],[4829,91],[-1541,1684],[833,2594],[1582,-183],[14237,-6734],[8868,-3004],[1790,-227],[5662,-2002],[5994,-3277],[2873,-2457],[916,-2639],[-3914,-2139],[1499,-1092],[-208,-5006],[874,-2593],[1874,-3504],[5411,-6644],[6287,-5779],[4038,-2958],[4204,-2594],[5912,-1957],[9866,-2320],[5953,-455],[18776,-410],[14112,1957],[7619,2184],[5370,956],[1957,-774],[874,956],[4954,1365],[3913,182],[2539,1047],[6411,1274],[2290,-182],[2748,-1912],[5037,2185],[8368,2184],[2831,364],[2955,-546],[2373,1046],[3747,501],[2456,-227],[2040,728],[7452,1638],[2040,728],[7785,409],[8700,1093],[6578,2502],[9117,2230],[8284,4141],[7535,4095],[3372,3277],[4913,1729],[2289,1775],[2040,-319],[1790,-1365],[11032,1547],[7993,2685],[7827,2958],[7993,4960],[6286,6098],[2623,1365],[2581,227],[4662,1775],[2582,-46],[3496,2731],[2124,591],[2123,1820],[4454,2731],[9200,6871],[6911,7144],[2789,3550],[5495,4823],[958,2139],[2123,910],[3164,2503],[3539,773],[2206,1366],[1873,2457],[999,182],[4247,-2002],[2373,91],[1707,-1229],[1623,683],[1291,1865],[1623,3959],[6328,6416],[4454,2640],[0,1774],[8368,2321],[7993,3641],[1998,136],[5496,3003],[2955,4460],[4871,5142],[2248,6280],[4246,6143],[625,1547],[3913,5688],[916,501],[3622,4914],[208,3186],[1790,3139],[458,3504],[1665,4915],[83,2912],[2415,8828],[-125,4323],[541,4369],[1874,5961],[41,5278],[1083,819],[957,8373],[167,4187],[1415,8236],[1416,3322],[2664,4460],[832,2366],[-832,1046],[250,2958],[3122,5006],[3247,1638],[-42,5506],[3248,8601],[1249,1729],[-542,3185],[2665,18157],[41,1956],[-999,1502],[1249,3140],[-957,7235],[-1499,5324],[583,5506],[-1457,1001],[-750,2867],[1374,7554],[1332,5097],[2581,7235],[2248,3322],[4122,8236],[4163,4551],[6952,6052],[3788,4004],[4122,4824],[9367,12514],[4287,6689],[6536,11467],[2207,5324],[1249,4323],[541,10102],[1790,5734],[1041,501],[2747,-1320],[2207,455],[208,2412],[-2748,-137],[-208,1775],[2665,-546],[1915,591],[3996,2230],[3872,3140],[9699,9283],[4455,5051],[8076,9875],[3206,4232],[5245,8282],[2748,4960],[1623,1501],[5745,11559],[2207,6643],[1582,12241],[1706,7736],[1416,4596],[499,5097],[1124,2957],[2248,2321],[0,1320],[2582,6006],[1457,1821],[2622,1137],[2498,-318],[1665,-3140],[1832,3413],[125,4323],[3372,7098],[2873,6553],[1457,3959],[4704,9238],[1082,4914],[333,3823],[-874,7280],[-2331,5416],[-3747,4459],[-1291,2639],[84,6098],[999,3367],[3705,3368],[583,4687],[2248,3913],[2747,6234],[2290,3823],[1124,3094],[2373,8100],[-83,1638],[4163,14152],[83,1775],[2373,6234],[1540,8419],[958,6416],[-1083,3276],[916,4369],[2498,5779],[11532,19021],[3663,6644],[4163,6234],[3747,7372],[5870,12468],[2872,7417],[999,4869],[-999,4960],[-4662,8146],[-1333,4050],[-2331,4823],[-2956,11786],[-3871,13287],[-333,2367],[-2373,8509],[-3206,8965],[-333,2775],[2123,1912],[2623,1410],[1707,3868],[0,1138],[2706,5369],[3039,8191],[1707,7372],[1415,10921],[1624,17383],[166,4414],[1291,19931],[791,9010],[499,3595],[1666,7600],[2081,12195],[291,3276],[2082,7372],[4413,19795],[1831,8828],[4996,20432],[2040,7053],[2706,7463],[2165,2775],[2789,1047],[624,4005],[2790,1183],[1165,-2685],[1999,-364],[-3289,-4414],[-2998,-2776],[167,-3322],[1457,-500],[0,2866],[2623,2048],[1124,-773],[791,-3231],[-1790,-819],[166,-1320],[2789,-1320],[958,1092],[2747,-1410],[1291,-1866],[2664,0],[-41,2184],[-2457,364],[-208,3823],[4247,-364],[-375,2229],[1873,820],[1249,-1775],[1915,-728],[2623,728],[1041,-774],[-42,-2366],[3330,364],[-1207,-2912],[-291,-3459],[2872,-1729],[958,1911],[3663,2003],[2165,0],[916,3094],[2289,-1092],[2415,455],[2165,-2048],[291,-1820],[2248,-2821],[5454,-455],[3705,-1821],[791,-1547],[4538,1229],[66691,-6189],[72187,-6553],[9450,52604],[-1499,2685],[-3247,2457],[-583,1912],[-4704,5142],[-916,2138],[-1873,1411],[-2997,910],[-542,2685],[-2081,2321],[-2498,546],[-1998,3231],[41,3185],[1541,2048],[5204,2684],[2747,6690],[2165,4505],[3081,-1001],[3496,-2094],[4871,-1046],[2248,-1547],[4621,-2230],[2748,-2958],[2331,318],[28558,85823],[41464,-71625],[19733,-34356],[122809,-12287],[47875,-4732],[666,7963],[6536,59885],[71521,-5597],[55451,-4278],[-5329,-66528],[-23521,2093],[-5287,-65937],[-46043,2958],[-4038,-63388],[-26560,2139],[-4371,-67712],[-27185,-26393],[-3538,-28395],[3705,-1684],[2331,-3322],[1957,-4596],[3164,-5506],[4787,-4869],[4788,-2593],[3455,-1366],[3455,-409],[4246,0],[3123,-1638],[2040,-2458],[4787,-4414],[5037,-6097],[3206,-3186],[-42,-1137],[-17984,-27849],[-25727,18566],[-17111,-26530],[-6910,-56153],[-13655,-110850],[-9825,-115446],[-6286,-73127],[-36052,-52467],[2540,-2230],[499,-1683],[2998,-2185],[1790,-182],[2081,-1729],[2540,-364],[1915,-1138],[1207,-3549],[1457,-956],[-250,-1865],[2082,-1775],[250,-1274],[2872,-3413],[4871,-2639],[458,-1593],[2748,-1411],[4870,-5278],[1249,-728],[1957,-3777],[2747,-592],[999,-1592],[5454,-729],[2331,592],[-16485,-23299],[-41422,-58519],[-25395,31444],[-68939,-66528],[3871,-2503],[3747,-1183],[5287,-819],[4663,227],[3413,-1729],[1749,-2776],[3746,-2594],[2540,-227],[2789,-2230],[458,-1365],[2706,-2457],[1665,-4278],[2040,-3049],[-83,-2047],[-37176,-33856],[-50206,60021],[-18942,-16791],[-47708,63934],[-2831,-2593],[-43961,-39135],[21398,-27348],[-46252,5915],[1291,16655],[-63403,5688],[-1540,-17292],[-62612,6644],[-3580,-41409],[-2956,-34175],[-10158,865],[-1665,-31217],[25020,-1456],[-2207,-31626],[-4621,-2912],[-3538,-2685],[-3872,-773],[-2290,2912],[-2164,1684],[-4371,819],[-3539,-319],[-5121,-1547],[-1165,501],[125,3594],[-916,1093],[-3913,409],[-3830,-591],[-4372,5142],[-4745,-1593],[-5204,-73809],[68190,-5233],[-874,-13015],[-30390,1912],[-417,-5962],[-1581,-26711],[2830,1183],[2124,0],[-2082,-24163],[-47250,4732],[874,10694],[-34928,3550],[-3247,-44550],[-18858,1320],[-2623,-1047],[-1749,-4368],[-916,-1365],[750,-3049],[-416,-2594],[1665,-3322],[208,-2048],[1582,-3458],[333,-3504],[-292,-2139],[-2248,-4641],[-374,-4187],[3122,-3049],[1166,1229],[4246,-1411],[2165,-3913],[1623,410],[1416,-1548],[4204,-2184],[375,-1775],[2456,-4049],[-125,-2412],[1291,-1047],[375,-2821],[-500,-3595],[1790,-3276],[3247,364],[1332,-1184],[125,-1911],[1832,-1456],[833,-3413],[-250,-2047],[957,-2094],[-957,-1456],[708,-2639],[3080,-3049],[-666,-3140],[708,-3504],[-1041,-2184],[1332,-910],[1083,-3686],[-167,-1775],[6453,-3777],[1457,-4368],[3289,-1866],[41,-1456],[1915,-4687],[3039,-592],[1790,-1592],[542,-4096],[832,-1956],[2248,-3004],[2789,-1137],[958,-3186],[-541,-3185],[583,-2002],[-1374,-2913],[3663,-2502],[1249,-1638],[3455,-638],[791,-1365],[-541,-3640],[1457,-4687],[-1665,-1138],[83,-2457],[-2040,-1274],[167,-2230],[-1124,-1911],[1998,-3595],[-2373,-2048],[0,-2320],[2665,-3550],[-666,-3049],[-3039,-273],[-2332,-2366],[333,-4323],[-791,-1729],[1041,-1911],[-291,-3231],[1124,-5097],[-42,-2366],[1749,-1001],[2664,-3595],[666,-3094],[-1499,-1184],[-2081,-318],[791,-3914],[-625,-1228],[1041,-3322],[2206,-1593],[958,-2958],[-250,-3185],[500,-1502],[-1499,-1956],[6578,-4824],[22896,-2321],[-2498,-25437],[80805,-8828],[26768,-3094],[28975,-2730],[-4413,-51285],[-5495,-65254],[-13322,1183],[-6703,-67120],[-4662,547],[458,-3550],[1332,-1365],[-833,-2639],[666,-3550],[1624,-273],[-583,-1956],[2540,-1457],[957,-2093],[1998,-45],[3081,-2321],[1540,455],[1790,-1138],[5995,46],[4455,-910],[4038,1638],[3080,-774],[1790,501],[2540,-1593],[3205,-5051],[1999,-910],[2706,-2912],[5620,45],[2289,-2275],[1915,-501],[2248,-3003],[3622,-682],[3747,637],[3705,51693],[66608,-5187],[4330,50601],[77099,-6825],[999,10875],[19775,-1183],[-7161,-77313],[31514,-3413],[542,6143],[48249,-5233],[624,11331],[19525,-1775],[-7327,-84138],[-3622,-40500],[8701,-864],[583,6325],[68440,-5370],[18192,-1365],[-5287,-65254],[7286,-546],[-3081,-32855]],[[652138,4041573],[-791,-1912],[-1666,-1820],[375,-318],[-416,-364],[-417,136],[250,-2685],[-250,-273],[-1082,546],[-791,-455],[167,501],[-583,591],[624,637],[-41,911],[-375,227],[1873,2275],[-458,2185],[500,500],[1124,-1137],[1041,273],[374,455],[542,-273]],[[677241,4057226],[1498,1092],[333,2412],[-832,2867],[957,2230],[3331,-1820],[1956,-3231],[458,-1775],[-2289,-2002],[-375,-2048],[-1707,-2002],[-3996,-7964],[-2498,-4505],[-625,-2002],[750,-2548],[458,-4869],[-3955,136],[-2998,3959],[-624,7054],[-708,864],[4330,319],[3871,2685],[250,2821],[-833,2867],[2332,2548],[916,2912]],[[607343,4069422],[1083,4778],[-458,1683],[1499,4323],[2539,137],[3788,-819],[916,1501],[3123,956],[2872,2912],[1665,2640],[-291,2093],[791,3367],[-1041,2640],[708,2411],[-1499,4551],[1499,318],[1124,-1319],[3080,-1593],[542,-2548],[1290,-2185],[5495,-6279],[3705,-3049],[2956,-3231],[2040,-3049],[2165,-1592],[3372,227],[-749,-2366],[-2040,-3003],[707,-4642],[2457,-6007],[1165,-2002],[4371,-3868],[1457,-4232],[-2997,-227],[-3122,-1138],[-3164,-2139],[-999,410],[-5371,-410],[-7118,-2366],[-2040,-3140],[-1957,-2002],[-832,-1911],[-2290,1456],[-3122,910],[-5329,-500],[-2415,1410],[-624,2639],[957,3186],[-1415,2002],[-5329,228],[-9699,-2776],[-1957,364],[-2123,-1229],[-791,-3595],[-1665,-2776],[-375,-1911],[1748,-1911],[-4870,319],[-1208,1319],[-374,3959],[-3789,3459],[-125,3185],[-1706,2867],[-1083,4596],[4580,-819],[3580,318],[4288,2093],[4412,5825],[5121,2776],[2872,2776]],[[578036,4083255],[999,-136],[-333,-273],[-958,45],[84,-637],[-750,-1866],[-1082,-591],[-375,136],[1332,546],[375,1138],[-42,910],[333,410],[417,318]],[[768952,4226414],[83,0],[-166,-364],[-208,91],[291,273]],[[769410,4227415],[166,46],[-208,-547],[-166,182],[208,319]],[[763082,4228689],[-874,273],[2664,2594],[2914,-364],[333,-637],[-1040,-774],[-2165,-773],[-1832,-319]],[[616419,4241385],[250,-1911],[-1666,-1183],[-2497,-4733],[-542,-3003],[-2747,-1638],[-1832,-1775],[-4163,455],[-1415,1001],[249,2685],[-1082,637],[2290,6644],[1790,864],[1915,2503],[4329,1729],[1083,1138],[2373,-546],[1665,-2867]],[[609550,4244889],[250,-182],[-209,-137],[-457,0],[416,319]],[[608592,4244889],[-999,455],[-458,683],[-41,773],[1415,-364],[333,-591],[416,-46],[-208,-728],[-458,-182]],[[779859,4253899],[2789,1547],[875,-1866],[3830,-1592],[-3372,-2321],[-2290,-2730],[-2082,182],[-2955,-1957],[-666,-2002],[-1333,-774],[-2289,3914],[-958,591],[2040,1274],[3247,-45],[1790,546],[1957,2002],[-583,3231]],[[577370,4255128],[-458,-91],[-708,-911],[-583,1093],[833,1046],[-416,1502],[1082,2412],[416,136],[125,-2184],[625,-1274],[-667,-273],[-249,-1456]],[[615961,4271100],[-167,-182],[-166,227],[125,91],[208,-136]],[[501852,4285343],[4080,3777],[2706,4960],[208,1911],[-1665,2503],[3247,4914],[-583,2139],[4497,2639],[2872,2321],[1748,2321],[833,4596],[-874,1684],[2956,1410],[2955,2230],[3414,1183],[6328,4278],[4829,2912],[3205,4687],[1624,1638],[3122,1684],[2581,45],[4038,-1820],[3206,-409],[6036,1592],[3497,2048],[1624,-2685],[4329,-2139],[791,1866],[-4912,1775],[-583,637],[1707,2821],[6911,501],[2955,-228],[5704,1957],[9200,819],[3122,-1001],[6203,-273],[4704,318],[4538,1229],[3081,1638],[83,1365],[3289,1548],[1249,2275],[5370,2685],[8076,3048],[3789,1775],[3372,2093],[1207,2276],[-458,2548],[2248,637],[2997,2639],[2831,-1956],[5371,-1502],[8409,-865],[6120,-1410],[4954,-7782],[3621,-2411],[3581,-3186],[4079,-5506],[3539,-2275],[4038,-592],[4663,319],[2414,-1001],[1166,-2276],[-1041,-2957],[833,-2367],[2414,1001],[1707,-318],[1124,-3914],[2040,-910],[1499,-4641],[-1249,-3595],[291,-6416],[-708,-1775],[1333,-1365],[3413,-1684],[833,-5051],[-2415,-819],[-2164,228],[-5121,-455],[-624,4232],[-1999,2775],[-4621,683],[-5536,-592],[-2040,-2548],[-3789,-774],[-1665,-2320],[-2289,273],[-2540,-956],[-1790,-1866],[-3330,-1456],[-8493,-6325],[-1166,1638],[292,2367],[-1999,1956],[125,4369],[-3746,1820],[-417,3185],[-999,2003],[1874,4095],[-1041,2048],[-2456,1956],[-3914,1411],[-1415,1456],[-583,2685],[1749,1274],[-708,1547],[-7494,-3276],[-666,-3094],[-1623,-3277],[-2207,-1592],[-957,-1593],[1374,-1547],[-916,-2276],[-4788,638],[-2539,-410],[-1624,1866],[-1956,91],[-1957,-1274],[-2789,-3732],[-4912,-364],[-84,1456],[-1873,319],[-2498,-2639],[-250,-2367],[1208,-364],[3080,-3549],[1416,-2548],[3122,-774],[3122,455],[2331,956],[3539,-91],[666,-774],[541,-4641],[-541,-2321],[-3164,-3186],[-41,-3640],[-2415,228],[-541,2047],[-1624,1775],[-291,2184],[-2581,1911],[-3705,-409],[-3414,-1547],[-5787,-4414],[-1249,-3823],[4080,-637],[2373,-1365],[541,-2002],[-1998,-7463],[2248,-3322],[42,-1866],[-2748,-5142],[-2040,-455],[-2081,819],[-3289,-91],[-4246,-1137],[-417,-1957],[1374,-409],[750,-2503],[2123,-1820],[1415,-2822],[-541,-2320],[-42,-4733],[-3497,-1183],[-832,-1092],[-1915,728],[-8160,409],[916,3140],[-2914,4005],[42,1319],[-2457,4551],[-1665,1729],[-2414,637],[-3830,5415],[-2706,1183],[3622,3459],[-2415,728],[-2997,3003],[-2831,1092],[-1249,-500],[291,-2139],[3997,-3367],[166,-1639],[-2248,-227],[1166,-3413],[42,-6871],[374,-1957],[3497,-3913],[-1332,-3095],[-3747,-3595],[-1415,-3094],[957,-2912],[-1082,-1092],[-3414,3913],[-4163,1092],[-416,-1320],[2206,-2366],[-291,-2730],[-2373,-2594],[-4121,-3322],[-2873,-3231],[-1374,-273],[-3330,-5915],[-1249,-3140],[-1041,-182],[-2747,2730],[-1541,-409],[-3205,-2185],[-2165,-2138],[-2997,1001],[-2831,-501],[-2540,910],[-1623,2731],[-5537,455],[-3164,-683],[-4413,-2548],[-1415,-319],[-1166,2275],[-41,1957],[-1249,3823],[-2248,2320],[-3539,865],[583,3686],[2789,2958],[-541,1274],[-3622,-2503],[-1082,-5005],[-2498,-183],[-1540,6235],[915,3458],[-249,3231],[-1624,4459],[-1290,1047],[-3955,-683],[-2956,865],[-2831,-637],[-1665,865],[-1540,3549],[-167,4277],[-1748,4505],[-1749,2048],[1415,2275],[2498,2731],[999,2867],[-541,3367],[3289,3094],[2789,1911],[2456,2731],[4205,3504],[3788,2548]],[[755214,4320882],[333,-546],[-375,-45],[-291,91],[333,500]],[[757171,4324614],[-1749,-637],[-999,-1366],[83,1411],[-1873,2048],[208,864],[458,228],[2539,-1775],[958,137],[416,-319],[-41,-591]],[[722659,4341360],[-666,-2549],[541,-4778],[2040,-2685],[-832,-2912],[333,-3822],[-583,-3641],[-2456,2458],[-167,1183],[-1915,1092],[-2747,-592],[-1874,319],[-2789,4141],[-1124,3322],[2914,1228],[1582,2640],[291,3822],[2124,3276],[3788,-591],[1540,-1911]],[[1536988,4956815],[1499,1774],[2498,638],[4079,-3231],[1707,-1957],[1457,1229],[1999,-182],[957,-1138],[-583,-2457],[-2872,546],[-999,-1729],[1998,-1184],[1998,1866],[2290,-1411],[-1457,-3230],[1040,-5552],[1749,91],[1540,-1274],[4288,1320],[4954,-911],[750,2230],[2872,-409],[1124,-1775],[2206,500],[1582,-637],[1832,774],[1998,-546],[958,-1866],[7743,2093],[-83,1457],[5828,2275],[1915,-1729],[3497,2002],[2123,546],[2664,2093],[2665,-682],[1207,546],[2373,-46],[3372,683],[1998,-592],[750,1229],[2706,1547],[1873,-546],[3289,2230],[2289,773],[2706,-819],[3581,546],[791,1775],[2039,409],[2665,-455],[1665,-1501],[1790,273],[5329,6962],[3413,1456],[1374,1229],[1957,-364],[2498,728],[2206,1547],[4371,-182],[3372,1957],[1166,-1229],[3330,-364],[6078,4323],[1957,228],[3372,2275],[2581,1001],[2498,-1365],[1582,1365],[5162,1274],[42,2457],[9158,5461],[2123,2321],[-83,910],[2623,3504],[166,1956],[4705,5689],[2664,4459],[1041,-501],[-541,-2866],[791,-1639],[-6079,-6188],[-166,-2776],[-5121,-3504],[-3205,-4914],[-1790,0],[-1665,-1047],[-2706,-3822],[-2831,-1047],[-1915,-2867],[-1874,273],[-3705,-819],[-1665,273],[-1915,-1411],[-2456,-273],[-2664,-2457],[-1582,-318],[-916,-1593],[-4829,-1183],[-2207,682],[-2373,2822],[-2664,-1411],[-2456,-2139],[-2789,-1001],[-1749,-1456],[-2289,-819],[-2082,-1638],[-4330,-819],[-2039,91],[-2706,-3413],[-2540,-364],[-1207,1592],[-2123,364],[-2665,-773],[-416,-1593],[-5495,-318],[-1082,637],[-2124,-592],[-3413,-2321],[-1457,637],[-2290,-1046],[-1332,-1775],[-2207,728],[-2497,-1228],[-3539,500],[-1457,-546],[-1915,319],[-2872,-1775],[-5579,-2685],[-1915,1775],[-2956,-865],[-2747,-1501],[166,-1411],[-4246,-1593],[-3622,-728],[-1582,2412],[-2123,318],[-1082,-955],[-791,728],[-1957,-1001],[-1707,1001],[-2456,364],[-2040,-2366],[-3122,1228],[250,-3049],[-2248,-455],[-1249,1957],[-2956,182],[-208,1365],[-3081,1138],[-1165,4323],[-1249,1456],[1373,1138],[-499,1410],[-2331,-364],[-1624,774],[-83,3686],[-1416,2093],[-2040,-728],[-333,2457],[-1582,1593],[-1665,-91],[-1873,-1593],[-999,-2776],[-4913,-682],[-3164,4323],[-4870,4687],[-2332,910],[-1998,2867],[-458,2230],[791,3822],[2248,683],[250,-5734],[4996,-6462],[3080,-3595],[1332,-2912],[4497,182],[832,2594]],[[1918113,2901763],[-625,-7053],[80305,-7417],[75309,-6872],[23105,-1956],[69772,-6508],[21690,-2002],[2914,3686],[2040,-318],[1665,-1866],[1873,-3459],[2040,-1001],[4330,3140],[1290,2412],[458,6598],[3664,6098],[3080,7645],[2040,2867],[2706,2138],[6578,3368],[1540,2002],[2165,5051],[1748,865],[2207,-274],[6785,-3822],[2124,-546],[4287,592],[4663,7189],[167,4778],[-292,4414],[1665,637],[2040,2276],[4288,2639],[1582,-1229],[5370,1775],[1749,-956],[4038,-318],[1457,3276],[2664,1320],[1832,4186],[1582,819],[1832,2230],[9825,4141],[4787,2958],[3330,3822],[1582,4869],[-874,6235],[-1415,3504],[2539,1774],[3955,1820],[5079,1912],[5870,-2185],[6536,-4095],[6036,-5142],[1416,-2139],[3039,-2548],[4163,-6644],[2039,-3868],[4954,-12195],[708,-1274],[11532,-10876],[3080,-1684],[9742,-4368],[1998,45],[13696,5324],[7910,-2093],[7410,-2912],[9867,-4278],[8867,-5369],[11448,-5870],[11365,-3004],[18401,1411],[12114,1411],[5371,1592],[3954,2412],[3414,1092],[4829,-409],[3830,-1092],[4871,500],[5037,-136],[1499,364],[4288,2912],[6119,7781],[6620,6462],[3955,5961],[2622,-136],[4746,-1730],[7036,-1638],[6119,-682],[3789,1638],[1873,2002],[2872,-91],[6328,2867],[3206,-46],[4121,-864],[6370,-4005],[1040,-5460],[2207,-2731],[2914,-1365],[4163,-1092],[3955,-1774],[2414,-2867],[5870,-3959],[2123,1274],[3081,3367],[3788,6507],[2956,3959],[2831,1184],[4704,3185],[2623,-46],[5453,3186],[1291,1183],[1540,16291],[1332,15107],[17610,-1865],[2831,35312],[7452,-2822],[7451,-273],[26352,-4778],[8202,-3049],[2872,35039],[47209,-6006],[2914,29623],[8159,-864],[666,6780],[1458,3959],[2997,4050],[50123,48963],[8742,-10876],[25103,20432],[-3164,1365],[-5537,455],[-2539,-637],[-4163,-2275],[-8326,6462],[-24604,59702],[-6494,5324],[-708,4141],[3955,27349],[5787,6689],[28683,22844],[-18692,24117],[26227,22025],[-333,2321],[-1249,1274],[916,2002],[-375,2275],[-1790,637],[375,2958],[-4371,5097],[-2165,-364],[-3872,-3049],[-2081,1865],[-2956,3686],[-3081,0],[-999,1502],[-1915,45],[-2414,1502],[-541,4232],[1249,2275],[-2165,2185],[18900,18839],[-9575,10420],[-46834,5370],[3497,26393],[6744,66073],[624,51148],[26394,-2913],[2165,-4232],[416,-1729],[5454,-11786],[4496,-500],[1207,-592],[2498,410],[8201,-592],[7244,-5688],[2164,1183],[5079,137],[3705,-1365],[2540,1001],[2331,45],[-1499,-13879],[-2914,-3640],[-2955,-14562],[1623,-5642],[-1957,-18521],[18193,-1911],[-916,-9374],[19108,-2230],[-1457,1820],[-166,2731],[916,3549],[-292,1684],[12281,-1320],[-1790,2958],[1873,3822],[750,3277],[-750,2184],[1457,910],[542,-3003],[1831,-1912],[1624,2094],[-625,3777],[2207,1638],[1332,-1229],[916,-5005],[1207,-4005],[1915,-682],[416,-2230],[-499,-3868],[27351,-2821],[1832,-1912],[-250,-5096],[874,-865],[-333,-2548],[1374,-1638],[-708,-4141],[4205,-2594],[2123,410],[3081,-455],[1582,-2731],[2497,364],[1957,-2867],[4413,-273],[2664,1320],[3497,2912],[1665,728],[3247,-773],[2373,-3094],[42,-2185],[-1124,-1774],[1915,-774],[2206,910],[-125,3231],[3414,5734],[3372,3412],[292,3277],[915,1593],[5079,6370],[333,1820],[1999,2503],[2123,319],[708,7190],[-4330,455],[-708,2457],[2498,4050],[3164,-319],[-1540,3504],[125,10603],[-958,1183],[1332,6962],[-2373,2822],[-2248,819],[-3289,3777],[-1040,3867],[-208,3732],[1040,1183],[-999,2230],[-5245,-1274],[-2248,1319],[-1957,228],[-1748,2275],[-583,3231],[916,955],[-1166,2048],[833,4323],[1332,-227],[1041,2093],[3413,-3003],[3123,0],[1290,5551],[3206,2548],[11573,-1274],[333,819],[30265,-3321],[-3330,-32901],[11032,-1228],[-2998,-4323],[9367,-7145],[-2040,-4004],[25186,-32627],[10908,-15699],[2706,2366],[43503,-5188],[2789,52104],[51039,-6872],[38508,-5187],[-833,3731],[-2581,4232],[2873,1138],[5453,1137],[1790,1912],[-1332,3731],[2873,-1729],[1457,3322],[1915,-228],[1165,2275],[3331,3186],[-208,3367],[1374,774],[957,2503],[-2081,4368],[291,2867],[5578,-637],[-3996,2821],[-874,3367],[1998,865],[2789,-2548],[2789,273],[2831,2139],[2207,-3732],[1915,-455],[1248,1001],[-707,1684],[83,3413],[5412,1820],[-833,2412],[791,1183],[1874,-91],[3330,-3914],[-458,-3776],[-916,-1229],[1166,-2366],[2831,-1775],[2997,2230],[2498,-1866],[3705,683],[3747,-456],[3705,1548],[2206,-91],[1083,1137],[1707,-1456],[832,-1911],[2873,1274],[1915,2139],[2914,1410],[4371,4050],[42,1183],[3247,3322],[1040,-91],[4288,3868],[1707,-364],[5787,2822],[6036,-13697],[5121,-683],[2622,227],[1333,-773],[3497,1502],[3746,91],[3289,1137],[708,1001],[4121,-273],[2498,-1046],[4246,1683],[4038,-3913],[1166,1866],[1415,-1138],[8993,-3777],[4496,1183],[3164,-4914],[3205,-1638],[-957,-2594],[166,-2503],[1332,-2867],[-3372,-3367],[-874,-3504],[999,-1593],[3039,-45],[1332,-956],[1249,-4414],[2831,-4232],[42,-2503],[1790,-910],[1457,-2047],[-2207,-2230],[-541,-2640],[708,-2775],[1915,-3004],[6827,-2093],[3830,-2093],[3580,-774],[3789,637],[4121,-1774],[1957,-1547],[375,-2321],[1207,-1138],[3122,1820],[-83,2139],[1956,1138],[1666,-319],[3122,2412],[1457,3777],[5745,6416],[2373,2093],[4829,-1274],[3996,-45],[10783,-2321],[8409,-455],[41755,-46],[36385,-45],[62279,-46],[42588,0],[110028,182],[0,-37951],[116648,-91],[132426,91],[2664,-6689],[2415,-2867],[1457,-2958],[40381,-17974],[5246,-2639],[53827,-15745],[6620,-2594],[24520,-21342],[4371,-1729],[4413,-2821],[1998,-6007],[12198,-13561],[19524,-8736],[14779,-10740],[21273,1138],[19275,-7235],[75476,-35085],[13613,-9647],[1540,-1683],[15278,-8737],[3372,-546],[2956,-3368],[54327,-20159],[708,-1046],[56326,-20068],[89505,-15972],[3081,-3868],[16568,-29305],[1374,-1547],[21939,-4323],[2623,-1366],[2165,-2366],[27892,-6097],[94917,-38407],[39674,-16063],[92252,-56472],[3997,-1729],[87173,-66574],[2123,-3322],[1957,-591],[3331,-3185],[29515,-11240],[13863,-16564],[9034,-5916],[-418009,-364],[-104534,46],[-104075,0],[-104076,0],[-104075,0],[-67150,-46],[-50331,46],[-19358,-42911],[-3289,-8328],[-23146,4915],[-2415,364],[-10615,-1547],[-3997,-2867],[-8035,-1001],[-957,-1138],[-1873,319],[-1915,-1457],[-791,-3048],[791,-774],[499,-3822],[-3330,-1275],[-1332,-1683],[-1957,-683],[-2498,-2685],[-2997,-1729],[1124,-3276],[-500,-7053],[-7660,910],[-2456,-23708],[541,-3322],[-999,-910],[-2290,-22207],[417,-45],[-5329,-51922],[-31431,3504],[-2331,410],[2331,4687],[-416,2776],[-1790,1183],[-2914,682],[-5038,2685],[-4329,865],[-3788,-1092],[-4163,1729],[-3997,864],[-2872,1229],[-1582,2184],[-2082,4369],[-4121,2548],[-1249,2093],[-83,2458],[1873,3048],[-1416,683],[-5869,-2548],[-3039,-2594],[-2332,-1092],[4954,-8009],[3581,-8510],[333,-1956],[-833,-2958],[-3455,-6143],[-1457,-3914],[-2373,-7781],[-167,-5051],[1749,-4096],[5370,-9419],[1748,-4778],[1874,-7508],[541,-4596],[2373,-8646],[666,-4596],[874,-18384],[-291,-5507],[-958,-5415],[-3372,-8691],[-499,-4141],[666,-3367],[2248,-5325],[1873,-7508],[1624,-4732],[2664,-5097],[4496,-4778],[3122,-1775],[3372,-3595],[167,-3094],[-1082,-5779],[-1083,-3959],[-1499,-2230],[-3330,-1774],[-4538,-1184],[-4704,-2229],[-3372,-2685],[-1124,-1456],[-1374,-4141],[-1665,-7372],[500,-3367],[3830,-7782],[41,-3003],[-707,-1911],[-4497,-4460],[-1540,-3094],[-708,-5324],[-1332,-3504],[-166,-3822],[-2082,-2185],[-3122,-318],[-1207,-865],[-2540,-3276],[-2789,-2685],[-4121,-5233],[-2831,182],[-2748,1183],[-2289,2230],[-3289,-91],[-2082,-4733],[-5578,-3049],[-999,-2411],[-3206,-2185],[-832,774],[-2249,-1911],[-291,-5552],[-2914,-2548],[-2664,-5006],[-625,-3549],[-1499,-2821],[-1415,-1138],[-3122,-45],[-6453,4869],[-3705,1547],[-5162,819],[-2540,-410],[-2914,-1820],[-1207,-1365],[-3913,-3822],[-2456,-501],[-2998,2002],[-3413,8419],[-2915,2138],[-2539,-637],[-1582,-1501],[-2290,-228],[-2664,728],[-2290,1365],[-2664,2503],[-833,1866],[-499,3276],[-1957,1320],[-1915,273],[-4038,-1502],[-10907,-4732],[-1374,-1775],[-250,-2594],[458,-2457],[2623,-6644],[2623,-4141],[-125,-2958],[-1166,-2002],[-2872,-1957],[-4580,-1092],[-1457,-3822],[-166,-1957],[1499,-6188],[457,-5507],[-291,-3139],[-1082,-3595],[-84,-4187],[-832,-1547],[-6703,-4641],[-2040,-911],[-4870,-546],[-2914,-1001],[-1416,-1865],[-624,-6007],[-750,-2776],[-1582,-2685],[-3621,-1638],[-5412,-455],[-4996,-4505],[-2040,-227],[-2248,2184],[-1790,182],[-2248,-3186],[-1832,-4277],[417,-2821],[2164,-5279],[125,-2685],[1874,-4869],[-750,-5779],[-1998,-3504],[83,-1547],[3997,-6780],[-1582,-4141],[374,-3231],[-3705,-4505],[-291,-3231],[1207,-3413],[2998,-5415],[999,-3595],[374,-3959],[2665,-6507],[1290,-3868],[-166,-2776],[791,-3048],[2414,-3095],[-583,-3731],[-5495,-6826],[-2206,-2002],[-1416,-2730],[-208,-4414],[1291,-3186],[-791,-5051],[42,-2366],[-3123,-3777],[750,-2275],[-250,-3186],[-1166,-4596],[-1374,-2866],[1832,-3277],[2623,-3094],[916,-1820],[41,-6599],[333,-2002],[3914,-5961],[874,-4823],[3538,-4005],[-166,-1365],[-5912,-4596],[-874,-2139],[458,-2639],[2873,-4414],[4912,-6416],[2165,-1866],[2373,-956],[4329,-136],[3331,-1183],[4829,-2458],[2248,-2821],[7368,-546],[3081,-3322],[1415,-2366],[-333,-4778],[2456,-5552],[209,-1774],[-1166,-7281],[-2789,-3322],[-4122,-1138],[-5203,-4914],[-2332,-2912],[-4496,-1684],[-2872,-4232],[-666,-2776],[-1499,-2002],[-458,-2321],[-3872,-3140],[-5203,-2230],[-1666,-4004],[1416,-1092],[-2748,-4187],[-125,-4823],[2873,-8191],[3747,-4823],[1956,-1411],[1041,-4505],[2748,-728],[1998,-2184],[832,-5780],[-1165,-2502],[-666,-3049],[-2540,-2048],[-2040,-2639],[-5120,-5233],[-2914,-3595],[-2040,-4096],[-2331,-2639],[-125,-1502],[1165,-2502],[541,-3140],[-1665,-2139],[-2164,-1047],[-1957,-3458],[-3039,-3367],[83,-2549],[-916,-3230],[-4912,-5780],[-125,-2639],[1457,-2412],[-2414,-9283],[957,-4141],[-416,-1729],[1040,-2230],[-791,-4141],[958,-1865],[-1082,-2958],[-833,-228],[-32846,3322],[-42005,14289],[-625,3413],[-1582,546],[3830,5961],[-68440,7099],[-874,-9010],[1124,-910],[-1082,-14243],[-750,-12378],[-458,-1274],[-1415,-13879],[-15528,5688],[-20441,2184],[-23521,42366],[2415,23708],[-81679,8236],[-7576,-6371],[-16194,1866],[-3414,-40226],[-333,-5370],[-3289,-47325],[-3039,-43048],[23979,-2093],[-6744,-36814],[6453,-182],[9491,-955],[26519,-1820],[-791,-6462],[-3497,-39134],[-333,-3049],[-32597,2912],[-21273,1729],[-2164,-13287],[-11407,1501],[-3622,-36813],[-10074,1502],[-52621,7326],[83,2048],[-16069,2138],[-30182,4187],[208,8600],[-63444,4824],[4163,51193],[40589,-6280],[4246,5006],[-20482,5187],[4538,18339],[4788,-455],[8492,27166],[-34511,8783],[7243,35721],[4413,-136],[833,11194],[1124,12059],[-60614,4550],[-1499,-19840],[-39215,4459],[-6911,-70123],[-19982,2549],[-45086,5460],[-3205,15836],[-36760,4004],[-833,-8646],[8576,-7417],[-1707,-14015],[4788,-9192],[42,-2776],[-2498,-3868],[-333,-2139],[-1249,-546],[624,-2639],[-458,-1502],[1208,-1365],[-13822,1502],[84,819],[-32389,3413],[-416,-3777],[4288,-4869],[-874,-14744],[-52413,5597],[-2414,-27439],[-3123,-31171],[-59156,6234],[-1874,-24118],[-18067,1866],[-291,-228],[-2498,-24254],[250,-136],[-2956,-28805],[-6786,4368],[-2623,-773],[-21731,2685],[-11490,1092],[-34678,2548],[-7493,774],[-14820,1183],[541,9328],[-43296,3686],[2082,19886],[4371,6917],[1624,16563],[-61905,6280],[667,6962],[-2790,16018],[-34594,3595],[1249,15745],[1124,18748],[-708,182],[-30349,3185],[125,2048],[-7993,1320],[-9991,455],[-4621,-182],[-7702,1638],[2373,29305],[-45959,3731],[-1957,956],[-61363,4050],[-125,-1365],[-30307,3913],[-32555,3686],[4830,41956],[2872,29123],[-16319,1593],[-33221,3413],[-33429,3321],[-708,-773],[-37592,3913],[-125,819],[-11573,1229],[-291,1274],[1082,14471],[3331,32081],[4163,42638],[4038,41273],[-51164,4915],[-42,-820],[-20190,2003],[-42838,-36359],[-20315,-17246],[-11948,-10057],[-250,-2321],[-2081,-1729],[-1499,774],[-18817,-17292],[-4454,5415],[-33471,-28759],[-10533,12741],[-8867,11103],[-25020,-21523],[-25561,-21797],[10200,-12332],[-27851,-24027],[2082,26075],[-38092,3503],[-832,-364],[-28101,2503],[-1832,-21023],[-46875,2594],[-19150,1001],[499,7372],[666,5915],[-44627,4915],[1540,20659],[-28517,3504],[-38050,1138]]],"transform":{"scale":[0.0000024021004804200973,0.000002197560439512088],"translate":[137.9947,-25.9968]},"objects":{"qld_northern_ddmg_boundaries_gda2020_simp200m":{"type":"GeometryCollection","geometries":[{"arcs":[[[0]],[[1]],[[2]],[[3]],[[4]],[[5]],[[6]],[[7]],[[8]],[[9]],[[10]],[[11]],[[12]],[[13]],[[14]],[[15]],[[16]],[[17]],[[18]],[[19]],[[20,21]],[[22]],[[23]],[[24]],[[25]],[[26]],[[27]],[[28]],[[29]],[[30]],[[31]],[[32]],[[33]],[[34]],[[35]],[[36]],[[37]],[[38]],[[39]]],"type":"MultiPolygon","properties":{"District Name":"Mount Isa","DDMG Name":"Mount Isa","Area Sq Km":394921.12,"Police Region Name":"Northern Region","Police Region Code":"NR","Police Region Short Name":"Northern","Region Slug":"northern","Layer Id":"qld_northern_ddmg_boundaries_gda2020_simp200m","Layer Group":"per-region","Layer Kind":"ddmg","Source":"QPS Disaster Districts, Queensland Police Service, via the Queensland Government Open Data Portal","Source URL":"https://www.data.qld.gov.au/dataset/qps-disaster-districts","Licence":"CC BY 4.0","Licence URL":"https://creativecommons.org/licenses/by/4.0/","Dataset Date":"19/05/2025","Simplification Tolerance M":200,"Coordinate Precision Decimals":4,"CRS":"GDA2020 (EPSG:7844)","Fidelity":"standard: source boundaries, simplified","Modified":"Simplified and repackaged from the source dataset; see Source URL"},"id":"Mount Isa"},{"arcs":[[-21,40]],"type":"Polygon","properties":{"District Name":"Townsville","DDMG Name":"Townsville","Area Sq Km":175353.69,"Police Region Name":"Northern Region","Police Region Code":"NR","Police Region Short Name":"Northern","Region Slug":"northern","Layer Id":"qld_northern_ddmg_boundaries_gda2020_simp200m","Layer Group":"per-region","Layer Kind":"ddmg","Source":"QPS Disaster Districts, Queensland Police Service, via the Queensland Government Open Data Portal","Source URL":"https://www.data.qld.gov.au/dataset/qps-disaster-districts","Licence":"CC BY 4.0","Licence URL":"https://creativecommons.org/licenses/by/4.0/","Dataset Date":"19/05/2025","Simplification Tolerance M":200,"Coordinate Precision Decimals":4,"CRS":"GDA2020 (EPSG:7844)","Fidelity":"standard: source boundaries, simplified","Modified":"Simplified and repackaged from the source dataset; see Source URL"},"id":"Townsville"}]}}}