{"type":"Topology","arcs":[[[4289067,2041202],[1118,31007],[25710,52554],[-11179,43620],[-95014,164494],[2794,25226],[-38005,103006],[-83278,132437],[-34652,71999],[-4471,49926],[-14532,54131],[-45272,75153],[-5030,18919],[10619,35737],[29064,59912],[5589,28904],[-17326,75678],[-21239,66744],[-20680,47299],[-1676,30481],[36888,104583],[7265,56758],[-2235,70948],[-16767,82510],[-21798,47824],[10060,22599],[48067,37313],[11737,21022],[33534,18394],[119607,45196],[95573,13139],[59244,-526],[63716,17869],[59244,33109],[25710,1576],[28505,-19970],[32975,-2102],[-11737,-48876],[-19562,-23649],[-29063,-70423],[-63716,-181311],[-65392,-211268],[-32975,-122451],[-25710,-111940],[-21239,-127707],[-16208,-148202],[1677,-175531],[14531,-101430],[26828,-108261],[43036,-94597],[29622,-52555],[5589,-42568],[-21239,-24701],[-25709,-52028],[-4472,-53606],[-58126,33635]],[[3338363,2071683],[-64834,26277],[-8942,17343],[8942,36263],[22916,33634],[40241,22599],[34652,-28380],[55332,-22598],[-26268,-61488],[-22357,-23124],[-39682,-526]],[[3270176,1948707],[20680,-28905],[13413,-57810],[-2235,-24174],[-20121,-32058],[-17885,-5781],[-63716,40466],[-1676,18394],[21797,13139],[-1118,33109],[31858,37313],[19003,6307]],[[3268499,1614988],[-20120,19445],[-7266,26803],[-34653,36262],[38006,15766],[37447,-525],[15091,-12613],[-4472,-89342],[-24033,4204]],[[2928124,721043],[-88867,56758],[-19003,21022],[-186116,23123],[-6707,-41517],[-63716,7883],[-4471,1051],[-21798,2102],[-26268,-129809],[-35770,3679],[-5590,-18919],[21239,-11037],[-16208,-46773],[4471,-69371],[-96691,-36263],[-58127,4205],[-49743,-29956],[-105075,14715],[-15649,-32584],[-116812,17343],[-24033,-1051],[-78247,13664],[-45831,15241],[-72099,35737],[-20680,29956],[-26827,15766],[-67069,7883],[-47508,13139],[-39123,17868],[-1118,27854],[-35770,48875],[-32976,15241],[-36888,26277],[-35211,6306],[-18444,-7883],[-46949,4730],[-16767,16817],[-34652,15241],[-16767,33635],[-84396,69371],[-36888,-5781],[-35770,-76729],[-15649,-12613],[-24033,10511],[-3913,70948],[-12855,42569],[-24592,51503],[2795,51503],[13414,26802],[4471,36788],[-30740,52029],[-30740,9985],[-57009,-11562],[-5589,-19445],[51979,-15766],[5589,-28379],[-46390,-8934],[-50301,-18394],[-19003,-28905],[-62598,-8409],[-69305,14190],[-40241,1576],[-15650,21548],[-21238,-6307],[14531,-24175],[-30740,-18394],[-40241,1051],[-29063,18394],[-76012,-64641],[-26269,15766],[-32975,-9460],[-16209,15241],[0,27854],[29064,130334],[24033,48350],[32975,7883],[36888,-3153],[-559,26802],[-17326,8934],[-41918,-2102],[-42477,19445],[-24033,45197],[-53096,50977],[43594,5256],[9502,63065],[16208,14715],[-11178,21547],[-15649,58335],[2794,27854],[32417,-4205],[17326,89868],[-6707,32583],[-18444,2103],[8384,45196],[18444,23650],[3353,40992],[-12855,1576],[7825,42569],[-32417,4730],[-5589,31533],[16768,28904],[-34653,9460],[-23474,-16292],[21797,119298],[-26268,3153],[5589,32058],[-62598,7884],[10619,58335],[-89984,11562],[-5030,-27329],[-36888,4730],[-4471,-25751],[-40242,5255],[-10060,-53080],[-22916,-16291],[-37446,4730],[25150,123502],[36888,27328],[27387,4204],[81042,54131],[39682,9985],[12855,37839],[29622,6307],[79924,-5781],[31858,22598],[20121,1577]],[[540465,2234076],[11178,-8935],[-8942,-62539],[32416,-4204],[26828,14715],[27945,-27328],[17327,2627],[24033,-43094],[558,-35211],[-29622,-7883],[-21238,-16818],[-7825,-37839],[4471,-52028],[40801,-37839],[34093,-54131],[-5030,-20496],[4471,-45197],[129108,-17868],[22357,27328],[64274,-11562],[6707,-16817],[30740,-28379],[26828,-8409],[30740,-24175],[31298,-9985],[33535,6306],[36329,-22598],[20680,6832],[45830,-9460],[20121,24175],[54214,33635],[13414,-15241],[113458,-15766],[11738,71999],[88307,-11036],[10619,60437],[45831,4730],[108428,-66744],[44713,526],[35211,16292],[1677,14189],[37447,17343],[61480,-20496],[6707,32058],[-15650,13664],[48066,38364],[-13413,22073],[-8384,51503],[17326,13664],[-13414,21022],[5589,28905],[34094,-4730],[-2236,25226],[-26827,7883],[-11737,24700],[4471,32058],[43036,33109],[28504,11562],[3354,27854],[30740,29956],[13413,33109],[-12296,23649],[-20679,15241],[1677,35211],[57008,6832],[25151,22073],[16208,44671],[91103,-52028],[21238,2627],[10619,26277],[-8383,32584],[13414,25751],[18444,12088],[49184,4204],[96132,-14715]],[[2319472,2429577],[11178,-32058],[1677,-42043],[9501,-61489],[33535,-53079],[57009,-33109],[12854,-34161],[118489,-73050],[12296,-12613],[86631,-35211],[81042,9460],[47507,-26803],[21239,-34686],[105633,-19970],[83278,112991],[74894,-39415],[-77689,-104583],[13973,-6307],[36329,-63590],[-26269,-19971],[21239,-44145],[-559,-35737],[13973,-38364],[-10620,-19971],[-20679,6306],[-15650,38365],[-36329,39941],[-90543,32584],[5030,-28380],[41918,4205],[39683,-12088],[29063,-39415],[1118,-25226],[27945,-49927],[-49184,-17343],[-17326,-36787],[-27945,-4730],[27386,-44671],[26828,-13664],[42477,525],[-15649,-35211],[-25151,-17343],[20679,-27854],[16209,13139],[-3913,28905],[40801,-25752],[-6707,-17868],[37447,-29431],[-11179,-10510]],[[3082941,1449443],[-20120,-3679],[-15091,-28379],[-3353,-39416],[-46949,-12613],[-3353,-36262],[24033,-7358],[-33534,-31007],[29622,-54656],[35770,-7883],[19003,-23124],[-41360,-18394],[-29063,-1051],[-24033,-24700],[10061,-24175],[-31858,-12613],[-43036,-26803],[10619,-37839],[43036,5781],[5030,-47824],[32417,-7883],[14532,-48350],[-52538,-7358],[-11737,-41517],[15649,-17869],[-27945,-25751],[8384,-11562],[-8384,-31533],[-31858,-23124],[12855,-23123],[-14532,-20497],[25151,-12087],[-2235,-25751]],[[540465,2234076],[3353,28904],[38565,17869],[4471,47824],[-25709,27854],[-36888,10511],[-35212,-1577],[-23474,-17343],[-97809,22598],[-25151,16292],[-32975,-13664],[-19003,9460],[10060,22598],[-5589,47824],[-78806,13664],[-20121,-2627],[-18444,17343],[-11178,40992],[1118,51503],[31299,26277],[29622,45196],[-10061,23650],[51979,29956],[11178,20496],[-9501,34160],[20679,57809],[-13972,23650],[10060,26802],[49184,55182],[22356,11037],[12855,20496],[24592,11562],[33535,38364],[24592,13664],[-24033,35737],[57008,67795],[-25151,48350],[-24033,83035],[-13414,21022],[11179,18394],[1117,50977],[17886,6832],[5589,26803],[-46390,-4730],[-45271,5255],[-56450,31007],[-68187,7358],[-33535,11036],[-36329,-12087],[-22356,1576],[-17885,30482],[60362,29956],[-7266,59386],[-11737,33634],[-32417,45723],[96692,-11037],[2235,14715],[-26268,18394],[-8384,23124],[17326,8409],[32417,37839],[-3354,31532],[27946,14190],[-12855,42569],[3353,23123],[-19561,12088],[-1118,34160],[-33535,26277],[-22356,39941],[-21239,25226],[17885,38890],[1677,26803],[-38565,6306],[1677,33635],[24033,17868],[-21238,23124],[-36888,-10511],[-14532,5256],[-31299,-19971],[10061,52029],[-88867,27853],[8384,25226],[31299,-4204],[23474,8409],[12855,28379],[25709,29956],[-1676,40992],[20120,28379],[16768,2102],[11178,26803],[22356,17343],[28505,7883],[-140845,18394],[29063,31532],[559,41518],[62039,-8408],[1676,11561],[54214,-6832],[3913,42044],[-11178,13138],[-3913,46248],[-35770,43094],[-24033,17343],[9501,13139],[-42477,46247],[4472,51503],[-22357,24701],[3354,22072],[29622,8935],[32417,21547],[-36329,59912],[39123,13138],[12855,34160],[-13973,5781],[2236,46773],[109546,-16291],[-12855,-32058],[70423,-10511],[66510,13664],[31299,-15766],[13973,-26803],[21797,8934],[34652,36263],[57568,-43620],[20121,99852],[34093,-29955],[10619,55707],[32417,-4730],[22915,-13664],[47508,-6306],[-12296,-64642],[63156,-18919],[-10619,-48876],[30181,-25226],[49743,4205],[21798,11036],[36329,-22073],[39123,-47824],[-1677,-14190],[35771,-48349],[25151,-4205],[19002,-31007],[34653,5781],[52537,-16292],[29064,9986],[-8384,-47299],[36888,-4730],[-4471,-26802],[67069,-8935],[-15091,-84086],[-63157,7883],[-6706,-37839],[5589,-38365],[32975,-4204],[-9501,-45196],[89425,-11562],[-16767,-87766],[-23474,-17868],[-38565,-14190],[-18444,-104582],[88867,-11037],[64274,12613],[31858,-25226],[40241,14190],[29623,21547],[53655,-526],[35770,-7883],[21238,-24175],[50861,-16817],[106193,-14190],[10060,-12613],[44154,-21547],[29622,-33109],[46949,23124],[17326,-30481],[39123,-23650],[18444,8409],[81601,-8934],[48066,30481],[29622,-525],[8943,67269],[135815,-16292],[38006,-29430],[20679,-4205],[10061,-24174],[23474,2627],[39123,-19970],[62598,38890],[13414,34685],[-3353,47299],[41918,31533],[1118,14715],[335345,76729],[59244,-193925],[55332,-148203],[68746,-128757],[61480,-97225],[44154,-56233],[22356,-37314],[20121,-50452],[1677,-55707],[-32417,-26277],[-13973,-27854],[-37447,-23649],[-55891,0],[-29063,-10511],[-53655,1577],[-188911,73576],[-16768,-5256],[-54214,9985],[-78806,-17868],[-42477,-24175],[-176615,-89867],[-68187,-101430],[-35211,-77780],[-39124,-50452],[-5589,-25751],[-28504,-20497],[0,-24174],[-27387,-34686],[-5589,-33635],[13973,-47824],[28504,-36788],[17885,-4730],[53655,15241],[41918,-16817],[96133,-25226],[42477,-6307],[29622,-13138],[53655,15240],[34094,17343],[52537,48875],[22915,-40992],[-2235,-54130],[15649,-19446],[-15090,-22598],[-7266,-54656],[15090,-33109],[-14531,-8934],[-21798,-55708],[-18444,-83561],[-31857,6307],[-53656,21021],[-29063,-15766],[-15090,5256],[-100604,-121926]],[[1086519,4477611],[38565,-4204],[-8384,7357],[-1677,9986],[4472,1051],[-1118,5255],[8942,6307],[-1118,3678],[-8942,3154],[-6148,-1577],[-3354,-6832],[-16767,-1577],[-4471,-22598]],[[3082941,1449443],[73776,-1051],[6148,104057],[726023,177107],[400179,97751],[139727,35737],[34652,-3154],[19003,9460],[57009,-42043],[29622,-39941],[41359,-40993],[41360,-23123],[78247,-26803],[59244,-5255],[32417,6306],[57568,-28379],[45271,1576],[10061,12613],[49743,-7883],[-3913,-30481],[19562,-16817],[-28504,-19445],[-70423,-106685],[-29063,-58861],[-68187,-156611],[-60362,-145050],[-74894,-189194],[-31858,-86715],[-47507,-142421],[-22915,-86715],[-54773,-243325],[-25151,-147677],[-5030,-52554],[1676,-52554],[-14531,-53080],[-20121,-10511],[-5589,-31532],[-41359,-2628],[-53656,-28905],[-78806,-13664],[-40800,15766],[-17885,36788],[-2795,27854],[-17885,36262],[-46389,34160],[-6148,37314],[-24592,3153],[-39683,-19971],[-34093,15767],[-22357,-3679],[-20120,-18920],[-27946,24701],[1118,38364],[-15649,48876],[-26269,1576],[-88308,-31532],[-60921,5781],[-39682,-48876],[-20121,-13664],[-45831,-14715],[-44153,9460],[-44713,57284],[-2795,30481],[-32975,-6832],[11178,33635],[-35211,-526],[-7266,19971],[9501,47299],[-15649,83035],[-95015,12088],[-2235,11036],[-44713,6306],[2236,16818],[-89426,12087],[-559,-9985],[-168231,21547],[-9502,20496],[-73217,8934],[-35211,-6306],[-24592,12613],[-5030,22073],[-47508,-526],[11179,56233],[32975,-4204],[11737,61488],[-45271,31533]]],"transform":{"scale":[1.7892003578400656e-7,1.9028003805600753e-7],"translate":[152.6518,-27.743799999999997]},"objects":{"qld_brisbane_ldmg_boundaries_gda2020_simp200m":{"type":"GeometryCollection","geometries":[{"arcs":[[[0]],[[1]],[[2]],[[3]],[[4,5,6,7]]],"type":"MultiPolygon","properties":{"LGA Code":"1000","Abbreviated Name":"Brisbane","LGA Name":"Brisbane City","Area Sq Km":1377.86,"LDMG Name":"Brisbane","Source Area Sq Km":1378.04081,"Police Region Name":"Brisbane Region","Police Region Code":"BR","Police Region Short Name":"Brisbane","Region Slug":"brisbane","Layer Id":"qld_brisbane_ldmg_boundaries_gda2020_simp200m","Layer Group":"per-region","Layer Kind":"ldmg","Source":"Local government area boundaries - Queensland, Department of Natural Resources and Mines, Manufacturing and Regional and Rural Development; ASGS Edition 3 (2021) Local Government Areas, Australian Bureau of Statistics","Source URL":"https://www.data.qld.gov.au/dataset/local-government-area-boundaries-queensland","Licence":"CC BY 4.0","Licence URL":"https://creativecommons.org/licenses/by/4.0/","Dataset Date":"extract of 11/05/2026","Simplification Tolerance M":200,"Coordinate Precision Decimals":4,"CRS":"GDA2020 (EPSG:7844)","Modified":"Simplified and repackaged from the source dataset; see Source URL"},"id":"1000"},{"arcs":[[8,-6],[9]],"type":"Polygon","properties":{"LGA Code":"5010","Abbreviated Name":"Moreton Bay","LGA Name":"Moreton Bay City","Area Sq Km":2071.08,"LDMG Name":"Moreton Bay","Source Area Sq Km":2071.09352,"Police Region Name":"Brisbane Region","Police Region Code":"BR","Police Region Short Name":"Brisbane","Region Slug":"brisbane","Layer Id":"qld_brisbane_ldmg_boundaries_gda2020_simp200m","Layer Group":"per-region","Layer Kind":"ldmg","Source":"Local government area boundaries - Queensland, Department of Natural Resources and Mines, Manufacturing and Regional and Rural Development; ASGS Edition 3 (2021) Local Government Areas, Australian Bureau of Statistics","Source URL":"https://www.data.qld.gov.au/dataset/local-government-area-boundaries-queensland","Licence":"CC BY 4.0","Licence URL":"https://creativecommons.org/licenses/by/4.0/","Dataset Date":"extract of 11/05/2026","Simplification Tolerance M":200,"Coordinate Precision Decimals":4,"CRS":"GDA2020 (EPSG:7844)","Modified":"Simplified and repackaged from the source dataset; see Source URL"},"id":"5010"},{"arcs":[[-8,10]],"type":"Polygon","properties":{"LGA Code":"6250","Abbreviated Name":"Redland","LGA Name":"Redland City","Area Sq Km":907.42,"LDMG Name":"Redland","Source Area Sq Km":907.3914,"Police Region Name":"Brisbane Region","Police Region Code":"BR","Police Region Short Name":"Brisbane","Region Slug":"brisbane","Layer Id":"qld_brisbane_ldmg_boundaries_gda2020_simp200m","Layer Group":"per-region","Layer Kind":"ldmg","Source":"Local government area boundaries - Queensland, Department of Natural Resources and Mines, Manufacturing and Regional and Rural Development; ASGS Edition 3 (2021) Local Government Areas, Australian Bureau of Statistics","Source URL":"https://www.data.qld.gov.au/dataset/local-government-area-boundaries-queensland","Licence":"CC BY 4.0","Licence URL":"https://creativecommons.org/licenses/by/4.0/","Dataset Date":"extract of 11/05/2026","Simplification Tolerance M":200,"Coordinate Precision Decimals":4,"CRS":"GDA2020 (EPSG:7844)","Modified":"Simplified and repackaged from the source dataset; see Source URL"},"id":"6250"}]}}}