{"type":"Topology","arcs":[[[63669,59917],[-48,488],[-229,208],[-109,41],[-101,207],[-159,118],[-3,65],[-159,25],[-30,-29],[-114,78],[-205,38],[-160,-36],[-181,139],[-15,78],[-35,32],[-43,-37],[-74,29],[-174,249],[-134,-105],[-166,1],[-141,-70],[-89,-116],[-113,14],[-349,460],[-174,52],[-67,66],[-13,82],[-344,365],[-22,98],[113,209],[-19,160],[-69,160],[-3,103],[47,92],[-3,104],[-49,130],[-83,69],[-33,110],[-103,-32],[-110,31],[-217,-16],[-96,-33],[-270,20],[-73,-56],[-52,73],[-270,86],[4,23],[-213,161],[-41,85],[-564,6],[-48,-37],[-111,49],[-51,93],[-124,76],[-23,80],[-97,132],[-82,46],[-29,94],[-33,27],[-35,-45],[-110,-36],[-20,-144],[-171,-28],[-87,-85],[-104,254],[-197,10],[-272,263],[-99,230],[-39,213],[-145,36],[-74,285],[-56,60],[-53,-7],[-256,80],[22,103],[-68,91],[-146,77],[-56,96],[-113,6],[-61,55],[-215,-70],[-220,35],[40,-190],[-36,-258],[-89,-149],[-215,-130],[-224,77],[-404,313],[-147,67],[-228,67],[-178,-11],[-98,-44],[-191,-222],[-271,-199],[-140,-164],[-152,-323],[-169,-471],[-69,-269],[-394,-757],[-145,-173],[-120,-257],[-72,-63],[-68,-6],[-307,129],[-120,-3],[-113,-47],[-251,-239],[-146,-43],[-105,38],[-67,142],[-2,74],[22,154],[65,186],[-19,171],[-84,64],[-139,16],[-99,-43],[-78,-101],[-85,164],[-78,61],[-70,-23],[-22,26],[6,107],[-38,42],[0,79],[40,27],[71,-38],[29,18],[93,150],[21,80],[-22,78],[47,73],[-136,301],[26,146],[-45,98],[38,65],[-123,134],[40,60],[344,-69],[41,36],[-53,50],[-34,89],[-6,152],[73,-4],[90,83],[80,-11],[22,-58],[101,-58],[92,-3],[75,45],[3,83],[32,10],[25,77],[85,52],[-87,120],[-77,39],[-75,106],[-39,14],[-81,183],[-272,114],[53,171],[173,105],[63,347],[-43,125],[121,76],[-74,314],[74,26],[25,118],[98,24],[23,58],[143,140],[104,-1],[71,83],[101,-13],[-11,70],[120,70],[-65,166],[85,152],[-24,87],[29,68],[-16,57],[30,45],[-259,147],[183,296],[35,162],[46,7],[95,-109],[97,-9],[166,91],[-3,116],[-31,36],[-235,115],[89,285],[174,167],[36,146],[49,32],[107,-150],[69,-34],[64,42],[46,165],[52,26],[108,-38],[-238,616],[-137,-16],[-23,59],[-74,53],[-63,100],[0,75],[50,81],[-15,39],[-6,15],[-329,80],[-151,198],[-160,-41],[-59,29],[-70,-27],[-76,12],[-129,-123],[-52,-167],[-249,-110],[-270,75],[-37,117],[-146,-7],[9,112],[-157,92],[-130,-76],[-17,-128],[-63,-54],[-122,-223],[-49,-195],[113,-353],[-47,-59],[-7,-153],[73,-82],[-35,-89],[-82,-91],[-20,-86],[-176,-20],[-153,61],[-108,-41],[-164,70],[-102,-33],[-133,-160],[-85,135],[-58,13],[-228,388],[-103,11],[-91,-101],[-82,-7],[-47,263],[-65,155],[-213,83],[-2,126],[-151,52],[-109,-8],[-27,54],[24,198],[35,68],[-31,118],[-60,56],[-3,404],[-94,156],[91,212],[7,87],[-49,294],[-119,52],[-73,199],[-148,-57],[-1015,1406],[-171,-62],[-21,-232],[-114,9],[-155,90],[-11,-99],[-73,-95],[-266,40],[-212,-166],[52,-119],[-123,-48],[-47,26],[-276,-81],[-62,48],[-137,-15],[31,72],[-9,137],[-114,133],[-303,-267],[-168,86],[-27,159],[-83,-5],[-28,-71],[-72,-72],[-133,8],[-142,-47],[17,-156],[-36,-70],[-180,9],[-44,55],[-91,44],[-123,-937],[-923,133],[-25,-197],[-73,12],[-46,96],[-164,5],[-98,-42],[-35,47],[13,269],[28,89],[-27,88],[-41,-8],[-281,105],[-26,-81],[-190,64],[-103,87],[-56,6],[-72,-6],[-59,-58],[-192,47],[-64,-68],[-65,18],[-133,-81],[-191,47],[-118,78],[-80,-146],[-139,161],[-371,119],[-128,137],[26,82],[115,151],[95,53],[102,111],[55,148],[30,216],[75,102],[153,350],[55,60],[87,209],[25,154],[-275,88],[31,119],[-30,74],[22,150],[-33,46],[70,439],[40,63],[-45,112],[2,69],[41,57],[-142,152],[32,174],[-139,182],[-19,132],[-112,69],[-194,267],[-217,29],[-115,140],[-4,181],[-48,93],[116,312],[-21,51],[-96,82],[-4,37],[-90,50],[-126,175],[-4,86],[98,162],[-50,95],[5,69],[167,269],[69,5],[180,-178],[58,-10],[66,157],[102,33],[77,134],[349,27],[26,61],[141,-4],[158,78],[21,173],[151,56],[-102,258],[54,226],[-12,113],[76,52],[-1,47],[77,80],[-5,141],[-27,25],[26,222],[-64,161],[109,184],[5,8],[-31,211],[27,54],[-6,73],[-64,93],[-161,-23],[-16,63],[-108,160],[0,84],[79,52],[22,73],[-105,206],[-8,100],[-71,67],[-116,41],[-67,-22],[-37,30],[-1,129],[42,62],[-30,98],[30,31],[-195,188],[-7,45],[-30,9],[-53,90],[14,94],[33,35],[-16,142],[-151,114],[-172,-13],[-44,-59],[-102,-42],[-262,158],[-2,-55],[-105,-114],[1,-89],[-146,-35],[-39,-76],[-151,68],[-113,-127],[-110,-63],[-105,-21],[-90,-54],[-33,-60],[-71,-31],[-49,14],[-95,-72],[-61,21],[-42,-36],[-55,6],[-149,95],[-49,208],[-159,51],[-35,-119],[-91,-17],[-48,-64],[-3,-70],[-58,-96],[-26,-12],[-80,47],[-42,-66],[-84,59],[-116,-43],[-62,79],[-114,-55],[-205,164],[-171,263],[-107,-14],[-121,90],[-66,1],[-111,66],[9,319],[-64,131],[-166,141],[4,81],[-31,34],[-10,105],[77,114],[68,178],[9,155],[-213,131],[-2,68],[-51,87],[-2,85],[58,64],[91,25],[-62,61],[-105,200],[-51,22],[-59,123],[-3,86],[66,25],[186,-25],[66,-78],[224,59],[56,42],[59,-56],[87,-5],[168,63],[166,-60],[76,144],[-394,1373],[62,46],[-14,80],[-80,48],[26,94],[-56,80],[40,69],[-188,399],[-63,40],[-113,223],[33,188],[-60,172],[-147,169],[-130,-34],[-110,90],[-187,66],[-350,-144],[-150,-151],[-125,21],[-46,-83],[-120,-37],[-87,-68],[-150,-11],[-102,-111],[-36,20],[-92,-29],[-61,-69],[-203,58],[49,-325],[-361,-448],[-146,3],[-149,82],[-92,100],[-31,128],[-49,62],[52,105],[57,23],[46,62],[33,80],[-157,253],[30,57],[-4,223],[125,332],[99,170],[29,137],[213,119],[48,69],[-167,235],[-135,93],[-66,98],[-3,142],[-63,204],[-142,295],[-37,67]],[[32517,90077],[69,99],[48,17],[-2,109],[141,225],[65,88],[53,15],[45,97],[85,27],[33,45],[20,208],[63,18],[32,49],[70,192],[59,43],[40,79],[23,122],[43,45],[70,6],[26,66],[35,14],[58,-38],[66,-122],[95,-15],[88,43],[107,149],[211,-245],[133,-8],[101,-86],[141,23],[46,51],[111,-7],[57,92],[-30,123],[22,64],[48,40],[21,81],[10,324],[168,61],[293,-29],[202,83],[89,79],[292,534],[14,33],[-116,78],[-108,146],[-62,183],[-11,111],[179,19],[64,-71],[277,-117],[126,-101],[63,-21],[78,16],[50,181],[174,227],[12,105],[75,135],[-18,96],[93,308],[-20,88],[-55,61],[145,110],[85,-30],[147,53],[201,-92],[105,-106],[58,-132],[20,-133],[-70,-26],[-4,-54],[-58,-83],[107,-202],[-6,-85],[57,-65],[-53,-36],[67,-139],[129,-48],[138,-156],[-45,-47],[34,-156],[87,-2],[149,-67],[110,-132],[31,-181],[-95,-93],[-50,-185],[102,-101],[89,-28],[98,-141],[123,72],[99,-56],[123,10],[69,-30],[63,-97],[199,-164],[74,-108],[-16,-158],[53,10],[176,-130],[-5,-125],[-61,-133],[8,-102],[53,-58],[-1,-93],[-53,-56],[-73,-334],[109,-186],[-103,-94],[-99,-245],[-76,-46],[-28,-187],[-158,-29],[-34,-257],[-78,80],[-199,52],[-75,-50],[0,-70],[-54,-85],[5,-70],[46,-80],[122,-86],[28,-209],[66,-41],[52,-81],[37,-155],[44,-52],[-2,-78],[158,-170],[60,21],[239,-121],[68,-1],[47,-66],[304,88],[107,-56],[105,-112],[59,-18],[152,-284],[130,12],[233,317],[133,-91],[507,174],[79,-54],[119,-22],[155,-133],[95,17],[-1,-85],[91,-72],[62,25],[35,-20],[95,-80],[23,-70],[65,-36],[129,-200],[67,-32],[32,-99],[169,-98],[95,-18],[97,-100],[54,-103],[201,43],[230,181],[19,58],[-30,265],[-32,34],[-41,4],[-74,-52],[-75,34],[-2,44],[200,222],[101,67],[230,-10],[152,70],[104,99],[105,192],[184,99],[82,-60],[99,-176],[95,-293],[81,-57],[215,-34],[149,-83],[123,-214],[238,-271],[85,-163],[131,-128],[135,-54],[72,-383],[209,-399],[499,-397],[62,-159],[4,-74],[185,1385],[1273,-187],[112,-80],[209,-71],[81,-62],[102,-142],[71,-227],[181,-132],[94,-265],[370,-98],[42,-62],[-26,-49],[13,-25],[53,3],[12,-60],[50,-22],[57,34],[237,-128],[20,-74],[85,-26],[9,-105],[-72,-218],[29,-34],[-30,-62],[104,-76],[111,50],[103,163],[143,-16],[59,29],[247,1],[87,84],[-2,148],[58,96],[119,18],[53,63],[111,-23],[161,183],[134,103],[71,158],[17,143],[46,97],[111,130],[80,50],[-28,152],[-93,145],[76,135],[69,28],[78,-93],[67,-6],[281,75],[170,80],[261,11],[99,55],[-138,233],[10,162],[77,131],[-14,63],[73,127],[-9,48],[106,162],[75,226],[111,30],[108,-22],[69,33],[173,4],[174,100],[177,21],[19,96],[254,-51],[39,18],[-4,230],[-40,51],[-38,241],[29,55],[-21,62],[23,44],[-17,156],[45,79],[-32,99],[1011,-169],[115,940],[-264,39],[38,278],[263,-40],[26,196],[-98,-13],[-159,45],[-182,-45],[-390,151],[-293,-46],[-108,36],[39,386],[134,-78],[43,317],[-41,42],[-109,269],[-98,15],[-1,77],[99,51],[-43,174],[857,-112],[101,773],[-399,57],[-71,39],[-51,-21],[-464,78],[152,81],[77,162],[87,23],[-18,152],[70,88],[-61,138],[19,62],[182,221],[79,243],[75,67],[167,65],[-74,157],[91,-57],[85,63],[26,200],[-21,27],[-70,-5],[5,67],[92,58],[67,-8],[51,-43],[51,24],[6,38],[-63,57],[-135,4],[-34,72],[106,71],[36,-65],[40,-7],[118,11],[37,53],[0,40],[-190,218],[-7,39],[77,90],[0,109],[108,76],[68,95],[20,81],[402,71],[119,-25],[85,-58],[335,-477],[51,-48],[107,-18],[388,92],[236,91],[221,149],[174,208],[27491,25],[11406,-26],[1245,-6343],[68,-763]],[[96806,88113],[0,-1],[-38,13],[-265,83],[-92,11],[-57,-7],[-325,-162],[-331,-177],[-672,-398],[-832,-708],[-417,-416],[-255,-336],[-293,-503],[-180,-236],[-13,-18],[-770,-855],[-178,-276],[-50,-104],[-155,-340],[25,-75],[70,-16],[283,108],[130,13],[66,-9],[51,-8],[60,-9],[239,-83],[40,-24],[408,-249],[33,-20],[63,-54],[98,-84],[91,-79],[288,-299],[50,-64],[67,-87],[129,-166],[291,-460],[38,-72],[656,-1242],[436,-719],[155,-350],[6,-13],[8,-30],[65,-272],[31,-127],[1,-105],[4,-280],[2,-145],[-31,-202],[-38,-253],[-24,-158],[-140,-527],[21,-133],[-11,-198],[-38,-48],[-162,-507],[-250,-520],[-445,-817],[-1032,-1574],[-9,-15],[-5,-7],[-305,-407],[-841,-907],[6,-9],[-197,-206],[-38,-31],[-490,-405],[-840,-769],[-323,-295],[-91,-67],[-387,-286],[-149,-110],[-61,-31],[-887,-451],[-204,-197],[-13413,21],[-333,73],[-169,186],[-39,23],[-103,37],[-161,23],[-401,-28],[-131,49],[-204,130],[-176,34],[-190,-48],[-233,-180],[-52,-54],[-67,-104],[-128,-194],[-8,-12],[-14,-8],[-168,-95],[-91,-94],[-75,-214],[176,-223],[33,-134],[-8,-89],[-27,-55],[-240,-139],[-52,-71],[-90,23],[-75,-42],[-104,73],[-151,13],[-53,-188],[-174,-200],[-39,-17],[-21,-9],[-10,-4],[-168,98],[-9,16],[-14,27],[-23,42],[-11,30],[52,49],[12,60],[-67,136],[-19,8],[-191,12],[-87,-69],[-8,-6],[-188,50],[-34,-4],[-34,-18],[-133,-102],[-24,-30],[-196,-138],[-301,13],[-168,66],[-66,-23],[-83,-158],[-170,-156],[-288,-173],[19,-90],[-74,-107],[-267,-585],[-851,-1619],[-203,-854],[-111,-842],[-718,-836],[-166,24],[-7,-49],[-244,146],[-65,-106],[108,-55],[-16,-221],[-88,-37],[-201,17],[-179,-115],[-151,14],[-69,-82],[-40,-104],[-97,-85],[-11,-80],[-34,5],[-416,-288],[72,-130],[-87,-133],[53,-109],[-292,-365],[-100,1],[-92,-102],[-9,-88],[-32,-36],[-140,5],[-115,78],[-30,-50],[-116,8],[-298,-66],[-15,-80],[-206,-206],[-63,-16],[-7,-55],[-560,-536]],[[51096,26655],[8,3],[2,8],[77,429],[19,105],[41,54],[57,63],[76,9],[175,-136],[101,-44],[76,28],[36,238],[-115,251],[-2,87],[50,-2],[183,311],[26,12],[13,4],[24,-17],[46,-35],[36,-163],[93,-17],[125,-71],[98,27],[70,67],[-18,108],[128,120],[44,-44],[111,-131],[24,0],[55,-55],[-135,-103],[-123,-223],[-40,-21],[15,-42],[92,-3],[124,-101],[39,36],[235,54],[40,105],[-35,276],[14,33],[180,-207],[130,-35],[132,39],[112,-73],[-38,-74],[-17,-195],[-167,-45],[-190,-416],[47,-70],[3,-58],[56,-45],[87,-12],[10,-56],[64,-26],[33,8],[55,139],[109,85],[146,-97],[45,-53],[-48,-98],[-1,-75],[-57,-3],[-147,-320],[4,-52],[147,-7],[-13,-63],[-39,-25],[6,-43],[-62,-66],[202,-27],[-36,-52],[54,11],[25,-33],[-180,-53],[-155,-97],[-61,272],[-2655,363],[-46,33],[58,136],[81,83],[241,87]],[[96806,88113],[18,-6],[56,-164],[3,-243],[-176,-2305],[-73,-1861],[53,-1251],[111,-817],[111,-526],[128,-436],[88,-144],[169,-543],[177,-401],[221,-417],[255,-329],[580,-543],[295,-183],[318,-78],[243,-12],[30,6],[2,36],[129,-18],[81,38],[18,84],[31,-36],[-17,-25],[51,-64],[-13,-48],[23,-22],[-44,-31],[-21,-475],[44,-37],[-29,-81],[25,-29],[-25,-28],[-2,-69],[41,-100],[20,3],[-41,-71],[27,-198],[35,-165],[67,-156],[73,-63],[75,34],[36,-11],[-78,-109],[-74,-385],[-148,-445],[-381,-808],[-567,-1315],[-623,-1575],[-93,-153],[-44,-184],[-1087,-2739],[-332,-729],[-965,-2350],[-167,-373],[-56,-36],[-15,-139],[-326,-743],[-410,-1090],[-273,-609],[-743,-1948],[-43,-169],[-498,-1239],[-854,-2315],[-751,-2205],[-181,-647],[-35,-28],[-14,-139],[-305,-1097],[-257,-1280],[-130,-905],[-21,-498],[48,-908],[110,-708],[195,-816],[23,-440],[-235,-971],[-110,-241],[-65,-77],[-24,-304]],[[90470,45611],[-404,60],[-634,-4],[-151,-259],[-105,-314],[-72,-349],[17,-334],[123,-502],[-26,-290],[-42,-77],[-343,-163],[-242,-260],[-466,-360],[-340,-97],[-47,-94],[-50,-26],[-8587,1520],[27,-193],[-238,123],[-489,163],[-60,-90],[68,-25],[-65,-45],[-8,-62],[238,10],[174,-50],[-200,-228],[131,-166],[7,-47],[76,-59],[-4,-54],[86,-78],[41,-165],[2,-3],[108,50],[61,-31],[78,66],[15,-61],[-89,-104],[18,-125],[144,-44],[47,-201],[18,-34],[5,1],[23,104],[94,106],[104,18],[6,-31],[-34,-37],[116,-64],[14,-7],[2,-1],[1,-5],[27,-127],[15,-67],[1,-146],[-33,-28],[-4,3],[-71,53],[-36,-48],[-48,8],[-70,-48],[-21,-73],[21,-60],[-26,-48],[30,-99],[-95,-53],[5,-74],[-37,-14],[-66,-106],[1,-271],[0,-10],[-42,-12],[-23,-13],[-24,-35],[-30,-45],[-1,-2],[-196,-42],[-50,24],[-149,-30],[-99,30],[-75,-113],[-71,40],[-77,-41],[-77,1],[-69,-47],[-35,10],[-19,-124],[-117,-144],[1,-168],[-319,-205],[2,-119],[-209,-165],[-535,86],[-85,-572],[187,-32],[-47,-337],[-204,34],[-95,-681],[-291,44],[28,-79],[-71,-229],[-1134,179],[26,260],[-359,56],[108,630],[-446,70],[44,219],[-68,11],[9,58],[-1129,175],[40,361],[-76,11],[-69,193],[124,142],[26,106],[-284,36],[-59,-440],[-249,34],[-59,59],[64,370],[-32,93],[-102,54],[-38,146],[-1323,196],[7,51],[-169,26],[-138,-97],[-735,113],[28,90],[-30,27],[-33,118],[-120,27],[-67,-35],[-115,36],[-44,188],[-489,81],[-92,-41],[-3,239],[-846,135],[62,425],[-392,61],[24,171],[-831,110],[37,-153],[-39,-215],[-192,-89],[-114,40],[-43,79],[-42,186],[-983,143],[-159,-1169],[-248,58],[-90,-594],[-3317,535],[-7,-39],[-2066,279],[-3,212],[-145,29],[-181,96],[-235,-206],[-104,29],[-110,-17],[-97,128],[-105,86],[-96,34],[-20,120],[-110,27],[-108,-165],[30,-84],[-31,-222],[-96,-34],[-141,25],[-39,154],[-66,14],[-13,106],[-92,87],[-18,68],[47,78],[-54,16],[-44,114],[32,93],[-23,79],[74,109],[-7,72],[-56,25],[-15,78],[-52,15],[-73,-82],[-64,-12],[-94,-105],[-104,28],[-41,-21],[4,-75],[-64,-142],[-133,-111],[-14,-39],[-62,-2],[-15,25],[-115,-67],[-170,55],[-48,-50],[-65,-15],[-33,-73],[-260,-93],[-14,-99],[-76,-58],[29,-82],[-86,-54],[-81,4],[-71,-33],[-53,18],[-112,-43],[-49,133],[-338,170],[-141,134],[58,55],[13,115],[49,40],[12,68],[93,7],[-65,207],[91,254],[-51,150],[-131,23],[-25,-47],[-204,45],[-61,-42],[-42,21],[-72,-15],[-152,84],[27,187],[95,76],[12,54],[-55,53],[19,137],[-46,85],[12,54],[-54,151],[84,135],[10,205],[-39,-5],[-42,45],[-26,304],[18,56],[172,146],[59,100],[-48,123],[60,88],[-34,121],[109,66],[12,127],[-327,122],[-270,-75],[-86,98],[-140,47],[-118,91],[-88,16],[-29,100],[-138,128],[-51,166],[-110,25],[-21,22]],[[54446,46814],[-45,166],[36,77],[-30,225],[-28,54],[32,83],[-7,173],[86,111],[-47,49],[-48,186],[13,79],[-43,104],[-82,12],[-73,52],[-21,-34],[-328,114],[20,51],[-17,98],[67,20],[-2,115],[36,66],[-29,15],[-13,332],[-36,83],[57,8],[186,-67],[26,45],[80,2],[174,77],[214,-243],[61,2],[165,156],[142,192],[52,192],[-23,68],[31,299],[-29,73],[47,98],[-33,63],[-4,82],[82,195],[-95,124],[-87,59],[-44,86],[49,100],[-35,56],[-8,191],[45,-3],[45,83],[31,-6],[129,158],[3,66],[133,112],[24,69],[64,67],[58,16],[42,244],[50,75],[180,-59],[45,-3],[57,43],[47,412],[71,249],[-10,229],[98,172],[64,-27],[-14,106],[24,58],[68,-64],[68,-12],[68,-93],[-66,-32],[0,-49],[75,-28],[35,-173],[53,-57],[-19,-39],[28,-70],[118,49],[29,86],[104,91],[270,-18],[12,-48],[178,-104],[53,-113],[95,-105],[199,-155],[106,-26],[64,157],[125,74],[263,56],[150,116],[111,-31],[112,141],[-27,231],[44,68],[-125,171],[-16,149],[-58,138],[51,196],[136,63],[96,-40],[108,99],[86,-23],[27,142],[169,44],[-16,133],[279,42],[62,-20],[19,68],[106,102],[79,-65],[80,25],[120,-13],[80,36],[272,241],[74,96],[-29,71],[13,290],[-27,69],[27,109],[-36,26],[29,254],[75,149],[-14,75],[103,206],[153,129],[74,113],[-12,44],[33,101],[44,7],[59,100],[-19,64],[26,68],[-4,104],[235,78],[68,-41],[100,28],[70,84],[160,27],[94,-47],[195,41],[99,-91],[192,35],[-32,156],[22,82],[-15,36],[410,-61],[55,-155],[45,-29],[99,165],[74,-29],[26,-58],[105,80],[180,-93],[52,33],[40,-15],[24,-95],[138,-66],[108,10],[82,-49],[183,28],[184,-41],[33,59],[-23,223],[48,26],[-4,50],[49,29],[4,126],[37,56],[-21,62],[56,70],[-192,39],[71,527],[189,-28],[-65,110],[-34,177],[-60,59],[-105,-6],[-218,204],[16,204],[39,31],[-115,328],[25,106],[38,4],[350,1033],[37,36]],[[90470,45611],[-187,-354],[61,-88],[36,-124],[127,-1393],[170,-910],[187,-600],[118,-253],[143,-179],[272,-476],[239,-341],[327,-362],[410,-322],[426,-206],[388,-91],[407,7],[236,124],[-21,38],[255,679],[132,39],[-9,-23],[32,-4],[40,-79],[78,-44],[18,-67],[-6,-148],[-82,-27],[-16,28],[-41,-7],[-252,-521],[-925,-2181],[-340,-881],[-933,-2809],[-580,-2023]],[[91180,32013],[-4102,681],[-44,-312],[72,-75],[-94,-682],[-79,12],[-19,-137],[-98,-249],[-29,-221],[-145,-58],[-2,-146],[-80,-81],[-34,-90],[-320,-36],[-82,-45],[-42,-182],[-139,-62],[-202,67],[-153,-11],[-223,-69],[10,-418],[-621,95],[-23,-163],[-200,31],[-46,-334],[-168,28],[44,73],[-259,361],[-280,230],[-222,76],[3,-58],[-564,90],[-99,-769],[-640,88],[-22,-170],[-168,-119],[82,-591],[-166,-35],[88,-324],[-579,-1972],[-53,-355],[-110,-233],[-19,-125],[-102,-18],[-39,-255],[-40,2],[-152,-1022],[-389,74],[-298,143],[-3,66],[-37,7],[-112,-726],[-77,15],[-74,-487],[39,11],[3,57],[34,30],[101,-15],[17,50],[-44,-7],[-5,17],[48,4],[64,-58],[-76,-498],[66,-11],[-47,-313],[338,-54],[-41,-275],[27,-43],[95,-36],[137,49],[124,-12],[137,-129],[-26,-67],[143,-275],[-24,-24],[6,-106],[-106,72],[-69,-561],[164,-16],[-25,-13],[-204,-1423]],[[80906,19876],[-20,-138],[-689,107],[-27,71],[10,91],[36,56],[-104,38],[-35,-222],[-228,36],[-7,-61],[28,-46],[-54,-109],[6,-16],[60,-44],[65,41],[4,3],[8,-2],[79,-16],[50,-10],[12,-19],[52,-80],[-52,-68],[15,-115],[-124,-33],[-13,-136],[-121,-30],[-174,-135],[-6,-67],[-95,-177],[-6,-3],[-150,-53],[8,-100],[-42,-47],[42,-61],[-59,-104],[1,-19],[8,-25],[615,-96],[-76,-554],[71,-13],[27,-1],[12,-6],[26,-13],[117,-56],[10,-21],[34,-71],[27,-58],[-3,-37],[-3,-28],[-5,-53],[-45,-80],[-16,-26],[-7,-12],[-76,-49],[-30,-71],[-66,155],[-122,-8],[-108,-213],[38,-17],[62,27],[20,-39],[-101,-136],[10,-91],[-48,-36],[-14,2],[-45,3],[-25,2],[-6,7],[-68,81],[-112,-100],[-45,9],[-250,361],[-142,-106],[-166,233],[-460,-362],[-9,24],[-72,-19],[-23,-248],[-36,5],[-31,-63],[33,-94],[-71,-128],[-61,3],[-195,-207],[-195,-103],[23,-98],[-30,-53],[23,-79],[-23,-3],[8,-64],[-299,-56],[-79,-68],[-35,-126],[-45,-18],[-9,-55],[64,-206],[-50,-61],[-31,-264],[-241,17],[-10,37],[-84,-19],[-17,27],[-104,-26],[-47,20],[-83,-42],[-90,10],[-223,164],[-32,100],[-53,7],[-94,89],[-153,58],[-175,23],[-15,42],[-74,-21],[-175,67],[-36,-15],[-114,61],[-56,-18],[-191,-64],[-183,56],[-230,-55],[-14,177],[-42,51],[-65,15],[-98,-120],[-179,-140],[-80,16],[-100,72],[-36,104],[-163,-3],[-25,-49],[-101,8],[-93,-126],[-43,4]],[[73752,15456],[-1,1],[-109,11],[-83,49],[-150,-47],[-83,18],[-69,53],[-119,243],[-79,72],[-14,45],[-1422,194],[39,-163],[65,-98],[18,-132],[137,-152],[34,-104],[69,-83],[-82,-78],[-23,4],[-2082,287],[53,384],[-317,46],[59,439],[-355,57],[38,35],[-2,131],[17,61],[36,20],[23,166],[-90,13],[75,59],[69,11],[59,233],[51,9],[38,271],[-104,84],[-101,33],[-28,-102],[17,-93],[-147,-90],[-18,-126],[-38,-3],[-15,-1],[-25,41],[15,204],[-38,138],[10,184],[51,132],[65,18],[24,102],[-34,166],[10,62],[91,168],[110,89],[110,798],[-38,12],[-50,-48],[19,-42],[-20,-23],[-209,31],[137,1001],[-222,4],[-53,-119],[-118,-65],[-50,31],[-170,-17],[-129,-116],[-290,114],[-70,-50],[-78,-116],[-14,-98],[-150,-109],[-53,74],[-76,45],[-221,-113],[-80,-85],[-119,145],[-326,-3],[-16,84],[-115,70],[-23,205],[-56,19],[-213,-27],[-126,-120],[-152,42],[-165,-97],[-35,-62],[-107,4],[-97,49],[-112,-51],[-47,-91],[-160,-45],[-136,-96],[-161,3],[-75,-63],[-123,-7],[-11,-62],[-53,-75],[-75,-9],[-99,172],[-39,151],[-230,138],[26,78],[-22,29],[-68,34],[-23,-17],[-42,46],[-106,-22],[3,88],[-41,24],[-8,50],[-63,79],[-171,81],[-121,145],[-36,20],[-193,-11],[-64,-55],[-97,22],[-25,-415],[-170,-179],[-193,1],[-82,-97],[-16,-196],[-102,-78],[-99,-229],[-48,-35],[-73,37],[-135,-46],[-58,-91],[-84,9],[-120,-67],[-90,24],[-194,-148],[94,-100],[22,-85],[2,-65],[-35,-50],[29,-141],[-57,-119],[-76,-36],[-21,36],[-225,126],[-107,-90],[-111,-241],[-3,-7],[-22,-7],[-20,-6],[-7,-2],[-23,12],[-111,36],[-54,0],[-33,28],[-52,138],[-111,139],[-56,32],[-20,64],[-66,47],[-89,178],[-178,135],[-169,234],[-92,60],[-86,-10],[-2,0],[-35,27],[-132,100],[-17,12],[-66,116],[-100,24],[-36,55],[-3,10]],[[60118,19631],[2,5],[206,1434],[-63,83],[15,116],[-60,63],[45,71],[1,1],[-13,37],[-16,46],[-3,8],[-54,39],[-4,43],[-84,119],[17,223],[-250,30],[-56,90],[-15,81],[-147,81],[-41,153],[-74,24],[-9,82],[-31,31],[-198,-201],[-56,-3],[-33,220],[-107,55],[-79,99],[-144,-17],[-279,157],[2,200],[58,143],[-23,38],[-105,-11],[27,239],[-280,4],[-63,-39],[-91,130],[-254,71],[-120,-18],[-53,82],[-121,76],[-98,143],[-95,33],[-44,62],[-158,6],[-32,78],[-120,19],[-73,61],[-124,-913],[-86,60],[-1822,250],[28,51],[-76,50],[-123,-101],[-89,4],[-16,261],[19,46],[-116,170],[97,78],[35,-13],[7,55],[62,20],[22,53],[38,-34],[13,48],[116,68],[44,118],[-59,34],[-85,-39],[-14,137],[1403,-188],[240,351],[153,33],[40,45],[14,109],[130,311],[68,11],[16,99],[34,30],[59,178],[98,880],[93,117],[34,89],[-23,331],[-7,15],[-15,32],[-8,17],[-155,141],[-101,193],[-128,45],[-39,54],[-21,363],[-48,107],[14,50],[-89,359],[-5,318],[-55,-16],[-47,34],[-59,118],[-75,0],[-76,88],[-401,-314],[-270,376],[-85,-33],[-305,423],[-381,-118],[-133,452],[-78,-74],[29,89],[144,172],[63,194],[35,33],[7,55],[-42,119],[28,106],[-168,140],[-66,0],[-34,58],[-56,-3],[37,214],[-380,483],[-484,74],[95,700],[-107,136],[29,256],[-26,104],[-14,361],[-354,77],[-124,80],[-142,5],[-139,469],[259,88],[229,-32],[-1,78],[97,9],[144,172],[140,19],[154,228],[46,138],[-1648,263],[169,1165],[-103,54],[-64,78],[1,151],[261,102],[43,-31],[32,33],[-3,110],[67,127],[11,108],[-130,167],[-32,108],[-50,50],[-81,176],[-79,28],[56,103],[31,249],[-902,142],[3,-89],[-2441,366],[-163,65],[-85,-598],[-698,92],[-2,113],[145,114],[25,95],[58,76],[17,129],[-396,49],[256,1929],[-75,10],[-1602,219],[-316,107],[42,42],[-91,253],[-3,55],[0,17],[0,19],[9,16]],[[46269,40431],[-4,-34],[34,13],[167,-51],[59,32],[66,44],[4,136],[36,49],[198,97],[95,136],[148,110],[19,64],[-58,100],[17,20],[86,-26],[134,39],[54,33],[9,75],[-67,39],[-73,-69],[-60,4],[-89,111],[-11,253],[110,218],[39,133],[0,104],[-47,103],[-114,114],[-51,161],[53,241],[-1,201],[-65,324],[-30,99],[-116,84],[9,99],[-71,32],[-14,75],[114,265],[-23,168],[-115,147],[15,257],[-67,267],[48,92],[182,77],[102,275],[-84,115],[-122,-6],[-121,43],[-36,172],[-174,10],[-45,73],[-12,43],[10,19],[188,140],[157,430],[274,-90],[167,13],[-1,128],[-126,160],[-63,159],[148,165],[291,49],[79,57],[18,120],[-58,242],[17,111],[34,37],[34,12],[69,-7],[42,-14],[100,-46],[18,6],[17,6],[11,4],[24,64],[133,-106],[48,13],[157,-115],[3,-41],[-76,-127],[102,-162],[48,-189],[-3,-87],[30,-78],[-34,-92],[13,-98],[179,-75],[270,157],[79,-74],[25,-287],[-33,-32],[16,-56],[86,-81],[91,-13],[67,23],[133,-74],[185,-218],[66,-10],[55,-53],[39,26],[87,-73],[83,53],[118,-37],[47,125],[59,-55],[9,-87],[-75,-131],[11,-32],[93,-14],[112,54],[67,-62],[158,-76],[31,-61],[-75,-133],[-53,-5],[55,-60],[131,-281],[93,-27],[-4,-108],[-61,-78],[116,-62],[53,-283],[64,-53],[167,42],[77,-86],[35,-170],[-45,-116],[48,-130],[-17,-139],[91,-113],[34,-129],[43,-58],[207,-139],[319,-84],[285,179],[241,15],[66,176],[137,8],[49,67],[55,192],[65,36],[25,59],[132,106],[129,3],[58,85],[31,118],[147,113],[137,365],[121,-34],[111,84],[132,49],[-55,163],[49,90],[-43,39],[65,190],[44,59],[-19,61],[18,92],[42,68],[123,-73],[6,-32],[58,-3],[48,101],[-1,84],[84,27],[35,178],[79,90],[-25,128],[17,68],[-41,89],[7,116],[137,289],[-88,178],[49,53],[42,-6],[41,141],[51,34],[36,-32],[70,-2],[92,103]],[[91180,32013],[-530,-2124],[-366,-1806],[-179,-1088],[-70,-600],[-31,-973],[69,-747],[142,-561],[137,-353],[289,-484],[16,16],[142,-126],[46,-11],[11,30],[-2,-28],[61,-37],[143,-46],[61,75],[53,7],[31,78],[126,112],[159,-7],[66,96],[88,-73],[55,-9],[135,110],[124,-107],[-32,-9],[11,-29],[-84,-3],[-33,-96],[-24,-150],[19,-104],[96,-59],[53,4],[-10,-37],[-34,-6],[15,-35],[-68,11],[8,-136],[-55,11],[-23,-39],[-415,-2073],[-224,-1855]],[[91156,18752],[-71,14],[-28,-28],[-107,66],[-253,64],[-35,67],[65,435],[-293,47],[0,-33],[-169,84],[213,275],[98,245],[-67,68],[117,169],[4,91],[-22,32],[-207,-55],[-188,30],[-113,52],[-117,14],[-173,113],[-42,59],[-1,120],[74,203],[87,127],[98,7],[67,55],[-17,63],[-71,68],[-19,94],[-357,59],[-66,-436],[-172,33],[-257,-59],[-208,5],[-154,-89],[16,32],[-26,78],[-571,93],[-46,179],[-301,71],[-39,42],[-15,-50],[23,-40],[-328,53],[34,-68],[-692,111],[-45,-311],[-81,36],[-545,84],[-42,-287],[-305,58],[-10,-75],[-459,77],[-55,-363],[-94,126],[-148,67],[-19,-127],[-132,55],[1,-89],[-172,29],[-114,-122],[-153,-42],[-98,5],[-111,-146],[-47,-1],[-81,-132],[33,-113],[-27,-180],[-178,32],[-19,89],[-291,47],[-51,-337],[-95,74],[-51,-148],[-103,54],[-21,-85],[-60,-82],[-206,-94],[-89,-65],[-9,-58],[-147,-77],[-72,102],[-267,-201],[-25,42],[-232,-175],[-39,-258],[-295,45],[-41,-20],[-97,49],[-54,115],[32,219],[-51,36],[-109,232],[-176,174],[33,226],[-504,79]],[[46269,40431],[-105,80],[-88,-12],[-121,44],[-246,-199],[-68,2],[-117,128],[-177,66],[-333,49],[-204,107],[-284,190],[-319,262],[-784,187],[-367,35],[152,587],[-135,145],[71,167],[-322,281],[107,329],[-285,9],[-113,139],[-107,-73],[-104,-5],[-106,101],[-33,129],[-100,167],[-277,51],[-118,93],[-44,117],[-356,-49],[-89,-73],[-35,-123],[-379,-180],[-154,27],[-139,172],[-61,34],[-200,-1],[-101,46],[-167,-18],[-158,56],[-201,-82],[-64,13],[-2,38],[-82,98],[-86,0],[-19,23],[-247,-72],[-90,90],[-84,5],[-87,-18],[-93,-71],[-129,50],[-92,-43],[-62,20],[-82,-63],[-297,-2028],[-33,-1],[-8,-47],[-82,70],[0,-54],[-29,-10],[-149,17],[-8,73],[-51,78],[-106,44],[11,193],[-18,38],[24,34],[-83,15],[11,59],[-54,67],[-134,23],[-22,-79],[-147,-187],[15,-93],[227,-129],[78,-130],[-20,-101],[-99,-66],[-32,-69],[-5,-69],[39,-69],[89,-13],[193,87],[245,-109],[35,-165],[-143,-554],[-54,-127],[108,-245],[-9,-93],[-202,-329],[-135,-122],[-141,-68],[71,-321],[-39,-60],[-167,-66],[22,-111],[-55,-303],[-46,-91],[-65,-23],[-118,61],[-79,-16],[-31,-112],[21,-384],[-107,-9],[-50,-41],[-2891,-238],[-903,139],[-223,-236],[-55,25],[-225,-14],[-536,-535],[32,-164],[192,-210],[-10,-138],[53,-94],[-82,-12],[-103,-73],[-362,-460],[-44,-5],[-46,-52],[-6,-66],[-143,-280],[-330,-289],[-367,190],[-30,-55],[-258,12],[-162,103],[-194,42],[-3917,583],[-316,21],[-104,31],[-146,96],[-810,159],[9,-208],[-61,-311],[-11,-239],[-241,-312],[-33,-181],[221,-157],[325,110],[3,-23],[-63,-11],[26,-98],[-38,-39],[38,-66],[-40,-37],[19,-40],[-66,-124],[9,-44],[33,-1],[16,-69],[-1190,-227]],[[23724,34254],[-33,33],[-133,24],[-53,128],[-136,169],[-27,88],[-273,-117],[-102,-80],[-64,62],[-195,1],[-63,43],[-213,-1],[-255,97],[-556,307],[-184,230],[-46,134],[-16,312],[-216,385],[33,244],[-305,466],[-158,616],[-193,144],[19,143],[-729,-235],[-413,148],[-243,-39],[-135,-61],[-186,39],[-14,-57],[-191,50],[-214,261],[-212,36],[-271,-162],[13,-170],[-81,-257],[-1817,-1428],[-1998,289],[-43,221],[-89,142],[-165,425],[24,94],[126,141],[19,144],[-95,117],[-135,15],[-110,116],[32,146],[23,-7],[-128,397],[-107,134],[24,90],[-22,44],[-118,11],[-11,125],[-55,42],[-45,199],[-224,33],[-601,-14],[-306,36],[-140,-33],[-199,-159],[-176,12],[-413,421],[-286,36],[-392,107],[-301,25],[59,244],[-47,232],[-128,309],[-14,253],[262,368],[93,178],[38,232],[121,210],[25,122],[2,336],[-38,130],[-138,145],[-49,184],[2,163],[55,243],[238,142],[77,73],[121,195],[56,294],[132,337],[-54,189],[-66,24],[-547,766],[-233,130],[-46,252],[-424,261],[-284,401],[256,90],[-426,570],[0,64],[77,223],[126,173],[321,36],[222,369],[-34,78],[101,134],[-160,24],[-26,491],[33,68],[13,401],[-490,253],[-57,63],[-159,343],[112,403],[177,252],[150,48],[8,201],[235,307],[8,120],[-166,95],[-97,217],[-59,513],[-1828,271],[-276,2],[-113,246],[-84,110],[-503,203],[-303,-46],[-276,-85],[-238,48],[-183,-31],[-541,-163],[-81,90],[-154,90],[-447,182],[-276,293],[-386,855],[-1265,282],[-174,-102],[-130,-188],[-353,142],[-378,56],[-33,161],[-127,38],[-114,-11],[-165,-85],[-35,193],[94,382],[75,44],[64,90],[150,489],[-77,238],[-231,371],[-29,127],[7,270],[57,165],[-407,220],[71,181],[-82,262],[366,474],[-36,168],[-133,107],[-286,-98],[-128,40],[81,281],[-78,264],[-290,-96],[-70,42],[45,254],[-197,81],[-32,172],[187,169],[29,405],[744,540],[231,615],[-171,131],[-294,355],[94,100],[275,86],[-93,432],[179,198],[-299,279],[381,458],[165,66],[71,181],[119,-12],[14,97],[-356,181],[-27,123],[300,217],[132,258],[-49,106],[17,424],[-64,199],[338,265],[363,-56],[170,185],[-57,134],[29,19],[224,524],[-78,179],[9,231],[-140,151],[45,255],[360,34],[142,117],[-213,556],[71,234],[246,28],[113,336],[-13,241],[229,292],[101,56],[22,75],[40,356],[-67,368],[-40,82],[-38,283],[-67,148],[71,114],[-27,205],[215,-10],[288,-162],[530,89],[-141,235],[341,501],[148,79],[196,40],[418,217],[680,5],[204,120],[3,217],[146,152],[-17,75],[20,175],[-100,141],[-81,314],[134,263],[157,117],[160,331],[291,113],[-429,431],[-230,157],[-88,119],[-5,138],[52,100],[8,177],[-78,147],[-52,268],[-187,487],[-11,329],[47,254],[8,272],[-25,648],[-44,203],[-6,244],[186,893],[-231,342],[-226,643],[94,68],[529,1365],[-55,342],[68,581],[743,2014],[159,-23],[16,94],[190,10],[99,271],[116,99],[177,1334],[83,100],[-139,342],[-511,2244],[830,765],[360,93],[494,-5],[48,355],[117,163],[470,104],[242,-368],[123,-38],[432,182],[325,-132],[334,12],[324,-60],[520,82],[114,108],[146,35],[227,-44],[253,-133],[431,-52],[239,-141],[253,-260],[128,-78],[113,22],[61,63],[238,80],[1274,-235],[866,-222],[128,54],[225,-77],[163,115],[99,-15],[33,26],[-2,44],[82,155],[-28,90],[57,157],[59,341],[-121,72],[-17,100],[105,274],[119,42],[22,166],[49,111],[-13,101],[33,33],[114,8],[58,-38],[159,362],[75,39],[-30,102],[66,6],[110,128],[38,2],[100,134],[90,187],[98,47],[19,64],[-346,311],[-38,155],[-48,57],[47,145],[-66,99],[-265,-50],[-233,257],[-506,-226],[-339,210],[-63,106],[-141,20],[-78,92],[-178,6],[-167,64],[-89,128],[-95,50],[-248,228],[7,46],[-35,35],[-195,59],[238,1898],[44,30],[64,-46],[15,-187],[131,15],[124,70],[45,-63],[88,-22],[107,-76],[49,14],[39,67],[60,336],[58,77],[60,-94],[19,-160],[81,-98],[204,-55],[189,-6],[21,53],[70,34],[35,79],[55,12],[209,-52],[55,178],[887,-307],[74,-65],[107,12],[653,-227],[393,-98],[578,-258],[79,19],[86,-70],[95,-32],[125,86],[25,60],[-32,88],[-93,110],[8,192],[-33,137],[35,164],[-9,177],[163,130],[225,-10],[-292,480],[-59,23],[-102,105],[18,156],[-63,100],[-19,238],[-73,230],[46,160],[-47,79],[9,56],[165,115],[33,59],[-4,202],[30,52],[120,20],[175,154],[-1,322],[-28,70],[141,99],[26,82],[-49,48],[28,128],[3,5],[82,79],[24,252],[37,43],[34,143],[10,87],[-29,186],[8,171],[171,163],[-6,274],[38,439],[-10,201],[-65,96],[26,91],[-16,114],[30,60],[211,141],[40,274],[54,17],[67,72],[25,78],[396,-93],[131,63],[33,60],[122,-26],[97,14],[43,75],[127,-22],[119,25],[77,-34],[71,-117],[102,65],[24,-42],[70,-118],[20,-124],[-110,-187],[26,-155],[20,-113],[4,-23],[114,-117],[60,-11],[39,-108],[82,-2],[86,-282],[119,54],[79,-54],[31,-74],[74,-26],[14,-67],[93,-27],[36,-148],[40,-58],[133,-47],[144,-2],[321,-70],[55,-102],[58,5],[161,-261],[10,-156],[47,-159],[211,-156],[30,-298],[134,-73],[91,-93],[39,-4],[58,227],[51,65],[37,11],[36,-43],[72,-18],[54,60],[294,76],[42,41],[-20,100],[70,29],[75,185],[193,-133],[127,-50],[53,35],[145,-45],[28,-186],[148,-121],[190,-271],[83,-32],[79,-100],[-10,-213],[-153,-85],[-89,-251],[-6,-216],[-88,-41],[-23,-174],[-90,-121],[11,-100],[-57,-99],[61,-345],[-97,-74],[-24,-128],[67,-201],[-39,-102],[-6,-114],[131,-136],[-17,-137],[38,-85],[138,-116],[127,-22],[119,34],[153,165],[173,52],[10,40],[158,38],[49,-24],[160,29],[19,40],[216,0],[84,42],[31,234],[54,96],[121,2],[116,-59],[316,67],[92,54],[108,-34],[66,17],[91,90],[15,-117],[-59,-76],[14,-175],[-134,-1039],[51,-109],[-7,-56],[-71,-126],[-72,1],[-99,-146],[73,-157],[-37,-162],[57,-31],[-72,-17],[-14,-42],[385,-1613],[-41,6],[-39,-37],[-143,37],[-250,125],[-195,-36],[-83,33],[-110,-126],[-204,-75],[-171,-203],[33,-187],[-4,-31],[22,-70],[151,-54],[114,97],[126,43],[-6,82],[108,27],[54,80],[81,-17],[81,23],[44,52],[96,2],[139,-184],[93,5],[17,33],[89,-53],[16,-53],[-20,-80],[43,-105],[-13,-33],[170,-169],[42,-110],[107,-21],[24,-36],[64,4],[23,61],[65,31],[50,-56],[4,-109],[49,-95],[40,-25],[37,-122],[81,-123],[68,136],[283,98],[42,178],[52,59],[173,-92],[50,3],[38,88],[76,-11],[30,-61],[107,36],[355,-108],[67,-100],[119,-291],[166,-23],[142,67],[-21,168],[41,51],[-7,114],[41,-4],[73,56],[-34,159],[58,101],[61,5],[83,94],[77,-33],[66,41],[55,-4],[-3,52],[54,61],[140,-49],[192,24],[112,-20],[191,-152]],[[60118,19631],[-4,4],[-31,40],[-110,-5],[-94,-116],[-98,97],[-66,10],[-25,-27],[-26,-180],[-80,-5],[-64,-91],[-174,122],[-213,33],[-79,-53],[-99,-216],[-8,-75],[52,-102],[54,-29],[8,-81],[5,-47],[3,-26],[-73,-122],[-2,-80],[-141,-173],[-128,-65],[-3,-108],[70,-62],[-10,-294],[142,-129],[-46,-89],[-6,-112],[-22,-30],[-83,-8],[-22,-132],[74,-116],[60,-33],[4,-62],[-72,-56],[2,-145],[51,-112],[2,-129],[68,-62],[23,-261],[80,-149],[24,-3],[1,-214],[-110,-152],[-55,-181],[30,-156],[102,-55],[81,-89],[28,-152],[-12,-57],[31,-51],[134,-83],[17,-43],[-47,-91],[-70,36],[-55,-50],[-6,-41],[-248,-150],[-11,-76],[81,-102],[111,-357],[-252,-493],[57,-175],[-8,-180],[35,-95],[-42,-55],[-94,86],[-123,-9],[-115,31],[-22,-203],[-25,-31],[-67,6],[-30,-62],[-142,-82],[-47,9],[-79,-36],[-51,-111],[-238,-120],[-300,-10],[-275,-142],[-93,-160],[-122,-61],[-35,-58],[-20,-135],[80,-389],[-5,-266],[240,-136],[10,-196],[45,-112],[222,-143],[331,-103],[12,-67],[-53,26],[-21,-47],[79,-91],[78,-37],[-50,-26],[66,1],[271,130],[40,-30],[94,-116],[26,-76],[56,-40],[12,-48],[151,-120],[74,-146],[70,-71],[52,-182],[148,-108],[1,-54],[-146,-92],[106,-268],[156,80],[215,35],[48,55],[16,101],[-155,106],[-28,56],[-7,68],[68,41],[167,-49],[181,15],[-64,-482],[440,-61],[-58,-157],[-61,-40],[-43,-101],[-80,-46],[-39,-89],[95,-140],[-78,-116],[-7,-341],[123,-161],[61,-21],[44,-63],[45,-16],[73,60],[39,-5],[32,46],[96,-158],[183,-105],[81,-153],[-120,29],[-43,-66],[13,-281],[-49,-64],[19,-64],[-105,-59],[37,-38],[21,-106],[30,-14],[-29,-77],[137,-237],[-11,-118],[-57,-140],[-7,-219],[533,-83],[-79,-553],[-173,26],[-50,-359],[107,-178],[-27,-86],[27,-321],[-27,-151],[28,-207],[156,-177],[-9,-69],[-536,83],[-105,120],[32,176],[-114,19],[-63,-136],[-188,-123],[-170,1],[-250,-211],[-185,-330],[-98,-324],[-18,-150],[-71,-233],[-214,155],[-152,71],[-120,10],[-46,-73],[-181,-63],[-217,14],[-190,-305],[-328,-108],[-28,-90],[-78,5],[-43,-39],[17,-71],[-256,-118],[-41,46],[-66,-119],[-221,-125],[-223,17],[-222,247],[-224,50],[65,320],[143,35],[52,188],[123,43],[43,123],[130,87],[-27,372],[4,112],[31,74],[-27,96],[-68,22],[-74,161],[120,99],[70,118],[-2,86],[121,112],[133,194],[-683,93],[-58,38],[-42,103],[-101,15],[-100,-73],[-163,52],[-128,-100],[-120,102],[-30,180],[65,60],[174,-20],[28,25],[-4,127],[28,56],[223,-53],[139,140],[164,71],[80,87],[35,38],[32,73],[-1,8],[-30,152],[-59,66],[-5,25],[99,146],[43,153],[84,36],[75,-4],[66,-94],[57,58],[42,222],[-24,116],[-18,22],[-63,72],[-103,2],[-28,22],[-37,51],[-40,69],[-13,68],[0,31],[-7,8],[-128,138],[143,71],[-22,178],[74,188],[-54,358],[-407,54],[47,394],[-180,-109],[-40,-163],[-61,25],[-119,-52],[-60,24],[-140,-163],[-71,26],[-28,-199],[-402,61],[13,84],[-66,31],[-46,7],[-48,-47],[-270,378],[-331,-251],[-40,-276],[-266,-19],[-68,47],[-244,-162],[-62,-447],[-96,15],[-38,-315],[-1281,181],[-67,-6],[-246,-352],[-4,-189],[-31,-37],[-20,-114],[-54,-38],[-17,-58],[-102,-45],[-102,-169],[-336,-162],[22,-14],[-153,-201],[6,-172],[-134,-179],[17,-113],[-55,-76],[56,-161],[-39,-137],[-23,-284],[-136,-70],[-169,-205],[-52,-168],[13,-64],[-1448,-706],[16,-34],[-43,-66],[7,-110],[-153,-144],[-141,-234],[-309,-272],[-147,-284],[-28,-29],[-249,-152],[-107,42],[-116,-54],[-112,-111],[-300,177],[-237,-283],[-142,-90],[-342,-147],[-261,-52],[-160,-74],[-203,-16],[-235,87],[-116,-51],[-144,-6],[-183,105],[-227,-131],[-36,-7],[-56,8],[-115,66],[-192,61],[-289,228],[-164,-5],[-92,92],[-83,147],[-99,25],[-79,198],[-264,184],[-115,-12],[-135,79],[-31,74],[-108,55],[-126,238],[-66,15],[-20,-48],[-135,-98],[-228,-39],[-99,43],[-64,35],[-99,74],[-83,144],[-117,15],[-293,311],[-267,-75],[-69,19],[-32,63],[-73,-7],[-3,90],[-164,158],[-136,-21],[-37,54],[-100,19],[-115,105],[-46,111],[-109,-6],[-107,38],[-111,-34],[-68,67],[2,74],[-23,25],[-146,75],[-162,-22],[-8,45],[-98,135],[-3,108],[-65,103],[14,43],[-42,97],[-3,209],[-117,99],[8,187],[-185,63],[-133,214],[-34,76],[2,67],[-58,101],[-78,29],[-136,131],[-37,107],[6,128],[-97,73],[-57,142],[-144,163],[-120,-28],[-168,91],[-89,244],[-144,38],[-155,364],[-96,88],[174,222],[-18,73],[-123,128],[-31,212],[58,105],[-14,288],[34,128],[42,43],[-10,54],[-166,38],[-142,-58],[-140,14],[-67,144],[-162,31],[-65,-41],[-129,17],[-26,12],[-24,115],[-76,88],[-246,113],[-100,-100],[-121,-5],[-74,-129],[-155,15],[-156,-71],[-169,80],[-123,-13],[-181,83],[-327,52],[-143,86],[-63,84],[-95,3],[-168,155],[-43,-14],[-55,89],[-94,7],[-61,214],[-27,444],[-164,141],[132,310],[-19,111],[-75,46],[-17,105],[78,108],[61,196],[-35,175],[-209,43],[-101,96],[-82,-29],[-255,148],[-17,90],[-93,154],[-82,29],[511,396],[69,513],[-38,146],[-2,10],[-175,214],[-119,225],[-153,149],[3,98],[-58,39],[-145,-20],[-38,42],[-93,28],[-55,123],[-150,143],[-117,-67],[-134,-25],[-52,45],[50,115],[-80,138],[-176,25],[-187,189],[-198,58],[-61,197],[-8,151],[-262,47],[-285,205],[-24,36],[31,91],[-69,82],[-42,119],[-62,-27],[-89,68],[6,50],[-50,145],[-58,47],[-154,-178],[-86,20],[-61,-43],[-60,76],[-3,95],[-64,80],[11,73],[-95,27],[-87,87],[-117,352],[-141,73],[-76,83],[-240,353],[-30,136],[24,344],[-120,45],[-19,49],[-40,-37],[-95,-10],[-54,35],[-38,-95],[-168,-141],[-86,22],[-100,-61],[-73,37],[-206,28],[-111,153],[-81,67],[-72,6],[-88,218],[35,116],[-13,223],[-36,53],[-120,-45],[-70,49],[-106,146],[-82,-35],[-38,-79],[-153,-58],[-74,106],[-150,72],[-37,45],[17,120],[-123,29],[-216,135],[-204,399],[-53,25],[-13,78],[130,247],[-103,105],[7,34],[-60,78],[8,122],[160,196],[-23,74],[-4359,626],[1274,3206],[623,4133],[77,354],[-2336,322],[-1664,-58],[-116,2475],[166,-17],[42,-55],[109,-59],[630,328],[30,45],[45,-7],[983,516],[106,417],[551,93],[232,-35],[-37,401],[573,348],[158,-82],[69,-209],[89,-61],[13,-57],[454,-298],[104,-24],[155,74],[101,-68],[292,197],[108,194],[-44,290],[-41,94],[-73,45],[-26,90],[1,90],[84,73],[-39,99],[56,199],[-1,127],[-261,374],[-2,131],[-60,88],[-233,56],[-184,-144],[-67,8],[-32,85],[-272,-355],[-82,30],[-5,-44],[-105,-110],[-91,-43],[-81,5],[-142,233],[-102,-3],[-29,54],[-116,-14],[-54,51],[-145,-14],[-41,85],[-122,88],[-100,4],[-61,38],[-116,196],[-85,18],[-112,114]],[[91156,18752],[-53,-318],[-22,-412],[-56,-12],[44,-55],[-15,-493],[58,-116],[52,-30],[-12,-83],[28,-62],[37,-17],[32,-87],[135,-172],[-31,-45],[-37,-238],[-70,-594],[-33,-946],[29,-387],[122,-478],[-27,-284],[7,-642],[73,-277],[0,-224],[33,-209],[132,-437],[142,-95],[165,-196],[41,5],[111,-146],[154,-81],[104,-11],[127,76],[-62,64],[13,65],[76,-78],[32,35],[109,8],[4,-36],[-50,-70],[-101,-1847],[97,-1127],[-43,-184],[24,-86],[-7,-298],[60,-176],[6,-142],[93,-132],[-17,-107],[85,-60],[173,-54],[-2,-224],[78,-177],[-27,-41],[-160,17],[-66,-43],[-16,29],[-116,-133],[12,-14],[-84,-23],[-83,-121],[-58,95],[-37,-70],[60,-198],[-145,-861],[-21,-319],[62,-1049],[43,-318],[508,-2181],[-2004,-561],[-9,-107],[-105,-133],[-144,-87],[29,-158],[-10,-202],[-68,-237],[-385,-304],[-209,145],[-162,-24],[-83,209],[-104,4],[-230,216],[-812,120],[-25,-304],[2,-22],[44,-47],[-5,-4],[-52,-40],[19,-47],[-37,-26],[-176,2],[-288,-223],[-291,26],[-87,-16],[-108,54],[-110,-62],[-160,97],[-160,-95],[-50,89],[136,81],[-32,26],[-73,201],[-280,-170],[-116,152],[-21,73],[-225,151],[-87,26],[-42,85],[-95,16],[-107,-32],[-80,56],[-112,6],[-52,43],[-34,-21],[-85,49],[-76,-9],[-109,54],[-76,-8],[-28,49],[-96,31],[-68,-21],[-65,156],[6,42],[-82,31],[-133,28],[-320,3],[-177,-159],[-177,-57],[-66,-48],[-189,185],[-384,-91],[-534,81],[111,769],[-21,10],[97,43],[143,-34],[12,84],[146,126],[94,648],[-535,86],[58,330],[-196,33],[40,270],[-75,12],[40,278],[378,-60],[90,619],[-401,64],[29,198],[-222,35],[50,345],[28,14],[-183,29],[-17,-117],[-137,22],[-180,99],[-218,-54],[-7,121],[-94,118],[-152,32],[-154,217],[-9,68],[-49,69],[-2,150],[-126,111],[-56,93],[-6,112],[-14,1],[-137,11],[-42,33],[11,70],[-53,6],[-18,32],[-130,-83],[-298,-30],[-28,74],[-151,112],[-9,74],[68,88],[51,187],[-47,10],[25,128],[-167,-109],[-119,94],[-72,-10],[-51,28],[79,480],[-67,18],[-35,43],[-181,-16],[-138,102],[-194,37],[-64,-413],[-68,104],[-136,116],[-120,-730],[-30,-6],[-61,51],[-155,191],[-76,14],[-23,69],[-186,27],[52,-152],[-74,-143],[-130,-65],[-53,23],[-37,72],[8,104],[-147,180],[-41,-67],[-386,-99],[-434,77],[-32,47],[88,91],[-5,84],[27,15],[-654,120],[25,-68],[-26,67],[-3,11],[-5,110],[-38,41],[-60,-11],[-148,92],[17,46],[-17,46],[-90,56],[-40,195],[25,103],[-38,348],[-196,149],[-139,-5],[-25,33],[-77,8],[-106,-123],[-226,-90],[-27,129],[-77,111],[36,116],[-107,105],[-125,-16],[-95,-85],[-188,78],[-55,4],[-50,-40],[-80,16],[-63,33],[-26,85],[-48,14],[-210,34],[-47,-32],[-29,16],[6,37],[-215,6],[-57,113],[-21,122],[-74,101],[-59,40],[-177,36],[-252,261],[-34,179],[152,90],[-44,8],[-75,93],[-10,143],[-58,51],[-2,79],[-25,29],[53,107],[-89,156],[-70,8],[4,44],[-41,67],[-198,94],[-57,76],[-115,57],[-128,-22],[-113,35],[-27,71],[-77,-95],[-37,62],[-78,-44],[12,103],[-19,49],[32,93],[-12,141],[96,63],[103,154],[13,64],[-6,37],[-76,53],[-1,195],[24,65],[-40,0],[-46,-45],[-51,38],[672,834],[-28,49],[393,485],[153,1211],[-128,17],[47,59],[-112,296],[-21,148],[3,32],[79,67],[10,48],[-338,47],[33,96],[50,29],[-43,316]],[[82836,3754],[101,8],[21,53],[37,11],[54,-25],[4,-27],[-52,-46],[7,-36],[-26,-11],[9,-74],[51,-53],[-231,31],[25,169]],[[91725,14296],[36,19],[82,-51],[-43,-28],[-75,60]]],"transform":{"scale":[0.000029912399123991192,0.000025927259272592732],"translate":[150.36913,-26.98477]},"objects":{"qld_north_coast_ldmg_boundaries_gda2020_simp20":{"type":"GeometryCollection","geometries":[{"arcs":[[0,1,2]],"type":"Polygon","properties":{"LGA Code":"1820","Abbreviated Name":"Bundaberg","LGA Name":"Bundaberg Regional","Area Sq Km":12403.99881,"LDMG Name":"Bundaberg","Police Region Name":"North Coast Region","Police Region Code":"NCR","Police Region Short Name":"North Coast"}},{"arcs":[[3]],"type":"Polygon","properties":{"LGA Code":"2330","Abbreviated Name":"Cherbourg Aboriginal","LGA Name":"Cherbourg Aboriginal Shire","Area Sq Km":31.7648,"LDMG Name":"Cherbourg","Police Region Name":"North Coast Region","Police Region Code":"NCR","Police Region Short Name":"North Coast"}},{"arcs":[[-3,4,5,6]],"type":"Polygon","properties":{"LGA Code":"3220","Abbreviated Name":"Fraser Coast","LGA Name":"Fraser Coast Regional","Area Sq Km":7995.76593,"LDMG Name":"Fraser Coast","Police Region Name":"North Coast Region","Police Region Code":"NCR","Police Region Short Name":"North Coast"}},{"arcs":[[-6,7,8,9,10,11,12]],"type":"Polygon","properties":{"LGA Code":"3620","Abbreviated Name":"Gympie","LGA Name":"Gympie Regional","Area Sq Km":6936.26533,"LDMG Name":"Gympie","Police Region Name":"North Coast Region","Police Region Code":"NCR","Police Region Short Name":"North Coast"}},{"arcs":[[-9,13,14]],"type":"Polygon","properties":{"LGA Code":"5740","Abbreviated Name":"Noosa","LGA Name":"Noosa Shire","Area Sq Km":870.10279,"LDMG Name":"Noosa","Police Region Name":"North Coast Region","Police Region Code":"NCR","Police Region Short Name":"North Coast"}},{"arcs":[[-1,-7,-13,15,16]],"type":"Polygon","properties":{"LGA Code":"5760","Abbreviated Name":"North Burnett","LGA Name":"North Burnett Regional","Area Sq Km":19670.52276,"LDMG Name":"North Burnett","Police Region Name":"North Coast Region","Police Region Code":"NCR","Police Region Short Name":"North Coast"}},{"arcs":[[-12,17,-16],[-4]],"type":"Polygon","properties":{"LGA Code":"6630","Abbreviated Name":"South Burnett","LGA Name":"South Burnett Regional","Area Sq Km":8378.58755,"LDMG Name":"South Burnett","Police Region Name":"North Coast Region","Police Region Code":"NCR","Police Region Short Name":"North Coast"}},{"arcs":[[[-10,-15,18]],[[19]],[[20]]],"type":"MultiPolygon","properties":{"LGA Code":"6720","Abbreviated Name":"Sunshine Coast","LGA Name":"Sunshine Coast Regional","Area Sq Km":2286.58942,"LDMG Name":"Sunshine Coast","Police Region Name":"North Coast Region","Police Region Code":"NCR","Police Region Short Name":"North Coast"}}]}}}