{"type":"FeatureCollection","name":"qld_brisbane_ldmg_boundaries_gda2020_simp200m_schematic","crs":{"type":"name","properties":{"name":"urn:ogc:def:crs:EPSG::7844"}},"features":[{"type":"Feature","properties":{"LGA Code":"1000","Abbreviated Name":"Brisbane","LGA Name":"Brisbane City","Area Sq Km":1378.04,"LDMG Name":"Brisbane","Source Area Sq Km":1378.04081,"Police Region Name":"Brisbane Region","Police Region Code":"BR","Police Region Short Name":"Brisbane","Region Slug":"brisbane","Layer Id":"qld_brisbane_ldmg_boundaries_gda2020_simp200m_schematic","Layer Group":"schematic","Layer Kind":"ldmg","Source":"Local government area boundaries - Queensland, Department of Natural Resources and Mines, Manufacturing and Regional and Rural Development; ASGS Edition 3 (2021) Local Government Areas, Australian Bureau of Statistics","Source URL":"https://www.data.qld.gov.au/dataset/local-government-area-boundaries-queensland","Licence":"CC BY 4.0","Licence URL":"https://creativecommons.org/licenses/by/4.0/","Dataset Date":"extract of 14/09/2026","Simplification Tolerance M":200,"Coordinate Precision Decimals":4,"CRS":"GDA2020 (EPSG:7844)","Fidelity":"schematic, non-cartographic display variant: Cook Shire's coastal waters and islets reassigned so the Power BI Azure Maps visual renders without faults; contains intentional boundary inaccuracies; not for planning, dispatch, analysis or jurisdiction","Modified":"Simplified and repackaged from the source dataset; see Source URL","Schematic Change":"unchanged from the standard layer"},"geometry":{"type":"MultiPolygon","coordinates":[[[[153.4542,-27.0216],[153.4526,-27.0247],[153.442,-27.031],[153.4306,-27.0344],[153.42,-27.0343],[153.4029,-27.0368],[153.3815,-27.0454],[153.3755,-27.0489],[153.3734,-27.0529],[153.3648,-27.06],[153.363,-27.0643],[153.3669,-27.0734],[153.3699,-27.0891],[153.3703,-27.1026],[153.369,-27.1134],[153.3624,-27.1333],[153.3627,-27.1391],[153.3664,-27.1481],[153.3702,-27.1608],[153.3733,-27.1752],[153.3723,-27.1807],[153.3671,-27.1921],[153.3652,-27.1989],[153.3661,-27.2025],[153.3742,-27.2168],[153.3768,-27.2271],[153.3776,-27.2366],[153.3838,-27.2503],[153.3987,-27.2755],[153.4055,-27.2951],[153.405,-27.2999],[153.422,-27.3312],[153.424,-27.3395],[153.4185,-27.3533],[153.4202,-27.3564],[153.4296,-27.3618],[153.4304,-27.3516],[153.435,-27.3417],[153.4388,-27.337],[153.4378,-27.3289],[153.4325,-27.3189],[153.4248,-27.3009],[153.42,-27.2803],[153.4174,-27.261],[153.4171,-27.2276],[153.42,-27.1994],[153.4238,-27.1751],[153.4284,-27.1538],[153.4343,-27.1305],[153.446,-27.0903],[153.4574,-27.0558],[153.4626,-27.0424],[153.4661,-27.0379],[153.4682,-27.0286],[153.4623,-27.0282],[153.4542,-27.0216]]],[[[153.2546,-27.3291],[153.2488,-27.3237],[153.2416,-27.328],[153.2375,-27.3344],[153.2359,-27.3413],[153.2375,-27.3446],[153.2455,-27.3497],[153.2562,-27.3495],[153.2602,-27.3451],[153.2649,-27.3334],[153.2546,-27.3291]]],[[[153.2369,-27.373],[153.2335,-27.3742],[153.2278,-27.3813],[153.228,-27.3876],[153.2241,-27.3901],[153.2244,-27.3936],[153.2358,-27.4013],[153.239,-27.4002],[153.2426,-27.3941],[153.243,-27.3895],[153.2406,-27.3785],[153.2369,-27.373]]],[[[153.2346,-27.4184],[153.226,-27.4183],[153.2255,-27.4208],[153.2317,-27.4277],[153.233,-27.4328],[153.2385,-27.4379],[153.2409,-27.4373],[153.2417,-27.4203],[153.2346,-27.4184]]],[[[153.2034,-27.468],[153.2054,-27.466],[153.1987,-27.4604],[153.1999,-27.457],[153.1926,-27.4521],[153.1933,-27.4576],[153.1904,-27.4601],[153.1867,-27.4548],[153.1912,-27.4515],[153.194,-27.4448],[153.1864,-27.4449],[153.1816,-27.4423],[153.1767,-27.4338],[153.1817,-27.4329],[153.1848,-27.4259],[153.1936,-27.4226],[153.1886,-27.4131],[153.1884,-27.4083],[153.1832,-27.4008],[153.1761,-27.3985],[153.1686,-27.3993],[153.1677,-27.3939],[153.1839,-27.4001],[153.1904,-27.4077],[153.1932,-27.415],[153.1969,-27.4162],[153.1988,-27.4124],[153.1963,-27.4051],[153.1964,-27.3983],[153.1926,-27.3899],[153.1973,-27.3861],[153.1908,-27.374],[153.1883,-27.3728],[153.2022,-27.3529],[153.1888,-27.3454],[153.1739,-27.3669],[153.155,-27.3631],[153.1512,-27.3565],[153.1427,-27.3514],[153.1282,-27.3532],[153.1127,-27.3465],[153.1105,-27.3441],[153.0893,-27.3302],[153.087,-27.3237],[153.0768,-27.3174],[153.0708,-27.3073],[153.0691,-27.2956],[153.0688,-27.2876],[153.0668,-27.2815],[153.0496,-27.2787],[153.0408,-27.2795],[153.0375,-27.2818],[153.0351,-27.2867],[153.0366,-27.2929],[153.0347,-27.2979],[153.0309,-27.2984],[153.0146,-27.2885],[153.0117,-27.297],[153.0072,-27.3012],[152.997,-27.3025],[152.9967,-27.3092],[153.0004,-27.3121],[153.0026,-27.3166],[153.0002,-27.3229],[152.9947,-27.3286],[152.9941,-27.3339],[152.989,-27.3361],[152.9813,-27.3424],[152.9805,-27.3485],[152.9826,-27.3532],[152.9874,-27.3547],[152.9878,-27.3595],[152.9817,-27.3586],[152.9807,-27.3641],[152.9831,-27.3681],[152.98,-27.3707],[152.9815,-27.3805],[152.9839,-27.3847],[152.9753,-27.392],[152.9781,-27.3946],[152.9769,-27.4007],[152.9659,-27.3968],[152.9592,-27.4001],[152.9589,-27.4028],[152.9526,-27.4059],[152.9446,-27.406],[152.9252,-27.3933],[152.917,-27.3942],[152.9151,-27.4057],[152.8993,-27.4036],[152.8972,-27.4173],[152.8769,-27.4143],[152.8745,-27.4114],[152.8648,-27.4178],[152.8612,-27.4224],[152.853,-27.4206],[152.8493,-27.4219],[152.8428,-27.4176],[152.8368,-27.4188],[152.8312,-27.4169],[152.8257,-27.4123],[152.8209,-27.4107],[152.8154,-27.4053],[152.8142,-27.4021],[152.8027,-27.3999],[152.7987,-27.4051],[152.7756,-27.4017],[152.7748,-27.3931],[152.7757,-27.3892],[152.7696,-27.3789],[152.7623,-27.3717],[152.7615,-27.3618],[152.7629,-27.3546],[152.7667,-27.3514],[152.772,-27.3499],[152.7719,-27.3432],[152.7676,-27.335],[152.7645,-27.3355],[152.7595,-27.3303],[152.7547,-27.3331],[152.7489,-27.3323],[152.7505,-27.3204],[152.7485,-27.3187],[152.7449,-27.319],[152.7392,-27.3233],[152.7249,-27.3222],[152.7196,-27.3234],[152.7173,-27.3306],[152.7102,-27.3325],[152.6957,-27.3428],[152.6908,-27.3436],[152.6842,-27.3488],[152.6797,-27.3723],[152.6864,-27.3732],[152.6905,-27.3701],[152.6923,-27.36],[152.6995,-27.361],[152.7003,-27.3561],[152.7069,-27.357],[152.7078,-27.3518],[152.7239,-27.354],[152.722,-27.3651],[152.7332,-27.3666],[152.7322,-27.3727],[152.7369,-27.3733],[152.733,-27.396],[152.7372,-27.3929],[152.7434,-27.3947],[152.7404,-27.4002],[152.7414,-27.4062],[152.7472,-27.4071],[152.7458,-27.4152],[152.7481,-27.4155],[152.7475,-27.4233],[152.7442,-27.4278],[152.7427,-27.4364],[152.746,-27.4368],[152.7472,-27.443],[152.7441,-27.4601],[152.7383,-27.4593],[152.7378,-27.4646],[152.7406,-27.4757],[152.7426,-27.4798],[152.7397,-27.4826],[152.738,-27.4946],[152.7302,-27.4956],[152.7397,-27.5053],[152.744,-27.5139],[152.7516,-27.5176],[152.7591,-27.5172],[152.7622,-27.5189],[152.7623,-27.524],[152.7557,-27.5234],[152.7498,-27.5249],[152.7455,-27.5341],[152.7403,-27.5589],[152.7403,-27.5642],[152.7432,-27.5671],[152.7491,-27.5653],[152.7538,-27.5683],[152.7674,-27.556],[152.7726,-27.5595],[152.7798,-27.5597],[152.7853,-27.5562],[152.7827,-27.5516],[152.7865,-27.5504],[152.7893,-27.5545],[152.7965,-27.5548],[152.8089,-27.5575],[152.8201,-27.5559],[152.8235,-27.5504],[152.8325,-27.5469],[152.8408,-27.5452],[152.8398,-27.5398],[152.8305,-27.5368],[152.8315,-27.5331],[152.8417,-27.5309],[152.8472,-27.5328],[152.8527,-27.5427],[152.8519,-27.5497],[152.8495,-27.5548],[152.849,-27.5646],[152.8534,-27.5744],[152.8557,-27.5825],[152.8564,-27.596],[152.8607,-27.598],[152.8635,-27.5956],[152.8699,-27.581],[152.8765,-27.5799],[152.8916,-27.5931],[152.8946,-27.5995],[152.9008,-27.6024],[152.9038,-27.6056],[152.9122,-27.6065],[152.9155,-27.605],[152.9218,-27.6062],[152.9284,-27.6112],[152.9343,-27.6141],[152.9407,-27.6234],[152.9409,-27.6287],[152.9479,-27.6321],[152.9564,-27.6346],[152.9684,-27.6361],[152.9732,-27.6391],[152.9769,-27.6448],[152.9898,-27.6516],[152.998,-27.6545],[153.012,-27.6571],[153.0163,-27.6569],[153.0372,-27.6602],[153.04,-27.654],[153.0588,-27.6568],[153.0677,-27.6511],[153.0781,-27.6519],[153.0954,-27.645],[153.0946,-27.6318],[153.0975,-27.6229],[153.0937,-27.6208],[153.0947,-27.6172],[153.1011,-27.6179],[153.106,-27.5931],[153.1219,-27.5953],[153.1231,-27.5874],[153.1564,-27.5918],[153.1598,-27.5958],[153.1757,-27.6066],[153.1761,-27.6017],[153.1716,-27.5994],[153.1742,-27.5955],[153.1719,-27.5911],[153.1776,-27.5867],[153.1791,-27.5807],[153.1776,-27.5785],[153.1826,-27.5736],[153.1798,-27.5702],[153.1819,-27.5623],[153.1913,-27.5609],[153.1887,-27.5517],[153.1829,-27.5502],[153.182,-27.5411],[153.1743,-27.5422],[153.1724,-27.535],[153.1801,-27.5299],[153.1858,-27.5275],[153.184,-27.5229],[153.1883,-27.5182],[153.1935,-27.518],[153.2009,-27.5145],[153.1975,-27.5101],[153.1911,-27.5086],[153.1858,-27.4982],[153.1918,-27.4923],[153.1875,-27.4909],[153.1881,-27.484],[153.1965,-27.4816],[153.1971,-27.4741],[153.1998,-27.4687],[153.2034,-27.468]]]]},"id":"1000"},{"type":"Feature","properties":{"LGA Code":"5010","Abbreviated Name":"Moreton Bay","LGA Name":"Moreton Bay City","Area Sq Km":2071.09,"LDMG Name":"Moreton Bay","Source Area Sq Km":2071.09352,"Police Region Name":"Brisbane Region","Police Region Code":"BR","Police Region Short Name":"Brisbane","Region Slug":"brisbane","Layer Id":"qld_brisbane_ldmg_boundaries_gda2020_simp200m_schematic","Layer Group":"schematic","Layer Kind":"ldmg","Source":"Local government area boundaries - Queensland, Department of Natural Resources and Mines, Manufacturing and Regional and Rural Development; ASGS Edition 3 (2021) Local Government Areas, Australian Bureau of Statistics","Source URL":"https://www.data.qld.gov.au/dataset/local-government-area-boundaries-queensland","Licence":"CC BY 4.0","Licence URL":"https://creativecommons.org/licenses/by/4.0/","Dataset Date":"extract of 14/09/2026","Simplification Tolerance M":200,"Coordinate Precision Decimals":4,"CRS":"GDA2020 (EPSG:7844)","Fidelity":"schematic, non-cartographic display variant: Cook Shire's coastal waters and islets reassigned so the Power BI Azure Maps visual renders without faults; contains intentional boundary inaccuracies; not for planning, dispatch, analysis or jurisdiction","Modified":"Simplified and repackaged from the source dataset; see Source URL","Schematic Change":"unchanged from the standard layer"},"geometry":{"type":"Polygon","coordinates":[[[153.0496,-27.2787],[153.0668,-27.2815],[153.0848,-27.2583],[153.0875,-27.2593],[153.0927,-27.2563],[153.1023,-27.2603],[153.108,-27.2615],[153.1113,-27.2456],[153.1152,-27.235],[153.1178,-27.2333],[153.1151,-27.227],[153.1164,-27.2166],[153.1191,-27.2123],[153.1163,-27.2086],[153.1167,-27.1983],[153.1126,-27.1905],[153.1032,-27.1998],[153.0971,-27.2031],[153.0875,-27.206],[153.0822,-27.2035],[153.0746,-27.2023],[153.0574,-27.1975],[153.0499,-27.1943],[153.0403,-27.1972],[153.0371,-27.1963],[153.032,-27.1893],[153.0295,-27.1802],[153.0305,-27.1738],[153.0354,-27.1672],[153.0354,-27.1626],[153.0405,-27.1587],[153.0415,-27.1538],[153.0485,-27.1442],[153.0548,-27.1294],[153.067,-27.1101],[153.0986,-27.093],[153.1062,-27.0884],[153.1203,-27.085],[153.13,-27.0869],[153.133,-27.0859],[153.1668,-27.0999],[153.1764,-27.1002],[153.1816,-27.0982],[153.1916,-27.0982],[153.1983,-27.0937],[153.2008,-27.0884],[153.2066,-27.0834],[153.2063,-27.0728],[153.2027,-27.0632],[153.1987,-27.0561],[153.1908,-27.0454],[153.1798,-27.0269],[153.1675,-27.0024],[153.1576,-26.9742],[153.147,-26.9373],[153.087,-26.9519],[153.0868,-26.9547],[153.0793,-26.9607],[153.0799,-26.9697],[153.0775,-26.9763],[153.0663,-26.9837],[153.0593,-26.9799],[153.0551,-26.9804],[153.0533,-26.9758],[153.0496,-26.975],[153.0428,-26.9694],[153.0185,-26.9663],[153.0169,-26.9791],[153.0116,-26.979],[153.003,-26.9848],[152.9884,-26.9831],[152.9851,-26.9847],[152.9781,-26.9802],[152.975,-26.9744],[152.9666,-26.9788],[152.9613,-26.9725],[152.9534,-26.9684],[152.9516,-26.966],[152.9326,-26.9633],[152.9235,-26.9601],[152.9197,-26.9555],[152.9133,-26.954],[152.9037,-26.9539],[152.8984,-26.958],[152.8912,-26.9607],[152.8855,-26.9559],[152.874,-26.9583],[152.8581,-26.9562],[152.8614,-26.9363],[152.8683,-26.9336],[152.8725,-26.9302],[152.8755,-26.9135],[152.8595,-26.9113],[152.8612,-26.9027],[152.8553,-26.9019],[152.8543,-26.8946],[152.8555,-26.8874],[152.8668,-26.8889],[152.8695,-26.8729],[152.8575,-26.8712],[152.8583,-26.8661],[152.8517,-26.8652],[152.8532,-26.8562],[152.848,-26.8581],[152.8386,-26.855],[152.8324,-26.8561],[152.829,-26.8502],[152.8245,-26.8494],[152.8181,-26.8402],[152.8184,-26.8375],[152.8114,-26.8284],[152.8049,-26.8242],[152.801,-26.8263],[152.7921,-26.8271],[152.7867,-26.8223],[152.7886,-26.813],[152.7773,-26.8094],[152.7795,-26.7971],[152.771,-26.7959],[152.7669,-26.7933],[152.7611,-26.7924],[152.7592,-26.803],[152.7531,-26.7973],[152.7495,-26.8163],[152.7392,-26.808],[152.733,-26.8149],[152.7291,-26.8166],[152.7266,-26.8115],[152.721,-26.8085],[152.7091,-26.8111],[152.6965,-26.8091],[152.6988,-26.803],[152.6792,-26.7999],[152.6788,-26.8088],[152.6813,-26.8099],[152.679,-26.8164],[152.672,-26.8189],[152.6785,-26.8303],[152.6727,-26.8344],[152.6674,-26.8361],[152.6668,-26.8403],[152.6708,-26.845],[152.67,-26.8548],[152.6776,-26.8636],[152.6759,-26.8661],[152.6802,-26.8694],[152.6866,-26.8776],[152.6873,-26.8864],[152.6893,-26.8889],[152.6886,-26.8969],[152.6789,-26.8956],[152.6786,-26.8978],[152.6675,-26.8962],[152.6674,-26.9041],[152.6622,-26.9101],[152.6874,-26.9136],[152.6823,-26.9151],[152.6783,-26.9184],[152.6763,-26.9235],[152.6733,-26.9239],[152.6697,-26.9293],[152.67,-26.9371],[152.6654,-26.9428],[152.6631,-26.9482],[152.6589,-26.9498],[152.6533,-26.949],[152.6518,-26.9538],[152.6677,-26.9591],[152.6659,-26.969],[152.6715,-26.9652],[152.6741,-26.9662],[152.6807,-26.9642],[152.6845,-26.9686],[152.6802,-26.972],[152.6799,-26.9784],[152.6868,-26.9796],[152.6865,-26.9847],[152.6833,-26.9921],[152.6871,-26.9969],[152.6911,-27.0045],[152.6971,-27.0095],[152.6973,-27.016],[152.7008,-27.0183],[152.7002,-27.0227],[152.7025,-27.0308],[152.6975,-27.0335],[152.6981,-27.0395],[152.6923,-27.0467],[152.6892,-27.0483],[152.6907,-27.0527],[152.6954,-27.0562],[152.695,-27.059],[152.6777,-27.0569],[152.6835,-27.0656],[152.6856,-27.072],[152.6869,-27.0833],[152.6761,-27.089],[152.6793,-27.0948],[152.6833,-27.0951],[152.6898,-27.0928],[152.6958,-27.0949],[152.708,-27.0963],[152.7181,-27.1022],[152.7262,-27.1032],[152.7345,-27.1023],[152.7335,-27.1074],[152.7303,-27.1087],[152.7301,-27.1184],[152.7281,-27.1219],[152.7305,-27.1259],[152.7348,-27.1417],[152.7393,-27.1509],[152.7291,-27.1638],[152.7334,-27.1706],[152.729,-27.1732],[152.723,-27.1805],[152.7186,-27.1827],[152.7163,-27.1866],[152.7123,-27.1887],[152.7035,-27.1992],[152.7017,-27.2043],[152.7042,-27.2088],[152.7005,-27.2198],[152.7022,-27.2263],[152.7002,-27.2302],[152.6909,-27.2359],[152.6927,-27.2404],[152.6874,-27.249],[152.6818,-27.254],[152.6816,-27.2638],[152.6836,-27.2716],[152.6869,-27.2749],[152.6905,-27.2744],[152.7046,-27.277],[152.7056,-27.2861],[152.7038,-27.2904],[152.7072,-27.2922],[152.7131,-27.2896],[152.7176,-27.2927],[152.7351,-27.297],[152.7393,-27.2937],[152.7456,-27.2934],[152.7522,-27.2954],[152.7568,-27.3007],[152.756,-27.3098],[152.7491,-27.3132],[152.7485,-27.3187],[152.7505,-27.3204],[152.7489,-27.3323],[152.7547,-27.3331],[152.7595,-27.3303],[152.7645,-27.3355],[152.7676,-27.335],[152.7719,-27.3432],[152.772,-27.3499],[152.7667,-27.3514],[152.7629,-27.3546],[152.7615,-27.3618],[152.7623,-27.3717],[152.7696,-27.3789],[152.7757,-27.3892],[152.7748,-27.3931],[152.7756,-27.4017],[152.7987,-27.4051],[152.8027,-27.3999],[152.8142,-27.4021],[152.8154,-27.4053],[152.8209,-27.4107],[152.8257,-27.4123],[152.8312,-27.4169],[152.8368,-27.4188],[152.8428,-27.4176],[152.8493,-27.4219],[152.853,-27.4206],[152.8612,-27.4224],[152.8648,-27.4178],[152.8745,-27.4114],[152.8769,-27.4143],[152.8972,-27.4173],[152.8993,-27.4036],[152.9151,-27.4057],[152.917,-27.3942],[152.9252,-27.3933],[152.9446,-27.406],[152.9526,-27.4059],[152.9589,-27.4028],[152.9592,-27.4001],[152.9659,-27.3968],[152.9769,-27.4007],[152.9781,-27.3946],[152.9753,-27.392],[152.9839,-27.3847],[152.9815,-27.3805],[152.98,-27.3707],[152.9831,-27.3681],[152.9807,-27.3641],[152.9817,-27.3586],[152.9878,-27.3595],[152.9874,-27.3547],[152.9826,-27.3532],[152.9805,-27.3485],[152.9813,-27.3424],[152.989,-27.3361],[152.9941,-27.3339],[152.9947,-27.3286],[153.0002,-27.3229],[153.0026,-27.3166],[153.0004,-27.3121],[152.9967,-27.3092],[152.997,-27.3025],[153.0072,-27.3012],[153.0117,-27.297],[153.0146,-27.2885],[153.0309,-27.2984],[153.0347,-27.2979],[153.0366,-27.2929],[153.0351,-27.2867],[153.0375,-27.2818],[153.0408,-27.2795],[153.0496,-27.2787]],[[152.85,-26.8872],[152.8514,-26.8857],[152.8536,-26.8867],[152.8513,-26.8893],[152.8516,-26.8912],[152.8531,-26.8926],[152.8462,-26.8918],[152.847,-26.8875],[152.85,-26.8872]]]},"id":"5010"},{"type":"Feature","properties":{"LGA Code":"6250","Abbreviated Name":"Redland","LGA Name":"Redland City","Area Sq Km":907.42,"LDMG Name":"Redland","Source Area Sq Km":907.3914,"Police Region Name":"Brisbane Region","Police Region Code":"BR","Police Region Short Name":"Brisbane","Region Slug":"brisbane","Layer Id":"qld_brisbane_ldmg_boundaries_gda2020_simp200m_schematic","Layer Group":"schematic","Layer Kind":"ldmg","Source":"Local government area boundaries - Queensland, Department of Natural Resources and Mines, Manufacturing and Regional and Rural Development; ASGS Edition 3 (2021) Local Government Areas, Australian Bureau of Statistics","Source URL":"https://www.data.qld.gov.au/dataset/local-government-area-boundaries-queensland","Licence":"CC BY 4.0","Licence URL":"https://creativecommons.org/licenses/by/4.0/","Dataset Date":"extract of 14/09/2026","Simplification Tolerance M":200,"Coordinate Precision Decimals":4,"CRS":"GDA2020 (EPSG:7844)","Fidelity":"schematic, non-cartographic display variant: Cook Shire's coastal waters and islets reassigned so the Power BI Azure Maps visual renders without faults; contains intentional boundary inaccuracies; not for planning, dispatch, analysis or jurisdiction","Modified":"Simplified and repackaged from the source dataset; see Source URL","Schematic Change":"unchanged from the standard layer"},"geometry":{"type":"Polygon","coordinates":[[[153.1757,-27.6066],[153.1838,-27.6126],[153.1817,-27.6243],[153.1758,-27.6235],[153.1738,-27.6342],[153.1823,-27.6341],[153.1832,-27.6383],[153.1876,-27.6407],[153.1939,-27.6395],[153.207,-27.6412],[153.2087,-27.6451],[153.2388,-27.6492],[153.2389,-27.6473],[153.2549,-27.6496],[153.2545,-27.6528],[153.2625,-27.654],[153.2629,-27.6561],[153.2799,-27.6584],[153.2827,-27.6742],[153.281,-27.6832],[153.2823,-27.687],[153.2886,-27.6869],[153.2866,-27.6933],[153.2925,-27.692],[153.293,-27.6978],[153.301,-27.7087],[153.3089,-27.7105],[153.3171,-27.7077],[153.3207,-27.7051],[153.3278,-27.6958],[153.3387,-27.6969],[153.3545,-27.6909],[153.3592,-27.6912],[153.362,-27.7005],[153.3618,-27.7078],[153.3668,-27.7125],[153.3704,-27.7089],[153.3744,-27.7082],[153.3805,-27.7112],[153.3876,-27.7074],[153.392,-27.708],[153.3931,-27.7151],[153.4014,-27.7216],[153.4046,-27.7285],[153.4051,-27.7338],[153.4083,-27.7408],[153.4156,-27.7438],[153.4297,-27.7412],[153.4393,-27.7357],[153.4467,-27.7352],[153.4477,-27.7292],[153.4513,-27.7272],[153.4539,-27.7171],[153.4536,-27.7071],[153.4545,-27.6971],[153.459,-27.669],[153.4688,-27.6227],[153.4729,-27.6062],[153.4814,-27.5791],[153.4871,-27.5626],[153.5005,-27.5266],[153.5113,-27.499],[153.5235,-27.4692],[153.5287,-27.458],[153.5413,-27.4377],[153.5464,-27.434],[153.5429,-27.4308],[153.5436,-27.425],[153.5347,-27.4235],[153.5329,-27.4259],[153.5248,-27.4262],[153.5145,-27.4208],[153.5087,-27.422],[153.4981,-27.421],[153.4841,-27.4159],[153.4767,-27.4115],[153.4693,-27.4037],[153.464,-27.3961],[153.4538,-27.3881],[153.4504,-27.3899],[153.4442,-27.3893],[153.4192,-27.3961],[153.3476,-27.4147],[153.2177,-27.4484],[153.2166,-27.4682],[153.2034,-27.468],[153.1998,-27.4687],[153.1971,-27.4741],[153.1965,-27.4816],[153.1881,-27.484],[153.1875,-27.4909],[153.1918,-27.4923],[153.1858,-27.4982],[153.1911,-27.5086],[153.1975,-27.5101],[153.2009,-27.5145],[153.1935,-27.518],[153.1883,-27.5182],[153.184,-27.5229],[153.1858,-27.5275],[153.1801,-27.5299],[153.1724,-27.535],[153.1743,-27.5422],[153.182,-27.5411],[153.1829,-27.5502],[153.1887,-27.5517],[153.1913,-27.5609],[153.1819,-27.5623],[153.1798,-27.5702],[153.1826,-27.5736],[153.1776,-27.5785],[153.1791,-27.5807],[153.1776,-27.5867],[153.1719,-27.5911],[153.1742,-27.5955],[153.1716,-27.5994],[153.1761,-27.6017],[153.1757,-27.6066]]]},"id":"6250"}]}