{"type":"FeatureCollection","name":"qld_south_east_ddmg_boundaries_gda2020_simp20","crs":{"type":"name","properties":{"name":"urn:ogc:def:crs:EPSG::7844"}},"features":[{"type":"Feature","geometry":{"type":"Polygon","coordinates":[[[153.28685,-27.69295],[153.28647,-27.69311],[153.28513,-27.6937],[153.28299,-27.695],[153.28007,-27.69517],[153.2736,-27.69705],[153.26689,-27.6924],[153.25851,-27.69237],[153.25568,-27.69039],[153.25334,-27.6917],[153.25356,-27.69626],[153.25351,-27.69628],[153.25318,-27.69643],[153.25154,-27.69719],[153.25073,-27.69721],[153.24324,-27.69739],[153.23591,-27.69466],[153.23408,-27.69431],[153.23359,-27.69857],[153.23627,-27.70348],[153.23193,-27.70623],[153.23353,-27.71101],[153.22963,-27.71215],[153.22762,-27.71531],[153.21509,-27.71424],[153.21273,-27.7153],[153.21545,-27.71818],[153.22075,-27.71842],[153.23059,-27.72159],[153.23259,-27.72385],[153.22872,-27.72732],[153.22753,-27.72655],[153.22757,-27.72372],[153.22646,-27.72335],[153.2229,-27.72428],[153.21947,-27.7271],[153.21643,-27.72706],[153.21982,-27.73476],[153.21833,-27.73692],[153.21007,-27.73963],[153.20695,-27.73899],[153.20124,-27.74002],[153.20047,-27.7432],[153.19746,-27.74698],[153.19726,-27.75401],[153.19885,-27.75902],[153.19797,-27.76411],[153.19339,-27.76777],[153.19334,-27.77292],[153.18727,-27.77403],[153.18638,-27.77536],[153.18784,-27.77708],[153.19122,-27.77723],[153.19298,-27.78004],[153.18444,-27.78857],[153.1821,-27.79484],[153.16901,-27.80058],[153.16944,-27.80364],[153.17617,-27.80838],[153.17803,-27.81128],[153.17674,-27.81239],[153.17759,-27.81397],[153.18054,-27.81522],[153.18328,-27.81934],[153.1729,-27.83442],[153.17595,-27.83718],[153.17569,-27.83943],[153.18064,-27.84118],[153.18149,-27.84399],[153.18063,-27.84834],[153.18202,-27.84855],[153.18107,-27.85393],[153.18894,-27.8551],[153.18542,-27.87376],[153.18636,-27.8752],[153.18627,-27.88124],[153.18334,-27.89136],[153.18068,-27.89508],[153.21209,-27.90012],[153.21169,-27.90218],[153.21543,-27.90275],[153.21257,-27.9179],[153.21358,-27.91806],[153.21332,-27.91939],[153.21571,-27.92198],[153.21478,-27.92602],[153.21374,-27.92587],[153.21058,-27.94149],[153.20823,-27.94114],[153.20659,-27.94925],[153.21913,-27.95124],[153.22002,-27.9476],[153.22215,-27.95065],[153.22235,-27.95294],[153.22394,-27.95392],[153.2242,-27.95408],[153.2252,-27.95612],[153.22402,-27.95704],[153.22495,-27.95765],[153.2216,-27.95806],[153.2232,-27.9583],[153.22274,-27.9623],[153.22404,-27.96286],[153.22225,-27.96574],[153.22311,-27.96711],[153.22177,-27.96813],[153.22015,-27.97625],[153.22593,-27.97718],[153.22512,-27.98165],[153.20352,-27.97837],[153.20095,-27.98074],[153.20085,-27.98135],[153.20132,-27.9827],[153.20793,-27.98578],[153.21123,-27.98984],[153.21066,-27.99297],[153.22053,-27.99438],[153.22089,-27.9997],[153.21764,-28.00821],[153.23888,-28.01117],[153.23628,-28.02596],[153.23257,-28.02567],[153.23009,-28.03965],[153.22868,-28.03961],[153.23076,-28.04435],[153.22875,-28.05512],[153.22632,-28.05477],[153.22512,-28.06121],[153.21598,-28.06003],[153.21943,-28.06183],[153.22015,-28.06489],[153.21995,-28.06625],[153.21619,-28.06568],[153.21335,-28.08035],[153.22948,-28.0828],[153.22942,-28.08486],[153.23243,-28.08533],[153.23154,-28.08988],[153.22961,-28.08958],[153.22753,-28.09726],[153.22989,-28.09998],[153.22278,-28.10295],[153.22131,-28.11123],[153.21576,-28.10834],[153.21407,-28.11743],[153.20604,-28.1163],[153.20578,-28.11785],[153.20246,-28.11712],[153.20085,-28.11919],[153.1995,-28.12986],[153.20039,-28.13],[153.19655,-28.15079],[153.19406,-28.15802],[153.19484,-28.15804],[153.19499,-28.1604],[153.19856,-28.16332],[153.19554,-28.16692],[153.19487,-28.17026],[153.19245,-28.17356],[153.19332,-28.1761],[153.19194,-28.17862],[153.19323,-28.17976],[153.18823,-28.17915],[153.18679,-28.18655],[153.18413,-28.19246],[153.19345,-28.1916],[153.19243,-28.19453],[153.19429,-28.20066],[153.19264,-28.20115],[153.18883,-28.19971],[153.18948,-28.20051],[153.18857,-28.2033],[153.19062,-28.20637],[153.19069,-28.20975],[153.19486,-28.2143],[153.19511,-28.22028],[153.19861,-28.22671],[153.19763,-28.23132],[153.19997,-28.23951],[153.20711,-28.2466],[153.20738,-28.25289],[153.21139,-28.25748],[153.21854,-28.26338],[153.23284,-28.26507],[153.23451,-28.26286],[153.23624,-28.25558],[153.24392,-28.2473],[153.24652,-28.24668],[153.24973,-28.24749],[153.2504,-28.24652],[153.264,-28.24348],[153.26905,-28.23861],[153.27424,-28.23801],[153.2772,-28.2342],[153.2796,-28.23349],[153.2866,-28.23543],[153.29151,-28.23376],[153.29619,-28.23381],[153.30037,-28.23803],[153.30476,-28.2397],[153.31204,-28.23732],[153.31456,-28.23718],[153.31685,-28.23853],[153.32186,-28.2378],[153.32572,-28.23594],[153.32977,-28.23687],[153.33103,-28.23888],[153.33189,-28.24613],[153.3391,-28.25055],[153.34585,-28.24845],[153.35728,-28.24927],[153.36472,-28.24735],[153.37218,-28.24274],[153.37892,-28.24031],[153.3825,-28.23745],[153.38753,-28.23638],[153.38972,-28.23483],[153.39051,-28.23273],[153.38944,-28.23098],[153.39091,-28.22789],[153.39755,-28.21895],[153.40571,-28.21102],[153.41491,-28.20742],[153.41824,-28.20247],[153.41781,-28.20056],[153.42433,-28.19785],[153.43576,-28.18717],[153.44584,-28.18425],[153.45262,-28.18104],[153.45705,-28.18052],[153.45915,-28.17816],[153.45852,-28.17501],[153.4667,-28.16445],[153.46845,-28.16243],[153.47248,-28.16175],[153.47497,-28.15802],[153.47695,-28.15689],[153.48258,-28.15832],[153.48585,-28.15704],[153.53116,-28.17524],[153.53465,-28.17764],[153.54145,-28.169],[153.55194,-28.16449],[153.55016,-28.16362],[153.55006,-28.16249],[153.5478,-28.16442],[153.54463,-28.16464],[153.54289,-28.1672],[153.53593,-28.16628],[153.53697,-28.16463],[153.53228,-28.16711],[153.52321,-28.16641],[153.51099,-28.15872],[153.50174,-28.1499],[153.4919,-28.13673],[153.49038,-28.1332],[153.49093,-28.13233],[153.48914,-28.13185],[153.48628,-28.12721],[153.48698,-28.12461],[153.48509,-28.12597],[153.48544,-28.12741],[153.48326,-28.12779],[153.47763,-28.1257],[153.46797,-28.11084],[153.4669,-28.1071],[153.4609,-28.09637],[153.46177,-28.09447],[153.46031,-28.09575],[153.46003,-28.09107],[153.45754,-28.08945],[153.45385,-28.08928],[153.45139,-28.08632],[153.4462,-28.07278],[153.44703,-28.07189],[153.44506,-28.07005],[153.43987,-28.05021],[153.43239,-28.01238],[153.43002,-27.98981],[153.42918,-27.96704],[153.42926,-27.96311],[153.43009,-27.96314],[153.43033,-27.93996],[153.43039,-27.93901],[153.43291,-27.93901],[153.43291,-27.93811],[153.42899,-27.93811],[153.42903,-27.9365],[153.43369,-27.93527],[153.42942,-27.93609],[153.43,-27.93321],[153.42878,-27.92522],[153.42524,-27.91029],[153.4248,-27.89734],[153.42634,-27.87394],[153.43628,-27.80412],[153.44266,-27.7679],[153.44672,-27.75249],[153.44934,-27.74747],[153.44906,-27.7438],[153.44559,-27.73891],[153.44674,-27.7352],[153.43929,-27.73575],[153.42525,-27.74266],[153.41447,-27.74353],[153.41334,-27.74362],[153.41244,-27.74313],[153.40826,-27.74085],[153.4059,-27.73567],[153.40507,-27.73385],[153.4038,-27.7266],[153.40293,-27.72479],[153.40071,-27.72106],[153.39531,-27.71656],[153.39311,-27.71507],[153.39303,-27.71466],[153.39172,-27.70772],[153.38764,-27.70745],[153.38481,-27.7103],[153.38168,-27.7113],[153.37533,-27.70851],[153.37152,-27.70827],[153.36862,-27.71224],[153.36642,-27.71231],[153.36196,-27.7084],[153.36191,-27.69995],[153.35908,-27.69157],[153.3584,-27.69085],[153.35447,-27.69087],[153.34007,-27.69683],[153.32776,-27.69583],[153.32067,-27.70512],[153.31714,-27.70769],[153.30886,-27.71055],[153.30462,-27.71045],[153.30103,-27.70874],[153.29402,-27.70011],[153.29252,-27.69203],[153.28946,-27.69243],[153.28667,-27.69435],[153.2868,-27.69337],[153.28685,-27.69295]]]},"properties":{"District Name":"Gold Coast","DDMG Name":"Gold Coast","Police Region Name":"South Eastern Region","Police Region Code":"SER","Police Region Short Name":"South East"}},{"type":"Feature","geometry":{"type":"Polygon","coordinates":[[[153.28685,-27.69295],[153.2873,-27.69275],[153.28749,-27.69226],[153.28759,-27.6922],[153.2876,-27.69198],[153.28769,-27.69021],[153.28775,-27.68899],[153.28639,-27.68782],[153.28993,-27.68864],[153.29033,-27.68776],[153.29025,-27.68774],[153.28572,-27.68662],[153.28224,-27.68711],[153.283,-27.68348],[153.28098,-27.68318],[153.28265,-27.67419],[153.28082,-27.67392],[153.28047,-27.67256],[153.28175,-27.6715],[153.28105,-27.66917],[153.28235,-27.66708],[153.28228,-27.66694],[153.28024,-27.66308],[153.28068,-27.658],[153.26276,-27.65605],[153.26245,-27.65398],[153.25452,-27.65281],[153.25492,-27.64958],[153.23888,-27.64736],[153.23878,-27.64922],[153.20851,-27.64517],[153.20611,-27.64394],[153.207,-27.64122],[153.19392,-27.63947],[153.19356,-27.64158],[153.18755,-27.64075],[153.18761,-27.63978],[153.18321,-27.63829],[153.18361,-27.63471],[153.17384,-27.63425],[153.17575,-27.62347],[153.18173,-27.62431],[153.18376,-27.61259],[153.18083,-27.60912],[153.17328,-27.60604],[153.17144,-27.60328],[153.15984,-27.59577],[153.15636,-27.59184],[153.14736,-27.59056],[153.1423,-27.59131],[153.14024,-27.58962],[153.12399,-27.58722],[153.12307,-27.58771],[153.12187,-27.59535],[153.10592,-27.5932],[153.10584,-27.59319],[153.10113,-27.61793],[153.0947,-27.61717],[153.09372,-27.62081],[153.09582,-27.62111],[153.09748,-27.62289],[153.09673,-27.62712],[153.09146,-27.62631],[153.09099,-27.62893],[153.09461,-27.63178],[153.09488,-27.63003],[153.09616,-27.63034],[153.09457,-27.63933],[153.09645,-27.6396],[153.09684,-27.64203],[153.09443,-27.64287],[153.0954,-27.64505],[153.07776,-27.65196],[153.07232,-27.65097],[153.06945,-27.65293],[153.06766,-27.65106],[153.05875,-27.6568],[153.04003,-27.65402],[153.03722,-27.66022],[152.99865,-27.65459],[152.99553,-27.65354],[152.97883,-27.64638],[152.97322,-27.63916],[152.96963,-27.63666],[152.94989,-27.63298],[152.94427,-27.62914],[152.94413,-27.62912],[152.94391,-27.62903],[152.94088,-27.62864],[152.93976,-27.62847],[152.94088,-27.62867],[152.93781,-27.64213],[152.9374,-27.64261],[152.92455,-27.65782],[152.9275,-27.66289],[152.93139,-27.66639],[152.92331,-27.70817],[152.89065,-27.70359],[152.88279,-27.74736],[152.87465,-27.74629],[152.87332,-27.75345],[152.85794,-27.75112],[152.85679,-27.75727],[152.84345,-27.7553],[152.84318,-27.75679],[152.83599,-27.75573],[152.83394,-27.75267],[152.83458,-27.74758],[152.82926,-27.74679],[152.82824,-27.75273],[152.82302,-27.75204],[152.82226,-27.75639],[152.81139,-27.75491],[152.81105,-27.75904],[152.80803,-27.75866],[152.80411,-27.77634],[152.80483,-27.77644],[152.8033,-27.78559],[152.81143,-27.78681],[152.8118,-27.78429],[152.8178,-27.78556],[152.8219,-27.78497],[152.82176,-27.78911],[152.82568,-27.79812],[152.82602,-27.80504],[152.82519,-27.8066],[152.82646,-27.80751],[152.82502,-27.80932],[152.8274,-27.80965],[152.82641,-27.81505],[152.81636,-27.81363],[152.81406,-27.82621],[152.80405,-27.82486],[152.80559,-27.81698],[152.79576,-27.81543],[152.79997,-27.81488],[152.80247,-27.79837],[152.78563,-27.79622],[152.78655,-27.7909],[152.78485,-27.78883],[152.76072,-27.78531],[152.7627,-27.77294],[152.75801,-27.76742],[152.70756,-27.75831],[152.70427,-27.74961],[152.68639,-27.74686],[152.68625,-27.75061],[152.684,-27.75137],[152.68441,-27.75249],[152.66753,-27.74998],[152.66863,-27.74333],[152.65537,-27.74137],[152.65597,-27.73831],[152.63913,-27.73656],[152.63822,-27.7416],[152.60764,-27.7371],[152.60865,-27.73165],[152.60461,-27.73135],[152.60576,-27.72499],[152.59862,-27.72393],[152.5982,-27.72626],[152.57984,-27.7236],[152.58065,-27.71914],[152.5619,-27.71646],[152.56178,-27.72103],[152.54213,-27.71828],[152.54213,-27.71938],[152.52946,-27.71763],[152.52965,-27.71694],[152.52486,-27.72122],[152.52296,-27.727],[152.52371,-27.73633],[152.51933,-27.76117],[152.499,-27.75827],[152.4945,-27.78343],[152.48189,-27.78166],[152.48122,-27.78513],[152.46741,-27.78313],[152.46716,-27.78924],[152.46385,-27.79378],[152.46233,-27.80257],[152.45991,-27.80318],[152.45118,-27.802],[152.4434,-27.84477],[152.43587,-27.84372],[152.43625,-27.84163],[152.42847,-27.84048],[152.42546,-27.85718],[152.42089,-27.85656],[152.41928,-27.86547],[152.40235,-27.8637],[152.40175,-27.86655],[152.40529,-27.87123],[152.40592,-27.87597],[152.40665,-27.87775],[152.41157,-27.88335],[152.41022,-27.88705],[152.41132,-27.89156],[152.41011,-27.89588],[152.41167,-27.89804],[152.41116,-27.90128],[152.40485,-27.90432],[152.40406,-27.90575],[152.40477,-27.91425],[152.40562,-27.9191],[152.4091,-27.91953],[152.40852,-27.92321],[152.4106,-27.92676],[152.4111,-27.9303],[152.41245,-27.93076],[152.41049,-27.93424],[152.41273,-27.93541],[152.41318,-27.93893],[152.41486,-27.94045],[152.41587,-27.94463],[152.41129,-27.94784],[152.40824,-27.95219],[152.40505,-27.95368],[152.40216,-27.95914],[152.40286,-27.96206],[152.40132,-27.96774],[152.40174,-27.97182],[152.40145,-27.97205],[152.40068,-27.97267],[152.39469,-27.97752],[152.38906,-27.97412],[152.3864,-27.97511],[152.38281,-27.9788],[152.38373,-27.98352],[152.378,-27.99056],[152.37683,-28.00777],[152.37491,-28.01288],[152.38147,-28.02103],[152.38298,-28.02473],[152.39031,-28.03086],[152.38821,-28.03604],[152.39336,-28.04173],[152.39433,-28.04405],[152.39376,-28.04659],[152.39503,-28.04899],[152.39003,-28.05945],[152.39761,-28.06172],[152.40095,-28.06463],[152.41064,-28.06876],[152.41631,-28.06975],[152.4164,-28.07373],[152.41472,-28.07867],[152.41647,-28.08129],[152.41845,-28.08849],[152.41712,-28.09068],[152.41084,-28.09358],[152.40834,-28.0995],[152.41172,-28.10572],[152.41172,-28.11356],[152.41393,-28.11632],[152.41955,-28.11908],[152.42153,-28.12445],[152.42614,-28.1291],[152.43404,-28.13101],[152.43205,-28.14263],[152.43376,-28.1438],[152.43489,-28.14751],[152.43441,-28.15085],[152.43554,-28.15631],[152.44009,-28.16136],[152.44655,-28.16389],[152.44669,-28.16643],[152.44208,-28.17706],[152.44212,-28.17828],[152.44311,-28.17988],[152.4473,-28.18664],[152.44762,-28.18933],[152.45055,-28.19044],[152.45557,-28.19538],[152.45821,-28.19439],[152.46303,-28.19528],[152.46979,-28.19421],[152.47086,-28.19496],[152.47074,-28.20031],[152.47238,-28.20205],[152.47316,-28.2053],[152.47053,-28.20763],[152.46982,-28.21068],[152.46738,-28.21259],[152.4656,-28.21675],[152.46021,-28.21837],[152.45824,-28.221],[152.45859,-28.2266],[152.46992,-28.22887],[152.46942,-28.23196],[152.47428,-28.23397],[152.47543,-28.23356],[152.4763,-28.22823],[152.48235,-28.22951],[152.48453,-28.23315],[152.48798,-28.23469],[152.48727,-28.23888],[152.49036,-28.23917],[152.49292,-28.24256],[152.48756,-28.24748],[152.48768,-28.25345],[152.49719,-28.25335],[152.50753,-28.249],[152.50931,-28.24918],[152.5131,-28.25145],[152.51581,-28.2518],[152.51673,-28.25473],[152.51606,-28.25682],[152.51868,-28.25695],[152.5217,-28.26073],[152.52894,-28.26172],[152.53195,-28.26325],[152.53397,-28.26269],[152.53433,-28.26473],[152.53649,-28.26589],[152.5329,-28.27231],[152.5328,-28.27958],[152.52888,-28.28664],[152.5293,-28.29794],[152.52559,-28.30179],[152.52592,-28.30598],[152.53355,-28.31073],[152.53888,-28.31135],[152.54325,-28.31592],[152.54405,-28.31894],[152.54707,-28.32052],[152.54906,-28.32127],[152.55495,-28.31897],[152.55391,-28.32445],[152.55468,-28.32554],[152.5568,-28.32402],[152.56404,-28.32353],[152.5723,-28.32675],[152.57462,-28.33409],[152.57951,-28.3392],[152.58292,-28.3344],[152.58294,-28.33189],[152.58523,-28.32841],[152.58918,-28.326],[152.59387,-28.31914],[152.59652,-28.31808],[152.59759,-28.3145],[152.59678,-28.31355],[152.59908,-28.30958],[152.60182,-28.30731],[152.59733,-28.29129],[152.59962,-28.28368],[152.60328,-28.27924],[152.61066,-28.27445],[152.61424,-28.26948],[152.6161,-28.27184],[152.61571,-28.27464],[152.61722,-28.27702],[152.61753,-28.28257],[152.62092,-28.28402],[152.62351,-28.28889],[152.62214,-28.29318],[152.62394,-28.29574],[152.62412,-28.2983],[152.62695,-28.30011],[152.62843,-28.30356],[152.63536,-28.30718],[152.63975,-28.31219],[152.64431,-28.31302],[152.6468,-28.31207],[152.64848,-28.31338],[152.65912,-28.30988],[152.66752,-28.3117],[152.66819,-28.31381],[152.67182,-28.31533],[152.67355,-28.31797],[152.67396,-28.32629],[152.67949,-28.33058],[152.68637,-28.32915],[152.6884,-28.33484],[152.69241,-28.3368],[152.69858,-28.33567],[152.70132,-28.33803],[152.70414,-28.33843],[152.70464,-28.34098],[152.70764,-28.34429],[152.71285,-28.34137],[152.71991,-28.34523],[152.72305,-28.34413],[152.73094,-28.35232],[152.73111,-28.35395],[152.73318,-28.35452],[152.7341,-28.35338],[152.73701,-28.35514],[152.74032,-28.35919],[152.74653,-28.36068],[152.75095,-28.36388],[152.75697,-28.3636],[152.76104,-28.36016],[152.76185,-28.35828],[152.75822,-28.35508],[152.7598,-28.35246],[152.77739,-28.34597],[152.78173,-28.34669],[152.78669,-28.34919],[152.7879,-28.35123],[152.79167,-28.35208],[152.79338,-28.35404],[152.798,-28.35295],[152.79991,-28.35394],[152.80426,-28.35357],[152.80595,-28.35146],[152.80907,-28.35064],[152.80931,-28.34208],[152.81155,-28.34132],[152.81253,-28.33917],[152.81861,-28.33504],[152.82311,-28.33548],[152.82457,-28.33219],[152.82369,-28.32891],[152.82832,-28.32468],[152.82858,-28.32286],[152.83137,-28.31967],[152.83876,-28.32214],[152.8402,-28.32161],[152.84367,-28.31955],[152.84742,-28.31545],[152.84942,-28.31119],[152.85183,-28.31116],[152.85471,-28.31279],[152.8596,-28.31147],[152.86577,-28.31358],[152.8755,-28.31243],[152.88042,-28.30981],[152.88269,-28.31332],[152.89343,-28.31793],[152.89991,-28.32538],[152.90853,-28.32634],[152.91542,-28.3304],[152.92337,-28.33159],[152.93427,-28.33766],[152.93917,-28.33475],[152.94514,-28.33567],[152.95075,-28.33364],[152.97318,-28.33182],[152.97815,-28.33366],[152.9836,-28.33811],[152.98982,-28.33663],[152.99609,-28.33996],[153.00317,-28.33969],[153.01006,-28.34129],[153.02223,-28.33805],[153.02516,-28.33944],[153.03048,-28.33971],[153.0326,-28.34196],[153.03544,-28.34168],[153.03807,-28.34345],[153.0449,-28.33901],[153.04907,-28.34203],[153.05174,-28.34141],[153.05325,-28.34315],[153.05784,-28.34275],[153.05941,-28.34393],[153.0653,-28.34424],[153.06712,-28.34636],[153.07065,-28.34784],[153.07159,-28.35031],[153.07417,-28.3522],[153.07751,-28.35197],[153.07931,-28.35402],[153.08631,-28.35462],[153.08918,-28.35332],[153.09833,-28.35696],[153.10229,-28.35788],[153.10459,-28.35721],[153.10765,-28.35849],[153.10893,-28.35731],[153.10855,-28.35633],[153.11114,-28.35642],[153.11319,-28.3529],[153.11382,-28.34925],[153.11547,-28.34768],[153.11683,-28.34366],[153.11673,-28.3415],[153.12051,-28.342],[153.1253,-28.33931],[153.1252,-28.33674],[153.12676,-28.33623],[153.13024,-28.33028],[153.12483,-28.32393],[153.12407,-28.3202],[153.125,-28.31776],[153.13296,-28.31754],[153.13575,-28.31212],[153.13828,-28.31125],[153.14328,-28.3122],[153.14249,-28.30532],[153.15292,-28.30192],[153.15398,-28.29725],[153.15515,-28.29612],[153.16083,-28.29609],[153.16438,-28.29789],[153.16774,-28.29548],[153.16917,-28.29311],[153.16541,-28.28889],[153.1665,-28.28512],[153.16225,-28.28247],[153.1612,-28.2794],[153.17517,-28.27421],[153.17393,-28.2702],[153.17459,-28.26854],[153.17164,-28.26365],[153.17148,-28.25918],[153.17292,-28.25885],[153.17667,-28.2496],[153.17978,-28.25025],[153.18251,-28.2486],[153.18817,-28.24751],[153.19948,-28.25655],[153.20319,-28.25571],[153.20437,-28.25334],[153.20738,-28.25296],[153.20738,-28.25289],[153.20711,-28.2466],[153.19997,-28.23951],[153.19763,-28.23132],[153.19861,-28.22671],[153.19511,-28.22028],[153.19486,-28.2143],[153.19069,-28.20975],[153.19062,-28.20637],[153.18857,-28.2033],[153.18948,-28.20051],[153.18883,-28.19971],[153.19264,-28.20115],[153.19429,-28.20066],[153.19243,-28.19453],[153.19345,-28.1916],[153.18413,-28.19246],[153.18679,-28.18655],[153.18823,-28.17915],[153.19323,-28.17976],[153.19194,-28.17862],[153.19332,-28.1761],[153.19245,-28.17356],[153.19487,-28.17026],[153.19554,-28.16692],[153.19856,-28.16332],[153.19499,-28.1604],[153.19484,-28.15804],[153.19406,-28.15802],[153.19655,-28.15079],[153.20039,-28.13],[153.1995,-28.12986],[153.20085,-28.11919],[153.20246,-28.11712],[153.20578,-28.11785],[153.20604,-28.1163],[153.21407,-28.11743],[153.21576,-28.10834],[153.22131,-28.11123],[153.22278,-28.10295],[153.22989,-28.09998],[153.22753,-28.09726],[153.22961,-28.08958],[153.23154,-28.08988],[153.23243,-28.08533],[153.22942,-28.08486],[153.22948,-28.0828],[153.21335,-28.08035],[153.21619,-28.06568],[153.21995,-28.06625],[153.22015,-28.06489],[153.21943,-28.06183],[153.21598,-28.06003],[153.22512,-28.06121],[153.22632,-28.05477],[153.22875,-28.05512],[153.23076,-28.04435],[153.22868,-28.03961],[153.23009,-28.03965],[153.23257,-28.02567],[153.23628,-28.02596],[153.23888,-28.01117],[153.21764,-28.00821],[153.22089,-27.9997],[153.22053,-27.99438],[153.21066,-27.99297],[153.21123,-27.98984],[153.20793,-27.98578],[153.20132,-27.9827],[153.20085,-27.98135],[153.20095,-27.98074],[153.20352,-27.97837],[153.22512,-27.98165],[153.22593,-27.97718],[153.22015,-27.97625],[153.22177,-27.96813],[153.22311,-27.96711],[153.22225,-27.96574],[153.22404,-27.96286],[153.22274,-27.9623],[153.2232,-27.9583],[153.2216,-27.95806],[153.22495,-27.95765],[153.22402,-27.95704],[153.2252,-27.95612],[153.2242,-27.95408],[153.22394,-27.95392],[153.22235,-27.95294],[153.22215,-27.95065],[153.22002,-27.9476],[153.21913,-27.95124],[153.20659,-27.94925],[153.20823,-27.94114],[153.21058,-27.94149],[153.21374,-27.92587],[153.21478,-27.92602],[153.21571,-27.92198],[153.21332,-27.91939],[153.21358,-27.91806],[153.21257,-27.9179],[153.21543,-27.90275],[153.21169,-27.90218],[153.21209,-27.90012],[153.18068,-27.89508],[153.18334,-27.89136],[153.18627,-27.88124],[153.18636,-27.8752],[153.18542,-27.87376],[153.18894,-27.8551],[153.18107,-27.85393],[153.18202,-27.84855],[153.18063,-27.84834],[153.18149,-27.84399],[153.18064,-27.84118],[153.17569,-27.83943],[153.17595,-27.83718],[153.1729,-27.83442],[153.18328,-27.81934],[153.18054,-27.81522],[153.17759,-27.81397],[153.17674,-27.81239],[153.17803,-27.81128],[153.17617,-27.80838],[153.16944,-27.80364],[153.16901,-27.80058],[153.1821,-27.79484],[153.18444,-27.78857],[153.19298,-27.78004],[153.19122,-27.77723],[153.18784,-27.77708],[153.18638,-27.77536],[153.18727,-27.77403],[153.19334,-27.77292],[153.19339,-27.76777],[153.19797,-27.76411],[153.19885,-27.75902],[153.19726,-27.75401],[153.19746,-27.74698],[153.20047,-27.7432],[153.20124,-27.74002],[153.20695,-27.73899],[153.21007,-27.73963],[153.21833,-27.73692],[153.21982,-27.73476],[153.21643,-27.72706],[153.21947,-27.7271],[153.2229,-27.72428],[153.22646,-27.72335],[153.22757,-27.72372],[153.22753,-27.72655],[153.22872,-27.72732],[153.23259,-27.72385],[153.23059,-27.72159],[153.22075,-27.71842],[153.21545,-27.71818],[153.21273,-27.7153],[153.21509,-27.71424],[153.22762,-27.71531],[153.22963,-27.71215],[153.23353,-27.71101],[153.23193,-27.70623],[153.23627,-27.70348],[153.23359,-27.69857],[153.23408,-27.69431],[153.23591,-27.69466],[153.24324,-27.69739],[153.25073,-27.69721],[153.25154,-27.69719],[153.25318,-27.69643],[153.25351,-27.69628],[153.25356,-27.69626],[153.25334,-27.6917],[153.25568,-27.69039],[153.25851,-27.69237],[153.26689,-27.6924],[153.2736,-27.69705],[153.28007,-27.69517],[153.28299,-27.695],[153.28513,-27.6937],[153.28647,-27.69311],[153.28685,-27.69295]]]},"properties":{"District Name":"Logan","DDMG Name":"Logan","Police Region Name":"South Eastern Region","Police Region Code":"SER","Police Region Short Name":"South East"}}]}