{"type":"Topology","arcs":[[[58211,94883],[32,-122],[-53,-197],[-106,-147],[-60,-164],[-50,-248],[-32,25],[-81,-34],[-39,59],[-76,-4],[-32,-85],[-1,-81],[31,-178],[27,-79],[-28,-45],[-60,74],[-70,-87],[-72,-123],[8,-176],[-90,-13],[-56,-87],[-7,-100],[-32,-50],[-65,14],[-60,-123],[-82,-79],[-19,47],[-45,-47],[-27,81],[-51,-159],[-29,-210],[-41,-168],[-51,-60],[-19,-219],[-88,-263],[1,-168],[-65,17],[-60,-179],[-28,46],[-91,-1],[-37,-37],[-67,19],[-42,-116],[-69,111],[-55,222],[-95,101],[-68,141],[-137,96],[-204,65],[-87,-1594],[223,-78],[-169,-3325],[-845,260],[-110,-2043],[-463,143],[-1061,318],[15,-209],[15,-420],[-5,-70],[233,-461],[26,-240],[-72,-471],[-98,25],[-141,-2798],[-427,126],[-163,-3203],[-207,60],[-682,189],[-99,-2025],[-62,-1326],[825,-243],[-21,-116],[33,-201],[63,-193],[37,-206],[32,-250],[4,-502],[-9,-394],[36,-62],[-13,-107],[53,-266],[16,-167],[-47,-208],[16,-42],[142,-107],[32,-48],[61,-9],[22,-111],[106,-23],[63,-79],[49,-5],[103,81],[39,-197],[29,-51],[42,4],[52,-57],[224,-587],[79,-104],[36,61],[112,-9],[29,-75],[65,-44],[43,7],[82,-43],[32,-48],[-11,-250],[-94,-408],[-3,-69],[53,-90],[-4,-236],[18,-297],[-2,-223],[-67,-166],[-5,-125],[24,-32],[37,-279],[25,-53],[-60,-1168],[-84,-131],[-158,49],[-66,-123],[-57,109],[-149,109],[-53,-98],[-47,-32],[-48,-83],[-48,-271],[9,-187],[-8,-200],[88,-175],[-26,-256],[6,-38],[-69,-462],[-29,-519],[195,-57],[-8,-205],[-41,-800],[-246,89],[-113,-1948],[-4,1],[-69,-1264],[-5,-165],[-28,17],[-107,-2041],[-618,183],[-125,-209],[-54,-995],[274,-82],[32,-79],[23,-311],[-39,-152],[-51,-954],[-6,-1195],[-136,-962],[-1,-970],[-12,-1934],[-47,-779],[-71,-1271],[-602,131],[1,-12],[-583,125],[-57,-976],[-70,-234],[-50,-838],[-40,-765],[-59,20],[-10,-206],[552,-157],[4,-9],[-79,-1575],[-47,13],[-146,-1639],[-86,-1655],[-55,-1011],[-30,-901],[51,-17],[-57,-1012],[-25,-493],[106,-18],[12,-199],[62,-1310],[25,-280],[-10,-197],[667,-194],[-184,-3056],[2,-13],[-37,-913],[3,-135],[-76,-1245],[12,-153],[71,-720],[-69,-850],[122,-47],[-40,-666],[-93,-994],[-29,-476],[-305,86],[-294,17],[-362,5],[-177,-3145],[-3,-12],[-164,-2872],[-143,50],[-48,-473],[-89,-1587],[437,-135],[-66,-1164],[43,-27],[-39,-552],[2,-255],[23,-1224],[-48,-667],[-166,-511],[-84,-1551],[88,-27],[-87,-1575],[-23,-479],[-275,58],[-64,-1014],[-29,-314],[-78,-727],[-54,-583],[-19,-294],[705,-144],[44,-15],[-29,-637],[-36,-636],[-48,-914],[-30,-678],[79,-174]],[[49790,3975],[-870,0],[-767,1],[-1459,1],[-678,0],[-1382,0],[-1107,-1],[-968,0],[-1382,1],[-1383,0],[-1383,0],[-732,0],[-1343,0],[-1406,0],[-1360,-1],[-785,0],[-1398,0],[-1274,0],[-691,0],[-873,0],[-1327,0],[-1396,-1],[-1132,-1],[-820,2],[-1367,1],[-729,0],[-837,0],[-837,0],[-915,0],[-960,1],[-1468,3],[-754,-4],[-928,1],[-837,-1],[-838,1],[-837,-1],[-837,1],[-838,-1],[-837,0],[-826,1],[-691,-1],[-995,0],[-838,0],[-837,-1],[-914,3],[-761,-1],[-1055,-1],[-1457,1],[-746,-1],[-935,-1],[0,3899],[1,2245],[0,4018],[1,8563],[0,3209],[0,2889],[1,4564],[-1,3082],[0,1988],[0,3212],[0,2571],[0,1606],[0,4302],[914,-236],[664,-171],[242,5450],[312,50],[5,319],[1184,17],[1234,-310],[339,-1001],[592,-156],[68,64],[82,-102],[82,-53],[81,-27],[43,20],[49,-64],[56,32],[135,18],[256,-69],[138,-98],[444,-131],[-16,78],[16,88],[41,-5],[29,61],[-23,68],[32,104],[-24,155],[36,13],[19,77],[-20,88],[-42,48],[58,212],[-19,180],[-43,-30],[-31,28],[-37,-47],[-23,208],[-28,65],[-35,153],[18,153],[-29,147],[-54,100],[38,235],[-4,114],[21,34],[13,225],[-14,97],[-29,5],[-32,122],[-39,48],[-39,239],[-36,83],[0,102],[-41,16],[-16,213],[-55,173],[-2,111],[-45,69],[-20,186],[-53,124],[-28,130],[17,92],[-22,58],[-50,-4],[-85,305],[12,96],[-39,89],[27,216],[-24,34],[12,96],[-27,131],[-29,68],[15,66],[-46,119],[-25,148],[-52,56],[-28,373],[-26,22],[-31,350],[28,-9],[12,127],[-38,214],[-45,113],[2,102],[42,77],[-13,202],[-27,204],[7,94],[-30,256],[19,177],[49,268],[41,166],[13,187],[658,-154],[6,162],[781,-177],[-2,-183],[1400,-326],[7,143],[129,-232],[38,365],[14,200],[3,383],[29,75],[61,234],[35,264],[-2,87],[28,119],[58,91],[40,112],[-9,106],[31,121],[-6,170],[82,244],[31,127],[-18,100],[15,151],[89,591],[21,8],[34,182],[28,28],[84,211],[8,89],[34,120],[-150,2270],[144,3230],[105,2017],[173,-47],[38,621],[134,-5],[119,185],[396,879],[92,-1],[132,122],[97,156],[36,110],[158,159],[168,70],[48,-33],[129,109],[22,247],[188,133],[31,67],[79,17],[97,91],[62,3],[64,143],[111,188],[207,281],[5,49],[143,226],[113,149],[4,159],[102,230],[551,1134],[1243,-256],[-23,-109],[-3,-131],[-28,-221],[-66,-51],[-49,-4],[77,-184],[813,-210],[643,-163],[-59,-1361],[-85,-1833],[152,-43],[573,-148],[100,2312],[521,-126],[1278,-307],[61,1596],[38,889],[1002,-243],[284,-64],[37,-72],[60,15],[107,-129],[40,-78],[18,68],[444,-95],[50,1197],[-307,69],[87,2089],[18,95],[-38,200],[37,130],[50,1320],[-9,2],[37,754],[-27,72],[10,208],[36,121],[275,-58],[598,1184],[394,776],[128,-373],[56,-116],[24,-133],[25,-48],[56,31],[89,143],[58,-43],[43,-110],[99,-102],[49,-126],[77,-51],[24,-95],[172,-323],[10,-122],[34,-77],[81,-81],[160,-127],[149,-379],[-4,-79],[125,-402],[184,-1120],[-66,-47],[-19,-176],[-99,-184],[-164,32],[-17,-12],[-31,-157],[-3,-172],[54,-128],[7,177],[621,-124],[2,59],[833,-209],[433,-1276],[226,-688],[4,25],[279,12],[39,47],[48,119],[216,351],[12,356],[102,169],[53,13],[49,240],[83,182],[-9,92],[60,149],[14,85],[-22,461],[71,102],[41,212],[-4,98],[-29,155],[-8,115],[12,106],[242,215],[97,467],[57,393],[-60,419],[-50,98],[17,283],[123,524],[209,864],[158,680],[73,197],[232,1010],[1082,2143],[148,-414],[520,2223],[169,-1049],[1220,2443],[56,1923],[147,4809],[281,300],[-30,-661],[292,-77],[-29,-580],[-123,-2696],[883,-213],[-66,-1603],[541,-132],[-64,-171],[46,-226],[-8,-218],[-33,-283],[-32,-217],[-7,-119],[-33,-209],[15,-128],[130,-212],[103,-435],[85,-8],[34,-86],[9,-116],[73,-204],[47,14],[70,121],[112,-38],[62,29],[71,-29],[151,47],[46,127],[87,110],[73,152],[54,62],[-37,-1080],[-39,-851],[-88,-1855],[-83,-55],[-23,-68],[-105,-65],[-62,-127],[17,-268],[-82,-86],[-515,-989],[90,-13],[18,61],[58,-62],[52,-16],[299,-37],[275,-48],[81,-153],[82,36],[132,-34],[48,21],[72,-51],[156,-9],[8,-32],[236,-58],[0,-183],[-22,-85],[-95,-139],[90,-156],[16,-57],[-6,-212],[-30,-164],[2,-89],[-29,-182],[300,-84],[69,-42],[85,18],[49,49],[81,-89],[681,-201],[6,-23],[662,-190],[6,18],[-104,-2085],[-154,41],[-29,-621],[318,-93],[70,391],[172,123],[80,292],[199,-69],[384,-491],[92,-519],[149,109],[33,-31],[104,-15],[54,-161],[51,-14],[50,-78],[24,4],[732,-131],[-4,-161],[-18,-38],[-29,-699],[-45,-1176],[-88,-449],[-166,33],[-44,105],[-5,-1118],[-80,-1722],[766,-186],[58,249],[46,42],[19,61],[-1,146],[47,166],[7,178],[66,122],[63,203],[10,144],[23,90],[78,85],[0,121],[30,128],[-9,69],[17,295],[58,102],[18,112],[79,41],[33,143],[27,276],[20,37],[-21,129],[13,122],[57,79],[15,86],[35,-5],[595,-155],[-64,-1284],[30,-170],[7,-224],[78,-21],[412,-133],[171,-61],[351,-116],[445,-159],[84,-107],[128,-41],[155,218],[44,217],[-7,682],[-35,705],[33,59],[-278,1557],[38,694],[-3,137],[27,616],[-14,186],[-16,75],[317,-2],[-20,-533],[-9,-339],[3,-506],[-19,-416],[558,-159],[1,-13],[500,-141],[307,-47],[13,-11],[307,-54],[86,1828],[80,-25],[7,185],[123,1840],[2,240],[22,279],[-84,23],[57,1103],[31,668],[40,786],[369,-105],[273,-70],[89,-45],[400,-124],[9,17],[147,-44],[-32,-613],[1206,-356],[-74,543],[-44,146],[508,-145],[16,66],[61,-22],[37,676],[32,666],[-49,177],[62,1443],[91,108],[523,-149],[917,-266],[-43,-957],[-51,-1065],[-71,-1504],[10,-149],[29,25],[450,853],[393,790],[4,103],[43,160],[59,142],[57,240],[136,640],[160,288],[334,-41],[61,1363],[464,-116],[7,213],[33,582],[11,118],[-37,105],[38,703],[200,-49],[139,270],[344,-106],[37,20],[-289,1602],[51,147],[38,2],[57,-50],[40,-119],[49,-75],[84,-27],[100,150],[27,113],[-15,167],[12,94],[41,109],[23,131],[63,86],[38,90],[33,23],[98,-75],[72,-27],[28,-48],[5,-173],[-34,-188],[46,-12],[53,-156],[117,-81],[208,35],[123,240],[50,2],[51,-150],[41,19],[138,239],[71,184],[18,133],[48,88],[64,4],[38,156],[-45,212],[-10,330],[27,135],[34,4],[88,363],[19,149],[10,80],[54,54],[11,105],[91,17],[28,41],[-9,215],[30,47],[30,-56],[134,38],[68,-93],[95,7],[18,-43],[54,9],[24,109],[70,22],[77,-64],[26,-109],[25,52],[81,-39],[61,-55],[55,-18],[122,10],[184,48],[169,11],[79,54],[22,47],[27,176],[40,412],[41,51],[26,140],[37,76],[-19,130],[-1,127],[102,-153],[44,27],[85,123],[50,10],[19,119],[67,-78],[66,42],[8,-306],[96,-60],[66,-6],[34,93],[3,93],[77,207],[132,146],[33,88],[45,60],[114,25],[25,51],[94,28],[29,113],[8,141],[-32,30],[-11,229],[19,83],[40,46],[122,2],[62,20],[50,-77],[21,11],[41,186],[57,79],[71,15],[24,161],[46,-3],[47,67],[33,162],[37,43],[50,176],[41,59],[90,36],[48,-43],[43,49],[53,-12],[59,-94],[13,-96],[42,-31],[56,115],[65,66],[85,-92],[14,33],[71,-82],[48,48],[51,-1],[35,-208],[-8,-131],[31,-95],[32,9],[90,-176],[30,-128],[34,-73],[-13,-101],[65,-171],[44,-57],[94,-45],[113,-192],[41,-149],[52,-109],[13,-121],[52,-16],[97,-221],[-23,-98],[-26,-222],[16,-180],[51,-50],[106,-245],[33,-15],[37,-133],[-7,-57],[47,-61],[-7,-71],[37,-100]],[[89171,50021],[-10,-143],[68,-131],[23,-107],[26,-1],[29,-126],[44,-49],[14,-323],[29,-119],[-103,-465],[-6,-106],[25,-128],[-60,-66],[-87,-56],[-69,-23],[-15,-156],[-78,26],[-37,-610],[-125,44],[-61,-52],[-35,-607],[-129,46],[-43,-703],[19,-7],[-17,-259],[-59,19],[-14,-249],[27,-9],[-11,-169],[-196,66],[-55,-142],[-110,50],[-8,-134],[-240,80],[-6,-97],[-124,43],[15,244],[-152,53],[-10,-164],[20,-83],[36,-374],[-17,6],[-12,-182],[-74,26],[-46,-726],[13,-38],[-33,-461],[83,-31],[-56,-864],[25,-9],[-50,-807],[-945,1569],[-93,-1478],[-7,-169],[-67,-1086],[-42,14],[-15,-525],[-24,-1304],[-353,120],[-375,123],[-237,86],[39,327],[-163,52],[-101,-47],[-446,147],[-39,-39],[-170,56],[-76,-1223],[-20,-425],[4,-265],[-4,-188],[8,-208],[38,-265],[12,-5],[-49,-761],[59,-168],[-27,-315],[-50,-109],[-1,-132],[-28,-70],[40,-180],[-242,-262],[-55,98],[-257,94],[-28,-46],[-191,-46],[-92,-54],[-69,62],[-317,152],[3,379],[-2,459],[-202,-114],[-297,-149],[-278,847],[-77,-67],[-83,-271],[-83,-390],[-105,-292],[-34,-241],[-54,-235],[2,-28],[-101,-83],[-116,-419],[-86,-1423],[6,-3],[-62,-1028],[-18,-628],[24,-88],[-68,-1138],[-60,23],[-189,-3114]],[[81256,27475],[-72,32],[-139,314],[-27,335],[-233,190],[-14,980],[-94,555],[-103,321],[-147,106],[-95,359],[-145,235],[-453,152],[-60,140],[-207,-482],[-258,608],[-51,-145],[-21,5],[-44,138],[-40,-35],[-5,-135],[-242,478],[-180,-305],[-46,-89],[77,-219],[5,-88],[-50,-113],[-68,18],[-148,389],[-218,78],[-73,-1045],[-436,132],[20,-1078],[-256,-4],[18,-1235],[-136,42],[-78,249],[-553,-620],[-170,268],[-105,-746],[-57,8],[2,-102],[36,-45],[-39,-280],[-397,111],[-30,-602],[-246,80],[-873,327],[-228,-168],[-67,749],[-349,-217],[15,-92],[82,-107],[149,-442],[-415,-287],[-408,-305],[-993,332],[-304,94],[-36,-606],[-802,271],[22,353],[-111,-59],[-215,-10],[-14,-176],[-302,103]],[[70829,26190],[19,338],[113,1954],[64,1007],[70,1130],[-706,191],[187,837],[574,-184],[84,1351],[19,328],[-352,122],[43,704],[-277,83],[33,50],[78,256],[23,2],[4,136],[60,267],[39,-11],[27,62],[12,138],[35,2],[32,66],[33,554],[59,1075],[69,1328],[-42,188],[23,406],[-125,419],[-4,78],[-113,341],[-86,396],[12,201],[124,523],[74,291],[-17,216],[53,96],[14,68],[119,426],[149,260],[22,6],[58,147],[192,347],[106,234],[233,584],[-306,679],[1025,2570],[-46,14],[-19,76],[-94,66],[-76,10],[-38,-22],[-8,-110],[-29,-35],[-80,128],[-5,138],[-48,152],[73,139],[18,131],[-54,27],[-121,-5],[-5,206],[13,45],[95,47],[114,106],[40,-89],[64,-44],[86,20],[23,156],[-1,174],[-42,95],[8,85],[-153,922],[-125,448],[-144,1083],[-205,1457],[201,233],[-35,105],[-50,-24],[-48,169],[-40,-21],[777,764],[-81,308],[-94,33],[-4,145],[58,103],[33,139],[19,317],[-8,641],[-32,637],[174,438],[6,105],[34,1],[43,727],[-291,102],[25,406],[220,-74],[33,542],[-39,14],[20,334],[80,-46],[26,425],[-66,23],[20,320],[-68,24],[37,275],[-1,135],[25,143],[26,34],[55,201],[113,240],[-354,121],[156,277],[151,348],[53,-12],[28,453],[122,-42],[38,630],[60,22],[119,-93],[9,-176],[267,169],[139,306],[81,1374],[-147,185],[22,136],[-369,124],[-1,-8],[-452,152],[-87,-307],[12,-32],[-65,-120],[-27,40],[-58,-27],[-40,78],[-91,26],[-17,-76],[-210,61],[-44,140],[-172,43],[-75,-104],[5,-102],[-379,107],[-32,-647],[-27,27],[-51,-39],[-50,11],[-29,109],[-28,-71],[-36,29],[-67,-101],[-25,15],[-101,-46],[-93,-10],[-12,61],[55,138],[17,86],[-36,319],[-117,148],[147,158],[5,94],[-316,91],[12,-213],[-96,-340],[-11,25],[-164,164],[-79,112],[-55,151],[-226,319],[-3,-162],[11,-80],[-220,22],[-210,-107],[-72,24],[-137,137],[-229,37],[-124,-124],[-11,-113],[-34,-34],[-41,-108],[-471,-95],[-85,-60],[-184,-338],[-34,188],[-57,62],[-143,53],[-24,65],[53,187],[60,282],[-40,536],[-63,193],[41,107],[29,162],[-7,172],[18,439],[-4,300],[69,162],[56,290],[-32,310],[75,17],[53,192],[69,114],[45,217],[6,240],[136,270],[-26,502],[-46,379],[41,156],[9,336],[-694,205],[-22,93],[-68,467],[43,120],[5,262],[-57,2],[-11,75],[-46,-8],[-161,1109]],[[67813,71328],[74,51],[128,-88],[27,-35],[110,110],[222,-68],[511,-201],[202,-54],[439,-128],[212,912],[64,128],[60,-31],[49,130],[62,119],[2,66],[62,42],[15,148],[81,166],[66,34],[131,281],[40,-146],[675,-199],[-54,-923],[822,-241],[75,1279],[5,6],[538,-183],[122,244],[71,94],[18,66],[63,88],[88,75],[366,429],[157,-726],[103,-502],[43,-33],[97,343],[-144,698],[39,154],[139,-128],[52,165],[36,49],[46,-4],[32,-73],[53,-28],[79,80],[41,193],[-51,17],[15,258],[29,-10],[96,-192],[97,-1],[274,178],[32,189],[56,-64],[28,141],[58,-33],[25,39],[72,-105],[36,-107],[72,-114],[38,-169],[46,-17],[106,9],[33,-33],[60,-201],[53,-8],[49,68],[137,13],[81,-115],[114,-115],[70,-172],[50,690],[29,-53],[39,4],[33,81],[32,7],[11,-155],[34,-30],[23,53],[35,556],[247,22],[44,133],[11,107],[35,157],[20,-63],[44,33],[88,-340],[117,-161],[103,-88],[102,67],[51,6],[46,92],[76,76],[40,140],[17,0],[-1,226],[-51,328],[276,-100],[55,7],[81,-54],[110,-40],[53,-128],[44,-17],[9,159],[71,-2],[129,-174],[48,-5],[23,389],[108,-34],[348,-223],[38,-547],[39,-63],[127,-16],[82,64],[153,21],[-16,191],[51,100],[21,120],[80,119],[110,28],[69,327],[27,825],[40,73],[-104,879],[9,159],[-39,256],[68,223],[84,80],[51,882],[-46,334],[33,108],[43,58],[301,-143],[16,-18],[97,-490],[69,-167],[112,-105],[59,-103],[113,80],[68,31],[60,-27],[69,49],[76,26],[126,-117],[49,-203],[174,-37],[353,-120],[12,-270],[27,-147],[42,-55],[-2,-68],[-59,-176],[-2,-115],[-38,-27],[-44,-145],[-28,-230],[54,-232],[123,-145],[-12,-269],[7,-281],[23,-135],[-56,-211],[-80,-20],[-32,-100],[-19,-164],[107,-326],[-64,-52],[71,-229],[106,-150],[11,-144],[59,-74],[137,-438],[30,-144],[-33,-171],[-14,-168],[-50,-154],[-59,-81],[-14,-139],[12,-199],[44,-157],[-1,-192],[-36,-191],[-10,-132],[-89,-313],[4,-144],[32,-177],[12,-133],[-15,-140],[75,-14],[75,-49],[95,-33],[104,-241],[43,-7],[50,92],[36,18],[76,-20],[151,8],[56,-19],[28,-210],[55,-159],[32,-227],[-13,-80],[61,-75],[24,-67],[-5,-83],[-38,-134],[77,-452],[498,-164],[456,817],[20,147],[-3,97],[67,93],[54,-20],[53,-150],[48,-29],[145,68],[103,-85],[183,134],[-5,-81],[48,-83],[40,-352],[76,-267],[-8,-139],[54,-221],[16,-255],[46,-131],[139,-176],[64,-56],[69,-24],[90,10],[69,67],[54,-221],[42,-32],[49,-76],[29,-112],[40,-24],[41,-99],[36,8],[76,-50],[36,-134],[43,22],[48,71],[68,204],[25,-54],[46,82],[58,-31],[16,-126],[65,-214],[-25,-285],[6,-103],[29,-80],[11,-166],[-27,-110],[-73,-113],[-26,39],[-65,-29],[-113,171],[-43,187],[-40,46],[-143,-199],[9,-229],[-58,20],[-138,-53],[-27,-239],[-423,-504],[-37,64],[-42,10],[29,-1416],[417,33],[585,-184],[-19,-203],[-107,-1610],[-52,-761],[-318,-1821],[2,-8],[875,-284],[217,-74],[5,-42],[-40,-113],[-2,-69],[39,-125],[-32,-141],[67,-287],[54,-78],[27,-85],[65,-128],[69,99],[44,-112],[39,-4],[-6,-194],[40,-129],[53,-117],[65,-45],[47,22],[65,115],[69,-27],[-6,-197],[7,-78],[60,-202],[55,-89],[29,-202],[59,-152],[16,-98],[36,13],[39,102],[26,-139],[37,-23],[28,-115],[-7,-52],[77,-138],[60,-16],[23,-210],[49,-33],[47,-109],[44,-14],[29,-173],[55,55],[51,-152],[83,-107],[112,-337],[10,-89],[-17,-294],[-128,-226],[20,-17],[28,-139],[64,-85],[98,-63],[9,-100],[-35,-174],[28,-150],[-33,-177],[41,-81],[7,-254],[15,-123],[23,-4],[91,-133],[51,-98],[82,-29],[119,-86],[78,32],[18,74],[56,60],[50,-46],[36,-135],[96,-11],[17,-82],[70,25],[42,-22],[-17,-128],[4,-166],[-15,-59],[8,-122],[35,-115],[-43,-127],[21,-40],[42,-219],[36,-21],[22,-140],[42,-52],[30,16],[75,-216],[8,-135],[53,-91],[23,-140],[33,-122],[46,-37],[-2,-107],[30,-57],[7,-199],[48,-233],[37,22],[41,-50],[18,-88],[81,1],[12,-64],[63,-101],[34,11],[85,-184],[67,42],[74,-177],[29,-9],[45,-128]],[[95489,29038],[-7,233],[-25,289],[-31,131],[1,72],[49,135],[-18,135],[-56,21],[12,175],[-71,28],[8,120],[178,-54],[14,207],[-52,19],[1,128],[-61,166],[-48,273],[19,281],[31,-99],[54,-34],[24,276],[44,653],[-29,11],[20,276],[26,-9],[11,160],[-192,70],[13,171],[27,69],[64,41],[68,80],[15,187],[24,128],[28,-30],[29,107],[-84,50],[5,90],[44,-13],[39,72],[60,-47],[7,113],[65,33],[30,-87],[45,-42],[21,62],[62,-205],[13,191],[29,-11],[22,154],[-14,87],[45,111],[28,231],[68,238],[11,103],[48,125],[3,75],[138,165],[-62,286],[51,60],[39,-19],[13,189],[26,-41],[21,326],[21,-8],[10,176],[-160,30],[-61,-29],[59,890],[-204,78],[2,122],[21,140],[-46,209],[58,109],[-51,175],[-71,132],[-28,-20],[-30,97],[-49,15],[-4,-82],[-56,87],[7,99],[-80,26],[9,152],[-16,125],[5,116],[-222,76],[36,41],[6,100],[-122,40],[17,296],[-91,62],[-95,172],[-50,54],[-73,-4],[-175,63],[-9,-60],[-228,75],[-43,-677],[-53,81],[-82,-38],[-25,599],[-68,-28],[-37,-175],[-71,-102],[-62,-46],[-39,156],[23,363],[-279,99],[-32,-44],[-126,0],[-58,81],[-75,27],[-17,69],[63,98],[26,397],[-83,-135],[22,390],[15,161],[28,-9],[1,187],[17,237],[-95,38],[26,128],[-5,74],[29,80],[31,5],[3,95],[24,84],[-2,83],[29,75],[-58,79],[-41,288],[17,72],[-104,37],[-10,-68],[-61,-190],[-43,-100],[-75,17],[8,80],[-33,131],[-36,34],[-18,120],[24,52],[28,171],[57,59],[54,-56],[46,-102],[15,71],[-53,149],[80,35],[56,-58],[19,284],[85,-30],[3,71],[61,100],[82,63],[19,67],[40,18],[63,144],[26,416],[-132,49],[-45,-169],[-237,84],[-58,-5],[-49,-126],[-43,8],[-20,72],[-62,32],[23,372],[65,46],[32,114],[30,4],[71,123],[26,157],[-390,503],[-66,104],[56,184],[9,147],[55,103],[79,223],[138,313],[23,138],[45,43],[-10,72],[33,546],[51,-242],[193,-60],[0,113],[64,74],[45,124],[-272,94],[36,639],[-57,15],[5,91],[217,-73],[18,87],[-28,87],[-26,-10],[-77,97],[-57,19],[-4,119],[-97,34],[18,280],[-115,40],[-14,59],[56,61],[-28,67],[56,122],[-37,52],[-82,-80],[2,194],[-36,-43],[-76,79],[-53,-30],[6,100],[-99,25],[-61,71],[-12,138],[-37,23],[21,95],[1,123],[95,302],[40,73],[-11,222],[8,143],[51,141],[-23,122],[-77,-26]],[[93275,50309],[29,271],[47,189],[62,121],[43,-1],[91,138],[-8,-101],[27,-69],[134,-47],[-37,140],[-7,389],[-20,151],[13,206],[43,-15],[20,316],[-134,48],[19,273],[-47,278],[32,99],[-4,160],[21,109],[-46,61],[-24,90],[-36,-58],[-68,149],[-2,322],[12,79],[43,99],[15,90],[-111,35],[16,276],[-83,16],[-12,-91],[34,-48],[-19,-109],[-85,-59],[-27,153],[37,84],[-38,61],[-12,105],[-37,124],[-38,69],[-57,177],[-67,-74],[-42,80],[14,58],[-101,77],[-49,128],[-2,104],[-57,76],[-2,162],[-20,223],[13,110],[51,120],[76,90],[71,3],[55,63],[18,70],[97,112],[6,116],[59,-13],[28,140],[-14,100],[63,282],[-46,306],[62,86],[41,108],[-34,48],[-12,149],[-45,82],[-8,89],[41,191],[-6,124],[-20,86],[-6,149],[-17,36],[-13,220],[17,33],[-34,120],[32,97],[13,115],[-36,74],[3,168],[-17,98],[67,136],[21,144],[-32,135],[26,166],[73,12],[44,-70],[36,55],[7,103],[47,-46],[51,69],[66,-155],[87,-99],[25,-87],[60,-121],[23,-102],[59,-150],[24,-104],[66,-11],[31,154],[22,31],[66,-93],[26,88],[-5,195],[-23,57],[48,85],[74,19],[15,52],[64,26],[24,130],[26,45],[4,112],[21,56],[48,-1],[43,103],[6,237],[89,25],[39,-94],[43,-47],[25,-76],[67,-101],[-6,-45],[57,-79],[35,-185],[35,84],[90,38],[74,81],[40,81],[51,-30],[50,91],[38,-24],[32,69],[53,15],[20,-128],[32,-88],[82,1],[30,-83],[75,113],[33,-68],[37,62],[41,152],[73,-66],[32,67],[84,29],[14,68],[55,-5],[-34,-570],[52,-18],[23,58],[-28,-457],[-50,-146],[6,-131],[-35,-144],[-3,-106],[30,-145],[33,41],[7,123],[51,-67],[-78,-581],[88,-29],[-15,-251],[80,-27],[-13,-220],[527,-166],[20,44],[-60,194],[-30,226],[356,-112],[53,-206],[38,-40],[38,27],[48,-34],[7,-157],[-17,-96],[85,-27],[-23,-66],[5,-103],[28,-170],[20,-43],[-38,-693],[-99,-278],[7,-28],[-168,-477],[30,8],[-1,-153],[17,-88],[-50,-124],[-5,-134],[15,-65],[78,-43],[24,17],[66,-92],[54,-106],[22,-90],[-13,-55],[42,-232],[-27,-56],[9,-102],[63,-150],[44,-20],[33,-81],[20,-134],[124,-36],[18,-56],[63,-8],[47,-44],[55,58],[18,-127],[37,-136],[63,110],[69,-10],[49,-85],[13,-370],[30,-100],[55,-54],[2,-69],[-4,-197],[21,-26],[-19,-143],[-59,-55],[54,-252],[-47,-89],[-46,-38],[-4,-92],[34,-104],[-7,-217],[63,-194],[-14,-56],[36,-71],[54,-181],[5,-195],[18,-55],[-7,-177],[-81,29],[-3,-48],[-92,33],[-1,-174],[-43,-132],[211,-77],[-43,-34],[-34,-73],[-72,-240],[3,-172],[-39,-126],[-19,-118],[-36,-37],[-47,18],[-12,-105],[134,-116],[-15,-219],[46,82],[22,-22],[55,46],[32,-97],[-36,-75],[-3,-141],[58,-28],[-2,-113],[-27,-164],[32,-105],[33,-168],[50,-110],[2,-144],[30,-49],[-5,-98],[19,-179],[-42,-59],[5,-134],[-49,-157],[-26,-36],[13,-98],[40,-77],[-4,-62],[-145,46],[49,-190],[17,-142],[11,-250],[-90,-126],[27,-127],[33,-8],[54,52],[51,-46],[102,-31],[84,-131],[68,-22],[69,19],[-8,-112],[-26,-29],[-2,-215],[-17,-76],[20,-87],[36,-349],[38,-204],[-86,-284],[36,-152],[-36,-57],[-51,-159],[-36,-51],[-20,-86],[-33,-46],[-73,-231],[-16,-113],[21,-99],[-31,-243],[14,-144],[-16,-86],[-79,-126],[16,-97],[-45,-191],[-47,-111],[-2,-216],[17,-172],[28,-73],[30,10],[118,-56],[8,-200],[-15,-96],[29,-40],[49,58],[38,-70],[147,-93],[35,72],[53,7],[55,-45],[39,-115],[-8,-202],[-57,-76],[-5,-122],[-31,-5],[-47,-96],[-120,25],[-44,-28],[-19,-158],[-60,-42],[-121,-228],[-41,-16],[-56,-115],[-37,-518],[56,-21],[34,68],[15,223],[61,-21],[7,107],[55,-19],[7,115],[135,-48],[-16,-245],[94,-35],[-9,-133],[39,-15],[-32,-500],[36,68],[51,-40],[-25,-121],[8,-131],[49,-21],[-11,-179],[19,-7],[-5,-171],[-28,-101],[-12,-188],[27,-11],[10,-136],[-26,-377],[-49,17],[-3,-117],[23,-245],[17,-90],[-25,-62],[-14,-264],[-63,-58],[77,-179],[36,-189],[64,-83],[63,9],[26,-36],[1,-114],[-56,14],[-49,-34],[-36,-202],[-43,-548],[-1,-116],[25,-66],[49,40],[39,-66],[114,272],[44,-76],[60,-6],[46,79],[-21,101],[31,27],[24,-93],[116,-29],[16,-36],[126,35],[28,121],[76,78],[69,37],[-9,120],[-77,66],[8,81],[86,50],[46,-42],[45,-219],[-6,-154],[-20,-112],[-5,-219],[37,-215],[19,-179],[6,-299],[60,9],[54,324],[55,23],[126,-291],[26,-141],[51,-65],[2,-15],[17,-51],[76,-23],[29,33],[52,-28],[56,-110],[48,-62],[55,-207],[1,-116],[-20,-249],[-20,-109],[-97,-285],[58,-189],[-68,-923],[-274,101],[-65,-966],[-69,24],[-11,-158],[-129,51],[-9,-135],[-112,43],[-62,-9],[-18,67],[6,113],[-45,17],[-8,-131],[-44,15],[-6,-96],[-91,33],[-28,-83],[-40,-594],[68,-27],[58,41],[51,-195],[17,-303],[-1,-167],[-84,32],[-19,-278],[-84,30],[13,174],[-48,54],[22,356],[-141,48],[8,117],[-37,60],[-180,64],[17,273],[-39,122],[-170,66],[-2,21],[-251,114],[-26,191],[-151,61],[-18,-124],[-140,56],[9,146],[-111,44],[5,67],[-141,39],[-8,-112],[-256,100],[9,120],[-34,7],[10,140],[-64,-28],[-153,59],[6,98],[-156,59],[-2,-100],[-164,60],[-106,15],[-42,-98],[-13,-109],[7,-206],[-37,-548],[-170,64],[-38,-556],[-106,39],[-5,-76],[-116,44],[-2,-135],[-28,-100],[-13,-193],[-93,11],[-65,-944],[-60,69],[-65,26],[-25,-369],[-38,14],[-14,-197],[-142,39]],[[58211,94883],[32,35],[91,-13],[91,24],[75,-270],[76,-216],[57,74],[116,-35],[37,-127],[62,-68],[26,-71],[55,-28],[65,53],[90,-61],[67,-270],[-5,-115],[31,-116],[82,-139],[22,-150],[-35,-195],[45,-285],[-31,-55],[-1,-136],[21,-73],[7,-131],[39,-188],[-3,-94],[30,-38],[19,-145],[40,-100],[88,-81],[36,-95],[39,17],[33,-69],[-18,-92],[8,-77],[38,-76],[4,-140],[51,-76],[55,37],[90,-400],[41,-2],[91,-501],[84,-25],[36,19],[49,108],[56,-39],[91,-14],[60,57],[35,-20],[28,-139],[100,-183],[31,-86],[47,-43],[17,-216],[-3,-86],[98,-246],[33,-48],[32,-132],[45,-46],[66,-179],[67,-110],[-6,-95],[69,-128],[57,-50],[28,-102],[-22,-202],[20,-63],[-12,-86],[30,-151],[84,-333],[-7,-185],[57,-18],[116,56],[32,-83],[58,-90],[90,-51],[35,-201],[48,-41],[26,-76],[68,75],[83,-93],[0,-94],[42,-118],[78,51],[56,-22],[66,-228],[3,-91],[50,-35],[58,229],[43,19],[33,-58],[86,-44],[78,-70],[170,259],[98,38],[55,-75],[127,37],[63,-30],[47,65],[73,-31],[49,13],[105,-64],[39,-110],[76,-31],[98,81],[56,-113],[45,-9],[90,-138],[43,-110],[-1,-66],[61,-108],[57,-10],[20,-41],[105,-75],[99,12],[53,-107],[45,-172],[100,-324],[47,-82],[26,107],[30,5],[33,103],[12,200],[32,80],[15,161],[80,-92],[70,21],[50,128],[64,-69],[45,-111],[56,-26],[78,56],[-17,116],[26,31],[58,-34],[62,-379],[54,-306],[-55,-47],[-46,-128],[3,-121],[-71,-75],[-46,-134],[-2,-91],[-55,-106],[-65,-978],[50,-75],[8,-232],[95,-197],[58,-77],[147,-90],[32,-153],[78,-164],[9,-71],[66,-22],[62,-71],[57,-139],[54,101],[40,4],[39,-70],[-12,-56],[23,-134],[80,-37],[75,-139],[252,-105],[77,78],[34,-192],[198,-58],[39,23],[17,89],[99,-5],[74,96],[58,-41],[29,142],[721,-2219],[-328,-610],[22,-60],[-14,-186],[6,-99],[-12,-203],[54,-144],[30,89],[-30,100],[-15,143],[17,65],[92,-27],[60,5],[81,-44],[54,-125],[-22,-57],[-80,69],[-4,-105],[69,-102],[36,-12],[53,-183],[40,-30],[9,-70],[-50,-151],[19,-86],[51,126],[6,113],[28,67],[-4,91],[28,31],[105,-86],[1,-122],[-69,-106],[-32,-133],[12,-125],[25,-27],[63,86],[0,-118],[-53,-223],[-5,-61],[24,-120],[-138,-131],[-70,66],[-102,-192],[-30,-5],[-52,-252],[-68,-95],[-47,-4],[-122,-237],[-27,-7],[-44,-100],[-29,39],[-17,168],[-26,100],[-60,140],[-64,3],[-56,161],[-36,-54],[14,-131],[-47,-125],[-20,9],[-55,-91],[27,-119],[-29,-152],[27,-114],[-13,-91],[-47,-13],[-12,-75],[33,-260],[-194,-431],[75,-25],[11,-140],[285,-80],[156,-474],[40,66],[72,47],[76,111],[88,37],[138,139],[73,128],[80,5],[-1,-155],[-48,-430],[-4,-89],[52,-204],[107,-325],[74,-36],[20,-90],[85,-217],[24,-83],[63,-26],[77,-240],[57,-110],[45,-28],[61,-128],[33,-153],[-116,-1478],[24,-166]],[[70829,26190],[-102,-1735],[-123,33],[-80,-1325],[-130,-2179],[-668,220],[2,32],[-1146,383],[-4,-85],[-363,100],[-18,-23],[-570,157],[5,83],[-286,73],[-324,-1052],[-364,-1216],[-72,-1410],[-150,-2925],[22,-6],[-39,-771],[-13,3],[-43,-847],[98,-27],[-69,-1329],[-33,-25],[-34,-790],[237,-65],[330,-80],[-33,-644],[-69,-1467],[135,-27],[-80,-1323],[291,-925],[229,-671],[36,137],[50,-156],[17,-145]],[[67468,6163],[19,-242],[-29,-21],[-33,-123],[-26,12],[-5,-168],[-36,-45],[22,-134],[-26,-101],[-30,-33],[-20,-110],[-17,-201],[-28,-95],[-27,59],[-84,-85],[-56,59],[-4,-96],[-37,4],[-27,-187],[-47,-93],[-60,5],[-54,-94],[-23,27],[-74,-65],[-10,-156],[-48,-127],[-20,-119],[-41,-57],[-843,0],[-1182,0],[-1039,0],[-1416,-1],[-958,0],[-676,0],[-1173,-1],[-764,0],[-1244,0],[-872,0],[-1478,0],[-691,0],[-1229,0],[-845,0],[-1382,0],[-1065,0]],[[89171,50021],[35,-44],[64,25],[55,75],[32,-136],[68,-119],[29,7],[66,-106],[20,-113],[25,-14],[43,-137],[42,3],[72,-131],[83,-80],[61,73],[59,-51],[65,33],[48,-45],[61,4],[106,72],[113,120],[68,178],[75,-101],[57,94],[26,-24],[63,85],[48,191],[74,148],[34,132],[40,86],[4,116],[363,404],[7,122],[42,122],[37,46],[15,241],[-14,92],[10,108],[33,103],[-1,98],[38,115],[79,101],[51,123],[30,141],[1,108],[64,204],[15,1],[321,-104],[10,166],[23,6],[16,256],[61,93],[84,-16],[9,157],[83,144],[67,-214],[38,-45],[101,-35],[17,96],[47,95],[40,17],[26,79],[45,62],[-12,-225],[102,-31],[13,-205],[-18,-107],[4,-226],[26,-138],[29,-1],[26,-121],[-10,-126],[-71,2],[-38,-177],[27,-120],[-38,-131],[-76,-121],[-51,33],[-17,-121],[-44,11],[-12,-119],[34,-73],[31,53],[41,-29],[51,33],[25,-78],[171,-56],[-65,-185],[-15,-102],[-30,-59],[35,-116],[6,-356],[-42,-122],[-37,-48],[-10,-92],[-36,-20],[-17,-190],[57,-22],[56,-141],[56,-10],[146,181],[33,112],[82,61],[48,175],[54,-8],[57,78],[68,-47],[54,-89],[17,134]],[[95489,29038],[-5,-63],[30,-103],[7,-129],[46,-138],[-8,-394],[-55,-101],[13,-295],[41,-169],[0,-165],[45,-229],[-91,-217],[-23,-101],[-4,-274],[-61,-134],[-46,75]],[[95378,26601],[-56,179],[-71,50],[-141,35],[-81,-68],[-36,97],[-74,-86],[-57,-38],[-47,40],[-47,-23],[-67,64],[-78,143],[-43,3],[1,-111],[-63,-40],[-77,-148],[-68,-9],[-88,-50],[-51,122],[-91,138],[-85,68],[-69,1],[-113,75],[-15,-233],[-68,7],[-44,62],[-24,-59],[-63,-28],[-144,-16],[-18,-37],[-86,33],[-56,-7],[-12,82],[-55,103],[3,100],[27,49],[-3,82],[-32,82],[-272,98],[-73,-108],[0,-55],[-132,-261],[-66,-53],[-410,150],[-12,-190],[-245,86],[32,-260],[-189,69],[-21,-277],[-433,156],[-24,-365],[-82,106],[-15,-134],[82,-383],[-6,-79],[-910,333],[-14,-195],[-76,130],[-33,5],[-67,-227],[44,-101],[-106,-183],[-50,169],[-62,277],[-58,-65],[-35,33],[-40,117],[-142,93],[-81,9],[-231,68],[-7,-18],[-251,89],[-3,-9],[-378,115],[-19,-9],[-319,103],[-284,105],[-61,-1001],[-247,79],[-94,-1635],[-175,55],[-38,-32],[-56,-122],[-26,-258],[-66,36],[-57,-11],[-23,-142],[32,-112],[-62,-430],[15,-347],[-32,-54],[-116,-37],[-113,-162],[-58,13],[-51,-107],[-43,158],[-88,60],[-41,74],[-83,-45],[-15,-98],[-44,-118],[-92,-68],[-29,-50],[-22,-120],[-39,-45],[-80,-15],[-59,39],[-27,95],[-71,24],[-59,-174],[-40,-62],[-81,42],[-61,-71],[-62,-178],[-564,196],[9,135],[-44,-22],[-62,62],[-76,-181],[-123,40],[23,330],[-250,-53],[-27,-73],[-54,17],[-69,-100],[-289,47],[7,150],[-314,116],[-64,-106],[-46,128],[12,62],[-42,381],[19,145],[40,74],[38,162],[7,162],[20,26],[39,330],[-11,145],[-945,310],[-722,238],[-40,206],[-130,-118],[-91,242],[10,333],[39,197],[-219,338],[-73,234],[-12,258],[-233,185],[-56,21],[-12,141],[-69,156],[-74,-128],[-54,101],[-5,497],[-94,178],[-123,45],[-5,96],[-49,-11]],[[95378,26601],[-52,-103],[7,-109],[-48,-151],[0,-192],[-26,-288],[54,-188],[13,-80],[63,-141],[-16,-120],[49,-165],[6,-116],[-42,-223],[79,-80],[24,-57],[70,-76],[47,-22],[-13,-197],[31,-216],[-76,-161],[-7,-96],[28,-165],[-4,-111],[21,-82],[43,-52],[21,-127],[39,-103],[66,-42],[-17,-256],[24,-108],[5,-195],[25,-85],[69,-138],[-39,-211],[44,-235],[71,-199],[126,15],[0,-123],[20,-84],[-64,-274],[-62,-94],[6,-123],[92,-50],[-4,-68],[50,-36],[8,118],[50,-28],[47,-115],[37,-200],[-32,-57],[-7,-157],[-33,-93],[-66,-12],[-24,28],[-80,-50],[-32,-124],[13,-109],[-27,-58],[-24,-133],[-25,-8],[-55,-147],[-25,-149],[14,-112],[-72,-49],[-40,47],[-78,-43],[-40,55],[-30,-105],[6,-123],[-27,-73],[-1,-220],[59,-247],[-17,-102],[-45,-116],[-76,-123],[-19,-114],[-45,-112],[-15,-113],[-54,-141],[-58,70],[-30,-29],[-80,17],[-72,110],[-123,-150],[-52,30],[-31,-37],[-45,34],[-52,-4],[-39,74],[-53,17],[-17,-137],[-112,-224],[-29,-84],[-12,-143],[-21,-64],[-41,-10],[-126,46],[-53,-222],[-37,-57],[-58,-180],[-82,-140],[-9,-124],[-60,-135],[-19,-164],[-25,-5],[-34,-168],[-37,-94],[-27,69],[-56,51],[-22,124],[-80,42],[-41,47],[-33,-102],[-181,134],[-69,-44],[-16,-76],[-69,-28],[-36,-69],[-55,-215],[-63,-40],[-51,-149],[-84,-80],[-43,27],[-131,-116],[-60,-8],[-34,-42],[-84,47],[-9,-176],[-15,-49],[2,-142],[-62,-126],[-38,4],[-80,-101],[-15,-90],[-68,-180],[-140,-236],[9,-67],[-28,-89],[-136,-64],[-73,75],[-25,-19],[-36,192],[10,129],[-25,170],[-80,-38],[-28,-99],[-121,-213],[24,-174],[-34,-158],[-8,-126],[26,-66],[-15,-234],[32,-115],[-13,-100],[22,-75],[35,-21],[27,-109],[78,-22],[82,-189],[20,-218],[32,-63],[-25,-145],[14,-181],[24,-108],[-30,-137],[8,-85],[79,-260],[16,-87],[-3,-228],[34,-67],[24,-123],[44,-145],[55,42],[91,-50],[62,35],[49,-83],[-3,-105],[67,-202],[90,63],[40,-126],[-29,-123],[16,-136],[46,-178],[34,-76],[-40,-146],[-77,-72],[-69,-162],[-97,-138],[32,-45],[13,-145],[-57,-157],[3,-117],[-40,-85],[13,-354],[-20,-98],[41,-75],[-22,-142],[-29,-43],[3,-103],[26,-84],[-22,-138],[11,-156],[-16,-98],[-10,-285],[-55,-82],[-33,19],[-15,-126],[-35,-29],[10,-140],[-27,-131],[68,-98],[25,-79],[30,71],[67,75],[12,-66],[-30,-84],[17,-131],[-62,-123],[11,-88],[-27,-58],[-39,-315],[-55,-86],[-52,-264],[-76,-40],[-17,110],[14,83],[-28,97],[-26,-75],[-97,-176],[-91,-77],[-33,-143],[-62,-53],[-40,43],[-38,-52],[-122,-52],[-80,-72],[-40,-67],[-55,-26],[6,100],[-28,103],[-51,68],[-100,80],[-24,-44],[-94,87],[-23,-40],[-83,-9],[-29,96],[-47,56],[-105,-38],[-62,-96],[-24,-159],[3,-75],[-18,-190],[39,-236],[-33,-124],[-3,-185],[-41,-109],[-41,-49],[-104,91],[-13,90],[24,113],[-65,118],[-113,-92],[-35,-88],[-54,-12],[-45,-70],[-57,31],[27,174],[-4,216],[-88,66],[-38,112],[-7,92],[-32,68],[-55,31],[-9,133],[-55,309],[13,84],[-36,42],[-2,81],[-40,239],[17,58],[1,156],[-62,99],[-32,-33],[-27,-107],[-52,-48],[-18,95],[-39,-12],[-31,-147],[-5,-83],[-52,-140],[-79,-11],[-10,-93],[-62,-155],[-25,-166],[-74,47],[-63,-142],[-70,-126],[-49,8],[-60,-111],[-3,-105],[-29,-69],[-61,142],[-76,-55],[-44,61],[-54,-37],[-14,-52],[-109,-74],[-46,-115],[-51,-175],[-71,-3],[-31,53],[-156,-245],[-28,-7],[-2,-126],[-29,-244],[-44,-125],[14,-85],[-45,-123],[-74,-95],[-19,-136],[-39,-29],[-57,-179],[-29,-39],[-28,-200],[-41,-112],[2,-104],[-25,-104],[18,-263],[-56,-270],[4,-78],[95,-166],[3,-96],[-78,-42],[-52,-350],[-21,-43],[-67,-38],[-115,-155],[-43,-416],[-31,-161],[-56,-141],[-126,-204],[-24,-137],[-38,-60],[-71,-3],[-56,-106],[-36,-197],[-25,-66],[-4,-121],[-56,-132],[-66,48],[-63,-41],[-180,104],[-44,-76],[-122,-77],[-32,97],[-105,180],[-56,13],[-31,109],[3,83],[-22,84],[-3,154],[20,79],[54,100],[-46,178],[-70,205],[-27,158],[-52,29],[-26,-32],[-35,122],[-39,73],[-32,136],[-8,325],[-29,57],[4,119],[89,256],[-1,161],[22,12],[19,130],[-37,67],[-10,277],[-72,-4],[-38,111],[18,133],[80,158],[5,236],[-8,91],[-37,129],[-17,268],[38,115],[-78,149],[12,111],[62,86],[7,327],[-48,139],[-9,91],[-60,52],[-35,95],[-47,-3],[-64,129],[-56,45],[-25,96],[-16,232],[-33,100],[-44,-89],[-73,44],[-48,56],[-66,131],[-2,141],[-61,170],[-130,133],[-47,-49],[-51,10],[-10,57],[-69,162],[-15,104],[-79,-2],[-72,117],[-27,-65],[-66,67],[-57,210],[-82,1],[-56,172],[-27,-46],[-18,181],[-62,-36],[-35,56],[-76,26],[-93,-150],[0,-79],[-106,-30],[-43,-79],[-6,108],[-56,-7],[-23,110],[-37,82],[32,77],[-48,115],[-1,175],[40,80],[-8,95],[3,312],[-28,3],[-39,84],[-68,-2],[9,213],[-16,151],[-41,71],[15,71],[66,35],[-25,317],[-19,61],[-107,197],[-10,56],[-65,13],[-106,94],[-62,10],[-22,66],[-68,18],[-67,-133],[-22,46],[-69,-21],[-42,64],[-13,110],[-68,-40],[6,95],[-43,66],[-19,386],[-57,155],[-39,-41],[-69,117],[-29,143],[-26,33],[-90,-29],[-32,-146],[-49,7],[2,92],[-45,26],[-41,-105],[-43,194],[-45,-58],[-98,179],[-19,126],[-54,53],[-30,-13],[-68,104],[-102,17],[-26,75],[23,128],[-37,7],[-86,87],[-88,-22],[-96,203],[-85,12],[-34,126],[-118,-11],[-18,112],[-67,3],[-145,-28],[-21,-114],[-94,-92],[-35,-62],[6,-93],[-69,-70],[-72,35],[-41,-98],[-63,-73],[-61,240],[-24,-71],[-97,-116],[-136,-129],[-29,-61],[-50,-200],[-50,85],[-4,79],[-55,-5],[-11,-85],[-69,38],[-83,8],[-4,138],[-145,193],[-76,-53],[-40,11],[-76,-76],[-32,169],[-50,-42],[-14,-82],[52,-102],[-25,-160],[-113,14],[-32,-29],[-56,63],[-18,63],[65,104],[52,44],[-65,93],[-58,24],[-32,-34],[-12,-90],[-46,-49],[-82,24],[-39,40],[-60,4],[-49,41],[-21,-106],[-35,-42],[-54,75],[-63,-124],[-47,-56],[-22,101],[-37,-37],[-91,37],[-42,62],[-33,117],[-45,87],[-58,44],[-55,-39],[-20,92],[32,53],[1,218],[-59,34],[-56,148],[-44,-37],[-44,-112],[-55,40],[16,127],[-68,-9],[-73,127],[-13,170],[7,81],[-42,18],[-6,73],[36,101],[-38,80],[-9,189],[-71,-1],[-39,136],[7,176],[-71,-4],[-101,64],[-54,121],[-25,213],[-54,31],[-37,108],[-70,43],[-67,243],[-32,9],[-47,-107],[-57,5],[-35,49],[-41,-19],[-53,-95],[-52,-21],[-52,-141],[-114,-54],[34,-67],[-47,-69],[-59,-173],[-60,44],[-59,-37],[9,-111],[-94,20],[-36,114],[-52,14],[-110,69],[34,96],[-106,-34],[-9,97],[-29,53],[-106,-74],[-10,136],[-36,-44],[3,-119],[-75,-36],[3,-105],[-123,69],[-48,0],[-24,-106],[-47,-79],[-101,138],[-60,-31],[24,-185],[-13,-119],[-105,-45],[-23,-53],[-45,96],[-66,36],[-47,-32],[-6,-103],[-49,-36],[-25,-92],[-46,112],[-54,-37],[-50,127],[-32,28],[-28,-73],[-88,-30],[-35,-161],[-111,-60],[-22,-157],[-45,-14],[-72,-154],[-97,-31],[-39,-60],[-70,91],[-93,-121],[-10,-99],[-41,64],[-4,78],[-55,-7],[-41,66],[-139,-26],[-30,-192],[-49,-18],[-81,23],[-23,87],[-74,64],[-28,114],[-53,-12],[-41,101],[-23,-94],[-82,23],[-30,-91],[-67,139],[-72,-3],[-32,-111],[-74,-104],[-32,124],[-91,12],[-47,-61],[-93,-31],[-21,-57],[-36,93],[-55,-84],[-40,44],[-36,-60],[-72,67],[-76,-8],[-23,-130],[-57,44],[-51,-29],[-42,44],[30,100],[-38,29],[-57,-57],[-32,-101],[-38,76],[-52,-131],[32,-82],[-34,-78],[29,-89],[-36,-80],[-46,53],[-103,17],[-40,-44],[-87,46],[28,87],[-17,128],[-62,81],[6,111],[-36,57],[-27,-103],[-75,45],[-25,105],[7,74],[-36,109],[-42,21],[-53,75],[-85,-32],[-73,-104],[-5,81],[-40,-20],[4,142],[-27,118],[-45,-40],[1,209],[-37,62],[-73,32],[-39,44],[-41,-33],[-21,49],[-97,-83],[-35,-69],[-58,45],[-99,39],[-51,-42],[-23,53],[-32,-112],[-47,-40],[-98,126],[-35,-51],[-59,-7],[-53,-143],[-36,55],[-35,-47],[-8,-121],[-46,-86],[-108,11],[-55,-46],[-35,-195],[-33,-11],[-73,-154],[18,-101],[-30,-183],[-79,-108],[27,-83],[-20,-165],[-4,-135],[-19,-61],[-80,-39],[-4,-252],[-68,-173],[-23,-107],[-55,14],[-51,-165],[11,-86],[-21,-116],[-30,-63],[-58,97],[-46,-61],[-36,104],[-66,-29],[-10,93],[-35,16],[-46,-142],[-40,-4],[-18,-124],[-80,-36],[-42,21],[8,-115],[-35,-61],[-66,-18],[-31,-112],[-45,-25],[-51,48],[-68,5],[-84,-264],[10,-76],[-45,-69],[-23,-78],[-75,-59],[17,-123],[-58,-61],[-31,193],[-91,-138],[-41,26],[-14,-81],[-68,-126],[-54,-68],[-44,-275],[-51,29],[-69,-104],[-25,41],[-44,-108],[-65,-8],[-51,-136],[32,-74],[-52,-35],[7,-100],[-24,-70],[22,-105],[-55,-86],[-82,-173],[-82,-98],[-79,72],[-47,-46],[-49,60],[0,-121],[27,-116],[-2,-148],[-30,-83],[-96,-93],[-52,13],[-27,-35],[-42,71],[-34,-71],[-47,-27],[-48,56],[-87,-136],[-10,-88],[-51,-33],[0,-324],[-39,-24],[-25,-101],[-15,-172],[-35,-26],[-24,-125],[-36,-20],[-39,-152],[77,-24],[-51,-139],[-13,-141]]],"transform":{"scale":[0.00011941739417394174,0.000045303253032530336],"translate":[140.99927,-29.17922]},"objects":{"qld_southern_ddmg_boundaries_gda2020_simp200m":{"type":"GeometryCollection","geometries":[{"arcs":[[0,1]],"type":"Polygon","properties":{"District Name":"Charleville","DDMG Name":"Charleville","Police Region Name":"Southern Region","Police Region Code":"SR","Police Region Short Name":"Southern"}},{"arcs":[[2,3,4,5]],"type":"Polygon","properties":{"District Name":"Dalby","DDMG Name":"Dalby","Police Region Name":"Southern Region","Police Region Code":"SR","Police Region Short Name":"Southern"}},{"arcs":[[6,7]],"type":"Polygon","properties":{"District Name":"Ipswich","DDMG Name":"Ipswich","Police Region Name":"Southern Region","Police Region Code":"SR","Police Region Short Name":"Southern"}},{"arcs":[[-1,8,-5,9,10]],"type":"Polygon","properties":{"District Name":"Roma","DDMG Name":"Roma","Police Region Name":"Southern Region","Police Region Code":"SR","Police Region Short Name":"Southern"}},{"arcs":[[-3,11,-7,12,13]],"type":"Polygon","properties":{"District Name":"Toowoomba","DDMG Name":"Toowoomba","Police Region Name":"Southern Region","Police Region Code":"SR","Police Region Short Name":"Southern"}},{"arcs":[[-4,-14,14,-10]],"type":"Polygon","properties":{"District Name":"Warwick","DDMG Name":"Warwick","Police Region Name":"Southern Region","Police Region Code":"SR","Police Region Short Name":"Southern"}}]}}}