{"type":"Topology","arcs":[[[77477,86387],[-4,-54],[-11,-127],[237,248],[260,51],[127,-1040],[596,-1111],[305,-221],[360,-13],[704,369],[300,331],[602,1196],[1046,-129],[1223,767],[334,3],[58,-93],[240,-1079],[5,-1088],[378,-503],[187,9],[247,511],[323,-31],[540,-359],[266,129],[240,367],[347,-35],[111,-894],[7,-53],[187,-191],[459,-580],[188,-480],[74,-233],[108,-934],[71,-234],[200,-667],[355,-293],[77,-64],[96,12],[916,112],[1192,890],[633,71],[-97,-478],[294,-630],[24,-472],[-222,-647],[-345,-1984],[-542,-4663],[-845,-8990],[-131,-3013],[38,-1667],[300,-1923],[104,-1028],[-49,-371],[363,105],[-396,-158],[-4,-207],[333,0],[0,-116],[-214,0],[-5,-123],[-20,-2984],[-71,4],[-7,-506],[72,-2932],[201,-2906],[636,-4871],[441,-2554],[167,-237],[-71,-115],[441,-1743],[209,-381],[314,-22],[211,-209],[24,-603],[124,165],[-74,-244],[510,-1382],[91,-481],[821,-1914],[478,-269],[185,49],[-29,185],[160,176],[-59,-335],[243,-598],[152,-61],[-47,-112],[129,-455],[836,-1696],[786,-1135],[1038,-990],[771,-91],[398,320],[-88,-213],[591,-118],[148,329],[269,29],[192,248],[9,-145],[151,-112],[-891,-581],[-578,-1112],[-296,309],[-3850,2343],[-278,-165],[-478,184],[-168,-145],[-212,-480],[-342,-88],[-149,-260],[-695,-1360],[54,-405],[-179,-304],[-376,-67],[-576,-413],[-857,-376],[-971,-1376],[-554,-348],[37,-246],[-283,-638],[-782,-463],[-693,-1021],[-564,-1151],[-125,-398],[91,-226],[-67,-270],[-186,-200],[-427,-137],[-305,-369],[-572,-312],[-634,-594],[-632,-247],[-971,105],[-574,-270],[-612,569],[-73,934],[-107,258],[-344,120],[-328,-239],[-426,-94],[-195,173],[-214,-18],[-618,-306],[-373,215],[-355,543],[-398,7],[-417,-215],[-595,250],[-204,-92],[-251,-490],[-441,-78],[-429,-627],[-1155,-391],[-57,-125],[-273,104],[-221,-80],[-652,-1066],[-147,-937],[-142,-285],[-1215,218],[-608,760],[-340,591]],[[70726,14291],[-23,810],[-607,912],[-199,1055],[84,594],[-298,827],[-21,770],[-354,586],[-6,435],[-174,396],[77,359],[-55,103],[323,-185],[141,63],[-159,789],[87,377],[-792,-111],[226,761],[123,953],[424,-78],[-109,146],[117,325],[-74,327],[206,425],[57,430],[256,463],[-303,376],[-13,304],[-66,3],[212,931],[326,2677],[-76,18],[115,1373],[137,267],[282,-94],[22,200],[682,-146],[144,1170],[471,-372],[125,1066],[604,383],[-200,350],[176,989],[164,-39],[76,586],[-256,61],[5,265],[-1370,315],[241,1889],[320,-73],[17,175],[-62,394],[-293,232],[777,-152],[102,829],[206,-45],[171,1387],[-177,610],[120,-5],[211,1800],[315,-38],[221,1905],[-1805,381],[276,1096],[-30,685],[-839,181],[49,403],[-281,523],[-561,396],[-40,174],[8,79],[219,305],[1835,-422],[69,575],[-491,120],[137,1045],[114,132],[-73,176],[152,371],[-110,72],[39,515],[-136,31],[284,53],[-79,78],[101,119],[-85,262],[-22,21],[-136,126],[-17,295],[-181,393],[-75,-469],[-1066,256],[140,1045],[199,-46],[269,2012],[88,-20],[79,520],[-203,334],[22,171],[-85,21],[243,1950],[-318,74],[34,265],[-2669,649],[226,479],[249,1303],[8,778],[-80,185],[299,2403],[-669,150],[81,693],[-118,27],[73,560],[-72,362],[-421,225],[22,290],[-259,355],[882,1942],[-233,531],[-250,160],[-73,204],[110,143],[-158,373],[-572,611],[-36,394],[1112,739],[199,807],[725,1098],[-149,362],[-287,19],[-125,222],[76,171],[516,143],[4,663],[389,471],[75,656],[-135,645],[17,905],[256,487],[65,409],[485,133],[265,-83],[702,349],[126,278],[-288,992],[259,-5],[291,363],[303,119],[94,-47],[-3,-365],[101,-99],[328,447],[-169,291],[-836,408],[-451,31],[-231,371],[201,136],[1064,-137],[171,406],[331,147],[-136,616],[369,354],[-228,632],[42,548],[155,-45],[623,-351],[637,23],[68,3],[140,98],[28,19],[4,2],[-19,588],[199,168],[241,-255],[712,-4],[570,-598],[549,242],[248,22],[182,167],[114,76],[32,21]],[[70726,14291],[0,-9],[-256,-49],[-100,-305],[-316,-109],[-960,1164],[-481,-140],[-232,-212],[-264,83],[-319,-1191],[-122,-42],[13,-576],[251,-629],[-56,-214],[105,-516],[-1187,-669],[89,-395],[361,-341],[-92,-486],[319,-543],[-121,-305],[-286,-310],[-301,231],[-483,-3],[-99,-146],[-90,-601],[-886,-438],[67,-886],[-425,122],[-215,-112],[-237,-697],[-676,-29],[-79,-314],[64,-480],[460,-818],[-296,-766],[-132,-66],[8,-330],[-407,-347],[-321,65],[9,-279],[-116,-517],[-140,-202],[-54,-470],[-174,-453],[-220,11],[32,-126],[-108,-152],[-260,165],[-196,-86],[-336,118],[-778,469],[-243,-168],[-595,78],[-153,263],[-284,-29],[-219,243],[-80,318],[-300,191],[-154,273],[-501,40],[-133,152],[-390,-52],[-128,224],[-227,-80],[-354,389],[-581,-572],[-223,228],[-241,-36],[-181,290],[-452,35],[-249,179],[-1033,-417],[-586,206],[-601,-35],[-533,429],[-528,-191],[-463,573],[-423,237],[-1905,-234],[-477,-262],[-507,119],[-416,-375],[-927,782],[-675,153],[-585,523],[-733,123],[-550,959],[-913,594],[-193,452],[-417,-337],[-827,-149],[-524,272],[-416,-170],[-244,210],[-205,-4],[-170,-548],[-319,-528],[-295,-265],[-122,-69],[-628,318],[-237,-410],[-22,-235],[-393,-544],[75,-423],[-124,-423],[-383,56],[-516,-531],[-84,-277],[-190,-98],[-20,-1102],[-265,-106],[-144,-272],[-370,-47],[-162,127],[-392,-140],[-146,252],[-320,110],[-103,262],[-421,322],[-369,93],[-1494,-836],[-134,-337],[308,-412],[-69,-242],[-346,-443],[-511,-36],[-376,412],[-527,192],[-281,521],[-248,227],[-78,-147],[-176,74],[-14,209],[-670,1055],[-267,-142],[-600,497],[-443,-376],[-255,427],[-42,328],[-240,51],[-232,304],[-525,-145],[-340,252],[-173,733],[-584,-184],[-470,552],[-35,1071],[-147,340],[-308,196],[-57,272],[-714,234],[-904,-451],[-143,169],[-211,-122],[-388,106],[-372,645],[-589,467],[-126,444],[-240,233],[-16,329],[-153,330],[117,552],[-220,627],[-288,187],[-27,715],[-128,306],[33,361],[-158,304],[-304,-640],[-627,-617],[-311,-572],[-194,-980],[381,-2062],[-233,-293],[-195,-511],[69,-122],[-91,-461],[-225,-136],[-399,-884],[-335,-310],[-195,-448],[-2,-323],[-289,-618],[-416,658],[-197,945],[-702,414],[-615,-63],[-180,-195],[-65,140],[88,705],[-500,-296],[-170,97],[-256,203],[-68,389],[-371,589],[-453,79],[-648,612],[-28,539],[315,496],[-36,1455],[333,909],[9,936],[305,827],[-184,149],[-30,263],[-172,-72],[-256,197],[-615,127],[-256,487],[-223,17],[57,269],[-78,377],[-231,45],[-322,292],[-151,24],[-878,-561],[-808,-12],[-10,768],[455,634],[-218,436],[-262,38],[60,539],[-293,198],[-185,469],[-514,165],[-74,-686],[-98,-53],[-413,259],[43,397],[-963,293],[-29,721],[167,338],[458,209],[151,536],[207,245],[61,393],[223,300],[-66,419],[-139,224],[10,689],[-91,96],[-574,-138],[-410,115],[-224,-128],[-427,637],[-249,142],[-27,347],[-356,870],[-84,206],[-3,157],[391,1369],[-12,327],[-548,326],[-387,650],[-96,703],[41,430],[-96,478],[-145,150],[169,1497],[-672,245],[-391,599],[-168,692],[-478,355],[-188,355],[0,1010],[-287,801],[213,762],[533,373],[113,282],[-168,927],[-149,338],[143,636],[-8,512],[-481,128],[-824,531],[-283,375],[-644,292],[424,1347],[-108,309],[49,327],[-83,299],[-437,733],[178,666],[-622,790],[-129,476],[-557,1050],[163,657],[100,2216],[486,907],[-78,608],[305,475],[226,127],[478,-438],[509,625],[66,80],[24,29],[-35,526],[131,731],[-60,376],[246,703],[271,192],[259,560],[389,413],[-86,538],[-143,196],[-38,453],[-190,151],[166,448],[-114,59],[-43,456],[-177,457],[50,474],[-296,55],[-72,625],[-60,1094],[67,184],[536,392],[43,417],[-132,278],[102,556],[-93,581],[115,476],[-418,721],[-62,230],[-54,610],[-301,602],[51,367],[1439,-227],[136,1147],[389,-80],[255,2150],[661,-148],[-32,-269],[640,-135],[661,5507],[741,-152],[206,78],[129,1132],[281,585],[22,786],[1173,-257],[57,447],[1071,-228],[383,3239],[1727,-373],[372,3198],[-64,1201],[162,745],[407,551],[-17,-89],[1077,-225],[0,141],[1669,-354],[10,589],[1593,-346],[-68,-574],[1559,-342],[36,300],[607,-137],[-98,-819],[343,-38],[-86,-702],[2598,-579],[78,649],[1431,-226],[-51,-394],[1126,-252],[-93,-856],[1434,-324],[-35,145],[191,97],[12,483],[1519,-354],[280,-1120],[4286,-1173],[398,-711],[-168,-1592],[2050,-454],[144,-266],[-78,-685],[1431,-277],[-212,-2126],[-358,-71],[835,-199],[-131,-1015],[851,-174],[195,1620],[854,-183],[84,696],[-202,42],[122,233],[-108,117],[71,201],[-29,891],[-333,1160],[12,533],[-349,-76],[-509,164],[-32,-325],[-691,158],[130,1178],[-61,13],[333,2276],[257,-49],[29,532],[923,-191],[65,560],[443,-88],[87,764],[452,-101],[-54,-656],[174,-394],[611,-136],[23,192],[1133,-254],[98,792],[1306,-300],[113,922],[692,-138],[668,5636],[2774,-590],[687,5379],[-331,451],[-250,653],[1091,1958],[35,62],[261,1733],[-95,26],[95,-22],[258,-50],[18,-12],[12,-2],[478,-495],[1677,-474],[305,-322],[476,-929],[1419,-922],[265,-135],[3277,-725],[239,798],[1590,-358],[757,739],[152,-241],[244,253],[462,-128],[1499,890],[-82,281],[204,108],[-33,313],[-160,35],[135,1157],[-108,40],[-23,-225],[-308,367],[40,337],[448,-104],[64,544],[-141,229],[-179,39],[83,469],[547,-98],[400,3185],[7,-1],[1355,-277],[102,984],[78,63],[1380,-309],[175,-218],[430,97],[765,-165],[296,-506],[985,-967],[157,-355],[641,-397],[249,-447],[-173,-1509],[-508,109],[-162,-1388],[830,-60],[-34,-461],[374,-191],[-5,-125],[510,-107],[31,271],[1111,-225],[-75,-350],[204,-158],[2571,-522],[9,240],[1363,-286],[-34,-416],[673,-151],[27,-266],[1522,-251],[-37,-654],[173,-497],[6,-18],[-110,-270],[59,-300],[-109,-136],[30,-175],[155,-35],[-141,-1157],[171,-39],[-64,-467],[295,63],[385,-145],[7,-2],[-34,-113],[-301,105],[116,-151],[-5,-157],[-8,-228],[-1,-28],[-8,-8],[-16,-63],[-39,-25]]],"transform":{"scale":[0.000011770417704177061,0.000007766600000000032],"translate":[152.37491,-28.36388]},"objects":{"qld_south_east_ddmg_boundaries_gda2020_simp20":{"type":"GeometryCollection","geometries":[{"arcs":[[0,1]],"type":"Polygon","properties":{"District Name":"Gold Coast","DDMG Name":"Gold Coast","Police Region Name":"South Eastern Region","Police Region Code":"SER","Police Region Short Name":"South East"}},{"arcs":[[-2,2]],"type":"Polygon","properties":{"District Name":"Logan","DDMG Name":"Logan","Police Region Name":"South Eastern Region","Police Region Code":"SER","Police Region Short Name":"South East"}}]}}}