{"type":"FeatureCollection","name":"qld_brisbane_ldmg_boundaries_gda2020_simp200m","crs":{"type":"name","properties":{"name":"urn:ogc:def:crs:EPSG::7844"}},"features":[{"type":"Feature","geometry":{"type":"MultiPolygon","coordinates":[[[[153.41901,-27.35523],[153.42931,-27.36201],[153.43036,-27.35161],[153.43439,-27.34275],[153.43739,-27.33906],[153.43566,-27.32349],[153.43251,-27.31894],[153.42863,-27.3098],[153.42376,-27.30312],[153.41845,-27.27962],[153.41661,-27.26105],[153.41718,-27.24722],[153.41713,-27.22764],[153.42004,-27.19944],[153.42422,-27.17233],[153.42701,-27.15907],[153.43285,-27.13691],[153.44563,-27.09046],[153.44642,-27.08905],[153.45877,-27.05094],[153.46823,-27.02862],[153.45898,-27.02713],[153.45443,-27.02357],[153.44201,-27.03105],[153.42398,-27.03695],[153.41217,-27.03971],[153.40707,-27.03725],[153.39468,-27.04283],[153.38953,-27.04611],[153.37963,-27.0493],[153.37375,-27.05224],[153.36482,-27.06003],[153.36295,-27.06432],[153.36652,-27.07221],[153.36987,-27.08913],[153.37034,-27.10256],[153.36903,-27.11339],[153.3624,-27.13333],[153.36268,-27.13908],[153.36994,-27.15918],[153.37326,-27.17628],[153.37223,-27.18088],[153.36698,-27.19235],[153.36531,-27.19937],[153.36641,-27.20318],[153.37194,-27.21199],[153.3764,-27.22428],[153.37753,-27.23631],[153.38395,-27.25039],[153.39014,-27.2615],[153.39768,-27.2729],[153.40566,-27.29491],[153.40522,-27.30014],[153.42197,-27.33125],[153.42398,-27.33955],[153.41935,-27.3495],[153.41901,-27.35523]]],[[[153.24885,-27.34938],[153.25618,-27.34947],[153.26024,-27.34513],[153.26488,-27.3334],[153.2488,-27.32371],[153.24156,-27.32798],[153.23754,-27.33439],[153.23592,-27.34132],[153.23797,-27.34478],[153.24885,-27.34938]]],[[[153.23717,-27.37323],[153.23351,-27.3742],[153.22781,-27.38132],[153.22798,-27.38756],[153.22413,-27.39011],[153.22435,-27.39359],[153.23581,-27.40126],[153.23903,-27.40021],[153.2426,-27.39412],[153.24305,-27.38953],[153.24047,-27.37831],[153.23717,-27.37323]]],[[[153.11053,-27.59376],[153.12192,-27.59531],[153.12315,-27.58742],[153.15637,-27.59183],[153.15984,-27.59575],[153.17572,-27.6066],[153.17607,-27.60165],[153.17156,-27.59944],[153.17417,-27.59548],[153.17185,-27.59108],[153.17763,-27.5867],[153.17908,-27.58071],[153.17764,-27.57855],[153.18256,-27.57365],[153.17979,-27.57016],[153.18192,-27.56231],[153.19133,-27.56088],[153.18872,-27.55171],[153.18286,-27.55024],[153.18198,-27.54113],[153.17426,-27.54218],[153.17236,-27.53503],[153.18007,-27.52987],[153.18579,-27.52749],[153.18404,-27.52294],[153.18833,-27.51819],[153.19346,-27.51804],[153.20086,-27.51452],[153.1975,-27.5101],[153.1911,-27.50861],[153.18579,-27.49822],[153.1918,-27.49229],[153.18746,-27.49089],[153.18812,-27.48404],[153.19653,-27.48155],[153.19713,-27.47414],[153.19419,-27.47246],[153.19038,-27.46006],[153.18701,-27.4573],[153.18699,-27.44628],[153.18153,-27.44545],[153.17543,-27.44038],[153.17151,-27.43187],[153.1702,-27.41708],[153.1737,-27.41588],[153.17351,-27.40479],[153.17017,-27.40148],[153.16581,-27.40122],[153.16769,-27.39386],[153.17765,-27.39641],[153.18348,-27.39328],[153.17925,-27.38572],[153.20219,-27.35289],[153.18884,-27.34546],[153.16778,-27.37623],[153.16081,-27.38316],[153.15649,-27.39245],[153.15825,-27.39939],[153.15003,-27.40973],[153.1454,-27.41794],[153.13912,-27.42409],[153.13144,-27.42679],[153.12279,-27.43214],[153.11523,-27.43983],[153.09924,-27.44811],[153.09048,-27.44992],[153.0638,-27.44334],[153.05349,-27.44226],[153.05068,-27.44479],[153.05336,-27.45452],[153.05389,-27.4622],[153.05727,-27.46804],[153.05665,-27.47199],[153.04617,-27.47784],[153.03995,-27.47504],[153.03845,-27.46903],[153.03394,-27.46587],[153.03433,-27.47669],[153.03311,-27.48042],[153.02643,-27.48128],[153.0185,-27.47091],[153.01416,-27.46997],[153.00459,-27.47673],[152.99655,-27.48695],[152.99907,-27.48997],[153.01312,-27.48996],[153.02103,-27.49497],[153.02226,-27.50275],[153.01938,-27.50478],[153.00578,-27.50593],[153.00167,-27.50901],[152.99966,-27.51396],[153.00806,-27.51578],[153.01167,-27.51859],[153.01035,-27.52232],[153.00649,-27.52395],[152.99458,-27.52381],[152.98875,-27.51972],[152.98153,-27.51232],[152.97484,-27.507],[152.9702,-27.5075],[152.96783,-27.51567],[152.9729,-27.52634],[152.97138,-27.53273],[152.97501,-27.53954],[152.97426,-27.54456],[152.97117,-27.54544],[152.96365,-27.54369],[152.96014,-27.53672],[152.95295,-27.53054],[152.94568,-27.52823],[152.92963,-27.52864],[152.92805,-27.53048],[152.92735,-27.53874],[152.92217,-27.54317],[152.9067,-27.54395],[152.90344,-27.54783],[152.90725,-27.55561],[152.90497,-27.55769],[152.89746,-27.55941],[152.8952,-27.561],[152.90241,-27.56636],[152.90118,-27.56946],[152.89557,-27.57492],[152.89475,-27.58003],[152.89702,-27.58596],[152.90309,-27.59147],[152.90588,-27.59617],[152.90676,-27.60093],[152.90552,-27.6022],[152.90097,-27.60314],[152.90306,-27.60544],[152.91215,-27.60648],[152.91553,-27.60499],[152.92178,-27.60624],[152.92844,-27.61124],[152.93426,-27.61405],[152.94072,-27.62341],[152.94089,-27.62865],[152.94787,-27.63212],[152.95637,-27.63462],[152.96837,-27.63613],[152.97322,-27.63915],[152.97689,-27.64484],[152.98975,-27.65158],[152.99795,-27.65452],[153.01205,-27.65713],[153.01625,-27.65689],[153.03722,-27.66021],[153.04004,-27.65401],[153.05876,-27.65679],[153.06766,-27.65105],[153.0781,-27.65186],[153.09541,-27.64504],[153.09461,-27.63176],[153.09749,-27.62288],[153.09373,-27.6208],[153.09471,-27.61716],[153.10113,-27.61792],[153.10585,-27.59318],[153.10973,-27.59365],[153.11053,-27.59376]]],[[[152.73017,-27.49561],[152.73967,-27.50531],[152.744,-27.51388],[152.75158,-27.51765],[152.75913,-27.51723],[152.7622,-27.51885],[152.76235,-27.52404],[152.7557,-27.52339],[152.74979,-27.52491],[152.74551,-27.5341],[152.74034,-27.55892],[152.74026,-27.56416],[152.74321,-27.56713],[152.74912,-27.56534],[152.75382,-27.56831],[152.76736,-27.55599],[152.77264,-27.55947],[152.77981,-27.55972],[152.78528,-27.55616],[152.78275,-27.55157],[152.78649,-27.55035],[152.78931,-27.55454],[152.7965,-27.55483],[152.80893,-27.55754],[152.82012,-27.55593],[152.82352,-27.55043],[152.83254,-27.5469],[152.84082,-27.54523],[152.83977,-27.5398],[152.83053,-27.53678],[152.83146,-27.53312],[152.84173,-27.53086],[152.84722,-27.53276],[152.85268,-27.54269],[152.8519,-27.54967],[152.84953,-27.55475],[152.84899,-27.56464],[152.85335,-27.5744],[152.85566,-27.58251],[152.85639,-27.59604],[152.86071,-27.59797],[152.86353,-27.59563],[152.86992,-27.58097],[152.87655,-27.57992],[152.89158,-27.59313],[152.89463,-27.59948],[152.9008,-27.60244],[152.90599,-27.60126],[152.90508,-27.59605],[152.89704,-27.58668],[152.89397,-27.5793],[152.89503,-27.57472],[152.90156,-27.56762],[152.89585,-27.56301],[152.89454,-27.56053],[152.89684,-27.55919],[152.90499,-27.55689],[152.90597,-27.55301],[152.90274,-27.54732],[152.90614,-27.54362],[152.92216,-27.54231],[152.92659,-27.53897],[152.92744,-27.52954],[152.92971,-27.5276],[152.93837,-27.52539],[152.95002,-27.52727],[152.95929,-27.53265],[152.96644,-27.54348],[152.97084,-27.54353],[152.97353,-27.54067],[152.96987,-27.53507],[152.97069,-27.52512],[152.9668,-27.51905],[152.96586,-27.51477],[152.9681,-27.50728],[152.97061,-27.50456],[152.97695,-27.50596],[152.98652,-27.51261],[152.99031,-27.51796],[152.99796,-27.52204],[153.00737,-27.52144],[153.00757,-27.51716],[153.0016,-27.51697],[152.99781,-27.51483],[153.00045,-27.50688],[153.00709,-27.50364],[153.02062,-27.50074],[153.01875,-27.49585],[153.01207,-27.49156],[153.00117,-27.49262],[152.99459,-27.48979],[152.99532,-27.48511],[152.99918,-27.47927],[153.01085,-27.46913],[153.01776,-27.4681],[153.02817,-27.4795],[153.03269,-27.47648],[153.031,-27.46844],[153.03381,-27.46289],[153.0396,-27.46566],[153.04226,-27.47434],[153.04907,-27.47413],[153.05474,-27.46907],[153.05224,-27.46484],[153.05004,-27.45385],[153.04704,-27.44837],[153.0466,-27.44307],[153.04938,-27.44035],[153.05621,-27.43922],[153.06721,-27.4409],[153.08352,-27.44526],[153.0948,-27.4448],[153.11008,-27.44014],[153.11955,-27.42894],[153.13591,-27.42104],[153.14065,-27.41756],[153.1452,-27.41014],[153.1456,-27.40271],[153.15044,-27.39461],[153.14638,-27.38819],[153.1528,-27.38457],[153.16044,-27.37793],[153.15734,-27.37512],[153.1561,-27.3633],[153.15231,-27.36136],[153.13862,-27.36115],[153.12244,-27.3524],[153.1078,-27.34801],[153.09385,-27.33912],[153.08256,-27.33346],[153.08754,-27.32943],[153.08676,-27.32529],[153.08357,-27.32242],[153.07535,-27.32061],[153.06971,-27.31412],[153.06635,-27.30642],[153.06448,-27.29734],[153.06506,-27.28884],[153.06407,-27.28355],[153.06622,-27.28127],[153.04959,-27.27866],[153.04081,-27.27952],[153.03746,-27.28183],[153.03509,-27.28666],[153.03658,-27.29294],[153.03472,-27.2979],[153.03094,-27.29837],[153.0146,-27.28849],[153.01168,-27.29697],[153.00717,-27.30115],[152.99699,-27.30254],[152.99672,-27.30919],[153.00042,-27.31205],[153.00261,-27.31664],[153.00023,-27.32289],[152.99475,-27.32857],[152.9941,-27.33395],[152.98904,-27.33609],[152.98131,-27.34241],[152.98052,-27.34854],[152.98255,-27.35319],[152.98743,-27.35474],[152.98775,-27.35951],[152.98167,-27.35862],[152.98069,-27.36408],[152.98308,-27.36811],[152.98004,-27.37075],[152.98147,-27.38053],[152.9839,-27.38469],[152.97529,-27.39202],[152.97809,-27.39458],[152.97693,-27.40066],[152.96586,-27.39685],[152.95921,-27.40013],[152.95895,-27.40279],[152.95259,-27.40586],[152.94457,-27.40599],[152.9252,-27.39332],[152.91695,-27.39417],[152.91505,-27.4057],[152.89932,-27.40355],[152.89723,-27.41727],[152.8769,-27.41435],[152.87453,-27.41136],[152.8648,-27.41784],[152.86115,-27.42236],[152.85303,-27.42059],[152.84932,-27.42194],[152.84278,-27.41765],[152.8368,-27.41884],[152.83116,-27.41694],[152.8257,-27.41227],[152.82086,-27.41069],[152.81538,-27.40525],[152.81416,-27.4021],[152.80272,-27.39992],[152.79866,-27.40509],[152.77562,-27.40167],[152.77478,-27.39313],[152.77573,-27.38923],[152.76959,-27.37885],[152.76232,-27.37174],[152.76152,-27.36182],[152.7629,-27.3546],[152.76668,-27.35137],[152.77204,-27.34987],[152.77189,-27.34318],[152.7676,-27.33497],[152.7645,-27.33549],[152.75949,-27.33026],[152.75468,-27.33313],[152.74885,-27.33229],[152.75052,-27.3204],[152.74851,-27.31874],[152.74486,-27.319],[152.73917,-27.32333],[152.72491,-27.32221],[152.71956,-27.32345],[152.7173,-27.33061],[152.7102,-27.33254],[152.69567,-27.34284],[152.69084,-27.34356],[152.68419,-27.34878],[152.6797,-27.37225],[152.68641,-27.3732],[152.69051,-27.37011],[152.69226,-27.36],[152.69953,-27.36098],[152.70034,-27.35613],[152.70693,-27.35698],[152.70782,-27.35179],[152.7239,-27.35396],[152.72202,-27.36507],[152.73324,-27.36662],[152.73219,-27.37265],[152.73685,-27.37333],[152.73295,-27.39598],[152.73725,-27.39292],[152.74337,-27.39471],[152.74038,-27.40019],[152.74137,-27.40616],[152.74723,-27.40707],[152.74583,-27.41522],[152.74813,-27.41552],[152.74753,-27.42325],[152.7442,-27.42784],[152.74273,-27.43637],[152.74605,-27.43685],[152.74721,-27.44301],[152.74413,-27.46012],[152.73827,-27.45931],[152.73785,-27.46463],[152.74061,-27.47574],[152.74264,-27.47981],[152.73973,-27.48261],[152.73801,-27.49459],[152.73017,-27.49561]]],[[[153.23609,-27.422],[153.22853,-27.42213],[153.23347,-27.43001],[153.23707,-27.42718],[153.23609,-27.422]]],[[[153.1885,-27.40176],[153.18428,-27.39383],[153.17801,-27.39676],[153.1885,-27.40176]]]]},"properties":{"LGA Code":"1000","Abbreviated Name":"Brisbane","LGA Name":"Brisbane City","Area Sq Km":1378.04081,"LDMG Name":"Brisbane","Police Region Name":"Brisbane Region","Police Region Code":"BR","Police Region Short Name":"Brisbane"}},{"type":"Feature","geometry":{"type":"MultiPolygon","coordinates":[[[[153.06622,-27.28127],[153.07862,-27.26451],[153.07381,-27.26261],[153.06929,-27.25677],[153.06675,-27.24683],[153.06157,-27.23715],[153.05594,-27.23472],[153.05457,-27.22978],[153.06787,-27.22845],[153.06986,-27.22626],[153.07572,-27.22799],[153.0767,-27.23162],[153.07282,-27.23946],[153.0704,-27.24128],[153.06908,-27.247],[153.07144,-27.25661],[153.07951,-27.26337],[153.0848,-27.25827],[153.08745,-27.25935],[153.09272,-27.25632],[153.1023,-27.2603],[153.10798,-27.2615],[153.11129,-27.24558],[153.11515,-27.23496],[153.11781,-27.2333],[153.11515,-27.22699],[153.1164,-27.21659],[153.11908,-27.21234],[153.11625,-27.20858],[153.11668,-27.19835],[153.11256,-27.19049],[153.10323,-27.19981],[153.09708,-27.20314],[153.0875,-27.20601],[153.08222,-27.20345],[153.07463,-27.2023],[153.04895,-27.19451],[153.04035,-27.19718],[153.03707,-27.19635],[153.03205,-27.18935],[153.02947,-27.18049],[153.0305,-27.17382],[153.03542,-27.16723],[153.03542,-27.16257],[153.04046,-27.15868],[153.0415,-27.15377],[153.04852,-27.14417],[153.05485,-27.12942],[153.06702,-27.11008],[153.09856,-27.09296],[153.10618,-27.0884],[153.12028,-27.08499],[153.13004,-27.08691],[153.14285,-27.08049],[153.14407,-27.07585],[153.13816,-27.07193],[153.1337,-27.06672],[153.12569,-27.06275],[153.11244,-27.0645],[153.10758,-27.05792],[153.11114,-27.0568],[153.11261,-27.05287],[153.10511,-27.04333],[153.10265,-27.03506],[153.09373,-27.02752],[153.08887,-27.02585],[153.08489,-27.02718],[153.08368,-27.0224],[153.08573,-27.01803],[153.08328,-27.01498],[153.07789,-27.01413],[153.07238,-27.00868],[153.07135,-27.00029],[153.06367,-26.99662],[153.06864,-26.99326],[153.06988,-26.9883],[153.06634,-26.98371],[153.06009,-26.97997],[153.05586,-26.98081],[153.05327,-26.97578],[153.04962,-26.97505],[153.04278,-26.96946],[153.01846,-26.96634],[153.01686,-26.97905],[153.0116,-26.97898],[153.00297,-26.98477],[152.98843,-26.98312],[152.98514,-26.98471],[152.97814,-26.98025],[152.97502,-26.97437],[152.96664,-26.97879],[152.96134,-26.97255],[152.95337,-26.96844],[152.95161,-26.96602],[152.93258,-26.96331],[152.92352,-26.96008],[152.91973,-26.9555],[152.91329,-26.95396],[152.90372,-26.95388],[152.89844,-26.95802],[152.89116,-26.96074],[152.88552,-26.95594],[152.87401,-26.95831],[152.85806,-26.95619],[152.86136,-26.93627],[152.86828,-26.9336],[152.87254,-26.9302],[152.87545,-26.91351],[152.85947,-26.91129],[152.86118,-26.90274],[152.85534,-26.90189],[152.85428,-26.89456],[152.85549,-26.88737],[152.86679,-26.88891],[152.86948,-26.87286],[152.85748,-26.87122],[152.85834,-26.86607],[152.85171,-26.86518],[152.8532,-26.85621],[152.84805,-26.85815],[152.83858,-26.85501],[152.83237,-26.85611],[152.82905,-26.85021],[152.82448,-26.84937],[152.81815,-26.8402],[152.8184,-26.83745],[152.81144,-26.82838],[152.8049,-26.82415],[152.80102,-26.82631],[152.79209,-26.82708],[152.78674,-26.82225],[152.78861,-26.81296],[152.77726,-26.80939],[152.7795,-26.79712],[152.77103,-26.79594],[152.76692,-26.79331],[152.7611,-26.79235],[152.75919,-26.80304],[152.75308,-26.79734],[152.74949,-26.81628],[152.73918,-26.80801],[152.73297,-26.81494],[152.72908,-26.81662],[152.72663,-26.81146],[152.72099,-26.80855],[152.70914,-26.81112],[152.69645,-26.80912],[152.6988,-26.80297],[152.67922,-26.79986],[152.67877,-26.80877],[152.68132,-26.80993],[152.67903,-26.81642],[152.67197,-26.81892],[152.67846,-26.83033],[152.67274,-26.83439],[152.66736,-26.83608],[152.66679,-26.84026],[152.67084,-26.84499],[152.67002,-26.8548],[152.67762,-26.86358],[152.67592,-26.86613],[152.68022,-26.86936],[152.68664,-26.87756],[152.6873,-26.88639],[152.68934,-26.88888],[152.68862,-26.89691],[152.67894,-26.89558],[152.67857,-26.89777],[152.66751,-26.89624],[152.66745,-26.90412],[152.66225,-26.91011],[152.68743,-26.91362],[152.68233,-26.91515],[152.6783,-26.91843],[152.6763,-26.92353],[152.67333,-26.92388],[152.66966,-26.92934],[152.67005,-26.93712],[152.66537,-26.94282],[152.66308,-26.94816],[152.65885,-26.94983],[152.65327,-26.94904],[152.65178,-26.95381],[152.66773,-26.95906],[152.66594,-26.96896],[152.67145,-26.96525],[152.67414,-26.96624],[152.6807,-26.96415],[152.68446,-26.96855],[152.68022,-26.97197],[152.67986,-26.97836],[152.68677,-26.97961],[152.68649,-26.98475],[152.68328,-26.99215],[152.68715,-26.99693],[152.69106,-27.00453],[152.69705,-27.0095],[152.69729,-27.01605],[152.70081,-27.01827],[152.70024,-27.02271],[152.70251,-27.03079],[152.69747,-27.03346],[152.69812,-27.03954],[152.69231,-27.04668],[152.68915,-27.04827],[152.69072,-27.05272],[152.69544,-27.05624],[152.69497,-27.05901],[152.67768,-27.05695],[152.68355,-27.06556],[152.68563,-27.072],[152.68691,-27.08332],[152.67614,-27.08901],[152.67932,-27.09476],[152.68334,-27.09514],[152.68976,-27.09278],[152.69581,-27.09486],[152.70797,-27.09626],[152.71807,-27.10221],[152.72621,-27.10321],[152.73447,-27.10233],[152.73352,-27.10742],[152.73032,-27.10874],[152.73011,-27.11845],[152.72811,-27.12193],[152.73053,-27.12585],[152.73483,-27.14167],[152.73934,-27.15092],[152.72907,-27.16376],[152.7334,-27.17065],[152.72902,-27.17324],[152.72298,-27.18046],[152.71861,-27.18273],[152.71631,-27.18663],[152.71228,-27.18873],[152.70355,-27.19919],[152.70174,-27.20432],[152.70417,-27.20879],[152.70047,-27.21979],[152.70223,-27.22634],[152.70022,-27.23021],[152.69087,-27.23594],[152.69274,-27.24035],[152.68741,-27.24898],[152.68176,-27.25402],[152.68156,-27.26378],[152.68358,-27.2716],[152.68691,-27.27491],[152.69052,-27.27444],[152.70462,-27.27696],[152.70557,-27.28606],[152.70376,-27.2904],[152.70718,-27.29221],[152.71309,-27.28958],[152.71756,-27.29274],[152.73508,-27.29698],[152.73928,-27.29369],[152.74561,-27.29337],[152.75224,-27.29543],[152.75685,-27.30065],[152.75596,-27.30978],[152.74913,-27.31321],[152.74851,-27.31874],[152.75052,-27.3204],[152.74885,-27.33229],[152.75468,-27.33313],[152.75949,-27.33026],[152.7645,-27.33549],[152.7676,-27.33497],[152.77189,-27.34318],[152.77204,-27.34987],[152.76668,-27.35137],[152.7629,-27.3546],[152.76152,-27.36182],[152.76232,-27.37174],[152.76959,-27.37885],[152.77573,-27.38923],[152.77478,-27.39313],[152.77562,-27.40167],[152.79866,-27.40509],[152.80272,-27.39992],[152.81416,-27.4021],[152.81538,-27.40525],[152.82086,-27.41069],[152.8257,-27.41227],[152.83116,-27.41694],[152.8368,-27.41884],[152.84278,-27.41765],[152.84932,-27.42194],[152.85303,-27.42059],[152.86115,-27.42236],[152.8648,-27.41784],[152.87453,-27.41136],[152.8769,-27.41435],[152.89723,-27.41727],[152.89932,-27.40355],[152.91505,-27.4057],[152.91695,-27.39417],[152.9252,-27.39332],[152.94457,-27.40599],[152.95259,-27.40586],[152.95895,-27.40279],[152.95921,-27.40013],[152.96586,-27.39685],[152.97693,-27.40066],[152.97809,-27.39458],[152.97529,-27.39202],[152.9839,-27.38469],[152.98147,-27.38053],[152.98004,-27.37075],[152.98308,-27.36811],[152.98069,-27.36408],[152.98167,-27.35862],[152.98775,-27.35951],[152.98743,-27.35474],[152.98255,-27.35319],[152.98052,-27.34854],[152.98131,-27.34241],[152.98904,-27.33609],[152.9941,-27.33395],[152.99475,-27.32857],[153.00023,-27.32289],[153.00261,-27.31664],[153.00042,-27.31205],[152.99672,-27.30919],[152.99699,-27.30254],[153.00717,-27.30115],[153.01168,-27.29697],[153.0146,-27.28849],[153.03094,-27.29837],[153.03472,-27.2979],[153.03658,-27.29294],[153.03509,-27.28666],[153.03746,-27.28183],[153.04081,-27.27952],[153.04959,-27.27866],[153.06622,-27.28127]],[[152.84621,-26.89183],[152.84695,-26.88745],[152.85066,-26.88675],[152.85204,-26.89202],[152.84621,-26.89183]]],[[[153.07751,-26.97632],[153.0779,-26.98067],[153.08368,-26.98653],[153.09057,-26.98862],[153.09473,-26.99371],[153.09718,-26.99958],[153.09916,-27.01436],[153.10905,-27.02163],[153.11923,-27.02713],[153.12505,-27.03446],[153.13165,-27.03592],[153.13206,-27.04107],[153.13534,-27.05408],[153.13917,-27.06008],[153.14401,-27.06251],[153.1467,-27.06755],[153.15515,-27.0726],[153.16021,-27.09019],[153.16678,-27.09986],[153.17642,-27.10016],[153.18059,-27.09836],[153.19422,-27.0974],[153.19831,-27.0937],[153.20079,-27.08836],[153.20659,-27.08342],[153.20629,-27.07278],[153.20273,-27.06322],[153.19863,-27.05597],[153.19078,-27.04543],[153.18091,-27.0287],[153.16753,-27.0024],[153.15763,-26.97421],[153.14696,-26.93732],[153.08697,-26.95197],[153.08689,-26.9521],[153.08675,-26.95466],[153.08403,-26.95738],[153.08398,-26.95747],[153.08372,-26.95793],[153.08362,-26.9581],[153.07938,-26.96029],[153.07977,-26.96989],[153.07945,-26.97057],[153.07924,-26.97161],[153.07904,-26.97244],[153.07895,-26.97359],[153.07875,-26.97397],[153.07848,-26.97454],[153.07797,-26.97555],[153.07784,-26.97583],[153.07755,-26.97626],[153.07751,-26.97632]]],[[[153.0845,-27.00921],[153.08493,-27.00512],[153.08054,-27.00135],[153.07751,-27.00436],[153.07733,-27.00924],[153.0845,-27.00921]]]]},"properties":{"LGA Code":"5010","Abbreviated Name":"Moreton Bay","LGA Name":"Moreton Bay City","Area Sq Km":2071.09352,"LDMG Name":"Moreton Bay","Police Region Name":"Brisbane Region","Police Region Code":"BR","Police Region Short Name":"Brisbane"}},{"type":"Feature","geometry":{"type":"MultiPolygon","coordinates":[[[[153.17572,-27.6066],[153.18377,-27.61257],[153.18174,-27.6243],[153.17575,-27.62346],[153.17385,-27.63424],[153.1823,-27.63407],[153.18322,-27.63828],[153.18755,-27.64074],[153.19393,-27.63946],[153.207,-27.64121],[153.20872,-27.64507],[153.23879,-27.64921],[153.23889,-27.64734],[153.25493,-27.64957],[153.25453,-27.65279],[153.26246,-27.65397],[153.26286,-27.65606],[153.27991,-27.65841],[153.28265,-27.67418],[153.28098,-27.68316],[153.28234,-27.68697],[153.28857,-27.68694],[153.28658,-27.69327],[153.29253,-27.69203],[153.29505,-27.69948],[153.30102,-27.70657],[153.30752,-27.70722],[153.31311,-27.70562],[153.32285,-27.69919],[153.32107,-27.69256],[153.31621,-27.68222],[153.31653,-27.67863],[153.31998,-27.67273],[153.31133,-27.66342],[153.3084,-27.65509],[153.30859,-27.64873],[153.31416,-27.64072],[153.31162,-27.63409],[153.31045,-27.62691],[153.31138,-27.61777],[153.30445,-27.61194],[153.30391,-27.60515],[153.30172,-27.60332],[153.30233,-27.59533],[153.30707,-27.59037],[153.31242,-27.58977],[153.31221,-27.58168],[153.30849,-27.57991],[153.30491,-27.574],[153.30867,-27.56906],[153.30819,-27.5649],[153.29962,-27.5632],[153.28943,-27.56463],[153.29052,-27.56098],[153.28486,-27.55521],[153.28122,-27.54777],[153.28208,-27.54275],[153.2779,-27.54052],[153.28484,-27.53485],[153.28362,-27.5296],[153.28664,-27.52392],[153.2892,-27.51407],[153.27334,-27.51631],[153.26246,-27.51622],[153.26068,-27.51383],[153.26314,-27.50622],[153.26346,-27.49951],[153.26112,-27.49714],[153.25994,-27.48293],[153.24279,-27.48143],[153.24227,-27.47528],[153.23888,-27.47246],[153.2351,-27.47989],[153.23152,-27.48178],[153.22242,-27.48316],[153.2178,-27.48134],[153.21297,-27.48241],[153.20402,-27.47995],[153.20281,-27.47329],[153.19713,-27.47414],[153.19653,-27.48155],[153.18812,-27.48404],[153.18746,-27.49089],[153.1918,-27.49229],[153.18579,-27.49822],[153.1911,-27.50861],[153.1975,-27.5101],[153.20086,-27.51452],[153.19346,-27.51804],[153.18833,-27.51819],[153.18404,-27.52294],[153.18579,-27.52749],[153.18007,-27.52987],[153.17236,-27.53503],[153.17426,-27.54218],[153.18198,-27.54113],[153.18286,-27.55024],[153.18872,-27.55171],[153.19133,-27.56088],[153.18192,-27.56231],[153.17979,-27.57016],[153.18256,-27.57365],[153.17764,-27.57855],[153.17908,-27.58071],[153.17763,-27.5867],[153.17185,-27.59108],[153.17417,-27.59548],[153.17156,-27.59944],[153.17607,-27.60165],[153.17572,-27.6066]]],[[[153.3854,-27.70986],[153.37194,-27.70728],[153.3698,-27.71042],[153.37153,-27.70826],[153.38054,-27.71115],[153.3854,-27.70986]]],[[[153.43375,-27.73902],[153.42639,-27.74189],[153.41514,-27.7418],[153.40964,-27.73926],[153.40578,-27.73441],[153.40462,-27.72606],[153.40204,-27.71989],[153.39079,-27.70719],[153.39312,-27.71506],[153.40139,-27.72161],[153.4046,-27.72852],[153.40508,-27.73384],[153.40827,-27.74084],[153.41563,-27.74375],[153.42525,-27.74265],[153.43375,-27.73902]]],[[[153.44845,-27.39061],[153.44093,-27.39233],[153.43812,-27.39612],[153.43654,-27.40383],[153.43926,-27.4139],[153.43536,-27.42991],[153.42876,-27.44977],[153.42922,-27.45256],[153.42405,-27.4648],[153.42303,-27.47012],[153.41773,-27.47472],[153.40913,-27.47601],[153.40894,-27.48294],[153.40646,-27.48997],[153.39839,-27.49642],[153.40256,-27.50287],[153.40998,-27.50656],[153.41254,-27.51164],[153.41272,-27.51682],[153.40994,-27.524],[153.4104,-27.5311],[153.40925,-27.53786],[153.41193,-27.54878],[153.41033,-27.56776],[153.41256,-27.57208],[153.41031,-27.57683],[153.41339,-27.57886],[153.41172,-27.587],[153.41374,-27.59429],[153.41046,-27.60614],[153.40708,-27.61101],[153.40937,-27.62029],[153.41243,-27.6227],[153.4162,-27.63197],[153.42166,-27.64205],[153.4184,-27.64893],[153.41135,-27.65329],[153.40896,-27.65645],[153.3999,-27.66144],[153.39879,-27.66487],[153.4014,-27.66894],[153.39676,-27.68208],[153.40215,-27.69235],[153.40017,-27.70245],[153.39312,-27.70668],[153.40531,-27.72198],[153.40577,-27.73207],[153.40776,-27.73537],[153.41664,-27.74029],[153.42523,-27.74044],[153.43574,-27.73502],[153.43214,-27.7283],[153.43683,-27.71804],[153.44574,-27.71631],[153.44418,-27.72708],[153.43796,-27.7271],[153.43572,-27.73024],[153.43906,-27.73331],[153.44523,-27.73115],[153.45129,-27.72716],[153.45332,-27.72188],[153.45311,-27.71345],[153.45426,-27.69886],[153.45672,-27.68136],[153.46155,-27.65573],[153.46885,-27.62267],[153.47292,-27.60623],[153.48139,-27.57912],[153.48736,-27.56207],[153.50197,-27.5225],[153.52351,-27.46915],[153.52871,-27.45803],[153.54257,-27.43592],[153.54188,-27.4251],[153.53544,-27.42395],[153.53291,-27.42587],[153.52475,-27.42623],[153.51454,-27.42077],[153.50867,-27.42196],[153.49808,-27.42102],[153.48452,-27.4163],[153.47383,-27.40889],[153.46139,-27.39361],[153.45377,-27.38812],[153.44845,-27.39061]]],[[[153.32076,-27.67919],[153.31944,-27.68171],[153.32138,-27.69027],[153.32745,-27.69484],[153.33911,-27.69517],[153.33991,-27.69062],[153.33491,-27.68311],[153.32649,-27.6774],[153.32076,-27.67919]]],[[[153.37485,-27.70694],[153.38492,-27.70933],[153.39035,-27.70437],[153.39506,-27.6918],[153.39311,-27.6846],[153.39361,-27.67371],[153.39232,-27.66624],[153.38832,-27.65858],[153.39023,-27.65543],[153.39587,-27.65364],[153.40612,-27.64228],[153.39732,-27.64561],[153.3894,-27.64239],[153.38977,-27.64599],[153.37095,-27.64606],[153.365,-27.65273],[153.36581,-27.66989],[153.3695,-27.67164],[153.37279,-27.66843],[153.3771,-27.67096],[153.37797,-27.67701],[153.37376,-27.68045],[153.37378,-27.68496],[153.36962,-27.68814],[153.36537,-27.69607],[153.36904,-27.70308],[153.37485,-27.70694]]],[[[153.3556,-27.66554],[153.35609,-27.65268],[153.35138,-27.65725],[153.35339,-27.66721],[153.34952,-27.67918],[153.35029,-27.68418],[153.35526,-27.68711],[153.36177,-27.68396],[153.35881,-27.67735],[153.3556,-27.66554]]],[[[153.39582,-27.65912],[153.40233,-27.65609],[153.4091,-27.65463],[153.41032,-27.64992],[153.40211,-27.65215],[153.39582,-27.65912]]],[[[153.32845,-27.63692],[153.32546,-27.64842],[153.32294,-27.65196],[153.32764,-27.65986],[153.3292,-27.67047],[153.33924,-27.65607],[153.34114,-27.64659],[153.33186,-27.63589],[153.32845,-27.63692]]],[[[153.38486,-27.63881],[153.37981,-27.639],[153.37382,-27.63609],[153.36318,-27.6351],[153.36501,-27.63952],[153.37738,-27.64259],[153.38433,-27.64086],[153.38486,-27.63881]]],[[[153.33559,-27.621],[153.33622,-27.62732],[153.34739,-27.63873],[153.35182,-27.63491],[153.34999,-27.63024],[153.34229,-27.62714],[153.33944,-27.62047],[153.33559,-27.621]]],[[[153.38302,-27.61986],[153.37536,-27.62108],[153.37244,-27.63075],[153.37826,-27.6319],[153.38536,-27.62639],[153.38302,-27.61986]]],[[[153.33519,-27.61697],[153.34095,-27.61677],[153.34126,-27.60419],[153.33605,-27.60758],[153.33355,-27.6156],[153.33519,-27.61697]]],[[[153.35787,-27.58737],[153.3536,-27.59121],[153.35428,-27.59396],[153.35161,-27.60055],[153.349,-27.60221],[153.3486,-27.62276],[153.35605,-27.62539],[153.3619,-27.63238],[153.36762,-27.63076],[153.37302,-27.62443],[153.37243,-27.62062],[153.37615,-27.61903],[153.37298,-27.61077],[153.36889,-27.60986],[153.36814,-27.61607],[153.36036,-27.61432],[153.359,-27.60685],[153.36239,-27.60179],[153.36346,-27.58214],[153.35721,-27.58352],[153.35787,-27.58737]]],[[[153.31876,-27.57351],[153.32384,-27.57487],[153.33745,-27.57344],[153.33877,-27.56676],[153.33197,-27.56276],[153.32678,-27.5651],[153.32637,-27.57039],[153.32104,-27.57015],[153.31876,-27.57351]]],[[[153.34167,-27.51242],[153.34455,-27.51396],[153.35194,-27.50626],[153.35676,-27.50294],[153.3643,-27.50022],[153.37463,-27.49843],[153.37388,-27.4931],[153.3711,-27.48964],[153.36383,-27.48911],[153.35928,-27.48576],[153.35774,-27.49041],[153.3517,-27.49323],[153.34504,-27.49308],[153.33813,-27.49637],[153.34153,-27.50345],[153.34167,-27.51242]]]]},"properties":{"LGA Code":"6250","Abbreviated Name":"Redland","LGA Name":"Redland City","Area Sq Km":907.3914,"LDMG Name":"Redland","Police Region Name":"Brisbane Region","Police Region Code":"BR","Police Region Short Name":"Brisbane"}}]}