{"type":"FeatureCollection","name":"qld_northern_ddmg_boundaries_gda2020_simp200m","crs":{"type":"name","properties":{"name":"urn:ogc:def:crs:EPSG::7844"}},"features":[{"type":"Feature","geometry":{"type":"MultiPolygon","coordinates":[[[[141.48477,-15.49917],[141.47963,-15.5053],[141.47305,-15.52165],[141.46825,-15.53721],[141.4562,-15.58207],[141.4518,-15.60146],[141.44125,-15.645],[141.43622,-15.66119],[141.43555,-15.6684],[141.43055,-15.69522],[141.42651,-15.71193],[141.42525,-15.71976],[141.42345,-15.73955],[141.42033,-15.78259],[141.41987,-15.79315],[141.41644,-15.82638],[141.41575,-15.83775],[141.41276,-15.85537],[141.40931,-15.87129],[141.40306,-15.88686],[141.39646,-15.90016],[141.39757,-15.90963],[141.39276,-15.91315],[141.39044,-15.91236],[141.38428,-15.9154],[141.3792,-15.91964],[141.37996,-15.92567],[141.39267,-15.9512],[141.39513,-15.96019],[141.3949,-15.96581],[141.3971,-15.97147],[141.39962,-15.98424],[141.40391,-15.9964],[141.40623,-16.00859],[141.41056,-16.02445],[141.41258,-16.02728],[141.41816,-16.04046],[141.42472,-16.05159],[141.42752,-16.05396],[141.43057,-16.06177],[141.43295,-16.07271],[141.43007,-16.08572],[141.42175,-16.10515],[141.41237,-16.12277],[141.40042,-16.14366],[141.38875,-16.16015],[141.3873,-16.16342],[141.36791,-16.19258],[141.36632,-16.19572],[141.35401,-16.2139],[141.34809,-16.22613],[141.34587,-16.23566],[141.34847,-16.24289],[141.34619,-16.25697],[141.3425,-16.27554],[141.33683,-16.28924],[141.33647,-16.29354],[141.32659,-16.32418],[141.32675,-16.32777],[141.32112,-16.34562],[141.31838,-16.35236],[141.31292,-16.36085],[141.30634,-16.37453],[141.30133,-16.38277],[141.29952,-16.39344],[141.29651,-16.39722],[141.2913,-16.39914],[141.28821,-16.40816],[141.28799,-16.42161],[141.29106,-16.42745],[141.30005,-16.43724],[141.30568,-16.44915],[141.30775,-16.46508],[141.30704,-16.47354],[141.30442,-16.48426],[141.29305,-16.50458],[141.28956,-16.51333],[141.28282,-16.52747],[141.27458,-16.54332],[141.27428,-16.55276],[141.26994,-16.56028],[141.26392,-16.55334],[141.25947,-16.55299],[141.25006,-16.55925],[141.24443,-16.57161],[141.24387,-16.57527],[141.23848,-16.58036],[141.23578,-16.58687],[141.23458,-16.59807],[141.23122,-16.60823],[141.22705,-16.62516],[141.2233,-16.65212],[141.21796,-16.66669],[141.20587,-16.68798],[141.20445,-16.69199],[141.20034,-16.6954],[141.18446,-16.72066],[141.16246,-16.74638],[141.14327,-16.76658],[141.12882,-16.77976],[141.11069,-16.79394],[141.09837,-16.80028],[141.09671,-16.80781],[141.09135,-16.80877],[141.0848,-16.80592],[141.08232,-16.80702],[141.07798,-16.81964],[141.07939,-16.83242],[141.07347,-16.85286],[141.06485,-16.87024],[141.05424,-16.88625],[141.04244,-16.90291],[141.02737,-16.92166],[141.01122,-16.94072],[140.99605,-16.95417],[140.98419,-16.96314],[140.97416,-16.97309],[140.96432,-16.99122],[140.95889,-16.99848],[140.95241,-17.01548],[140.94756,-17.03505],[140.94689,-17.04059],[140.94857,-17.04691],[140.95149,-17.05065],[140.95111,-17.05956],[140.95408,-17.06553],[140.9558,-17.07852],[140.95525,-17.08621],[140.95693,-17.09106],[140.95389,-17.10023],[140.95531,-17.10486],[140.95322,-17.12205],[140.94912,-17.14535],[140.95023,-17.15181],[140.94721,-17.15555],[140.93939,-17.17448],[140.94043,-17.18461],[140.93945,-17.18658],[140.93197,-17.18998],[140.92468,-17.20041],[140.92526,-17.21329],[140.91721,-17.22501],[140.91379,-17.23225],[140.91039,-17.25045],[140.91001,-17.25963],[140.90809,-17.27859],[140.90512,-17.27979],[140.9047,-17.28634],[140.90708,-17.28877],[140.9028,-17.29728],[140.90046,-17.3045],[140.8993,-17.31448],[140.90032,-17.3235],[140.89371,-17.34299],[140.89349,-17.3493],[140.88957,-17.36062],[140.8884,-17.36794],[140.88396,-17.37591],[140.88742,-17.38231],[140.88155,-17.38345],[140.86603,-17.40583],[140.85842,-17.41558],[140.85492,-17.42193],[140.84765,-17.43219],[140.84535,-17.43802],[140.83526,-17.44768],[140.82731,-17.45845],[140.8284,-17.46534],[140.81202,-17.46485],[140.80252,-17.46777],[140.79018,-17.47291],[140.77009,-17.47803],[140.77009,-17.48193],[140.75944,-17.48768],[140.74419,-17.50176],[140.7403,-17.51049],[140.73724,-17.51457],[140.73329,-17.51615],[140.71657,-17.51284],[140.7108,-17.5097],[140.70234,-17.51798],[140.6894,-17.5247],[140.67502,-17.53415],[140.67331,-17.53708],[140.6557,-17.55546],[140.65287,-17.55536],[140.64431,-17.56465],[140.63044,-17.57476],[140.60621,-17.58886],[140.59931,-17.59232],[140.59363,-17.59783],[140.58353,-17.59833],[140.57228,-17.60217],[140.56605,-17.60268],[140.55976,-17.60572],[140.54466,-17.61915],[140.52549,-17.63004],[140.50675,-17.63652],[140.47918,-17.64487],[140.46798,-17.64478],[140.46221,-17.64887],[140.4543,-17.64618],[140.45179,-17.64214],[140.44627,-17.64604],[140.43447,-17.64981],[140.42644,-17.65703],[140.41367,-17.66414],[140.39259,-17.67493],[140.37821,-17.67971],[140.3643,-17.682],[140.35066,-17.68546],[140.32982,-17.68793],[140.31114,-17.68882],[140.30624,-17.6904],[140.2883,-17.69395],[140.28376,-17.69589],[140.27748,-17.69507],[140.2616,-17.69802],[140.25523,-17.69747],[140.24759,-17.6985],[140.23259,-17.7027],[140.22929,-17.70294],[140.21444,-17.70872],[140.21007,-17.70351],[140.20458,-17.70306],[140.18924,-17.70591],[140.18314,-17.70817],[140.17374,-17.70864],[140.16179,-17.71162],[140.15967,-17.71372],[140.15497,-17.71198],[140.14213,-17.71411],[140.12469,-17.71889],[140.08994,-17.72318],[140.04478,-17.72229],[140.03047,-17.72133],[140.00681,-17.71624],[139.99262,-17.71186],[139.98252,-17.7062],[139.97284,-17.69974],[139.95766,-17.68704],[139.94469,-17.67235],[139.9402,-17.6647],[139.93814,-17.659],[139.93856,-17.64797],[139.93497,-17.64562],[139.94127,-17.63753],[139.9384,-17.63177],[139.92276,-17.62348],[139.91523,-17.62196],[139.9106,-17.61939],[139.89329,-17.61504],[139.8775,-17.60973],[139.84745,-17.59616],[139.84479,-17.59568],[139.84177,-17.60155],[139.84536,-17.60516],[139.83389,-17.60542],[139.83247,-17.60237],[139.83411,-17.59668],[139.83814,-17.59333],[139.8379,-17.58723],[139.82801,-17.57853],[139.82624,-17.57378],[139.82177,-17.57062],[139.81646,-17.57061],[139.81139,-17.57423],[139.80893,-17.57809],[139.80427,-17.57831],[139.79937,-17.57591],[139.79658,-17.57927],[139.79162,-17.57977],[139.78779,-17.57641],[139.78211,-17.57452],[139.77252,-17.57385],[139.75623,-17.57807],[139.75214,-17.57742],[139.75405,-17.57136],[139.75219,-17.56713],[139.74777,-17.56962],[139.74288,-17.56904],[139.73828,-17.56401],[139.7346,-17.56268],[139.73101,-17.55734],[139.7198,-17.55281],[139.714,-17.55547],[139.70783,-17.55514],[139.70735,-17.55049],[139.69657,-17.54968],[139.67809,-17.54557],[139.67121,-17.54577],[139.65461,-17.54036],[139.64624,-17.53957],[139.63851,-17.5338],[139.63358,-17.52856],[139.61817,-17.52212],[139.61126,-17.51573],[139.60847,-17.51039],[139.60322,-17.51126],[139.60365,-17.50732],[139.59877,-17.50313],[139.59576,-17.49746],[139.59159,-17.48606],[139.58534,-17.48146],[139.58029,-17.47947],[139.57498,-17.48067],[139.56994,-17.4772],[139.56605,-17.47806],[139.56342,-17.47461],[139.55293,-17.47198],[139.54009,-17.46465],[139.55146,-17.46059],[139.53971,-17.44798],[139.53169,-17.44055],[139.516,-17.43347],[139.50711,-17.42873],[139.49567,-17.41701],[139.47709,-17.4041],[139.47089,-17.40079],[139.45979,-17.39707],[139.45027,-17.39598],[139.44169,-17.38885],[139.42224,-17.37902],[139.41589,-17.37524],[139.40732,-17.37348],[139.38795,-17.37347],[139.37377,-17.37518],[139.361,-17.37564],[139.34986,-17.37506],[139.33863,-17.3756],[139.33389,-17.37175],[139.31927,-17.36635],[139.30828,-17.36407],[139.29676,-17.357],[139.28858,-17.3532],[139.28477,-17.35288],[139.28259,-17.34962],[139.25443,-17.33325],[139.24169,-17.32478],[139.23734,-17.32265],[139.22086,-17.30698],[139.21662,-17.30403],[139.20737,-17.28815],[139.20388,-17.28502],[139.20144,-17.27185],[139.19614,-17.26012],[139.18792,-17.24618],[139.18255,-17.23207],[139.17387,-17.21621],[139.16915,-17.20411],[139.16707,-17.203],[139.16637,-17.1967],[139.15994,-17.18413],[139.15971,-17.1792],[139.15582,-17.17076],[139.15339,-17.14767],[139.15096,-17.13388],[139.14859,-17.12807],[139.14829,-17.12192],[139.14458,-17.11087],[139.14048,-17.09452],[139.13959,-17.08788],[139.14015,-17.07659],[139.14514,-17.05392],[139.15142,-17.04315],[139.15326,-17.03546],[139.15623,-17.03005],[139.1475,-17.02525],[139.14018,-17.02397],[139.11532,-17.01679],[139.10612,-17.01152],[139.09566,-17.00667],[139.09214,-17.00685],[139.07884,-16.99096],[139.06956,-16.97281],[139.04538,-16.95626],[139.03861,-16.9479],[139.03418,-16.93771],[139.03338,-16.93049],[139.03117,-16.92849],[139.03505,-16.92188],[139.03853,-16.91943],[139.03783,-16.91328],[139.03047,-16.91147],[139.02488,-16.90876],[139.00912,-16.89852],[139.00323,-16.89666],[138.99879,-16.90135],[138.99277,-16.8951],[138.98361,-16.89269],[138.9817,-16.89008],[138.9628,-16.88868],[138.94876,-16.88706],[138.94517,-16.88894],[138.94008,-16.88574],[138.92923,-16.88391],[138.91032,-16.8778],[138.90798,-16.87996],[138.89871,-16.8839],[138.88651,-16.88252],[138.8815,-16.87805],[138.87158,-16.8754],[138.84706,-16.86998],[138.83653,-16.86531],[138.82964,-16.86078],[138.8252,-16.85484],[138.8201,-16.85277],[138.80779,-16.8501],[138.78676,-16.84467],[138.77387,-16.84019],[138.75846,-16.83299],[138.75276,-16.82765],[138.73649,-16.82095],[138.73121,-16.82042],[138.728,-16.81688],[138.71242,-16.81246],[138.69061,-16.80493],[138.67014,-16.79527],[138.66432,-16.79103],[138.65226,-16.7793],[138.65076,-16.77606],[138.6377,-16.77234],[138.63385,-16.77211],[138.62911,-16.76913],[138.62624,-16.77133],[138.60934,-16.77401],[138.60076,-16.77476],[138.5837,-16.77807],[138.58214,-16.7794],[138.57416,-16.77792],[138.55632,-16.77891],[138.53999,-16.78196],[138.5372,-16.78458],[138.52894,-16.78235],[138.51049,-16.78203],[138.49158,-16.77988],[138.48746,-16.78306],[138.4812,-16.78478],[138.46441,-16.7785],[138.45892,-16.77815],[138.45059,-16.77322],[138.43609,-16.77268],[138.43044,-16.77464],[138.42496,-16.77457],[138.41555,-16.7706],[138.40136,-16.7591],[138.38708,-16.75162],[138.36685,-16.74271],[138.36146,-16.7413],[138.34888,-16.7408],[138.34557,-16.74242],[138.33198,-16.73987],[138.32995,-16.74471],[138.32006,-16.74749],[138.31163,-16.74258],[138.30659,-16.74189],[138.29709,-16.73866],[138.28815,-16.73384],[138.27337,-16.72085],[138.26768,-16.71891],[138.23937,-16.71256],[138.22493,-16.70857],[138.20557,-16.70187],[138.1954,-16.69763],[138.17951,-16.68968],[138.16979,-16.68399],[138.16211,-16.67838],[138.15611,-16.67996],[138.15707,-16.67301],[138.15287,-16.66937],[138.14307,-16.66524],[138.12823,-16.65579],[138.11498,-16.64844],[138.10899,-16.64202],[138.09565,-16.63035],[138.08562,-16.62029],[138.08115,-16.62044],[138.08127,-16.61561],[138.079,-16.61288],[138.06001,-16.60056],[138.05047,-16.58324],[138.04407,-16.57614],[138.03905,-16.573],[138.02931,-16.56954],[138.0281,-16.56412],[138.01725,-16.55509],[138.00418,-16.54753],[137.99465,-16.53868],[137.99473,-16.69524],[137.99481,-16.84068],[137.99488,-16.98611],[137.99496,-17.13154],[137.995,-17.22304],[137.99513,-17.42233],[137.99517,-17.49502],[137.99525,-17.61137],[137.99532,-17.71308],[137.99537,-17.78577],[137.99546,-17.93114],[137.99555,-18.07652],[137.99561,-18.1783],[137.99589,-18.61556],[137.99597,-18.73068],[137.99601,-18.80337],[137.99611,-18.94873],[137.99618,-19.06019],[137.99604,-19.1567],[137.99595,-19.23945],[137.99604,-19.3849],[137.99613,-19.53035],[137.99622,-19.6758],[137.99626,-19.74852],[137.99635,-19.89397],[137.99643,-20.03941],[137.99651,-20.18485],[137.99659,-20.33024],[137.99667,-20.47562],[137.99675,-20.62099],[137.99683,-20.75638],[137.99688,-20.83905],[137.99696,-20.98441],[137.99704,-21.12978],[137.99712,-21.27514],[137.99716,-21.34783],[137.99724,-21.49319],[137.99736,-21.63851],[137.99746,-21.7693],[137.99759,-21.90937],[137.99765,-22.00186],[137.99773,-22.14719],[137.99781,-22.28934],[137.99786,-22.3797],[137.99791,-22.45233],[137.99799,-22.58311],[137.99802,-22.65568],[137.99801,-22.78628],[137.99812,-22.87346],[137.99825,-22.99853],[137.99831,-23.06239],[137.99837,-23.1641],[137.99845,-23.3094],[137.99853,-23.45469],[137.99857,-23.52733],[137.99865,-23.67262],[137.99869,-23.74685],[137.99877,-23.89055],[137.99882,-24.03584],[137.99883,-24.18112],[137.99883,-24.3264],[137.99884,-24.39904],[137.99885,-24.54428],[137.99885,-24.61691],[137.99887,-24.76215],[137.99887,-24.83478],[137.99888,-24.98002],[137.9989,-25.12526],[137.99889,-25.27051],[137.99887,-25.41576],[137.99887,-25.56101],[137.9989,-25.63365],[137.99897,-25.77892],[137.99903,-25.9242],[137.99906,-25.99685],[138.10591,-25.99684],[138.26656,-25.99681],[138.42722,-25.99678],[138.5879,-25.99676],[138.7486,-25.99673],[138.90931,-25.99671],[139.07004,-25.99668],[139.20848,-25.99662],[139.31114,-25.99663],[139.40914,-25.99663],[139.53461,-25.99661],[139.63266,-25.99657],[139.79343,-25.99654],[139.87382,-25.99653],[140.03461,-25.99652],[140.115,-25.99652],[140.27579,-25.99652],[140.43659,-25.9965],[140.59739,-25.99645],[140.75819,-25.99641],[140.90957,-25.99639],[140.92551,-25.83797],[140.9377,-25.71599],[140.92092,-25.7146],[140.92276,-25.68047],[140.89692,-25.67888],[140.91147,-25.52463],[140.88105,-25.46755],[140.87546,-25.47044],[140.87475,-25.47319],[140.8675,-25.476],[140.85993,-25.48326],[140.84457,-25.48812],[140.83718,-25.49479],[140.83888,-25.49818],[140.83433,-25.5087],[140.82535,-25.52493],[140.77497,-25.47427],[140.67789,-25.46661],[140.68635,-25.37848],[140.70119,-25.20998],[140.7148,-25.21376],[140.85706,-25.2261],[140.87012,-25.08702],[140.87897,-24.99259],[140.80237,-24.98618],[140.80512,-24.9481],[140.811,-24.84072],[140.87216,-24.84504],[140.88314,-24.69823],[140.83674,-24.69459],[140.83871,-24.66889],[140.96164,-24.67352],[141.0845,-24.67417],[141.24249,-24.68599],[141.2389,-24.72513],[141.36108,-24.6291],[141.37552,-24.48293],[141.43009,-24.48351],[141.51801,-24.57762],[141.52331,-24.57927],[141.52308,-24.58362],[141.70832,-24.63098],[141.73106,-24.63671],[141.73448,-24.63353],[141.74609,-24.631],[141.76307,-24.6332],[141.77005,-24.62956],[141.77333,-24.62504],[141.78858,-24.6219],[141.79428,-24.62301],[141.79693,-24.62096],[141.81148,-24.61924],[141.82254,-24.61217],[141.82948,-24.60371],[141.83959,-24.59836],[141.84299,-24.5943],[141.85443,-24.58821],[141.8582,-24.5853],[141.86054,-24.57906],[141.86784,-24.57306],[141.87314,-24.56402],[141.87867,-24.55997],[141.89303,-24.55813],[141.90137,-24.55604],[141.90829,-24.54935],[141.91557,-24.54508],[141.92404,-24.54166],[141.93051,-24.5375],[141.93627,-24.53844],[141.94837,-24.53635],[141.95596,-24.53414],[141.96475,-24.52809],[141.96708,-24.52282],[141.97051,-24.51994],[141.86355,-24.40313],[141.93002,-24.35264],[141.92212,-24.34325],[141.96474,-24.31084],[141.9314,-24.2785],[141.84655,-24.19495],[141.80581,-24.15479],[141.91926,-24.05735],[142.02382,-24.16765],[142.05271,-24.13338],[142.10046,-24.09519],[142.11184,-23.99455],[142.12138,-23.90962],[142.13506,-23.78894],[142.14288,-23.71794],[142.14503,-23.7008],[142.00581,-23.69387],[141.98922,-23.69237],[141.98786,-23.70631],[141.82877,-23.69177],[141.68036,-23.69088],[141.6794,-23.7055],[141.60382,-23.69754],[141.53101,-23.68944],[141.45581,-23.6048],[141.38817,-23.53337],[141.3926,-23.52994],[141.38415,-23.52639],[141.37703,-23.52756],[141.30599,-23.45145],[141.30031,-23.44733],[141.29674,-23.44156],[141.2613,-23.40429],[141.24138,-23.38542],[141.15509,-23.29082],[141.04716,-23.37499],[141.03378,-23.38413],[141.03142,-23.38376],[141.00193,-23.35288],[140.97508,-23.32515],[140.94414,-23.29115],[140.82938,-23.17018],[140.8222,-23.16153],[140.94701,-23.06776],[140.94022,-23.05999],[140.92457,-23.04443],[140.97917,-22.9998],[141.04636,-22.94764],[141.02274,-22.92332],[140.98916,-22.9132],[140.98801,-22.91221],[140.98985,-22.89996],[140.99908,-22.8984],[141.12226,-22.80448],[141.11447,-22.77449],[141.12038,-22.75223],[141.12287,-22.74919],[141.11726,-22.70268],[141.10402,-22.69182],[141.10278,-22.69006],[141.09493,-22.64192],[141.09193,-22.63724],[141.08965,-22.62816],[141.09086,-22.61822],[141.09896,-22.61829],[141.1339,-22.62125],[141.14564,-22.63334],[141.19893,-22.59755],[141.13053,-22.52139],[141.07973,-22.46563],[141.1533,-22.40762],[141.24574,-22.33538],[141.25369,-22.32156],[141.22852,-22.29792],[141.18271,-22.24941],[141.19864,-22.05516],[141.29435,-22.06187],[141.29372,-22.05399],[141.29023,-22.04507],[141.29139,-22.03239],[141.28861,-22.02628],[141.29085,-22.02389],[141.2842,-22.00996],[141.28455,-21.98883],[141.28838,-21.98389],[141.29026,-21.97801],[141.30968,-21.93966],[141.48326,-21.94716],[141.50805,-21.75205],[141.58257,-21.75812],[141.5792,-21.79428],[141.73893,-21.80718],[141.74039,-21.79136],[141.93922,-21.8072],[142.04826,-21.81578],[142.05736,-21.75479],[142.06614,-21.69765],[142.06752,-21.65354],[142.06916,-21.61037],[142.06452,-21.60837],[142.06474,-21.60428],[142.06936,-21.60471],[142.0709,-21.56321],[142.07203,-21.54071],[142.07367,-21.52333],[142.03825,-21.52006],[142.08028,-21.48832],[142.09166,-21.38259],[142.064,-21.37988],[142.13765,-21.32348],[142.04725,-21.22427],[142.05766,-21.21652],[142.15767,-21.23474],[142.24986,-21.23618],[142.25529,-21.16972],[142.22242,-21.16736],[142.23159,-21.07011],[142.23245,-21.07034],[142.23775,-21.01414],[142.19907,-21.01078],[142.20308,-20.98753],[142.2919,-20.9949],[142.29561,-20.95256],[142.3019,-20.88423],[142.32092,-20.88617],[142.33099,-20.79406],[142.35488,-20.79642],[142.36337,-20.71986],[142.30988,-20.71468],[142.33465,-20.66515],[142.33907,-20.66556],[142.34491,-20.60064],[142.34106,-20.60032],[142.34239,-20.58574],[142.34446,-20.57117],[142.34724,-20.57153],[142.36165,-20.56846],[142.37375,-20.43972],[142.37069,-20.43946],[142.38064,-20.33401],[142.33582,-20.33032],[142.34698,-20.21145],[142.35387,-20.13815],[142.3609,-20.06258],[142.36893,-19.97547],[142.37937,-19.8617],[142.34928,-19.85918],[142.36304,-19.72548],[142.37515,-19.59987],[142.60224,-19.62005],[142.60956,-19.54776],[142.59213,-19.5466],[142.60478,-19.40321],[142.5611,-19.40023],[142.39669,-19.38841],[142.3953,-19.40226],[142.37437,-19.40038],[142.38311,-19.3114],[142.40069,-19.12652],[142.35384,-19.12259],[142.35228,-19.14747],[142.23644,-19.13603],[142.23508,-19.14952],[142.15943,-19.14201],[142.17658,-18.97214],[142.12914,-18.96953],[142.12673,-18.99338],[141.94148,-18.97844],[141.93115,-19.08964],[141.77107,-19.07818],[141.76216,-19.1918],[141.75322,-19.19315],[141.74449,-19.19173],[141.73913,-19.18511],[141.73452,-19.18399],[141.72901,-19.17904],[141.71552,-19.17906],[141.70899,-19.17273],[141.70416,-19.17072],[141.69651,-19.15957],[141.69037,-19.15612],[141.68608,-19.15724],[141.67871,-19.15546],[141.669,-19.15908],[141.65826,-19.15715],[141.64386,-19.15716],[141.63962,-19.15468],[141.63586,-19.15566],[141.62846,-19.15056],[141.62373,-19.15053],[141.62141,-19.14592],[141.61534,-19.14273],[141.61675,-19.13844],[141.61277,-19.13776],[141.61124,-19.12998],[141.6132,-19.12419],[141.60999,-19.12119],[141.6089,-19.1134],[141.62013,-19.11457],[141.63621,-18.96711],[141.66815,-18.96968],[141.68139,-18.82632],[141.69196,-18.7136],[141.62239,-18.70758],[141.55813,-18.7008],[141.36402,-18.68141],[141.36996,-18.62545],[141.31497,-18.62043],[141.29917,-18.60978],[141.30281,-18.60547],[141.30164,-18.6022],[141.30217,-18.59515],[141.29987,-18.58873],[141.29458,-18.5852],[141.29213,-18.57788],[141.29358,-18.5752],[141.29171,-18.56657],[141.29669,-18.56593],[141.30029,-18.56332],[141.29868,-18.55648],[141.29226,-18.54857],[141.28811,-18.54642],[141.28824,-18.54122],[141.28553,-18.53],[141.28621,-18.52288],[141.28366,-18.51872],[141.28558,-18.51493],[141.28476,-18.50539],[141.29043,-18.5002],[141.29774,-18.4996],[141.29933,-18.49293],[141.29295,-18.48507],[141.29286,-18.47995],[141.29864,-18.47552],[141.29383,-18.46759],[141.2965,-18.46342],[141.2961,-18.4585],[141.30102,-18.45574],[141.30079,-18.45028],[141.3048,-18.44779],[141.30133,-18.43748],[141.30262,-18.42954],[141.30074,-18.42646],[141.29237,-18.42512],[141.28936,-18.42151],[141.28064,-18.41601],[141.28385,-18.40963],[141.28254,-18.40515],[141.28383,-18.39823],[141.2815,-18.39122],[141.27482,-18.38874],[141.26944,-18.3821],[141.26745,-18.37784],[141.26613,-18.36877],[141.26177,-18.36526],[141.25447,-18.36403],[141.24993,-18.35366],[141.24976,-18.35048],[141.24194,-18.34638],[141.23843,-18.33679],[141.22292,-18.32846],[141.2233,-18.32464],[141.22066,-18.31655],[141.21746,-18.31446],[141.21995,-18.30966],[141.21827,-18.30198],[141.21991,-18.29507],[141.21253,-18.28839],[141.21077,-18.28255],[141.21314,-18.27943],[141.21085,-18.27479],[141.21136,-18.27032],[141.20939,-18.26279],[141.20502,-18.25965],[141.20467,-18.25544],[141.2015,-18.25284],[141.19372,-18.25364],[141.18942,-18.24637],[141.19063,-18.23851],[141.18966,-18.23226],[141.18659,-18.22998],[141.18689,-18.22471],[141.18102,-18.21579],[141.18008,-18.21185],[141.17004,-18.20713],[141.16659,-18.20368],[141.16268,-18.20463],[141.15745,-18.19602],[141.14733,-18.19293],[141.14451,-18.19556],[141.13702,-18.18886],[141.13789,-18.17973],[141.14332,-18.16955],[141.14404,-18.16482],[141.14315,-18.15714],[141.1394,-18.14954],[141.13887,-18.14495],[141.13487,-18.13772],[141.13586,-18.13202],[141.13406,-18.12526],[141.13634,-18.12231],[141.14046,-18.11266],[141.14685,-18.11041],[141.19207,-18.1133],[141.19988,-18.01542],[141.28378,-18.02322],[141.28172,-18.04673],[141.39519,-18.0571],[141.40022,-18.00397],[141.39507,-18.00403],[141.3883,-18.00659],[141.39208,-17.94793],[141.39314,-17.93476],[141.46608,-17.93897],[141.46825,-17.91041],[141.30441,-17.89894],[141.31686,-17.73668],[141.32829,-17.73321],[141.33881,-17.74446],[141.34801,-17.74323],[141.3574,-17.74411],[141.35958,-17.74652],[141.35934,-17.75443],[141.36207,-17.75552],[141.37444,-17.75208],[141.38293,-17.75136],[141.39342,-17.75322],[141.39859,-17.75685],[141.4041,-17.76333],[141.41336,-17.76161],[141.42189,-17.75574],[141.43297,-17.74932],[141.43825,-17.6798],[141.37819,-17.6766],[141.38216,-17.60801],[141.40659,-17.60993],[141.41369,-17.53476],[141.42227,-17.4438],[141.57272,-17.4584],[141.5764,-17.42037],[141.72874,-17.43294],[141.72564,-17.46951],[141.83673,-17.48247],[141.78534,-17.42239],[141.89091,-17.3364],[141.89773,-17.33074],[142.01226,-17.47119],[142.05778,-17.43426],[142.17836,-17.56622],[142.26773,-17.49176],[142.26786,-17.48726],[142.26298,-17.48058],[142.259,-17.47125],[142.25246,-17.46576],[142.2514,-17.46283],[142.24469,-17.45787],[142.23857,-17.4574],[142.22957,-17.45166],[142.22545,-17.44558],[142.21722,-17.44183],[142.20597,-17.44234],[142.19333,-17.44048],[142.18431,-17.43788],[142.17502,-17.43241],[142.34059,-17.28622],[142.4016,-17.35525],[142.50109,-17.22673],[142.54069,-17.17551],[142.5351,-17.17682],[142.52195,-17.17525],[142.51962,-17.17166],[142.51298,-17.17045],[142.50831,-17.16214],[142.50527,-17.1605],[142.49356,-17.14887],[142.48696,-17.14579],[142.48591,-17.1423],[142.4742,-17.13651],[142.46728,-17.12898],[142.46674,-17.12618],[142.46166,-17.12229],[142.46232,-17.11823],[142.45884,-17.11608],[142.45593,-17.10832],[142.45135,-17.10584],[142.44517,-17.10503],[142.44017,-17.10124],[142.43591,-17.10084],[142.42874,-17.09601],[142.42751,-17.09233],[142.42143,-17.08743],[142.50804,-16.97215],[142.52305,-16.81143],[142.54674,-16.55774],[142.57951,-16.31412],[142.59615,-16.19065],[142.63723,-16.13241],[142.69899,-16.1732],[142.74223,-16.11201],[142.74232,-16.10952],[142.73462,-16.10247],[142.72247,-16.0891],[142.71095,-16.07936],[142.70608,-16.07403],[142.69862,-16.07041],[142.68839,-16.07042],[142.68011,-16.06947],[142.67181,-16.06648],[142.66031,-16.06084],[142.64881,-16.05012],[142.64121,-16.03796],[142.63652,-16.02794],[142.63093,-16.02059],[142.62198,-16.01691],[142.63054,-15.95452],[142.69584,-15.89653],[142.70634,-15.74766],[142.77008,-15.75244],[142.77982,-15.61313],[142.89043,-15.6196],[142.90311,-15.47468],[142.9596,-15.47932],[142.97235,-15.33307],[142.83924,-15.32366],[142.66737,-15.3114],[142.65173,-15.44304],[142.65006,-15.46049],[142.53509,-15.45009],[142.24008,-15.42313],[142.19267,-15.3476],[142.09313,-15.19024],[142.02454,-15.3788],[142.01895,-15.37951],[142.01228,-15.373],[142.0012,-15.36806],[141.99579,-15.36475],[141.98412,-15.36245],[141.97571,-15.35776],[141.96833,-15.35561],[141.96308,-15.36553],[141.95646,-15.38017],[141.94396,-15.38613],[141.9403,-15.39065],[141.94023,-15.39763],[141.94502,-15.40475],[141.95101,-15.40585],[141.95599,-15.41097],[141.95733,-15.41694],[141.96451,-15.41894],[141.96904,-15.42196],[141.97119,-15.42668],[141.98249,-15.43799],[141.98386,-15.44221],[141.99174,-15.44761],[141.99534,-15.45347],[141.97258,-15.56913],[141.79924,-15.55466],[141.63901,-15.54111],[141.62812,-15.54384],[141.62618,-15.54044],[141.61733,-15.53644],[141.60423,-15.5354],[141.59884,-15.52922],[141.59815,-15.52516],[141.59292,-15.52072],[141.58713,-15.52172],[141.58162,-15.51926],[141.57937,-15.52607],[141.5742,-15.52605],[141.56539,-15.53047],[141.5631,-15.53474],[141.55625,-15.5309],[141.5569,-15.52329],[141.55978,-15.51692],[141.55179,-15.51775],[141.55195,-15.51245],[141.54937,-15.51084],[141.54308,-15.51241],[141.53853,-15.51077],[141.53553,-15.50693],[141.53103,-15.50866],[141.53195,-15.51361],[141.52172,-15.51283],[141.52216,-15.52118],[141.52813,-15.52205],[141.5282,-15.52678],[141.52185,-15.52678],[141.51867,-15.52273],[141.51213,-15.51962],[141.50983,-15.52198],[141.50311,-15.51912],[141.50267,-15.51619],[141.50703,-15.51439],[141.5051,-15.50729],[141.50242,-15.50561],[141.49607,-15.51009],[141.49607,-15.51644],[141.49258,-15.51526],[141.49221,-15.50798],[141.49937,-15.50194],[141.50734,-15.49219],[141.50248,-15.49141],[141.49972,-15.48546],[141.493,-15.48813],[141.49152,-15.49689],[141.48477,-15.49917]]],[[[141.65066,-15.06891],[141.64536,-15.07043],[141.64336,-15.07885],[141.64452,-15.08366],[141.64931,-15.08999],[141.65487,-15.09203],[141.66664,-15.10232],[141.67421,-15.11182],[141.68601,-15.11032],[141.68843,-15.10418],[141.69292,-15.1007],[141.6969,-15.10054],[141.70068,-15.10397],[141.70148,-15.10938],[141.70645,-15.1078],[141.70983,-15.11237],[141.71,-15.1205],[141.71386,-15.12219],[141.71949,-15.12142],[141.7207,-15.12453],[141.71739,-15.12705],[141.72041,-15.13021],[141.72323,-15.13971],[141.7306,-15.14225],[141.73108,-15.14522],[141.73823,-15.14564],[141.74124,-15.14985],[141.74657,-15.14894],[141.74595,-15.14215],[141.75352,-15.14491],[141.75836,-15.13971],[141.76426,-15.14051],[141.76835,-15.14273],[141.77306,-15.14051],[141.77505,-15.14208],[141.77761,-15.13998],[141.7827,-15.14067],[141.78653,-15.14602],[141.79518,-15.14438],[141.80535,-15.14091],[141.80502,-15.13781],[141.81157,-15.13454],[141.81866,-15.13256],[141.82328,-15.13645],[141.83669,-15.13064],[141.84356,-15.12668],[141.84824,-15.12737],[141.85172,-15.12615],[141.86024,-15.1273],[141.86621,-15.12461],[141.87146,-15.12621],[141.87473,-15.12233],[141.88016,-15.11998],[141.88371,-15.12143],[141.89191,-15.11628],[141.89695,-15.11498],[141.89965,-15.11637],[141.91281,-15.11574],[141.91385,-15.11218],[141.92018,-15.11052],[141.92527,-15.11131],[141.92821,-15.11483],[141.93431,-15.11403],[141.94077,-15.1065],[141.94571,-15.10671],[141.95606,-15.10495],[141.96111,-15.10131],[141.96662,-15.09955],[141.97079,-15.09632],[141.97753,-15.09409],[141.98335,-15.0894],[141.98978,-15.08626],[141.99548,-15.09251],[142.00076,-15.09398],[142.01238,-15.09139],[142.01461,-15.08787],[142.01836,-15.08717],[142.02476,-15.08177],[142.03074,-15.08119],[142.03532,-15.07814],[142.03931,-15.07872],[142.04823,-15.0769],[142.05274,-15.07749],[142.05732,-15.07121],[142.06407,-15.06893],[142.0706,-15.06051],[142.07459,-15.05816],[142.07891,-15.05819],[142.08659,-15.04739],[142.09888,-15.03974],[142.09935,-15.03364],[142.1139,-15.02003],[142.11202,-15.01639],[142.11331,-15.01005],[142.11084,-15.00897],[142.10438,-15.01875],[142.09306,-15.03134],[142.09269,-15.03564],[142.08637,-15.04331],[142.0866,-15.04532],[142.08154,-15.0504],[142.05955,-15.06237],[142.05942,-15.06782],[142.04697,-15.07056],[142.04318,-15.07365],[142.03717,-15.07061],[142.03101,-15.07279],[142.0229,-15.0778],[142.01823,-15.07827],[142.00362,-15.08783],[141.99557,-15.08695],[141.99282,-15.08431],[141.98472,-15.08858],[141.97418,-15.08823],[141.96885,-15.0916],[141.96289,-15.09316],[141.95818,-15.09237],[141.95491,-15.09506],[141.94668,-15.09832],[141.93387,-15.11362],[141.9296,-15.11422],[141.92557,-15.11094],[141.91922,-15.10993],[141.91429,-15.11083],[141.91241,-15.11466],[141.90382,-15.11594],[141.89732,-15.11413],[141.89178,-15.11575],[141.88389,-15.12074],[141.8794,-15.11946],[141.87291,-15.1229],[141.87109,-15.12557],[141.86628,-15.12431],[141.85817,-15.12584],[141.85248,-15.12574],[141.84961,-15.12685],[141.84325,-15.12543],[141.83679,-15.12995],[141.83174,-15.1312],[141.82326,-15.13556],[141.8187,-15.13183],[141.80466,-15.13681],[141.80487,-15.13999],[141.7863,-15.14461],[141.78398,-15.14046],[141.77923,-15.13929],[141.77476,-15.14105],[141.77104,-15.13956],[141.76567,-15.1407],[141.76299,-15.13677],[141.75611,-15.13594],[141.75428,-15.14077],[141.74238,-15.13877],[141.73214,-15.14168],[141.72839,-15.13885],[141.72424,-15.1391],[141.72175,-15.12692],[141.72521,-15.11978],[141.71971,-15.11671],[141.71486,-15.12083],[141.71013,-15.11818],[141.71246,-15.11436],[141.71944,-15.11563],[141.72082,-15.11023],[141.71849,-15.10771],[141.7137,-15.10725],[141.71015,-15.10996],[141.70609,-15.10567],[141.69633,-15.09865],[141.69028,-15.09998],[141.68668,-15.10387],[141.68472,-15.10962],[141.67391,-15.10996],[141.67067,-15.10356],[141.66327,-15.0957],[141.65132,-15.08151],[141.65066,-15.06891]]],[[[139.84837,-16.66367],[139.8536,-16.67019],[139.85875,-16.67223],[139.86029,-16.66782],[139.86737,-16.66352],[139.87499,-16.66256],[139.87925,-16.65659],[139.88704,-16.65347],[139.87684,-16.64934],[139.87466,-16.6452],[139.87017,-16.64626],[139.86852,-16.6494],[139.86893,-16.65765],[139.86039,-16.66127],[139.8526,-16.66115],[139.84837,-16.66367]]],[[[139.82653,-16.70272],[139.83366,-16.70258],[139.83904,-16.69846],[139.83197,-16.69773],[139.82653,-16.70272]]],[[[139.80389,-16.4875],[139.80261,-16.48994],[139.80712,-16.49445],[139.80947,-16.49106],[139.80389,-16.4875]]],[[[139.70207,-16.47447],[139.70221,-16.47849],[139.70908,-16.48972],[139.71339,-16.4919],[139.71983,-16.49029],[139.72631,-16.49319],[139.73088,-16.5013],[139.73275,-16.5006],[139.734,-16.4915],[139.7333,-16.48588],[139.73481,-16.47818],[139.73032,-16.47255],[139.72898,-16.46199],[139.73059,-16.4564],[139.72689,-16.45219],[139.71777,-16.45088],[139.71274,-16.45806],[139.71205,-16.46655],[139.70666,-16.4734],[139.70207,-16.47447]]],[[[139.16555,-16.60528],[139.16034,-16.61105],[139.16179,-16.61721],[139.1594,-16.62351],[139.15335,-16.62946],[139.15004,-16.63446],[139.15419,-16.63899],[139.15838,-16.64894],[139.15876,-16.65832],[139.16254,-16.66614],[139.16656,-16.66804],[139.17329,-16.66655],[139.1759,-16.66804],[139.18994,-16.66698],[139.19305,-16.66933],[139.19695,-16.67725],[139.19708,-16.68447],[139.19578,-16.69408],[139.19976,-16.70765],[139.20496,-16.70709],[139.20758,-16.69611],[139.21625,-16.69056],[139.21762,-16.69339],[139.21093,-16.69985],[139.20946,-16.70751],[139.218,-16.70995],[139.22339,-16.71505],[139.22637,-16.72338],[139.22646,-16.72773],[139.22927,-16.73268],[139.23272,-16.732],[139.24332,-16.7264],[139.2509,-16.72493],[139.26423,-16.72588],[139.26809,-16.73192],[139.27417,-16.73389],[139.28102,-16.7328],[139.28823,-16.73503],[139.29417,-16.72944],[139.30167,-16.72492],[139.30765,-16.72492],[139.31305,-16.73023],[139.32559,-16.70909],[139.32933,-16.70859],[139.33321,-16.70422],[139.34634,-16.69382],[139.35081,-16.68909],[139.35137,-16.68363],[139.34611,-16.67841],[139.34713,-16.67547],[139.35713,-16.67792],[139.36534,-16.68649],[139.36947,-16.68865],[139.36562,-16.67767],[139.36911,-16.67063],[139.37796,-16.66302],[139.38124,-16.65619],[139.3728,-16.64761],[139.37193,-16.6433],[139.37181,-16.62817],[139.36898,-16.62074],[139.37435,-16.62022],[139.37397,-16.61664],[139.36437,-16.60924],[139.36367,-16.60453],[139.36665,-16.60336],[139.37348,-16.6058],[139.3807,-16.61239],[139.38655,-16.61403],[139.37784,-16.62159],[139.38427,-16.62421],[139.39346,-16.63605],[139.3993,-16.63751],[139.40727,-16.64517],[139.41525,-16.65872],[139.4169,-16.66426],[139.41433,-16.66856],[139.41565,-16.67135],[139.42074,-16.67015],[139.43346,-16.67081],[139.43811,-16.67239],[139.44013,-16.66995],[139.44821,-16.66705],[139.4486,-16.65697],[139.44992,-16.65193],[139.4465,-16.64569],[139.44144,-16.64168],[139.43959,-16.63624],[139.43558,-16.63201],[139.44748,-16.62845],[139.45543,-16.62833],[139.46044,-16.63013],[139.46559,-16.62839],[139.47043,-16.62023],[139.47213,-16.61479],[139.46637,-16.60641],[139.46805,-16.59972],[139.46993,-16.58558],[139.46422,-16.58257],[139.45441,-16.58121],[139.45805,-16.56961],[139.46648,-16.56146],[139.47409,-16.55716],[139.4837,-16.55602],[139.49566,-16.56041],[139.49528,-16.5678],[139.49915,-16.57168],[139.50053,-16.57618],[139.50623,-16.57727],[139.5064,-16.56869],[139.51272,-16.56141],[139.51532,-16.55655],[139.51399,-16.54643],[139.51242,-16.54466],[139.50394,-16.54452],[139.49827,-16.54656],[139.49078,-16.54755],[139.4833,-16.54589],[139.47994,-16.54033],[139.47252,-16.5325],[139.46961,-16.53168],[139.47015,-16.52647],[139.47618,-16.52065],[139.48223,-16.52383],[139.49271,-16.52382],[139.49942,-16.51561],[139.50831,-16.512],[139.51248,-16.51656],[139.52735,-16.51624],[139.53034,-16.51759],[139.53254,-16.51256],[139.52924,-16.50924],[139.53108,-16.50588],[139.53674,-16.50197],[139.54067,-16.4928],[139.54167,-16.48744],[139.5506,-16.48357],[139.56028,-16.48096],[139.56204,-16.48442],[139.55777,-16.48719],[139.55796,-16.49268],[139.56524,-16.49646],[139.57655,-16.50096],[139.58002,-16.50568],[139.58056,-16.51082],[139.57556,-16.51635],[139.57835,-16.52159],[139.57928,-16.52859],[139.58827,-16.53261],[139.58802,-16.5422],[139.59278,-16.5465],[139.59212,-16.5517],[139.59492,-16.55533],[139.60259,-16.54896],[139.61248,-16.54249],[139.62334,-16.53818],[139.62761,-16.53406],[139.6337,-16.53203],[139.63854,-16.53289],[139.64272,-16.52703],[139.65072,-16.52592],[139.65689,-16.52046],[139.6624,-16.51897],[139.67337,-16.51895],[139.68157,-16.52043],[139.68644,-16.52651],[139.68716,-16.535],[139.69362,-16.5356],[139.70039,-16.53405],[139.70472,-16.53476],[139.71153,-16.53222],[139.70951,-16.52815],[139.70916,-16.52235],[139.70104,-16.51875],[139.69776,-16.51573],[139.69954,-16.51182],[139.6988,-16.49658],[139.70166,-16.48848],[139.6982,-16.47963],[139.6933,-16.4776],[139.69064,-16.46904],[139.68651,-16.46827],[139.68068,-16.47048],[139.67867,-16.46527],[139.68115,-16.45883],[139.6784,-16.45381],[139.6726,-16.45159],[139.66142,-16.45233],[139.65173,-16.45096],[139.64317,-16.44604],[139.63337,-16.43388],[139.62476,-16.4269],[139.61608,-16.42161],[139.60425,-16.4045],[139.58954,-16.40135],[139.56927,-16.39947],[139.55637,-16.3962],[139.54742,-16.3916],[139.5424,-16.39767],[139.53704,-16.39915],[139.5381,-16.40468],[139.53523,-16.40969],[139.52708,-16.41433],[139.51802,-16.41823],[139.49862,-16.42492],[139.48572,-16.43082],[139.48272,-16.43576],[139.47476,-16.43917],[139.47456,-16.44224],[139.46718,-16.44577],[139.45627,-16.44848],[139.44496,-16.44918],[139.43008,-16.44862],[139.42263,-16.44639],[139.40047,-16.44825],[139.38677,-16.4525],[139.37965,-16.452],[139.36313,-16.45314],[139.35896,-16.45932],[139.36042,-16.46072],[139.37221,-16.4646],[139.37026,-16.46872],[139.35995,-16.46395],[139.35602,-16.45806],[139.34764,-16.46255],[139.33312,-16.46611],[139.32542,-16.46521],[139.31573,-16.46122],[139.30953,-16.46134],[139.30196,-16.46497],[139.29812,-16.46861],[139.29043,-16.4789],[139.27878,-16.48529],[139.26358,-16.49473],[139.25539,-16.49729],[139.24833,-16.5022],[139.24124,-16.50533],[139.2433,-16.50897],[139.24129,-16.51907],[139.23706,-16.52419],[139.23018,-16.52933],[139.2179,-16.5362],[139.22076,-16.5398],[139.21301,-16.55058],[139.21696,-16.55614],[139.21652,-16.56028],[139.21004,-16.57123],[139.20022,-16.57955],[139.18412,-16.59025],[139.17511,-16.59884],[139.16555,-16.60528]]],[[[139.60135,-17.11219],[139.59746,-17.11445],[139.59859,-17.12926],[139.60434,-17.13832],[139.60887,-17.13707],[139.61493,-17.13913],[139.61393,-17.1277],[139.61252,-17.12532],[139.61426,-17.11634],[139.62011,-17.10725],[139.62932,-17.09013],[139.63351,-17.08603],[139.63459,-17.08083],[139.63954,-17.07434],[139.63362,-17.06542],[139.62606,-17.06208],[139.62407,-17.06703],[139.62591,-17.07313],[139.62512,-17.07836],[139.62214,-17.08119],[139.61925,-17.08719],[139.61385,-17.09332],[139.61581,-17.09957],[139.61549,-17.10379],[139.61281,-17.10773],[139.60135,-17.11219]]],[[[139.39571,-17.08218],[139.39581,-17.09076],[139.40115,-17.09999],[139.40096,-17.10598],[139.40556,-17.10856],[139.41071,-17.1154],[139.41117,-17.12219],[139.41409,-17.12525],[139.41883,-17.12445],[139.42621,-17.11127],[139.42806,-17.10339],[139.44649,-17.09965],[139.45105,-17.09765],[139.46119,-17.09535],[139.47468,-17.09331],[139.47736,-17.1003],[139.47511,-17.10739],[139.47664,-17.11312],[139.47991,-17.11752],[139.49115,-17.11457],[139.50375,-17.11743],[139.50817,-17.12033],[139.51058,-17.1146],[139.51447,-17.11265],[139.51872,-17.10509],[139.5326,-17.10014],[139.54668,-17.09863],[139.55223,-17.09956],[139.55978,-17.09488],[139.56731,-17.0924],[139.57454,-17.09191],[139.57012,-17.08235],[139.5612,-17.07533],[139.55593,-17.06832],[139.5509,-17.05498],[139.54986,-17.04515],[139.55587,-17.03657],[139.54868,-17.03498],[139.54347,-17.03146],[139.53709,-17.02343],[139.52548,-17.01313],[139.52044,-17.00985],[139.50938,-16.99718],[139.50297,-16.985],[139.49283,-16.98087],[139.49543,-16.99059],[139.49327,-16.99733],[139.49572,-17.00225],[139.49378,-17.00959],[139.49449,-17.01418],[139.49048,-17.01996],[139.48365,-17.02643],[139.47612,-17.02851],[139.47394,-17.03179],[139.46482,-17.03],[139.45793,-17.03053],[139.45557,-17.03896],[139.45466,-17.05081],[139.45194,-17.05593],[139.44665,-17.06012],[139.43437,-17.06624],[139.42383,-17.079],[139.41354,-17.08365],[139.40492,-17.08433],[139.39571,-17.08218]]],[[[139.55275,-17.11448],[139.5537,-17.1196],[139.54921,-17.12463],[139.55194,-17.12944],[139.55465,-17.123],[139.55901,-17.11883],[139.55275,-17.11448]]],[[[139.44472,-16.68183],[139.44343,-16.68752],[139.43831,-16.69623],[139.44156,-16.69837],[139.44133,-16.70368],[139.44579,-16.70639],[139.45345,-16.70747],[139.45939,-16.70242],[139.4647,-16.69987],[139.466,-16.69329],[139.47201,-16.68292],[139.47599,-16.68001],[139.47539,-16.67609],[139.47141,-16.66985],[139.46572,-16.66856],[139.46308,-16.6711],[139.45271,-16.67486],[139.44805,-16.68038],[139.44472,-16.68183]]],[[[139.38381,-17.07246],[139.37487,-17.06919],[139.36629,-17.06878],[139.36831,-17.07216],[139.38266,-17.07502],[139.38381,-17.07246]]],[[[139.26159,-16.98979],[139.26335,-16.99311],[139.26192,-16.99864],[139.26828,-16.99729],[139.27049,-16.99961],[139.27488,-16.99275],[139.26875,-16.98909],[139.26298,-16.98734],[139.26159,-16.98979]]],[[[139.20662,-17.00582],[139.20551,-17.01069],[139.20768,-17.01624],[139.21254,-17.02213],[139.21444,-17.02787],[139.21468,-17.03395],[139.21893,-17.03154],[139.224,-17.03191],[139.22882,-17.0422],[139.23554,-17.04691],[139.23906,-17.04531],[139.24787,-17.04538],[139.25107,-17.05011],[139.25088,-17.05567],[139.26427,-17.05463],[139.25261,-17.0465],[139.245,-17.0381],[139.2416,-17.03114],[139.22887,-17.0233],[139.22472,-17.01748],[139.21818,-17.01385],[139.21229,-17.00607],[139.20662,-17.00582]]],[[[139.14556,-16.69357],[139.14406,-16.70136],[139.14005,-16.70768],[139.14019,-16.7152],[139.14382,-16.71893],[139.14652,-16.72673],[139.14722,-16.73227],[139.14311,-16.74312],[139.13951,-16.74988],[139.1413,-16.75397],[139.14803,-16.74888],[139.15378,-16.74798],[139.1617,-16.749],[139.15983,-16.7417],[139.16069,-16.73792],[139.16545,-16.73235],[139.17139,-16.72844],[139.17811,-16.7281],[139.18605,-16.71913],[139.18497,-16.71269],[139.18102,-16.7015],[139.18134,-16.69819],[139.18491,-16.69282],[139.18746,-16.67923],[139.18349,-16.67485],[139.17699,-16.67251],[139.17077,-16.67177],[139.15136,-16.68656],[139.14556,-16.69357]]],[[[139.09386,-16.81531],[139.0951,-16.81858],[139.09084,-16.82702],[139.09155,-16.83215],[139.09508,-16.84118],[139.09836,-16.84036],[139.10397,-16.83419],[139.11292,-16.83051],[139.11505,-16.83096],[139.11943,-16.8254],[139.12217,-16.82705],[139.13108,-16.82361],[139.13482,-16.82561],[139.14479,-16.82624],[139.14926,-16.8206],[139.14607,-16.81593],[139.13795,-16.81103],[139.13449,-16.80169],[139.13085,-16.79908],[139.12627,-16.80251],[139.09941,-16.81268],[139.09386,-16.81531]]],[[[139.14176,-16.75624],[139.14087,-16.76301],[139.14686,-16.76253],[139.14176,-16.75624]]],[[[139.05314,-16.88821],[139.06059,-16.89783],[139.06499,-16.89811],[139.06979,-16.90399],[139.07187,-16.90207],[139.06859,-16.89347],[139.05976,-16.88863],[139.05782,-16.88526],[139.05314,-16.88821]]],[[[139.06034,-16.86675],[139.05786,-16.86974],[139.05926,-16.87483],[139.06638,-16.87115],[139.06516,-16.86539],[139.06034,-16.86675]]]]},"properties":{"District Name":"Mount Isa","DDMG Name":"Mount Isa","Police Region Name":"Northern Region","Police Region Code":"NR","Police Region Short Name":"Northern"}},{"type":"Feature","geometry":{"type":"MultiPolygon","coordinates":[[[[145.75747,-18.39575],[145.7596,-18.4032],[145.76917,-18.40941],[145.75583,-18.40805],[145.75509,-18.41433],[145.76006,-18.42393],[145.75778,-18.42938],[145.7545,-18.43108],[145.75497,-18.43846],[145.74701,-18.44547],[145.7442,-18.45053],[145.73957,-18.45003],[145.73612,-18.45731],[145.72924,-18.4535],[145.73239,-18.46174],[145.72806,-18.46594],[145.71505,-18.46837],[145.70806,-18.47088],[145.71432,-18.48025],[145.71632,-18.48837],[145.62381,-18.47699],[145.50125,-18.46185],[145.49453,-18.57642],[145.39004,-18.56504],[145.38346,-18.57021],[145.35726,-18.53573],[145.2968,-18.46403],[145.30175,-18.45518],[145.27917,-18.43953],[145.28645,-18.42998],[145.25994,-18.42732],[145.26788,-18.35502],[145.19522,-18.34774],[145.19443,-18.34949],[145.16663,-18.3467],[145.15889,-18.35235],[145.15578,-18.36452],[145.14828,-18.36446],[145.14014,-18.35791],[145.1376,-18.36247],[145.13443,-18.36199],[145.13237,-18.37146],[145.13518,-18.37598],[145.13297,-18.37813],[145.13444,-18.38523],[145.13861,-18.39017],[145.14327,-18.39069],[145.14873,-18.39364],[145.16134,-18.39083],[145.16371,-18.39573],[145.16123,-18.39832],[145.1617,-18.40646],[145.1642,-18.41495],[145.17206,-18.42331],[145.17746,-18.42505],[145.1832,-18.4313],[145.17997,-18.44661],[145.18231,-18.44917],[145.182,-18.47246],[145.18569,-18.48022],[145.17809,-18.47949],[145.17207,-18.48836],[145.17381,-18.49376],[145.18417,-18.49478],[145.18252,-18.51057],[145.17744,-18.5113],[145.17262,-18.51685],[145.17184,-18.52079],[145.15957,-18.53485],[145.15737,-18.53832],[145.15674,-18.54548],[145.14863,-18.55296],[145.14039,-18.56558],[145.14068,-18.57269],[145.13543,-18.5747],[145.13076,-18.573],[145.13355,-18.56907],[145.13345,-18.56429],[145.12768,-18.55751],[145.11991,-18.55582],[145.11585,-18.55742],[145.10753,-18.56379],[145.10113,-18.56674],[145.09055,-18.56613],[145.08582,-18.5598],[145.07985,-18.56061],[145.07596,-18.55462],[145.06855,-18.55361],[145.06353,-18.55453],[145.05341,-18.54877],[145.05508,-18.53971],[145.05184,-18.5361],[145.05265,-18.53052],[145.05054,-18.52864],[145.05108,-18.51743],[145.04674,-18.51322],[144.98099,-18.50695],[144.98217,-18.49855],[144.98119,-18.49361],[144.97664,-18.49211],[144.97369,-18.48334],[144.97149,-18.47227],[144.96832,-18.46955],[144.96302,-18.4732],[144.96451,-18.48152],[144.96064,-18.4861],[144.95618,-18.48189],[144.95486,-18.47527],[144.9514,-18.47732],[144.95324,-18.48208],[144.95139,-18.48927],[144.94689,-18.49767],[144.95117,-18.50415],[144.92175,-18.50132],[144.92242,-18.50499],[144.92022,-18.51284],[144.92062,-18.51878],[144.92406,-18.52276],[144.87821,-18.51789],[144.88043,-18.49734],[144.83671,-18.49312],[144.84135,-18.45244],[144.83754,-18.44002],[144.84463,-18.40799],[144.85162,-18.39997],[144.85519,-18.36951],[144.84957,-18.36957],[144.84348,-18.37176],[144.83462,-18.3688],[144.82243,-18.36905],[144.81718,-18.37172],[144.7998,-18.35918],[144.78015,-18.35793],[144.77407,-18.35879],[144.77121,-18.3575],[144.76037,-18.35636],[144.74731,-18.33047],[144.74632,-18.32666],[144.74114,-18.31745],[144.67774,-18.31095],[144.67615,-18.42342],[144.65997,-18.56861],[144.65163,-18.62655],[144.76415,-18.63844],[144.78709,-18.66127],[144.7417,-18.70266],[144.74688,-18.70752],[144.74389,-18.71247],[144.74516,-18.72185],[144.75096,-18.72506],[144.75562,-18.72525],[144.758,-18.72853],[144.76545,-18.72855],[144.77253,-18.7366],[144.77754,-18.74068],[144.78675,-18.73398],[144.79205,-18.73319],[144.80248,-18.74437],[144.80163,-18.7509],[144.80591,-18.75231],[144.80676,-18.75727],[144.80463,-18.76174],[144.80756,-18.76448],[144.80843,-18.76958],[144.74539,-18.81802],[144.79031,-18.87103],[144.72139,-18.92124],[144.70751,-18.93592],[144.69798,-18.99598],[144.69974,-19.00514],[144.71528,-19.01682],[144.77435,-19.14795],[144.79443,-19.16218],[144.80438,-19.15722],[144.81051,-19.15583],[144.82385,-19.15683],[144.8314,-19.15984],[144.77112,-19.20466],[144.7501,-19.18075],[144.62971,-19.28841],[144.62247,-19.29728],[144.61899,-19.30603],[144.61741,-19.32091],[144.59781,-19.31903],[144.59085,-19.38411],[144.47738,-19.3709],[144.47051,-19.44789],[144.45079,-19.44124],[144.38746,-19.43072],[144.36956,-19.43007],[144.35174,-19.4239],[144.34487,-19.50149],[144.30256,-19.49736],[144.2994,-19.53059],[144.29571,-19.56643],[144.29262,-19.56899],[144.27945,-19.57602],[144.27324,-19.57593],[144.26186,-19.58293],[144.25509,-19.58553],[144.24805,-19.59419],[144.23889,-19.60854],[144.23154,-19.61592],[144.22645,-19.61871],[144.21231,-19.61005],[144.20653,-19.60374],[144.19702,-19.59977],[144.18697,-19.59738],[144.17997,-19.59441],[144.17469,-19.58843],[144.17221,-19.57644],[144.1569,-19.5676],[144.14702,-19.56569],[144.13929,-19.56557],[144.12406,-19.57186],[144.11717,-19.57175],[144.11272,-19.57614],[144.10357,-19.57966],[144.08895,-19.57821],[144.07198,-19.57456],[144.06062,-19.57083],[144.05426,-19.57055],[144.04477,-19.58355],[144.02891,-19.59784],[144.01425,-19.61491],[144.00389,-19.62129],[144.00034,-19.62212],[143.98815,-19.62175],[143.97652,-19.62293],[143.96733,-19.6205],[143.95569,-19.61957],[143.94746,-19.62197],[143.93805,-19.62727],[143.92509,-19.63075],[143.89601,-19.63385],[143.85184,-19.63703],[143.82447,-19.63042],[143.79699,-19.61755],[143.77572,-19.60575],[143.75203,-19.59633],[143.73416,-19.58995],[143.71516,-19.58534],[143.68226,-19.59699],[143.67747,-19.59714],[143.65406,-19.58747],[143.64667,-19.58381],[143.61899,-19.55993],[143.61734,-19.55709],[143.60539,-19.5303],[143.60055,-19.52179],[143.59054,-19.50724],[143.58323,-19.50155],[143.57977,-19.49688],[143.56528,-19.48562],[143.54955,-19.47656],[143.53551,-19.47183],[143.52334,-19.47596],[143.51378,-19.48002],[143.50768,-19.48392],[143.5111,-19.49155],[143.51316,-19.50533],[143.5094,-19.51599],[143.50143,-19.52442],[143.48988,-19.53089],[143.46632,-19.53996],[143.46186,-19.54494],[143.45811,-19.54667],[143.45374,-19.55594],[143.44734,-19.55878],[143.44383,-19.56601],[143.43407,-19.5653],[143.42995,-19.56316],[143.417,-19.56711],[143.41317,-19.56437],[143.40289,-19.57017],[143.39798,-19.57523],[143.39396,-19.57661],[143.39473,-19.58628],[143.39428,-19.59676],[143.38308,-19.61257],[143.37285,-19.61387],[143.36769,-19.61271],[143.35139,-19.60433],[143.34615,-19.6037],[143.34194,-19.60559],[143.33667,-19.61669],[143.33301,-19.6211],[143.31718,-19.62846],[143.31067,-19.63324],[143.30582,-19.63947],[143.29838,-19.65635],[143.28958,-19.6697],[143.28851,-19.68424],[143.28544,-19.68954],[143.27497,-19.69644],[143.27006,-19.6942],[143.26564,-19.68664],[143.26156,-19.68245],[143.25674,-19.6818],[143.24971,-19.6899],[143.19764,-19.68548],[143.03004,-19.67116],[142.97453,-19.66687],[142.79365,-19.65179],[142.60068,-19.63551],[142.60224,-19.62005],[142.37515,-19.59987],[142.36304,-19.72548],[142.34928,-19.85918],[142.37937,-19.8617],[142.36893,-19.97547],[142.3609,-20.06258],[142.35387,-20.13815],[142.34698,-20.21145],[142.33582,-20.33032],[142.38064,-20.33401],[142.37069,-20.43946],[142.37375,-20.43972],[142.36165,-20.56846],[142.34724,-20.57153],[142.34446,-20.57117],[142.34239,-20.58574],[142.34106,-20.60032],[142.34491,-20.60064],[142.33907,-20.66556],[142.33465,-20.66515],[142.30988,-20.71468],[142.36337,-20.71986],[142.35488,-20.79642],[142.33099,-20.79406],[142.32092,-20.88617],[142.3019,-20.88423],[142.29561,-20.95256],[142.2919,-20.9949],[142.20308,-20.98753],[142.19907,-21.01078],[142.23775,-21.01414],[142.23245,-21.07034],[142.23159,-21.07011],[142.22242,-21.16736],[142.25529,-21.16972],[142.24986,-21.23618],[142.15767,-21.23474],[142.05766,-21.21652],[142.04725,-21.22427],[142.13765,-21.32348],[142.064,-21.37988],[142.09166,-21.38259],[142.08028,-21.48832],[142.03825,-21.52006],[142.07367,-21.52333],[142.07203,-21.54071],[142.16344,-21.54316],[142.23189,-21.55086],[142.22823,-21.59628],[142.33544,-21.60711],[142.33376,-21.62008],[142.33257,-21.63631],[142.37857,-21.63854],[142.49123,-21.64417],[142.4956,-21.59799],[142.56306,-21.60346],[142.56513,-21.60272],[142.65664,-21.6104],[142.65156,-21.6677],[142.71848,-21.61494],[142.69397,-21.58785],[142.75537,-21.53993],[142.81545,-21.49264],[142.83685,-21.51697],[142.8621,-21.54505],[142.94248,-21.48177],[142.95317,-21.49371],[142.99839,-21.45573],[143.00205,-21.45743],[143.00703,-21.45359],[143.00758,-21.44848],[143.03635,-21.4264],[143.08509,-21.38851],[143.18804,-21.30864],[143.23645,-21.31298],[143.23665,-21.31118],[143.35954,-21.322],[143.34982,-21.41266],[143.33976,-21.50641],[143.33182,-21.57687],[143.32922,-21.60869],[143.32988,-21.6115],[143.35772,-21.61415],[143.35804,-21.61601],[143.44828,-21.62461],[143.44998,-21.62294],[143.53034,-21.6302],[143.61006,-21.63774],[143.64926,-21.64116],[143.64236,-21.7052],[143.63084,-21.79741],[143.70901,-21.80548],[143.78184,-21.81407],[143.78207,-21.81111],[143.92945,-21.81997],[143.93423,-21.8221],[144.04463,-21.83029],[144.03885,-21.8947],[144.05744,-21.89833],[144.06848,-21.89787],[144.09245,-21.89894],[144.11174,-21.90184],[144.11141,-21.90632],[144.1843,-21.9133],[144.18599,-21.91373],[144.18325,-21.9549],[144.18034,-21.98954],[144.26344,-21.99738],[144.27008,-22.0326],[144.2685,-22.04785],[144.41722,-22.06171],[144.41331,-22.09815],[144.40281,-22.11329],[144.39778,-22.15704],[144.50178,-22.16513],[144.50052,-22.18565],[144.53608,-22.1882],[144.55409,-22.18987],[144.63742,-22.19545],[144.66502,-22.19786],[144.71723,-22.20379],[144.72353,-22.20209],[144.73979,-22.21171],[144.74687,-22.14841],[144.74632,-22.14813],[144.75232,-22.09479],[144.75297,-22.0943],[144.79636,-22.09842],[144.80091,-22.04537],[144.94304,-22.05909],[144.95046,-21.99059],[144.95631,-21.9303],[145.08221,-21.94259],[145.08435,-21.91024],[145.07402,-21.8995],[145.07501,-21.89122],[145.15277,-21.89867],[145.15256,-21.90048],[145.18583,-21.90376],[145.18286,-21.9008],[145.18396,-21.89754],[145.18251,-21.89168],[145.18551,-21.89045],[145.18626,-21.88584],[145.19233,-21.87727],[145.19216,-21.87119],[145.18067,-21.85102],[145.18482,-21.82018],[145.16416,-21.80385],[145.1662,-21.78489],[145.2545,-21.79367],[145.2622,-21.82849],[145.37054,-21.84045],[145.41853,-21.84614],[145.43507,-21.692],[145.5293,-21.70178],[145.53288,-21.65824],[145.67848,-21.66818],[145.67584,-21.69473],[145.67383,-21.71928],[145.6632,-21.71903],[145.64579,-21.7975],[145.72869,-21.81685],[145.70834,-21.87654],[145.69677,-21.87549],[145.68594,-21.91583],[145.73506,-21.92721],[145.7249,-21.93822],[145.62743,-21.9244],[145.61736,-22.03693],[145.76982,-22.04748],[145.7693,-22.06645],[145.84183,-22.07559],[145.88044,-22.08031],[145.88015,-22.08479],[146.0066,-22.10092],[146.03082,-22.10423],[146.03949,-22.02334],[146.06688,-22.02656],[146.07207,-21.99739],[146.12317,-22.00124],[146.2015,-22.00762],[146.20232,-22.00092],[146.2107,-21.91486],[146.21259,-21.90065],[146.14887,-21.89667],[146.12612,-21.89465],[146.11055,-21.89424],[146.12675,-21.81326],[146.06924,-21.80875],[146.07646,-21.71411],[146.08437,-21.61014],[146.08517,-21.59835],[146.09345,-21.50993],[146.1323,-21.51402],[146.15052,-21.50004],[146.3467,-21.51811],[146.34094,-21.5702],[146.39736,-21.66332],[146.44653,-21.66809],[146.4838,-21.68056],[146.4872,-21.65006],[146.48829,-21.64728],[146.49012,-21.62013],[146.49273,-21.58881],[146.48995,-21.58675],[146.49212,-21.56697],[146.65651,-21.58261],[146.64731,-21.59574],[146.65113,-21.59685],[146.65255,-21.60441],[146.7535,-21.63583],[146.8324,-21.64314],[146.83444,-21.64255],[146.83699,-21.63608],[146.83467,-21.63203],[146.83661,-21.62292],[146.83414,-21.61797],[146.83511,-21.61418],[146.8328,-21.60515],[146.83858,-21.58474],[146.83506,-21.57945],[146.83543,-21.57356],[146.84723,-21.5609],[146.84944,-21.55383],[146.8492,-21.54823],[146.85652,-21.54083],[146.86117,-21.53322],[146.86645,-21.5309],[146.87039,-21.52622],[146.86908,-21.51932],[146.86633,-21.51377],[146.86662,-21.51046],[146.87218,-21.50467],[146.87712,-21.49565],[146.88413,-21.48783],[146.89637,-21.47629],[146.90126,-21.47053],[146.90742,-21.46596],[146.90895,-21.4593],[146.91183,-21.45383],[146.90975,-21.44113],[146.90496,-21.43627],[146.89845,-21.43475],[146.89591,-21.42477],[146.8912,-21.42168],[146.88222,-21.41109],[146.87532,-21.39306],[146.87565,-21.38252],[146.88225,-21.37326],[146.87884,-21.37086],[146.88279,-21.36211],[146.89534,-21.35722],[146.90464,-21.35031],[146.9057,-21.34522],[146.90926,-21.3408],[146.9109,-21.33472],[146.91784,-21.32544],[146.92859,-21.32167],[146.93421,-21.31534],[146.94668,-21.3045],[146.95661,-21.30203],[146.96328,-21.29474],[146.96613,-21.27873],[146.96558,-21.27483],[146.95975,-21.26259],[146.96051,-21.25208],[146.95707,-21.24687],[146.94973,-21.23956],[146.93204,-21.23841],[146.92659,-21.23215],[146.91502,-21.22683],[146.90701,-21.22421],[146.89656,-21.2239],[146.89089,-21.22181],[146.88566,-21.21773],[146.87388,-21.20364],[146.867,-21.19388],[146.86591,-21.18814],[146.86801,-21.18344],[146.88222,-21.17332],[146.88262,-21.17028],[146.87409,-21.16151],[146.87203,-21.15093],[146.86264,-21.13777],[146.86183,-21.13336],[146.86172,-21.11888],[146.8595,-21.11488],[146.85319,-21.10814],[146.84881,-21.10093],[146.85212,-21.09455],[146.85485,-21.08452],[146.85551,-21.07753],[146.8537,-21.07249],[146.86116,-21.06417],[146.86107,-21.05897],[146.86305,-21.0479],[146.85986,-21.04086],[146.86036,-21.03118],[146.86381,-21.02518],[146.86914,-21.02079],[146.88229,-21.00582],[146.88368,-20.9976],[146.87792,-20.99078],[146.87597,-20.98407],[146.87644,-20.97801],[146.87333,-20.96946],[146.86689,-20.95518],[146.86598,-20.94652],[146.86355,-20.93858],[146.85641,-20.92671],[146.85347,-20.91919],[146.85421,-20.91207],[146.86306,-20.90219],[146.86223,-20.89507],[146.86596,-20.88596],[146.8564,-20.87112],[146.85621,-20.86774],[146.86105,-20.85999],[146.86281,-20.84729],[146.85835,-20.83664],[146.85804,-20.83067],[146.85285,-20.81914],[146.85181,-20.81288],[146.85619,-20.8035],[146.8616,-20.79647],[146.86592,-20.79689],[146.87135,-20.80174],[146.87623,-20.80123],[146.88818,-20.79129],[146.90121,-20.79027],[146.9099,-20.78671],[146.91367,-20.78078],[146.91549,-20.77469],[146.91705,-20.76153],[146.92042,-20.75739],[146.92741,-20.7552],[146.93907,-20.75399],[146.94399,-20.75204],[146.96013,-20.74181],[146.96207,-20.73836],[146.96229,-20.72923],[146.96488,-20.72131],[146.96561,-20.71443],[146.96454,-20.70225],[146.96087,-20.68866],[146.96131,-20.68439],[146.96485,-20.67604],[146.97584,-20.67361],[146.98274,-20.66935],[146.98555,-20.66488],[146.98576,-20.65839],[146.97951,-20.64926],[146.97325,-20.6347],[146.97207,-20.62933],[146.97266,-20.62358],[146.97601,-20.61968],[147.00222,-20.60931],[147.0119,-20.60605],[147.01647,-20.60656],[147.02122,-20.60948],[147.02238,-20.61673],[147.02442,-20.62083],[147.03081,-20.6263],[147.03633,-20.6293],[147.04272,-20.63094],[147.04824,-20.63039],[147.05201,-20.62711],[147.05811,-20.62574],[147.06509,-20.63039],[147.07328,-20.64888],[147.08053,-20.65327],[147.08637,-20.65217],[147.09575,-20.64382],[147.09868,-20.6408],[147.10571,-20.63677],[147.11178,-20.63585],[147.12421,-20.63768],[147.13312,-20.64105],[147.14863,-20.65182],[147.15612,-20.65171],[147.15949,-20.64919],[147.16313,-20.64303],[147.16463,-20.63517],[147.17102,-20.62422],[147.17802,-20.61858],[147.17873,-20.60644],[147.18409,-20.60223],[147.18608,-20.60391],[147.19378,-20.59911],[147.19625,-20.59377],[147.20955,-20.5871],[147.21456,-20.57673],[147.22249,-20.57651],[147.22798,-20.58144],[147.23459,-20.58404],[147.24138,-20.58444],[147.25132,-20.5729],[147.25796,-20.56699],[147.26406,-20.55981],[147.26702,-20.55793],[147.2745,-20.55723],[147.27954,-20.55238],[147.27987,-20.54398],[147.28315,-20.53632],[147.28482,-20.52457],[147.28845,-20.5178],[147.29925,-20.50804],[147.30104,-20.50379],[147.30093,-20.49725],[147.29168,-20.48012],[147.29055,-20.47271],[147.2945,-20.45652],[147.29783,-20.44742],[147.30054,-20.44417],[147.30858,-20.43835],[147.31987,-20.43343],[147.33083,-20.43076],[147.33882,-20.42691],[147.3424,-20.42196],[147.34502,-20.41332],[147.34764,-20.40057],[147.34723,-20.39379],[147.33909,-20.38587],[147.33158,-20.382],[147.32085,-20.37145],[147.3144,-20.36031],[147.31055,-20.34986],[147.30601,-20.33342],[147.30058,-20.32169],[147.29904,-20.31433],[147.30016,-20.30523],[147.30826,-20.28605],[147.31058,-20.27419],[147.31134,-20.26209],[147.30922,-20.22169],[147.3076,-20.21159],[147.30189,-20.19255],[147.30063,-20.18249],[147.29606,-20.166],[147.29194,-20.15554],[147.27902,-20.13479],[147.27481,-20.1258],[147.27522,-20.11469],[147.28086,-20.09757],[147.2844,-20.08901],[147.29272,-20.07545],[147.29471,-20.06899],[147.29391,-20.0647],[147.28531,-20.04605],[147.27336,-20.02844],[147.27897,-20.026],[147.28629,-20.02025],[147.30044,-20.01472],[147.30379,-20.01622],[147.2993,-20.0229],[147.29954,-20.02827],[147.30254,-20.03288],[147.3124,-20.03845],[147.31745,-20.04808],[147.32124,-20.05289],[147.32813,-20.05565],[147.3377,-20.05754],[147.34769,-20.06128],[147.35679,-20.05894],[147.36723,-20.06076],[147.37932,-20.06674],[147.38627,-20.06821],[147.39059,-20.07084],[147.39164,-20.07689],[147.38602,-20.08715],[147.39158,-20.08815],[147.46708,-20.09584],[147.47988,-19.9817],[147.47893,-19.98161],[147.48441,-19.93285],[147.4868,-19.93084],[147.4855,-19.92354],[147.49136,-19.87141],[147.50981,-19.87341],[147.51095,-19.85791],[147.5083,-19.85074],[147.51551,-19.84686],[147.52152,-19.84097],[147.52622,-19.83947],[147.52938,-19.83576],[147.53736,-19.83305],[147.53619,-19.82465],[147.5343,-19.82288],[147.53623,-19.81621],[147.54076,-19.81303],[147.54531,-19.81366],[147.54756,-19.81124],[147.56688,-19.80898],[147.57649,-19.80268],[147.60204,-19.79929],[147.60776,-19.80015],[147.66335,-19.8109],[147.6606,-19.80774],[147.64808,-19.80001],[147.63046,-19.78823],[147.62191,-19.78095],[147.60868,-19.76791],[147.60136,-19.75746],[147.59777,-19.74846],[147.59722,-19.74169],[147.5934,-19.73183],[147.5868,-19.72509],[147.59229,-19.71334],[147.59581,-19.70948],[147.59763,-19.70152],[147.60182,-19.69056],[147.59965,-19.68704],[147.61532,-19.68755],[147.61811,-19.68169],[147.61595,-19.67449],[147.60432,-19.65034],[147.59844,-19.64491],[147.58544,-19.64853],[147.58552,-19.64527],[147.58108,-19.63541],[147.57409,-19.6293],[147.58099,-19.62489],[147.57787,-19.61971],[147.5763,-19.61056],[147.57111,-19.60579],[147.57333,-19.59545],[147.5711,-19.5814],[147.56471,-19.56268],[147.55376,-19.5397],[147.54634,-19.52713],[147.53784,-19.52678],[147.53014,-19.51671],[147.52991,-19.51411],[147.51889,-19.49914],[147.51768,-19.49147],[147.50948,-19.48544],[147.5011,-19.48505],[147.50024,-19.48098],[147.487,-19.46552],[147.48524,-19.45908],[147.48062,-19.45007],[147.48177,-19.44687],[147.47706,-19.44056],[147.47429,-19.43319],[147.47147,-19.41768],[147.46921,-19.41036],[147.46823,-19.40276],[147.46291,-19.38656],[147.46024,-19.38257],[147.45571,-19.37133],[147.45236,-19.36654],[147.44888,-19.35824],[147.44684,-19.35633],[147.44001,-19.34374],[147.43277,-19.3332],[147.41753,-19.31493],[147.4138,-19.31646],[147.42131,-19.32174],[147.41619,-19.32681],[147.4188,-19.33579],[147.42571,-19.33822],[147.42678,-19.34545],[147.43627,-19.35654],[147.44212,-19.36023],[147.44671,-19.36699],[147.44738,-19.37812],[147.45332,-19.38492],[147.45516,-19.39519],[147.45233,-19.40578],[147.44161,-19.42066],[147.4315,-19.42397],[147.42014,-19.4261],[147.41348,-19.42625],[147.40615,-19.42479],[147.39591,-19.41946],[147.38865,-19.4177],[147.36026,-19.41955],[147.35331,-19.41751],[147.34751,-19.41779],[147.33689,-19.41627],[147.32821,-19.41412],[147.32443,-19.41468],[147.31767,-19.40869],[147.31306,-19.40831],[147.31135,-19.4109],[147.30389,-19.40767],[147.29761,-19.40982],[147.2923,-19.41325],[147.29138,-19.41594],[147.282,-19.42118],[147.27936,-19.4199],[147.27474,-19.42288],[147.26349,-19.42558],[147.25879,-19.43083],[147.2469,-19.43247],[147.24189,-19.42862],[147.2346,-19.41863],[147.2209,-19.41956],[147.21568,-19.42325],[147.21097,-19.42345],[147.20205,-19.41988],[147.19593,-19.41559],[147.18478,-19.41184],[147.17245,-19.41028],[147.16927,-19.41354],[147.16237,-19.41004],[147.16122,-19.40584],[147.14912,-19.40791],[147.14234,-19.40682],[147.13474,-19.40709],[147.13653,-19.41239],[147.13521,-19.41853],[147.13029,-19.42192],[147.1261,-19.42247],[147.12375,-19.41836],[147.12217,-19.41096],[147.11754,-19.4109],[147.11445,-19.40264],[147.11022,-19.3971],[147.11036,-19.39257],[147.11393,-19.38778],[147.10849,-19.38172],[147.10139,-19.37689],[147.08666,-19.36426],[147.07785,-19.35562],[147.06751,-19.34302],[147.05538,-19.31902],[147.0479,-19.29869],[147.04139,-19.29703],[147.04041,-19.29431],[147.04397,-19.28834],[147.04484,-19.27964],[147.04651,-19.27475],[147.05219,-19.27285],[147.05805,-19.27668],[147.06002,-19.27303],[147.05749,-19.26215],[147.05963,-19.25428],[147.05377,-19.24752],[147.05045,-19.24018],[147.04531,-19.23819],[147.04298,-19.22984],[147.04508,-19.2256],[147.0432,-19.22255],[147.04065,-19.20804],[147.02224,-19.19384],[147.021,-19.18858],[147.01677,-19.18582],[147.01508,-19.18925],[147.01834,-19.19155],[147.01981,-19.19833],[147.01848,-19.20353],[147.02299,-19.20754],[147.02177,-19.21585],[147.01631,-19.22115],[147.00763,-19.2264],[147.0057,-19.23177],[147.00182,-19.2368],[147.00493,-19.24138],[146.99261,-19.25988],[146.98878,-19.26747],[146.98121,-19.27607],[146.97738,-19.28371],[146.96582,-19.28884],[146.96051,-19.2933],[146.95779,-19.30099],[146.95459,-19.30048],[146.94939,-19.29643],[146.94246,-19.29537],[146.9329,-19.29817],[146.92843,-19.29793],[146.92291,-19.30158],[146.90968,-19.30154],[146.90687,-19.30371],[146.89695,-19.30561],[146.8845,-19.30424],[146.87234,-19.29723],[146.86561,-19.28992],[146.86328,-19.28999],[146.855,-19.27926],[146.84786,-19.27327],[146.84259,-19.27259],[146.83542,-19.26876],[146.84677,-19.2555],[146.84061,-19.24736],[146.83682,-19.2458],[146.83392,-19.25061],[146.82377,-19.24911],[146.82052,-19.25243],[146.81575,-19.24977],[146.80516,-19.23854],[146.80039,-19.23907],[146.7971,-19.24304],[146.79016,-19.23955],[146.78528,-19.23364],[146.78004,-19.22371],[146.77604,-19.2096],[146.774,-19.18858],[146.76622,-19.18424],[146.76235,-19.18482],[146.7511,-19.18095],[146.73709,-19.18028],[146.72874,-19.18272],[146.72507,-19.18148],[146.72019,-19.18733],[146.71499,-19.18809],[146.70322,-19.19327],[146.69922,-19.19202],[146.68889,-19.19347],[146.67948,-19.19084],[146.66477,-19.18504],[146.6538,-19.1782],[146.65196,-19.17607],[146.63937,-19.17363],[146.6289,-19.17041],[146.61674,-19.16317],[146.59767,-19.14827],[146.58675,-19.14502],[146.57332,-19.14556],[146.56359,-19.14304],[146.55596,-19.13748],[146.54935,-19.12837],[146.54584,-19.12151],[146.54097,-19.11629],[146.53052,-19.11136],[146.52636,-19.10587],[146.51794,-19.09988],[146.50579,-19.09699],[146.50112,-19.09816],[146.49111,-19.09409],[146.48195,-19.08687],[146.47292,-19.0765],[146.46946,-19.07464],[146.45663,-19.07506],[146.44809,-19.06818],[146.43777,-19.05505],[146.42688,-19.03828],[146.42057,-19.03121],[146.41764,-19.02487],[146.4114,-19.01871],[146.40526,-19.00757],[146.40146,-19.00629],[146.39627,-18.9985],[146.38012,-18.99765],[146.37312,-18.99021],[146.36728,-18.97847],[146.36323,-18.96701],[146.35426,-18.9599],[146.3443,-18.95953],[146.33632,-18.95632],[146.33226,-18.94878],[146.33044,-18.93868],[146.32483,-18.93042],[146.31739,-18.91761],[146.31232,-18.91603],[146.30458,-18.90645],[146.29852,-18.90228],[146.29515,-18.89571],[146.29066,-18.89303],[146.28375,-18.8805],[146.28387,-18.87476],[146.28194,-18.86932],[146.27862,-18.86877],[146.27515,-18.85781],[146.27609,-18.85442],[146.27547,-18.84245],[146.27543,-18.82425],[146.27823,-18.80052],[146.28445,-18.7734],[146.28525,-18.76187],[146.28762,-18.76006],[146.2889,-18.74864],[146.29242,-18.73508],[146.30184,-18.70511],[146.31174,-18.68227],[146.31964,-18.66689],[146.32117,-18.66259],[146.3371,-18.63498],[146.33968,-18.62424],[146.33711,-18.62313],[146.33443,-18.63408],[146.33152,-18.6408],[146.32445,-18.64665],[146.31933,-18.64571],[146.31958,-18.64135],[146.32254,-18.6392],[146.33764,-18.61216],[146.33892,-18.60684],[146.33749,-18.60233],[146.33923,-18.58718],[146.3424,-18.57768],[146.33986,-18.56299],[146.34543,-18.55926],[146.34494,-18.55417],[146.33588,-18.53307],[146.33752,-18.52583],[146.3284,-18.52066],[146.32389,-18.52259],[146.31986,-18.51932],[146.31347,-18.52194],[146.3086,-18.51811],[146.30244,-18.5153],[146.29484,-18.5082],[146.285,-18.50652],[146.27568,-18.50264],[146.26184,-18.49444],[146.25109,-18.49244],[146.24146,-18.49235],[146.22988,-18.48955],[146.22416,-18.49405],[146.2104,-18.50817],[146.20693,-18.51649],[146.19941,-18.5218],[146.19536,-18.52113],[146.19073,-18.52362],[146.19095,-18.52833],[146.18344,-18.53234],[146.18052,-18.52976],[146.17956,-18.52468],[146.17488,-18.5213],[146.16495,-18.51741],[146.15589,-18.51879],[146.14732,-18.51712],[146.1381,-18.51248],[146.12173,-18.50786],[146.11712,-18.50132],[146.11536,-18.49519],[146.11667,-18.48939],[146.12198,-18.48447],[146.11848,-18.48001],[146.11417,-18.47799],[146.11412,-18.47248],[146.10732,-18.46317],[146.10432,-18.45348],[146.10114,-18.45145],[146.09378,-18.45134],[146.09142,-18.44783],[146.09354,-18.44014],[146.10162,-18.43266],[146.09839,-18.42639],[146.09795,-18.42092],[146.10027,-18.41522],[146.0926,-18.41161],[146.08498,-18.40082],[146.07416,-18.40335],[146.0526,-18.39506],[146.04924,-18.39263],[146.04645,-18.39667],[146.03669,-18.38814],[146.02655,-18.3918],[146.02049,-18.38947],[146.01056,-18.3889],[146.00885,-18.39115],[146.00098,-18.39355],[145.99198,-18.39377],[145.98359,-18.39711],[145.98037,-18.39535],[145.97412,-18.39593],[145.9618,-18.39442],[145.94733,-18.3643],[145.93344,-18.37047],[145.9293,-18.36966],[145.91897,-18.37817],[145.91655,-18.37795],[145.90871,-18.38528],[145.90864,-18.38794],[145.89808,-18.39685],[145.8911,-18.39991],[145.88648,-18.40462],[145.87964,-18.40744],[145.87761,-18.40319],[145.87349,-18.40001],[145.87094,-18.40253],[145.86555,-18.40232],[145.85672,-18.40569],[145.84768,-18.40468],[145.83885,-18.40624],[145.83283,-18.40213],[145.82562,-18.40702],[145.81878,-18.40315],[145.81597,-18.39794],[145.81825,-18.39519],[145.81931,-18.38686],[145.8113,-18.37828],[145.80675,-18.37815],[145.80487,-18.38072],[145.8069,-18.38599],[145.7939,-18.38997],[145.79373,-18.39751],[145.79537,-18.40116],[145.79243,-18.40335],[145.78785,-18.40236],[145.78255,-18.39423],[145.77569,-18.39894],[145.76904,-18.39946],[145.76232,-18.39394],[145.75747,-18.39575]]],[[[146.86475,-19.11342],[146.86204,-19.11661],[146.85695,-19.11815],[146.84663,-19.11729],[146.84078,-19.11413],[146.83916,-19.10877],[146.83496,-19.1053],[146.82934,-19.1075],[146.82682,-19.11411],[146.8155,-19.11752],[146.80835,-19.11688],[146.80585,-19.11829],[146.80179,-19.11496],[146.79518,-19.11398],[146.78963,-19.11548],[146.78703,-19.12194],[146.78315,-19.1226],[146.77903,-19.12917],[146.78251,-19.1341],[146.79062,-19.13662],[146.79259,-19.13878],[146.79639,-19.14919],[146.79987,-19.15183],[146.80424,-19.16128],[146.81518,-19.16717],[146.82316,-19.17031],[146.83155,-19.17838],[146.83695,-19.18159],[146.84515,-19.17613],[146.85082,-19.16014],[146.85585,-19.16242],[146.86005,-19.15509],[146.86949,-19.1477],[146.87373,-19.14609],[146.874,-19.13441],[146.876,-19.12909],[146.88334,-19.12729],[146.87908,-19.12076],[146.8798,-19.11618],[146.88305,-19.11158],[146.87338,-19.11271],[146.86895,-19.11062],[146.86942,-19.10742],[146.86545,-19.10323],[146.8623,-19.10841],[146.86475,-19.11342]]],[[[146.60023,-19.03525],[146.60416,-19.03712],[146.60797,-19.03498],[146.61675,-19.0368],[146.62128,-19.03036],[146.61348,-19.02887],[146.60875,-19.03122],[146.60306,-19.02961],[146.59972,-19.03062],[146.60023,-19.03525]]],[[[146.6335,-19.02239],[146.6336,-19.0267],[146.63044,-19.02966],[146.63469,-19.03289],[146.6365,-19.02494],[146.6335,-19.02239]]],[[[146.54968,-18.83865],[146.54232,-18.83686],[146.53733,-18.83243],[146.53233,-18.83593],[146.53916,-18.84261],[146.5446,-18.84482],[146.5499,-18.84878],[146.55118,-18.84415],[146.54968,-18.83865]]],[[[146.53727,-18.77785],[146.53762,-18.78083],[146.5419,-18.78823],[146.54857,-18.78882],[146.54009,-18.77954],[146.53727,-18.77785]]],[[[146.51693,-18.765],[146.51613,-18.77072],[146.52008,-18.77404],[146.52235,-18.77011],[146.51693,-18.765]]],[[[146.5812,-18.76865],[146.57978,-18.7653],[146.58488,-18.76232],[146.58711,-18.7585],[146.59482,-18.7579],[146.60349,-18.76137],[146.60956,-18.75803],[146.61618,-18.76455],[146.6224,-18.7606],[146.62994,-18.76183],[146.63486,-18.76486],[146.64277,-18.77516],[146.64701,-18.77657],[146.65183,-18.77575],[146.6671,-18.76812],[146.67004,-18.76393],[146.67585,-18.76334],[146.68013,-18.76581],[146.68414,-18.76003],[146.69465,-18.76107],[146.69092,-18.75352],[146.68719,-18.75199],[146.68907,-18.74803],[146.68913,-18.74122],[146.6839,-18.73721],[146.6746,-18.74055],[146.67303,-18.74283],[146.66572,-18.74662],[146.65615,-18.74785],[146.64849,-18.75035],[146.64367,-18.75054],[146.64024,-18.74814],[146.63495,-18.74034],[146.63576,-18.73385],[146.63488,-18.72751],[146.62779,-18.71861],[146.6216,-18.71218],[146.61657,-18.70421],[146.61142,-18.7035],[146.60411,-18.69961],[146.59773,-18.69799],[146.59395,-18.69305],[146.59346,-18.68887],[146.59611,-18.68293],[146.59365,-18.68163],[146.58894,-18.68482],[146.58325,-18.68495],[146.57861,-18.68169],[146.57717,-18.67718],[146.57367,-18.67648],[146.57173,-18.68183],[146.57959,-18.69039],[146.57998,-18.69672],[146.58905,-18.71205],[146.5874,-18.71556],[146.58326,-18.71738],[146.57833,-18.72516],[146.57616,-18.73917],[146.5747,-18.74101],[146.57722,-18.74891],[146.57166,-18.75155],[146.56793,-18.76228],[146.5761,-18.76769],[146.5812,-18.76865]]],[[[146.51455,-18.67702],[146.51851,-18.68428],[146.51603,-18.68632],[146.50875,-18.69682],[146.50804,-18.69991],[146.5132,-18.70849],[146.517,-18.71033],[146.51794,-18.71412],[146.52218,-18.71364],[146.52262,-18.70528],[146.52442,-18.70375],[146.52492,-18.69346],[146.52349,-18.6855],[146.52597,-18.68279],[146.52688,-18.67239],[146.5238,-18.66486],[146.52017,-18.66073],[146.51632,-18.65995],[146.51168,-18.66189],[146.51245,-18.6744],[146.51455,-18.67702]]],[[[146.55137,-18.6724],[146.55283,-18.67486],[146.55144,-18.68182],[146.55856,-18.68727],[146.56223,-18.67622],[146.56766,-18.67157],[146.55685,-18.65895],[146.54809,-18.65241],[146.54448,-18.65218],[146.53799,-18.65818],[146.5432,-18.66001],[146.55137,-18.6724]]],[[[146.49346,-18.60009],[146.48917,-18.60178],[146.49122,-18.61024],[146.4891,-18.6134],[146.48364,-18.61445],[146.49436,-18.62719],[146.49804,-18.62955],[146.50007,-18.63361],[146.49878,-18.63825],[146.49406,-18.643],[146.49243,-18.6482],[146.48865,-18.65386],[146.48961,-18.65872],[146.48856,-18.66472],[146.49922,-18.6605],[146.50405,-18.65392],[146.5031,-18.64828],[146.50649,-18.63899],[146.50455,-18.62792],[146.50786,-18.62634],[146.50606,-18.61912],[146.50023,-18.61234],[146.50021,-18.60828],[146.50305,-18.60533],[146.50397,-18.59924],[146.49743,-18.59156],[146.49716,-18.58173],[146.49238,-18.57272],[146.48431,-18.56744],[146.48325,-18.56936],[146.48576,-18.57659],[146.48104,-18.58238],[146.48487,-18.59343],[146.48985,-18.5924],[146.49365,-18.59487],[146.49346,-18.60009]]],[[[146.49768,-18.56289],[146.50087,-18.56118],[146.505,-18.55552],[146.5033,-18.54434],[146.49735,-18.53825],[146.49128,-18.53813],[146.48805,-18.5459],[146.48943,-18.55073],[146.48815,-18.55805],[146.49483,-18.56267],[146.49768,-18.56289]]]]},"properties":{"District Name":"Townsville","DDMG Name":"Townsville","Police Region Name":"Northern Region","Police Region Code":"NR","Police Region Short Name":"Northern"}}]}