{"type":"Topology","arcs":[[[68601,20325],[80,9],[45,20],[15,158],[28,31],[24,157],[-12,28],[35,231],[-32,18],[-48,-40],[17,182],[49,25],[27,50],[8,72],[28,70],[31,24],[37,169],[-15,134],[15,91],[-43,100],[2,34],[-50,72],[-126,42],[-16,135],[43,72],[109,22],[69,55],[19,92],[-32,23],[-22,78],[-32,-5],[-39,47],[-70,287],[-86,16],[-56,36],[2,44],[-45,65],[-24,3],[-48,85],[36,81],[-7,105],[42,57],[-28,73],[-66,101],[-339,47],[-14,12],[39,166],[-40,92],[19,61],[-12,66],[-37,61],[-61,142],[-45,23],[-15,45],[-2,85],[-20,153],[4,94],[28,46],[85,18],[12,51],[-41,45],[-13,46],[-71,-11],[-34,150],[-66,73],[-33,72],[-13,79],[-38,71],[-31,98],[-12,100],[-33,65],[12,29],[-98,242],[-8,161],[-17,64],[6,65],[-16,72],[40,136],[-16,85],[-1,108],[-19,41],[1,103],[110,118],[-2,56],[23,79],[-43,51],[54,189],[-30,87],[-4,120],[39,99],[-8,28],[57,213],[54,36],[35,76],[40,-57],[70,50],[130,265],[-3,167],[-36,52],[-92,-11],[627,788],[292,-148],[19,-137],[31,-31],[66,-27],[30,-111],[27,-41],[48,-16],[120,-78],[39,-4],[165,34],[-10,-120],[-31,-86],[39,-130],[31,-7],[8,-71],[48,-13],[13,-119],[-72,-29],[10,-188],[38,-63],[27,-79],[-9,-83],[29,-98],[29,-151],[0,-92],[48,-156],[65,-59],[-3,-148],[20,-27],[80,-18],[92,0],[-41,-142],[24,-97],[-21,-124],[42,-58],[36,-135],[-13,-89],[48,-120],[-10,-87],[-21,-51],[-17,-104],[14,-101],[-40,-84],[-7,-58],[-124,-106],[2,-62],[-33,-72],[39,-59],[136,-77],[51,-91],[-41,-18],[13,-81],[68,-45],[116,12],[34,95],[138,112],[38,63],[44,105],[67,-9],[37,60],[11,83],[54,70],[21,63],[-23,54],[4,156],[15,57],[52,-22],[56,152],[25,19],[-35,124],[12,99],[33,85],[48,35],[-44,89],[-6,89],[-23,38],[-21,202],[27,-43],[76,-57],[71,-9],[23,-29],[43,6],[46,-34],[32,-134],[-8,-79],[92,-225],[81,-22],[51,-76],[150,-60],[73,-48],[61,48],[25,102],[-15,187],[4,80],[-29,149],[23,73],[-17,86],[16,54],[88,78],[86,-50],[56,-18],[60,-140],[51,22],[22,90],[58,92],[29,134],[-6,68],[122,67],[52,-23],[44,93],[42,-52],[162,-153],[108,-47],[5,-57],[59,-103],[35,-15],[45,57],[59,19],[41,39],[73,-20],[36,-32],[64,39],[-1,104],[24,70],[66,134],[-10,218],[-27,68],[13,40],[-53,63],[33,71],[-20,92],[44,46],[-30,35],[-21,146],[-40,95],[-5,69],[73,52],[18,32],[34,128],[37,429],[32,7],[89,138],[160,144],[16,193],[-11,84],[47,250],[40,80],[39,32],[82,-29],[-2,50],[66,191],[2,77],[141,33],[79,11],[19,-109],[131,5],[24,-667],[35,-812],[27,64],[44,-14],[17,-69],[62,-33],[62,23],[6,97],[37,120],[-21,77],[8,141],[-11,216],[-57,271],[-11,148],[-2,163],[11,142],[30,84],[81,99],[18,60],[0,102],[126,84],[100,109],[79,146],[54,85],[57,146],[80,122],[75,64],[117,260],[183,335],[30,96],[34,61],[26,309],[28,7],[74,204],[-167,150],[-32,148],[101,558],[19,244],[392,-73],[-72,170],[58,-10],[0,105],[-23,84],[-52,105],[38,89],[-13,57],[-40,38],[11,63],[-15,79],[-55,78],[11,58],[-17,201],[-60,222],[34,66],[-12,55],[-2,230],[-36,113],[2,66],[-47,27],[7,74],[-19,55],[56,128],[-77,478],[-39,29],[-9,174],[15,49],[-30,113],[-4,58],[-42,81],[-5,50],[-178,514],[-55,98],[-30,111],[-74,1],[-20,169],[-57,53],[-9,61],[-35,24],[11,192],[34,53],[-85,121],[-27,136],[20,93],[-33,67],[-44,33],[-24,86],[16,61],[-19,75],[-30,19],[-48,107],[25,43],[135,109],[805,-22],[434,-95],[54,-37],[26,8],[43,86],[61,86],[-41,100],[-2,89],[-27,71],[48,101],[-55,135],[12,61],[-18,57],[24,84],[-2,80],[-17,69],[-88,53],[-47,51],[-89,45],[-99,114],[-29,108],[11,122],[47,188],[73,206],[40,138],[80,138],[8,106],[22,36],[72,-19],[88,-86],[39,7],[19,107],[-9,46],[-54,74],[-9,159],[15,152],[-11,147],[88,17],[105,-107],[55,-83],[75,60],[18,52],[84,0],[39,113],[57,33],[14,60],[50,17],[26,58],[24,120],[-15,93],[30,72],[3,85],[32,37],[-13,80],[-1,141],[32,64],[495,-136],[534,-45],[-12,118],[26,37],[21,81],[48,-23],[45,62],[-46,151],[9,139],[-55,59],[-26,103],[3,127],[-26,27],[-79,12],[-49,95],[-46,27],[-29,86],[-46,38],[-51,76],[-19,114],[1,140],[-32,48],[-18,86],[-23,41],[7,69],[-57,77],[10,74],[-29,33],[-39,0],[-30,150]],[[77301,43937],[35,39],[28,-8],[35,73],[37,11],[23,77],[-64,365],[117,-24],[6,82],[82,-16],[98,1],[112,-21],[3,38],[160,-37],[22,279],[20,30],[16,199],[15,6],[40,121],[63,4],[23,70],[59,42],[34,-11],[127,41],[55,58],[73,-84],[50,-13],[47,67],[5,47],[232,-47],[6,56],[122,-27],[6,66],[93,-21],[-4,-42],[78,-17],[4,52],[115,-23],[60,18],[94,-94],[61,-7],[-1,-116],[95,-30],[-12,-34],[-53,-36],[-1,-63],[28,-48],[2,-53],[97,-100],[-33,-97],[-29,7],[-35,-35],[-25,-58],[36,-63],[70,-53],[36,-86],[51,-8],[24,-54],[-25,-106],[53,-38],[14,-124],[26,-17],[42,-104],[-28,-90],[159,-18],[20,-55],[53,-28],[-30,-48],[-11,-108],[18,-21],[0,-82],[-50,-45],[-4,-60],[63,-46],[-18,-247],[34,-32],[2,-92],[32,-29],[55,0],[31,170],[24,39],[49,22],[63,-52],[-7,-79],[39,-52],[55,-14],[48,-34],[51,-131],[64,-50],[65,-5],[45,50],[40,83],[9,93],[45,41],[53,10],[19,31],[38,-75],[84,22],[61,-17],[34,-36],[83,-6],[20,-89],[47,-50],[2,-66],[41,-25],[-10,-97],[74,-69],[44,63],[12,63],[54,-19],[24,-83],[57,9],[28,64],[60,-69],[56,24],[96,-53],[107,34],[11,117],[77,43],[-4,145],[94,53],[73,-42],[30,25],[120,-56],[51,55],[33,-37],[52,-1],[36,-82]],[[82422,42837],[-26,-50],[6,-65],[-16,-93],[42,-74],[-2,-35],[35,-104],[39,-69],[-5,-46],[38,-92],[16,-72],[-3,-96],[46,-75],[-16,-138],[40,-12],[28,-103],[42,-77],[-11,-28],[74,-95],[55,-43],[52,67],[54,-28],[38,-71],[92,-65],[12,-80],[52,-46],[15,-154],[24,-44],[7,-63],[37,-108],[0,-103],[62,-70],[1,-62],[-37,-44],[-4,-104],[-19,-48],[21,-53],[5,-307],[31,-221],[24,-51],[-6,-101],[67,-126],[9,-56],[60,-41],[-25,-262],[18,-26],[-14,-72],[8,-57],[-21,-34],[49,-103],[15,-65],[-35,-56],[0,-85],[27,-105],[70,-12],[42,-35],[96,-11],[18,-33],[51,17],[73,-58],[62,-25],[63,32],[3,-99],[43,14],[33,-95],[31,-24],[22,-82],[110,-114],[30,-95],[-8,-85],[-25,-39],[13,-59],[-66,-111],[2,-143],[43,-63],[-46,-103],[-22,-247],[-19,-45],[8,-93],[-79,-33],[-30,-48],[-6,-107],[-64,-29],[-1,-69],[127,-180],[-13,-87],[-33,-34],[2,-50],[-61,-95],[1,-144],[34,-29],[-8,-60],[-29,-46],[-20,-176],[15,-27],[-22,-81],[-50,-89],[102,-119],[30,-133],[56,58],[42,13],[26,-47],[44,30],[73,-13],[18,21],[74,7],[51,-56],[87,109],[14,84],[46,0],[56,27],[56,-2],[-7,-48],[-49,-134],[9,-31],[-25,-82],[-49,-68],[99,-156],[63,-133],[-47,-34],[-18,-47],[42,-57],[106,-109],[23,46],[127,7],[67,-85],[74,-6],[71,135],[20,94],[48,34],[69,20],[6,-83],[216,-718],[4,-100],[144,-59]],[[85581,33999],[-1,-95],[-28,-61],[0,-115],[-44,-56],[-29,-7],[-15,-112],[-43,-62],[0,-86],[18,-82],[16,-178],[40,-46],[73,-172],[-56,4],[-41,-47],[-6,-122],[6,-118],[25,-93],[-31,-31],[-76,42],[-132,81],[-98,35],[-427,210],[-14,-64],[-66,15],[-31,-60],[-98,22],[-25,93],[-29,6],[-7,-80],[-29,-70],[-58,55],[-66,-28],[-31,63],[-61,-665],[35,-16],[130,-186],[86,-25],[55,-41],[15,-38],[84,-75],[126,81],[58,-92],[66,18],[5,-88],[21,-76],[86,-112],[-29,-40],[-47,-115],[-65,-99],[-32,-99],[-50,-21],[-23,-147],[-29,-15],[-26,-99],[34,-61],[-22,-211],[-28,-81],[-65,-36],[-56,26],[-32,-18],[-215,80],[-316,84],[-74,-51],[-47,3],[-76,111],[-60,50],[-107,19],[-82,57],[-48,6],[-53,-51],[-130,-29],[-80,21],[-83,-4],[-81,47],[-107,-65],[-31,14],[-61,131],[-116,-37],[-29,-58],[-12,-128],[-122,2],[-90,-33],[-202,-262],[-4,-13],[127,-806],[35,-123],[-21,-35],[-44,-479],[-29,-36],[-24,-97],[-91,-29],[-185,-724],[-17,-208],[14,-123],[-131,-490],[-24,-24],[56,-231],[58,-123],[-46,-329],[12,-152],[4,-330],[-11,-92],[2,-118],[47,-175],[13,-96],[19,-53],[-13,-149],[21,-43],[58,-56],[106,-155],[-72,-40],[-40,-119],[-39,-42],[-33,-94],[20,-113],[25,-51],[-1,-89],[-36,-55],[-1,-78],[-51,-43],[-169,-2],[-104,-78],[-85,-42],[-85,-181],[35,-84],[-131,-32],[-72,58],[-53,4],[6,-74],[-17,-41],[16,-53],[37,-263],[-16,-155],[-25,-20],[-57,-105],[3,-86],[-28,-121],[-61,-10],[-17,-84],[52,-200],[-35,-41],[-89,-13],[-11,-91],[34,-55],[-2,-82],[19,-65],[-55,-188],[7,-55],[-42,-66],[-91,20],[-84,-95],[16,-72],[-4,-152],[12,-38],[-32,-93],[-75,-78],[7,-44],[88,-65],[-33,-30],[-18,-65],[-41,-24],[-94,-165],[74,-99],[-44,-72],[23,-155],[-69,-31],[-23,-36],[73,-127],[43,-47],[-58,-221],[-185,-194],[-7,-145],[-46,-61],[8,-62],[49,-29],[-12,-91],[18,-15],[72,35],[19,-95],[-20,-101],[32,-14],[71,35],[33,-39],[9,-60],[-91,-170],[20,-94],[-17,-65],[101,-79],[-14,-60],[5,-142],[57,-133],[20,-86],[-38,-175],[-34,-48],[-24,-138],[9,-69],[41,31],[60,-10],[8,-58],[94,-20],[88,-51],[46,-209],[-51,-554],[-83,-50],[-68,-140],[38,-160],[-8,-100],[103,-551],[-40,-47],[-27,-517],[-68,-205],[-108,-18],[-80,-74],[-21,-76],[-50,-63],[16,-119],[-153,-14],[-81,-40],[-126,10],[-38,40],[-38,343],[-346,140],[-107,21],[-22,-244],[-48,3],[-128,109],[-70,1],[-9,-99],[-44,11],[-52,80],[-110,25],[-80,34],[-55,-5],[-273,63],[50,-206],[1,-141],[-16,0],[-40,-88],[-75,-48],[-46,-57],[-51,-5],[-101,-42],[-102,56],[-116,101],[-87,213],[-43,-20],[-20,39],[-35,-98],[-11,-67],[-44,-84],[-244,-14],[-35,-349],[-24,-33],[-33,19],[-11,97],[-31,-4],[-33,-51],[-39,-3],[-29,33],[-49,-432],[-70,108],[-113,72],[-80,72],[-137,-8],[-48,-43],[-52,5],[-60,126],[-33,21],[-105,-5],[-45,10],[-38,106],[-71,71],[-36,68],[-72,65],[-25,-24],[-57,21],[-28,-89],[-55,41],[-32,-119],[-272,-112],[-96,1],[-94,120],[-30,6],[-15,-161],[51,-11],[-41,-121],[-78,-50],[-52,17],[-33,46],[-44,3],[-36,-31],[-52,-104],[-138,81],[-39,-97],[143,-438],[-96,-215],[-43,21],[-102,314],[-156,456],[-362,-269],[-87,-47],[-63,-55],[-18,-41],[-71,-60],[-120,-153],[-534,115],[-5,-4],[-74,-802],[-816,151],[54,579],[-669,125],[-40,92],[-130,-177],[-65,-21],[-81,-104],[-14,-93],[-62,-26],[-2,-42],[-61,-74],[-49,-82],[-60,20],[-63,-81],[-210,-572],[-436,80],[-200,34],[-507,126],[-220,43],[-110,-69],[-26,22],[-127,55],[-74,-32],[-24,104],[116,928],[-33,95],[-60,81],[-45,18],[-56,68],[-77,151],[-63,17],[-23,52],[-85,136],[-19,56],[-73,22],[-107,205],[-51,127],[4,56],[47,270],[1,97],[-79,-3],[-72,-80],[-138,-88],[-86,-23],[-76,-69],[-72,-30],[-39,-41],[-155,297],[-282,51],[-11,87],[-74,16],[191,271],[-32,163],[12,47],[47,8],[13,57],[-28,71],[30,95],[-28,76],[55,57],[20,-6],[46,78],[-14,83],[36,33],[56,-101],[64,-1],[59,-89],[26,-62],[16,-106],[29,-24],[44,62],[26,5],[121,149],[47,2],[68,60],[51,158],[30,3],[101,121],[70,-42],[137,82],[-24,76],[5,38],[53,140],[-1,74],[-63,-54],[-24,17],[-12,78],[32,84],[68,66],[0,77],[-105,53],[-28,-19],[4,-57],[-27,-42],[-6,-71],[-51,-79],[-18,54],[48,95],[-8,44],[-40,19],[-53,114],[-35,8],[-68,64],[3,66],[80,-43],[21,35],[-53,79],[-80,27],[-60,-3],[-91,17],[-17,-40],[15,-90],[29,-63],[-29,-56],[-54,90],[12,128],[-6,62],[14,117],[-21,37],[325,383],[-715,1392]],[[24384,60769],[-256,467],[4,155],[14,150],[87,-20],[809,1013],[41,-78],[1034,1307],[87,108],[90,1548],[457,-69],[1000,-144],[4,66],[614,-72],[361,-36],[16,-12],[224,-19],[-56,-1018],[614,-72],[582,-60],[132,-542],[316,-38],[74,138],[91,143],[97,104],[30,95],[210,377],[327,752],[226,514],[56,142],[77,-9]],[[31746,65659],[295,-36],[150,-23],[692,-77],[229,-34],[433,-82],[53,24],[135,-133],[59,876],[-5,4],[50,739],[5,7],[361,-57],[37,734],[1181,-190],[61,949],[49,835],[1045,-170],[18,448],[-86,148],[9,115],[645,-103],[-1,-25],[276,-46],[-25,41],[9,45],[-12,82],[25,17],[7,63],[50,119],[-1,84],[-96,280],[35,427],[-172,226],[17,262],[733,-121],[64,-482],[900,-166],[399,-79],[137,2135],[782,-136],[30,603],[1209,-137],[-22,-368],[-16,-340],[-89,3],[-144,-1086],[688,-268],[-169,-827],[-96,15],[-90,-559],[408,-157],[-84,-153],[-810,191],[-83,-1558],[1266,-146],[-4,-263],[602,-126],[321,-66],[-3,-62],[1050,-223],[201,-46]],[[44454,66786],[40,-11],[253,-155],[66,-99],[-78,-864],[50,-566],[-153,-1540],[7,-11],[572,-132],[-58,-711],[-50,-638],[40,-17],[1343,-218],[-52,-635],[82,72],[-64,-934],[-96,15],[-62,-1372],[-121,11],[-11,-126],[189,-29],[488,-95],[27,109],[132,-31],[388,-74],[12,-23],[194,-30],[79,1201],[252,-597],[168,-162],[582,-93],[46,-132],[-26,-60],[20,-27],[43,28],[12,-71],[46,-113],[41,-66],[78,-89],[-17,-31],[-193,-121],[-14,-89],[12,-77],[32,-98],[82,-138],[12,-107],[-54,-162],[-38,-83],[-2,-143],[-60,-138],[-104,-64],[-31,-90],[-2,-72],[19,-118],[93,-192],[67,-171],[24,-121],[22,-206],[61,-200],[75,-114],[60,-48],[120,10],[818,-587],[636,-372],[-85,-1247],[235,-36],[1,-102],[17,-42],[0,-144],[29,-35],[397,204],[21,-175],[87,-119],[188,42],[19,-93],[406,210],[60,79],[95,34],[14,-108],[-12,-146],[64,-164],[-10,-94],[79,-160],[-24,-354],[-8,-54],[-30,-495],[0,-79],[-91,-1115],[303,-41],[13,-6],[840,-223],[-34,-375],[573,-225],[45,1],[24,-37],[54,-7],[-6,-74],[33,-112],[-15,-129],[-14,-320],[-29,-259],[-1,-64],[79,-12],[-29,-438],[510,-276],[267,-208]],[[54616,47971],[45,-96],[28,116],[84,-108],[1,-72],[48,-84],[14,-122],[4,-175],[-55,-151],[78,-151],[-81,-151],[-39,-39],[-50,-12],[-70,-64],[-44,14],[-34,-46],[-100,-73],[-45,-11],[-63,34],[-23,-152],[8,-65],[-14,-55],[-51,-48],[-1,-32],[66,-173],[-20,-100],[-79,-69],[-75,-101],[-8,-89],[38,-115],[-8,-63],[22,-78],[67,-74],[3,-40],[-38,-109],[-55,-101],[23,-51],[14,-140],[37,-105],[-116,-118],[24,-97],[-29,-122],[20,-117],[-30,-49],[-5,-79],[35,-97],[25,-31],[1,-93],[-17,-101],[-28,-62],[41,-130],[7,-64],[-16,-83],[6,-105],[97,-68],[62,-80],[38,-2],[51,-47],[-16,-50],[22,-95],[47,-95],[18,-83],[-55,-114],[-3,-101],[-27,-80],[16,-92],[57,-128],[-14,-93],[33,-105],[-14,-28],[-11,-167],[-18,-69],[25,-144],[38,-88],[1,-70],[-20,-70],[-13,-314],[-89,-221],[-48,-522],[-164,-157],[-134,-80],[-33,-497],[19,-667],[-148,-93],[-76,-1],[-63,92],[-61,4],[-70,-82],[-49,-8],[-44,-33],[-26,23],[-70,-7],[-123,-100],[-49,-54],[-70,-137],[-20,8],[-41,-56],[-97,21],[-97,-33],[-108,-99],[-1,-90],[-72,-74],[0,-41],[-239,-222],[-88,-166],[-116,-62],[-149,53],[-40,-119],[-1,-66],[-23,-70],[-5,-103],[45,-60],[1,-40],[-28,-92],[-1,-65],[-90,-108],[33,-121],[-52,-81],[-8,-98],[-17,-46],[-13,-100],[-31,-31],[-27,-157],[51,-118],[61,13],[3,-45],[-42,-15],[10,-73],[-9,-77],[-103,-72],[-41,-1],[-21,-69],[0,-123],[-40,-58],[41,-115],[-26,-73],[-56,20],[-170,-72],[-49,-30],[-31,-59],[31,-100],[-45,-63],[-9,-133],[-47,-28],[-7,-109],[-59,-3],[-40,-45],[-80,32],[-29,-31],[-109,-9],[-101,-45],[-17,-115],[24,-122],[-54,-50],[-49,12],[-4,-96],[-39,-64],[-44,-152],[-26,111],[-108,67],[-43,1],[-20,-40],[-31,35],[-60,22],[-102,-45],[-146,-161],[-69,301],[5,169],[-74,101],[-96,-7],[-33,-41],[-34,22],[-22,62],[-36,-3],[-35,-71],[-19,-111],[-86,-31],[-49,-149],[-63,-40],[-30,57],[-87,12],[-27,-81],[-71,-2],[-23,28],[-78,-119],[-71,-19],[-46,-34],[-65,-22],[-39,33],[-33,-5],[-50,50],[-72,-18],[12,-53],[98,-135],[28,-77],[3,-114],[-13,-19]],[[49081,34417],[-33,9],[-46,-67],[-132,76],[-98,12],[-4,35],[-57,48],[-5,38],[-40,79],[1,61],[-61,126],[-57,9],[-10,94],[-36,36],[-35,82],[5,114],[-17,40],[-76,40],[-3,29],[-76,2],[-9,83],[-25,34],[-84,-107],[-33,26],[-97,-22],[-22,80],[-61,14],[-35,52],[-9,49],[-93,68],[-53,83],[-54,3],[-33,140],[-39,96],[13,67],[-18,68],[-39,63],[-69,-3],[-51,96],[-74,90],[20,133],[-16,30],[39,581],[-1128,177],[47,600],[-65,12],[76,1119],[-1137,180],[73,1071],[51,737],[-708,115],[-173,-147],[-70,-134],[-23,-112],[-48,-53],[-100,-230],[-514,94],[94,1223],[-92,43],[83,1224],[-203,32],[-7,-15],[-305,-277],[-122,-119],[-7,18],[-115,18],[20,422],[-783,135],[-122,-1778],[-412,75],[-70,-1004],[-208,36],[-57,-4],[-325,78],[-138,-216],[-78,-813],[21,-22],[270,-46],[-78,-1035],[-527,94],[2,25],[-247,42],[-2,-25],[-861,139],[-18,-259],[-578,94],[-471,82],[-15,11],[-506,57],[-368,71],[-113,26],[-12,-138],[-104,13],[-17,-214],[-1273,200],[-11,193],[-34,4],[12,77],[-33,141],[-31,70],[-57,74],[-55,31],[-65,76],[-26,131],[-66,106],[-14,-24],[-141,41],[-36,-40],[-123,89],[8,110],[-21,30],[7,108],[-38,29],[-82,-14],[-69,-63],[-151,-52],[-37,28],[-39,100],[-43,52],[-89,78],[-23,0],[-71,91],[-94,1]],[[34574,40093],[45,33],[41,65],[37,6],[92,106],[86,24],[23,81],[27,29],[-732,115],[36,445],[38,397],[-137,16],[110,1157],[7,28],[26,278],[78,751],[94,1104],[-415,79],[74,1001],[89,1383],[616,-69],[28,336],[7,38],[61,673],[-161,29],[12,116],[42,647],[12,97],[17,289],[43,-3],[10,150],[48,92],[210,-34],[20,294],[41,525],[-7,0],[45,632],[281,-45],[24,342],[-276,50],[0,8],[-259,46],[59,889],[30,487],[-427,85],[102,1423],[-589,96],[-1085,178],[-761,123],[-744,123],[-59,94],[-38,158],[11,77],[-11,114],[27,71],[-4,138],[24,26],[14,130],[27,41],[46,171],[39,41],[44,17],[46,141],[38,47],[14,84],[29,49],[-2,124],[12,82],[-21,98],[81,214],[4,83],[45,78],[31,14],[24,72],[52,47],[50,78],[45,98],[18,80],[47,-2],[108,122],[0,103],[13,50],[-9,98],[34,31],[62,137],[-2,81],[31,63],[-31,113],[-4,117],[10,138],[24,129],[45,113],[5,40],[-27,75],[-341,45],[63,305],[-463,68],[0,7],[-421,62],[25,442],[-516,90],[-351,56],[1,17],[-873,141],[-23,-436],[-567,97],[-31,13],[65,404],[-773,109],[-73,-72],[-519,93],[-78,20],[-364,69],[-148,-188],[-2,63],[-295,563],[-144,702],[-486,-494],[-440,-439],[-178,106],[-532,178],[-495,164],[-6,-88],[-135,-11]],[[12184,44676],[122,1801],[1973,-211],[-15,-385],[511,-47],[-18,-679],[623,-56],[838,-93],[163,-33],[1147,-228],[741,-98]],[[18269,44647],[598,-81],[-130,-2194],[1121,-157],[-88,-1153],[-57,-1053],[-44,-634],[-16,2],[-36,-705],[530,-54],[-56,-1096],[-10,-82],[36,-622],[863,-95],[633,-92],[80,43],[12,-21],[89,60],[39,67],[2,84],[55,95],[38,-2],[25,109],[57,-13],[24,36],[-11,68],[59,30],[-18,67],[13,86],[89,66],[7,60],[-27,106],[9,71],[-13,47],[-10,119],[36,120],[64,80],[44,100],[20,73],[-3,366],[28,21],[-2,106],[41,34],[49,162],[390,-94],[301,-51],[29,404],[614,-102],[829,-133],[-54,-793],[405,-63],[542,-89],[-65,-913],[-15,-292],[-15,-117],[-14,-200],[-35,6],[-12,-167],[-74,11],[-49,-618],[-67,8],[-74,-1235],[534,56],[-17,-139],[112,-19],[-103,-1373],[-89,125],[-216,412],[-841,-1020],[23,-4],[-720,-866],[-3,-33],[593,-1182],[-93,-106],[-204,29],[-365,-431],[-98,-120],[-9,-173],[-412,-508],[-250,-314],[-6,-102],[-28,-69],[-11,-141],[1075,-1913],[53,70],[70,64],[52,137],[-3,62],[-30,81],[2,78],[75,98],[82,27],[24,116],[29,-1],[82,59],[72,-142],[6,-56],[36,-32],[32,-75],[302,-573],[89,48],[104,15],[63,38],[57,124],[66,96],[64,112],[31,255],[18,113],[52,101],[34,144],[97,204],[72,37],[171,242],[106,181],[69,74],[74,129],[44,42],[6,39],[84,107],[88,69],[64,29],[27,79],[133,47],[154,109],[42,70],[19,107],[0,126],[11,67],[74,155],[281,-533],[134,166],[111,-182],[68,-38],[165,-281],[245,-426],[-59,-76],[157,-299],[17,-20],[302,-573],[693,-1308],[273,334],[593,-1115],[-436,-546],[1,-61],[-36,-77],[86,-304],[123,-355],[69,-219],[-44,-254],[1,-101]],[[29458,23146],[-73,-123],[-157,-427],[-207,-542],[-122,-329],[-17,-177],[50,-62],[59,-263],[-56,-246],[-96,-293],[-240,-135],[-13,-66],[8,-73],[29,-97],[4,-61],[-40,-133],[-71,-65],[22,-289],[-14,-53],[-59,-93],[8,-58],[-82,-114],[-49,-151],[-52,-8],[-101,-106],[-12,-224],[-214,-219],[-48,-75],[-39,-30],[-276,-7],[-4,-16],[-224,432],[-429,800],[-826,131],[-3,-37],[-615,78],[-8,-111],[-54,80],[4,108],[31,99],[16,7],[163,-20],[98,116],[19,110],[66,29],[-183,703],[-124,252],[4,50],[-148,238],[-158,80],[-80,50],[-34,48],[-10,77],[-171,203],[-24,60],[-76,31],[-48,80],[-99,64],[-43,68],[-57,27],[-88,-89],[-55,-20],[-26,30],[-24,84],[-55,73],[-126,234],[-391,-487],[-594,-743],[-272,37],[-36,-76],[-10,-131],[26,-46],[-36,-472],[9,-2],[-49,-828],[-37,-81],[37,-126],[-17,-59],[-86,-1311],[303,-43],[-49,-751],[-440,59],[-18,-42],[-39,49],[-106,81],[-61,-10],[-36,46],[-282,40],[-993,152],[-38,-558],[-60,-1001],[-1268,193],[-516,79],[-99,-1451],[-569,93],[-151,27],[85,1150],[58,854],[-637,102],[-807,132],[-76,115],[49,3],[64,31],[28,140],[4,82],[23,68],[-1233,161],[-547,-712],[-101,-144],[-4,-100],[-112,-94],[-142,-142],[-5,-30],[-205,-177],[-110,-117],[-63,-90],[-62,-2],[-97,-57],[-78,-11],[-30,-42],[-187,-83],[-21,-155],[-128,-68],[-48,20],[-167,-44],[-156,-100],[-36,-68],[-96,-98],[-132,-77],[-91,1],[-392,-551],[-118,-117],[-133,4],[-37,-390],[-173,30],[-104,-1266],[-143,-2027],[149,-1424],[-33,-75],[-8,-56],[-84,-132],[-28,-18],[-33,-114],[-21,-5],[-88,-371],[-15,-94],[18,-63],[-31,-80],[-81,-153],[6,-107],[-31,-75],[8,-67],[-39,-70],[-57,-58],[-28,-74],[2,-55],[-35,-165],[-61,-147],[-28,-47],[-3,-240],[-14,-126],[-37,-229],[-128,145],[-7,-89],[-1389,205],[2,114],[-774,111],[-6,-101],[-652,96],[-14,-117],[-41,-104],[-48,-168],[-19,-111],[30,-161],[-7,-59],[26,-128],[14,-127],[-42,-48],[-2,-64],[44,-71],[38,-134],[-12,-80],[-27,6],[31,-219],[25,-15],[28,-234],[51,-35],[25,-92],[46,-75],[-15,-42],[29,-43],[26,-82],[-12,-60],[24,-21],[-26,-135],[39,-56],[-12,-61],[84,-191],[49,3],[22,-37],[-16,-57],[27,-82],[53,-78],[19,-117],[45,-43],[2,-69],[55,-109],[15,-134],[41,-10],[0,-64],[35,-52],[39,-150],[39,-30],[32,-76],[28,-3],[14,-62],[-12,-141],[-21,-21],[4,-71],[-38,-148],[54,-63],[29,-92],[-19,-96],[35,-96],[28,-41],[22,-130],[38,30],[31,-18],[41,18],[20,-112],[-58,-133],[41,-30],[20,-56],[-18,-48],[-36,-8],[24,-97],[-32,-65],[23,-43],[-28,-38],[-41,3],[-16,-56],[15,-49],[-440,83],[-136,61],[-255,44],[-133,-12],[-56,-20],[-48,40],[-43,-12],[-81,17],[-81,33],[-81,64],[-67,-40],[-588,98],[-336,627],[-1223,195],[-1175,-11],[-5,-200],[-309,-31],[-240,-3419],[-654,106],[-911,149],[-1,1733],[0,1611],[0,2220],[0,1410],[0,1813],[0,3844],[-746,0],[132,2193],[102,1690],[-140,19],[16,473],[-215,22],[121,2136],[-253,790],[-46,-40],[-6,-38],[-60,-39],[-63,-100],[-128,-68],[-61,-92],[14,-47],[-38,-146],[-74,-224],[-419,701],[-806,106],[70,1221],[123,2333],[114,-52],[1181,-171],[108,1926],[74,1308],[-636,88],[23,528],[48,1487],[508,-60],[92,2033],[-386,51],[17,355],[1020,-64],[1021,-9],[1312,-163],[-30,-542],[1015,1329],[120,2025],[453,-8],[730,-1304],[44,-22],[-2,-61],[1538,-656],[189,-79],[29,44],[96,35],[141,-30],[58,50],[27,63],[127,43],[47,-15],[22,28],[121,24],[92,98],[58,117],[84,74],[28,56],[95,85],[31,40],[20,86],[60,84],[44,125],[46,56],[119,25],[70,29],[57,93],[61,59],[70,47],[54,58],[47,-13],[101,29],[63,31],[73,83],[19,73],[29,40],[-888,1618],[552,699],[-66,130],[354,449],[-277,448],[-705,1157],[-338,556],[942,1349],[869,-1527],[239,474],[397,529],[94,1394],[80,1176],[113,1671],[65,984],[18,237]],[[49081,34417],[65,-59],[3,-99],[42,-9],[84,-65],[75,6],[-2,-127],[50,-369],[48,-56],[27,16],[40,-49],[27,-118],[42,-130],[-20,-73],[29,-80],[75,-139],[47,-123],[-21,-63],[34,-68],[16,-65],[35,-36],[66,-111],[9,-85],[-38,-32],[-24,-56],[-27,-11],[-27,-65],[66,-86],[62,-43],[2,-79],[59,-80],[81,-57],[118,-44],[66,-99],[49,-28],[84,4],[23,-83],[-26,-124],[28,-106],[83,-28],[11,-75],[51,-77],[84,-13],[51,21],[21,82],[25,287],[64,137],[105,79],[17,-45],[41,-185],[54,9],[45,145],[124,24],[68,126],[5,41],[49,49],[-7,60],[40,12],[36,135],[0,54],[76,55],[27,-35],[-7,-68],[62,-61],[22,-50],[37,8],[20,-87],[-10,-72],[49,-43],[13,-111],[24,-75],[-15,-113],[48,-131],[61,-34],[20,16],[37,-83],[-8,-49],[61,-48],[54,-126],[44,-42],[31,-64],[1,-83],[42,-161],[17,-128],[-75,-32],[-30,-52],[-73,-74],[-5,-105],[-26,-30],[-30,-94],[-7,-66],[-44,-101],[-54,-13],[-19,-106],[-36,-73],[-74,-35],[-40,-79],[-9,-98],[41,-53],[42,-21],[29,-131],[90,-233],[960,-69],[603,-55],[-18,-448],[410,-35],[-18,-469],[1327,-180]],[[54965,28127],[-19,-93],[-88,-228],[-34,-2],[-26,-85],[10,-208],[44,-132],[-37,-98],[-64,-3],[-47,-55],[-19,-84],[-70,-115],[-136,-150],[-41,-12],[-50,95],[-50,-2],[-122,-150],[-207,-22],[-116,51],[-52,97],[-46,8],[34,118],[-5,108],[-28,30],[-71,17],[-98,47],[-32,-14],[-37,-56],[-63,-54],[-23,-83],[-41,-68],[-12,-59],[15,-105],[-27,-70],[-99,-95],[-83,17],[-49,47],[-39,75],[-56,31],[-38,-1],[-51,-92],[286,-1005],[-36,-13],[-341,66],[-138,-168],[-199,30],[-37,-441],[36,-66],[-10,-74],[-33,-365],[-7,-134],[-460,73],[-61,-855],[-331,26],[-159,-181],[-135,-402],[-56,-150],[-58,-89],[-43,-101],[-4,-64],[-390,-496],[-447,-535],[-28,-16],[-10,94],[70,943],[51,669],[43,600],[-910,167],[-518,93],[-90,-67],[-62,-906],[49,-111],[-32,-418],[-37,-424],[-61,14],[-15,-41],[-504,91],[44,-92],[73,-341],[-1196,224],[32,384],[-146,28],[-9,-11],[-397,78],[-88,28],[-270,44],[-366,66],[-40,-493],[-31,-419],[-57,-692],[83,-15],[-21,-175],[-3,-150],[-121,-1155],[-7,-116],[-79,16],[-86,-1147],[-304,34],[-13,7],[-304,30],[-496,88],[-1,8],[-553,100],[18,261],[-3,317],[9,213],[20,334],[-315,2],[16,-47],[14,-117],[-27,-387],[4,-86],[-38,-435],[276,-977],[-33,-37],[35,-442],[6,-428],[-43,-136],[-154,-137],[-127,26],[-83,67],[-441,100],[-348,72],[-170,39],[-486,97],[-7,140],[-29,107],[63,805],[-590,98],[-35,2],[-15,-53],[-56,-50],[-13,-77],[20,-80],[-19,-24],[-27,-173],[-33,-89],[-78,-26],[-18,-71],[-58,-64],[-17,-185],[9,-43],[-30,-80],[1,-76],[-78,-53],[-23,-57],[-10,-90],[-62,-128],[-66,-76],[-6,-112],[-47,-104],[1,-91],[-19,-39],[-45,-26],[-58,-156],[-760,116],[80,1081],[4,701],[44,-66],[165,-21],[87,282],[45,738],[29,439],[18,24],[4,100],[-727,83],[-23,-3],[-49,49],[-51,9],[-54,101],[-103,9],[-32,20],[-148,-69],[-92,326],[-381,308],[-197,43],[-79,-183],[-171,-77],[-69,-245],[-316,58],[29,389],[153,-25],[103,1308],[-6,-12],[-656,120],[-7,14],[-674,127],[-81,55],[-49,-31],[-84,-11],[-68,26],[-298,53],[29,114],[-2,56],[30,103],[6,133],[-17,36],[-88,98],[93,87],[22,53],[0,115],[-233,37],[-9,20],[-154,5],[-72,32],[-48,-13],[-131,21],[-80,-23],[-81,97],[-273,30],[-296,23],[-52,10],[-57,39],[-18,-38],[-89,8],[510,620],[81,54],[-16,168],[61,80],[105,41],[22,42],[83,35],[87,1164],[38,534],[37,677],[-54,-39],[-72,-95],[-86,-69],[-46,-80],[-149,-29],[-71,18],[-61,-18],[-111,24],[-69,-76],[-47,-9],[-73,128],[-9,73],[-33,54],[-84,5],[-103,273],[-129,133],[-14,80],[32,131],[7,75],[32,136],[33,178],[7,136],[-45,142],[63,107],[-536,83],[66,1006],[-877,133],[122,1692],[29,364],[-289,48],[29,415]],[[33280,31546],[17,180],[-263,42],[56,856],[6,5],[74,1067],[20,380],[114,1833],[37,550],[-7,1],[64,1005],[13,156],[656,-101],[4,-25],[72,-11],[45,662],[32,27],[-39,115],[72,1089],[11,89],[-2,136],[147,162],[32,65],[41,138],[92,126]],[[68601,20325],[-29,-89],[-58,26],[-73,-61],[-99,4],[-16,-57],[-39,-14],[-196,36],[-34,121],[-76,-49],[-250,66],[-75,87],[-79,23],[-22,85],[11,35],[-39,44],[-39,-3],[-53,-63],[-58,87],[-61,45],[-65,13],[-9,45],[-77,103],[-32,96],[-146,56],[-58,49],[-94,123],[-8,146],[-49,47],[64,613],[55,67],[2,57],[45,84],[70,47],[-2,76],[46,80],[54,30],[-54,192],[-61,237],[-58,22],[-26,-20],[17,-72],[-77,-36],[-55,17],[-45,69],[-64,44],[-49,-81],[-70,-13],[-79,58],[-14,-101],[-32,-51],[-12,-125],[-33,-64],[-29,-3],[-27,-68],[-46,52],[-99,203],[-45,108],[-52,67],[-98,-8],[-105,48],[-20,25],[-56,7],[-61,67],[1,42],[-42,69],[-89,86],[-45,6],[-55,71],[-98,-51],[-75,20],[-39,68],[-104,41],[-48,-8],[-73,19],[-47,-40],[-62,18],[-126,-23],[-55,47],[-97,-24],[-169,-162],[-77,43],[-85,28],[-33,37],[-43,-12],[-56,-144],[-50,22],[-3,57],[-66,143],[-56,14],[-77,-32],[-41,74],[-1,59],[-81,58],[-69,-47],[-25,48],[-48,26],[-35,125],[-89,32],[-57,57],[-32,52],[-115,-35],[-57,11],[7,116],[-82,209],[-30,95],[11,54],[-19,40],[22,126],[-29,64],[-56,32],[-68,80],[6,59],[-67,70],[-65,112],[-45,28],[-31,84],[-33,29],[-98,155],[4,54],[-18,135],[-46,27],[-31,54],[-99,115],[-28,87],[-34,13],[-60,-36],[-90,9],[-55,24],[-50,-67],[-35,-12],[-83,16],[-91,314],[-40,1],[-90,251],[-54,-23],[-51,47],[-3,88],[-38,48],[-9,48],[19,58],[-34,43],[-38,-10],[-35,59],[-88,51],[-39,63],[-20,91],[-30,24],[4,59],[-39,118],[-7,81],[-20,46],[0,86],[31,34],[-44,179],[34,122],[-22,95],[-81,86],[-31,73],[5,73],[-66,169],[-89,38],[-65,-33],[-55,18],[-26,44],[-61,43],[-37,80],[-114,21],[-57,-46],[-76,136],[-74,169],[-90,-15],[-90,8],[-31,-22],[-38,63],[7,44],[-46,38],[7,37],[-37,83],[-32,9],[-106,154],[-50,31],[-16,113],[26,139],[22,62],[-96,139],[-52,10],[-12,76],[-52,68],[-41,94],[-111,120],[-94,28],[-44,36],[-64,107],[13,63],[-34,46],[-30,81],[-89,110],[-31,-6],[-31,60],[8,82],[-35,131],[-51,0],[-47,-30],[-70,52],[-15,-21],[-83,58],[-65,-41],[-55,-73],[-42,20],[-13,60],[-59,59],[-53,7],[-42,-31],[-48,27],[-89,-22],[-41,-37],[-49,-110],[-37,-28],[-32,-101],[-47,-42],[-46,2],[-23,-101],[-71,-10],[-56,-49],[-41,-117],[-21,-7],[-50,49],[-61,-13],[-121,-1],[-40,-29],[-18,-52],[11,-144],[31,-19],[-8,-88],[-28,-71],[-94,-17],[-25,-33],[-112,-15],[-45,-38],[-33,-55],[-131,-92],[-77,-130],[-2,-58],[-34,-58],[-65,3],[-96,38],[-7,192],[-66,-26],[-66,49],[-19,-75],[-50,-7],[-85,-77],[-43,-16],[-101,96],[1,-80],[19,-81],[-37,-49],[-26,-87],[-40,-32],[-40,-259],[-27,-110],[-21,-30],[-79,-33],[-168,-7],[-182,-30],[-121,-7],[-55,12],[-60,34],[-80,24],[-25,-32],[-26,68],[-76,41],[-70,-14],[-23,-69],[-54,-5],[-18,26],[-94,-4],[-68,58],[-133,-24],[-29,36],[-30,-29],[9,-136],[-27,-25],[-91,-11],[-11,-66],[-54,-34],[-9,-50]],[[54616,47971],[-39,105],[15,106],[46,54],[33,110],[5,172],[34,152],[-18,102],[14,59],[9,166],[-9,57],[85,258],[62,48],[30,133],[-4,222],[-25,77],[37,73],[49,30],[12,51],[-59,157],[-45,59],[-19,80],[24,96],[8,114],[30,64],[-44,71],[-70,44],[-10,84],[-21,48],[4,56],[-59,107],[-22,67],[-11,368],[11,110],[73,46],[69,148],[76,35],[93,-25],[111,37],[28,-6],[68,46],[19,34],[65,23],[55,44],[94,-55],[23,-53],[70,139],[45,21],[27,42],[12,71],[90,73],[65,128],[28,122],[50,5],[37,45],[55,125],[87,81],[48,-3],[59,98],[54,31],[9,75],[38,98],[108,122],[33,86],[32,16],[71,-25],[17,19],[70,175],[-17,134],[9,116],[-27,43],[26,75],[-16,82],[48,50],[72,48],[65,123],[42,32],[31,-26],[38,26],[-188,378],[59,208],[406,-324],[13,162],[-5,77],[46,14],[10,58],[-21,33],[-26,98],[45,77],[18,57],[46,82],[42,16],[79,0],[42,530],[74,-17],[18,198],[62,29],[7,96],[-47,74],[95,-19],[52,-78],[-7,-44],[18,-78],[45,-115],[39,8],[33,-57],[39,8],[9,-60],[85,21],[42,39],[49,18],[15,103],[178,16],[78,-36],[46,81],[15,101],[-11,91],[17,122],[59,60],[38,70],[43,34],[126,142],[22,34],[57,-3],[59,50],[18,95],[41,90],[87,130],[42,115],[70,104],[37,72],[13,96],[50,96],[147,167],[76,76],[39,-25],[74,21],[82,-25],[43,55],[50,7],[42,85],[67,59],[64,75],[103,14],[52,28],[71,151],[31,23],[11,92],[27,50],[23,132],[-34,87],[17,60],[58,20],[77,-20],[79,77],[26,3],[114,87],[86,11],[44,49],[51,4],[55,-33],[79,139],[21,123],[-22,51],[2,58],[25,75],[69,126],[33,25],[37,98],[24,-128],[-9,-133],[17,-101],[26,-42],[2,-70],[22,-58],[107,-43],[71,-12],[51,-35],[40,-88],[45,-60],[-5,-107],[23,-208],[-12,-44],[19,-50],[52,-23],[136,-140],[36,-71],[158,-148],[30,9],[160,-35],[90,55],[26,-161],[26,-43],[162,-47],[55,-100],[73,15],[18,36],[79,75],[137,-12],[149,64],[38,78],[30,443],[33,-26],[45,48],[42,-21],[84,8],[52,76],[63,2],[29,45],[140,-25],[8,42],[116,-10],[145,69],[107,-9],[226,-556],[29,-24],[-22,-275],[2,-47],[-23,-65],[-74,-96],[-22,-85],[-26,-21],[-63,23],[-65,-46],[-51,-95],[-16,-128],[-34,-71],[-30,-7],[-87,-120],[-24,-63],[-82,-109],[-19,-4],[-57,-171],[-46,-19],[-19,-90],[-28,-55],[11,-98],[83,-190],[-27,-71],[12,-45],[79,-23],[53,-118],[68,-184],[102,-255],[423,423],[256,261],[351,372],[75,84],[354,-71],[342,-65],[-7,-100],[1,-487],[-8,-51],[55,-100],[48,-160],[-26,-68],[-56,-51],[16,-55],[-17,-65],[64,30],[32,-238],[66,-17],[89,94],[33,6],[43,-65],[21,-74],[20,-123],[-16,-182],[122,-32],[-49,-497],[-49,-454],[-213,-615],[141,-22],[375,-436],[-491,-1011],[143,-166],[-584,-762],[-79,-572],[33,-4],[363,-225],[168,-449],[-167,-383],[187,-859],[-419,-505],[12,-134],[-10,-28],[11,-144],[-10,-145],[22,-171],[53,-63],[46,-15],[68,46],[40,-47],[65,35],[91,9],[34,24],[33,63],[-27,27],[7,105],[25,64],[66,12],[1,-35],[55,-128],[69,42],[45,-14],[49,25],[54,51],[58,150],[2,67],[42,125],[26,20],[13,154],[-14,276],[22,42],[51,-25],[95,18],[124,235],[78,135],[175,116],[53,93],[-11,40],[-131,24],[-116,69],[-16,72],[44,7],[17,179],[44,41],[80,17],[43,76],[90,122],[6,68],[-50,115],[-11,139],[59,146],[41,34],[36,-14],[69,51],[61,3],[66,-260],[24,-165],[23,-22],[118,0],[53,28],[46,90],[10,75],[4,191],[13,25],[55,-33],[89,11],[-6,-74],[28,-59],[146,-122],[34,-75],[44,-46],[54,78],[57,36],[26,-13],[65,58],[115,156],[31,76],[11,279],[-3,142],[-23,82],[-41,22],[-49,59],[-30,82],[-58,205],[11,67],[61,54],[-8,52],[17,119],[30,63],[66,39],[55,-12],[-2,90],[42,84],[76,-111],[153,-104],[77,-22],[104,68],[-5,67],[-49,58],[64,109],[122,-6],[34,26],[41,270],[-29,5],[-12,68],[30,47],[14,73],[51,73],[36,11],[56,-36],[7,36],[-36,49],[13,45],[81,43],[55,-38],[73,153],[28,104],[31,73],[52,72],[7,189],[-14,53],[-108,31],[-40,65],[31,149],[-39,64],[-59,-24],[-55,58],[28,133],[4,65],[-32,28],[-16,78],[12,61],[45,77],[82,24],[145,74],[165,56],[49,55],[62,183],[64,93],[89,-5],[127,-22],[59,-25],[78,8],[29,23],[75,8],[87,38],[44,-7],[23,-68],[64,-21],[29,26],[142,30],[122,60],[68,25],[81,57],[73,-1],[68,-41],[51,58],[21,50],[70,256],[60,152],[48,99],[31,100],[25,130],[11,104],[26,89],[46,50],[69,-18],[198,175],[19,-7],[67,85],[7,107],[-35,30],[24,81],[142,200],[15,110],[29,106],[43,72],[62,5],[70,83],[8,83],[-24,51],[0,156],[29,35],[26,-33],[81,-22],[98,44],[94,-21]],[[72167,56078],[91,-211],[32,-42],[99,2],[74,-30],[15,-82],[54,-115],[35,-136],[15,-338],[31,-105],[1,-94],[-18,-103],[-57,-188],[-5,-156],[39,-97],[80,-31],[25,-58],[-10,-159],[21,-62],[77,-132],[99,-115],[119,-88],[52,-29],[33,-45],[82,-75],[18,-143],[21,-70],[12,-170],[-9,-100],[-21,-81],[-31,-21],[-46,14],[-13,-108],[35,-98],[85,-37],[68,-55],[19,-57],[948,425],[40,119],[81,86],[26,-9],[18,69],[42,-14],[27,37],[30,-67],[54,11],[96,-61],[41,-2],[40,-84],[63,-72]],[[74795,53101],[32,-32],[81,17],[86,-18],[30,-113],[10,-114],[-28,-85],[-28,-160],[-6,-98],[-56,-100],[-11,-181],[-38,-104],[21,-105],[-27,-77],[-26,-20],[34,-158],[-26,-37],[-29,-127],[-30,-75],[-30,6],[-11,-116],[21,-61],[51,-34],[23,-38],[-27,-130],[27,-22],[10,-144],[40,33],[7,72],[55,7],[12,-42],[50,-58],[64,-19],[27,-69],[-25,-105],[10,-107],[16,-36],[-51,-98],[14,-153],[-15,-61],[23,-149],[-37,-63],[8,-125],[-27,-123],[63,-18],[27,-36],[85,59],[23,-25],[51,64],[46,-37],[9,-83],[30,-51],[25,6],[23,-107],[-18,-55],[37,-68],[-22,-30],[13,-151],[44,-105],[-9,-46],[17,-128],[31,-65],[-42,-101],[30,-46],[13,-62],[-14,-38],[-67,-52],[-59,-106],[-54,-44],[-7,-48],[-69,-147]],[[75225,48359],[-28,23],[-45,95],[-334,-218],[-127,-66],[-43,-4],[-278,-217],[-51,143],[-103,-39],[-19,-52],[-10,-151],[39,-212],[9,-92],[-3,-175],[21,-97],[79,-7],[44,64],[67,68],[84,-29],[31,-28],[62,-163],[-3,-55],[-47,-89],[0,-55],[84,-33],[79,18],[67,46],[50,12],[37,-15],[23,-69],[51,-1],[75,108],[8,2],[93,-12],[2,76],[37,107],[4,92],[-18,76],[-48,90],[292,241]],[[75406,47741],[52,42],[310,-891],[-508,-420],[49,-194],[20,-128],[19,-207],[-6,-95],[10,-63],[31,-70],[39,-36],[65,13],[121,129],[48,39],[30,49],[167,229],[71,69],[134,44],[186,110],[159,48],[134,-111],[36,-65],[25,-201],[-81,-873],[103,-23],[19,-82],[-4,-73],[54,-58],[-29,-55],[17,-43],[86,-38],[7,-93],[40,-30],[-19,-51],[10,-51],[38,24],[22,-38],[44,-4],[-5,-136],[43,-85],[41,-13],[84,-117],[33,-28],[44,17],[40,-85],[68,-30],[-3,-97],[51,-33]],[[75431,45029],[27,42],[38,134],[56,131],[-15,73],[-47,38],[-35,114],[-400,78],[-10,-126],[71,-13],[-39,-392],[345,-85],[9,6]],[[73490,46581],[42,504],[-243,53],[-46,-511],[247,-46]],[[72237,38238],[-88,-242],[-121,-231],[163,-426],[15,-139],[69,1],[65,59],[40,66],[29,-12],[180,70],[178,55],[129,62],[108,71],[39,75],[30,231],[115,124],[39,84],[57,201],[13,616],[1,243],[18,205],[3,383],[-20,539],[46,261],[-60,18],[-51,87],[-8,61],[-424,-1007],[-372,-883],[58,-128],[-19,-145],[-82,-102],[-150,-197]],[[72288,31669],[52,85],[77,172],[44,-18],[56,210],[-320,219],[-17,-220],[55,41],[31,-22],[-26,-86],[-97,50],[-34,-41],[-319,104],[-16,-204],[36,-207],[476,-90],[2,7]],[[82422,42837],[36,-60],[57,-29],[54,2],[62,-32],[44,75],[108,-25],[10,98],[56,24],[13,79],[28,-6],[7,70],[-47,11],[-31,50],[9,98],[35,74],[52,19],[13,36],[53,-37],[18,31],[65,41],[-5,161],[19,39],[57,28],[61,-15],[85,37],[57,65],[64,99],[-30,82],[10,29],[63,4],[57,-35],[123,-14],[74,-94],[15,79],[50,2],[43,58],[2,93],[22,43],[0,103],[35,47],[52,22],[14,77],[56,35],[-2,112],[13,48],[56,40],[29,77],[71,64],[40,-40],[19,39],[-24,67],[-44,75],[-40,25],[-17,50],[41,30],[-9,52],[-48,-4],[7,66],[38,-44],[36,48],[38,18],[29,-66],[-5,-53],[82,21],[-45,79],[-52,52],[17,27],[60,14],[16,-49],[55,35],[-9,171],[-44,-33],[-8,-79],[-50,18],[-23,86],[5,111],[59,27],[20,52],[32,0],[-6,-93],[48,-40],[24,71],[-11,92],[-33,68],[-37,-38],[-37,5],[-43,43],[-4,78],[44,20],[68,-45],[49,32],[-21,55],[-75,43],[-26,40],[-12,80],[15,52],[56,87],[33,16],[58,-94],[56,-63],[42,-25],[34,27],[15,55],[14,257],[11,86],[37,148]],[[84630,46394],[144,42],[92,69],[36,68],[58,66],[99,65],[68,69],[37,64],[41,16],[43,-34],[95,-32],[39,-70],[-21,-345],[9,-42],[15,-193],[-7,-71],[-63,-69],[-128,-40],[-25,-19],[-66,-119],[6,-62],[39,-6],[41,75],[64,58],[102,15],[75,47],[33,55],[30,193],[8,308],[10,167],[27,25],[78,-65],[178,-96],[56,25],[99,-98],[32,-130],[-2,-165],[26,-110],[54,-177],[35,-162],[101,-151],[46,-1],[92,-53],[39,-59],[27,5],[75,-83],[34,-87],[44,-36],[86,-29],[51,-83],[49,-51],[8,-83],[30,-116],[36,-89],[31,-42],[-9,-69],[-92,-20],[6,-71],[34,-77],[49,65],[2,-96],[66,-60],[53,-67],[49,-144],[0,-86],[34,-42],[18,-61],[-58,-104],[-68,-178],[1,-36],[46,-116],[40,-5],[8,152],[29,40],[51,25],[13,-156],[25,-151],[20,20],[55,-82],[-120,-75],[57,-152],[-14,-22],[23,-100],[61,-63],[98,-26],[19,-66],[101,67],[46,3],[31,-31],[49,13],[78,96],[25,-1],[59,-75],[-9,-20],[103,-130],[33,9],[124,-54],[15,-58],[8,-121],[57,-100],[59,20],[30,-44],[80,-27],[60,40],[29,57],[70,-101],[-12,-199],[48,-13],[20,-186],[39,-134],[21,-104],[60,-150],[39,-40],[44,-108],[39,-132],[82,-10],[36,-43],[74,-148],[104,-129],[108,-82],[79,-115],[107,-182],[46,-206],[1,-52],[-34,-114],[54,-147],[-21,-98],[-35,-28],[-24,-102],[-3,-62],[85,-166],[24,-112],[-2,-62],[20,-92],[30,73],[-11,153],[12,136],[-3,108],[-29,124],[27,116],[90,-96],[28,-83],[-13,-138],[20,-166],[23,57],[45,-35],[-3,-90],[38,21],[79,-3],[-5,126],[-19,147],[-75,119],[-97,128],[-56,39],[-71,117],[-24,93],[-10,202],[38,31],[71,-61],[87,-31],[50,56],[115,-104],[84,-56],[83,-94],[87,-68],[136,-85],[95,-36],[38,-35],[10,-105],[-28,-14],[-109,40],[-102,-49],[-23,9],[-52,-36],[-52,9],[0,-72],[82,-28],[38,-54],[42,-13],[52,-116],[5,-49],[-80,-68],[6,-101],[52,-120],[6,-67],[111,-8],[46,35],[62,-36],[29,28],[-2,-291],[26,8],[13,122],[23,3],[1,201],[-24,83],[15,74],[51,-41],[50,-66],[16,-83],[36,4],[-18,104],[-37,48],[-150,86],[37,168],[-4,30],[56,137],[1,131],[65,-9],[31,-129],[120,-39],[44,32],[63,-19],[65,62],[44,-83],[11,-54],[29,-26],[70,6],[40,-27],[17,-65],[2,-116],[40,-63],[-2,-45],[49,-60],[-2,96],[43,-14],[-4,-83],[16,-66],[69,39],[71,-71],[27,11],[28,-49],[10,-109],[34,56],[-1,97],[-29,19],[-46,119],[22,32],[-85,99],[-21,147],[18,24],[49,-24],[62,-75],[1,117],[-52,97],[-43,-44],[-24,49],[-40,144],[-79,80],[-103,-20],[-11,63],[61,12],[10,25],[-76,94],[-7,97],[-32,19],[-37,-26],[-31,56],[-100,21],[-61,-25],[-19,39],[19,85],[3,167],[40,127],[88,-3],[51,41],[34,-47],[57,-22],[32,51],[34,-7],[54,-71],[74,-53],[43,6],[52,-35],[31,-71],[51,-55],[49,-102],[74,-80],[146,-108],[86,-9],[21,-31],[-19,-105],[-49,-77],[-73,-61],[-55,0],[19,-97],[39,-35],[-17,-121],[52,-1],[42,-150],[-44,-173],[56,9],[-7,44],[27,57],[2,49],[60,125],[-45,86],[-12,69],[48,75],[32,-29],[13,84],[36,30],[34,86],[1,121],[-33,67],[-22,210],[19,32],[56,-171],[75,-84],[54,68],[48,-88],[3,-110],[-49,-82],[31,-78],[-5,-45],[13,-230],[52,-320],[69,-320],[17,-46],[15,-122],[-18,-8],[-49,-104],[31,-21],[46,72],[54,-58],[13,-63],[76,-196],[123,-181],[64,-60],[32,-50],[79,-53],[-57,-32],[-39,63],[-43,-26],[100,-91],[33,-11],[61,78],[111,-24],[112,50],[14,-19],[-52,-88],[-31,-20],[-20,-95],[-2,-110],[-34,-87],[-32,-47],[-30,-104],[42,10],[19,58],[70,95],[34,80],[-20,58],[11,56],[75,83],[28,56],[11,200],[10,81],[33,-11],[44,-269],[6,-104],[38,-190],[53,-155],[39,13],[52,-28],[46,-72],[16,-114],[59,-133],[47,-16],[30,-44],[34,-155],[43,-283],[-6,-45],[34,-227],[23,-66],[42,-247],[51,-133],[11,-100],[47,-253],[33,-108],[9,-111],[33,-141],[-1,-39],[28,-140],[93,-414],[83,-326],[138,-422],[44,-107],[33,-111],[92,-255],[89,-128],[-10,-84],[-88,-104],[17,-23],[-120,-45],[-55,51],[-68,144],[-51,30],[-99,-25],[-46,-87],[-22,-75],[50,-102],[-10,-24],[-73,1],[21,-55],[-17,-126],[-25,-59],[-60,-47],[-21,-90],[-43,-73],[9,-82],[-11,-75],[-47,-76],[-33,-28],[245,-51],[-25,-277],[-213,40],[11,-114],[37,-112],[-11,-114],[-33,28],[-12,-128],[29,-23],[73,16],[103,-54],[34,15],[69,-10],[-7,-70],[-65,14],[-10,-100],[66,-14],[-29,-337],[-107,30],[-144,30],[-7,-177],[23,-162],[-12,-33],[-63,19],[-92,-78],[-87,-5],[-33,-52],[-39,-99],[-32,-132],[-2,-58],[34,-84],[-89,-24],[-43,-28],[-86,-25],[-37,23],[-19,-48],[31,-107],[-48,-64],[-33,-143],[-73,-103],[-71,-21],[-14,-88],[-35,-35],[-98,0],[-26,-58],[-53,9],[18,113],[-28,74],[-59,46],[-50,65],[-92,35],[-23,95],[-45,47],[-18,82],[-45,73],[-88,56],[-308,65],[-47,-470],[-15,56],[-125,143],[-51,143],[-12,123],[-72,80],[-21,59],[-60,97],[-30,77],[-91,42],[-27,39],[-16,87],[-45,84],[-46,-35],[-26,-69],[-64,-61],[-57,4],[-74,-104],[61,-44],[2,-74],[-62,-86],[-50,-15],[-38,73],[-65,41],[-79,157],[-48,27],[-84,98],[-66,26],[-109,-61],[-33,32],[-58,-113],[-32,-5],[-31,89],[-74,80],[-76,-31],[-88,67],[-15,-7],[-50,107],[-9,56],[-29,44],[-7,75],[-43,84],[32,74],[50,-19],[28,64],[39,10],[50,172],[26,34],[-27,67],[31,173],[-15,58],[16,92],[-43,47],[-28,92],[-82,104],[-100,25],[-58,63],[37,100],[-8,65],[-28,47],[-65,47],[9,51],[-66,73],[-16,117],[-26,72],[32,59],[-19,95],[-76,71],[-58,-8],[-32,-39],[15,-54],[-40,-231],[-44,-82],[-12,-65],[-35,2],[-116,104],[-44,-8],[18,-105],[55,-80],[-76,-204],[-72,-58],[-73,10],[-42,-21],[-7,-146],[-24,-115],[-74,-24],[-58,34],[-53,88],[-27,-53],[-45,-11],[-16,44],[-58,-33],[-48,-156],[-23,-25],[-5,-74],[-54,-66],[-80,-193],[-47,54],[-76,-1],[-34,17],[-43,-54],[-19,12],[-51,-72],[9,-57],[-28,-18],[-4,-120],[-35,-24],[-41,8],[-46,141],[-69,34],[-72,17],[-22,-32],[-43,33],[-23,-85],[-71,-36],[-17,-48],[-51,131],[-84,45],[-59,142],[0,56],[-49,5],[-35,66],[-109,-53],[-5,-37],[-59,-50],[-38,19],[-8,106],[38,71],[51,27],[27,45],[69,1],[62,-45],[55,-2],[-95,579],[16,91],[-18,56],[43,52],[19,66],[-13,39],[33,373],[-3,62],[-55,44],[-101,-44],[-59,20],[-21,-118],[-131,-31],[-85,-47],[-38,-59],[-57,-8],[-38,45],[-6,80],[-32,49],[11,77],[-17,72],[30,73],[-15,124],[12,71],[50,121],[1,78],[22,90],[38,30],[3,77],[-125,188],[-6,67],[-81,21],[-48,48],[-31,-113],[-97,-63],[-36,17],[-27,-104],[-66,61],[-7,107],[-53,56],[-14,113],[-68,128],[-148,43],[-19,74],[-73,89],[-29,-19],[-22,101],[-20,1],[-59,101],[-1,111],[22,43],[-28,103],[-123,30],[-11,-27],[-54,4],[-41,-44],[-98,34],[-37,-61],[-10,-98],[-52,-50],[-10,-95],[19,-107],[-9,-256],[-42,-59],[5,-128],[-20,-98],[-6,-90],[-21,-28]],[[99930,38919],[9,78],[28,31],[32,-32],[-8,-77],[-61,0]],[[90244,39494],[25,-86],[-53,-55],[-43,62],[47,84],[24,-5]],[[89520,39868],[29,-24],[6,-66],[-27,-10],[-8,100]],[[91212,39937],[25,-72],[-29,-62],[-70,80],[74,54]],[[89614,39917],[62,-90],[-25,-13],[-37,103]],[[89307,39839],[-33,46],[-6,60],[28,70],[55,1],[22,-96],[-4,-105],[-17,-29],[-45,53]],[[91106,40039],[37,-8],[32,-66],[-29,-28],[-40,102]],[[88749,42509],[22,111],[-27,54],[-11,195],[-12,81],[-59,89],[-58,-38],[-16,-40],[-70,-3],[-13,138],[7,111],[-62,150],[-21,177],[-2,110],[59,102],[-16,152],[40,16],[13,-60],[11,-205],[11,-82],[50,-152],[34,-55],[81,-34],[62,-143],[51,-52],[38,-222],[36,-61],[22,-71],[13,-103],[47,-209],[1,-88],[-29,-18],[-3,-64],[-42,-45],[-28,-61],[-51,-9],[-9,53],[-52,38],[0,118],[-30,84],[13,36]],[[87846,43500],[-6,64],[30,9],[23,-69],[-28,-67],[-19,63]],[[87991,43816],[-35,-45],[2,-38],[-34,-99],[-33,44],[-24,-63],[-109,-31],[-6,-74],[-22,-76],[-45,8],[-23,-68],[-51,61],[-21,-33],[3,-80],[-28,-12],[-26,51],[-27,-17],[-68,124],[-62,67],[-65,135],[-46,45],[15,85],[-26,33],[-82,167],[-104,291],[-9,101],[-99,243],[-64,144],[-5,67],[-37,72],[-4,77],[-50,72],[-8,48],[-76,103],[-133,48],[-62,12],[-18,30],[-19,114],[-79,62],[-21,39],[-86,57],[-54,56],[-36,60],[-72,35],[-35,48],[-21,172],[-50,154],[-20,122],[4,135],[-28,120],[-69,88],[-96,144],[-50,176],[-33,84],[-16,109],[-57,158],[8,41],[-18,90],[-25,31],[-8,99],[-65,29],[-33,55],[37,69],[75,33],[-3,38],[166,57],[32,39],[-15,61],[35,100],[-9,103],[30,34],[202,-58],[63,30],[27,88],[50,-17],[40,-66],[88,-96],[44,-104],[-46,-25],[-25,-68],[46,-84],[3,-88],[60,17],[4,82],[63,-38],[63,-76],[49,36],[40,-76],[69,-37],[26,46],[117,-114],[176,-154],[129,-15],[135,25],[78,-15],[31,-59],[-33,-76],[-33,10],[-18,-160],[-35,-80],[31,-25],[13,72],[45,15],[77,80],[70,112],[2,62],[37,63],[-29,81],[82,68],[30,55],[-13,107],[39,45],[34,-62],[-34,-75],[-1,-232],[8,-128],[-3,-156],[-40,-207],[-45,-284],[-8,-186],[18,-108],[-17,-82],[9,-222],[27,-89],[46,-37],[19,-47],[-4,-98],[11,-107],[27,-48],[-12,-41],[53,-43],[11,-116],[94,-146],[61,-14],[53,47],[36,-88],[20,-151],[63,-54],[23,-131],[4,-92],[37,-131],[31,-353],[19,-109],[33,-93],[92,-133],[-97,10],[-29,55],[-72,-129],[-47,-153],[24,-123],[-33,-53],[2,-78],[-103,110],[-64,103],[25,54],[23,106],[22,47]],[[87072,48872],[-54,-108],[-30,75],[48,53],[36,-20]],[[91647,50218],[-56,-7],[-49,32],[-1,50],[34,29],[66,12],[36,-36],[-30,-80]],[[44454,66786],[72,1120],[228,-44],[43,404],[424,-54],[651,-88],[7,93],[69,1192],[16,196],[-529,55],[-189,28],[-129,6],[134,1122],[-478,62],[60,1311],[66,1439],[7,164],[69,1224],[322,-56],[151,193],[1630,-250],[-48,-721],[468,-1290],[409,-66],[309,-173],[28,423],[10,38],[15,376],[21,434],[-23,28],[18,274],[1366,-216],[-77,-182],[32,-15],[12,-105],[838,-435],[655,-102],[17,9],[21,89],[-19,56],[16,126],[-20,69],[8,53],[-19,125],[48,282],[-30,73],[3,82],[98,175],[19,98],[-2,78],[61,102],[38,106],[44,32],[33,65],[-11,95],[-23,77],[2,46],[47,80],[41,125],[58,108],[164,258]],[[51705,75580],[13,-74],[31,-46],[28,-126],[44,-49],[20,-128],[63,-108],[28,-81],[67,14],[23,-51],[43,-12],[101,56],[22,-29],[56,5],[29,-42],[39,5],[38,-48],[34,26],[68,-19],[55,-39],[87,11],[52,-46],[32,-3],[49,39],[42,7],[89,-46],[42,-43],[120,-58],[53,15],[90,-58],[79,-3],[87,-82],[143,-48],[83,-46],[39,-60],[65,-31],[62,-72],[39,-67],[71,-80],[47,-152],[34,-58],[-4,-70],[24,-82],[25,-172],[42,-111],[-1,-107],[18,-84],[67,-197],[124,-137],[12,-108],[31,-60],[45,-45],[55,0],[87,41],[55,51],[67,116],[91,6],[87,47],[130,-48],[72,28],[55,-3],[74,63],[36,-3],[53,-51],[19,-54],[32,-15],[88,38],[83,-26],[52,-102],[40,-38],[52,-124],[25,30],[49,-29],[68,-7],[26,-44],[35,12],[6,-57],[78,-31],[47,12],[24,-57],[31,51],[60,-21],[91,7],[78,-51],[51,46],[118,26],[23,68],[72,27],[33,-16],[65,42],[31,0],[73,143],[72,12],[13,63],[37,87],[70,-21],[35,8],[46,45],[82,-36],[19,19],[17,127],[30,23],[58,0],[75,-40],[42,-2],[75,31],[82,16],[77,136],[57,69],[57,125],[2,160],[18,87],[48,58],[34,-3],[46,-41],[40,6],[25,40],[14,80],[-19,66],[0,70],[18,73],[71,72],[20,74],[7,245],[26,118],[-1,131],[-37,246],[14,42],[49,48],[-7,62],[48,149],[35,33],[121,51],[53,52],[48,-37],[91,114],[33,137],[48,24],[39,83],[9,97],[41,76],[42,128],[-18,89],[77,-22],[32,30],[33,82],[51,29],[-41,92],[-11,90],[-35,85],[31,43],[12,56],[54,62],[1,121],[101,91],[27,74],[49,56],[42,94],[24,136],[54,5],[48,-34],[61,52],[1,73],[42,130],[34,31],[-20,73],[12,30],[72,60],[64,-4],[32,73],[-6,35],[-44,67],[46,118],[-39,64],[-22,66],[-69,-6],[-25,101],[29,80],[6,270],[-26,43],[-15,84],[-42,9],[20,131],[-16,66],[-40,22],[-49,-38],[-86,24],[-25,58],[11,38],[63,50],[5,55],[-47,127],[5,67],[-23,20],[-46,-55],[-70,-36],[-11,66],[35,120],[-29,50],[380,-71],[5,-68],[33,-26],[-37,-114],[-19,-96],[53,-28],[31,-54],[-18,-83],[49,-75],[39,4],[28,99],[107,-55],[18,-96],[-32,-208],[6,-117],[69,16],[75,67],[52,-16],[16,-39],[22,-139],[21,-13],[59,48],[48,7],[56,-112],[47,-43],[379,-171],[19,-16],[100,51],[86,-39],[83,-14],[69,18],[121,132],[38,7],[185,131],[245,357],[132,21],[33,118],[105,139],[45,185],[-6,112],[-44,55],[-22,103],[-118,209],[-58,70],[-18,62],[-27,150],[-89,242],[-19,110],[-57,77],[-28,13],[-18,68],[16,40],[-44,147],[-37,62],[-19,209],[-23,-6],[-26,120],[20,72],[-36,95],[24,59],[42,28],[28,104],[-14,76],[26,131],[-26,164],[-32,116],[-56,44],[-47,342],[21,39],[139,8],[100,-186],[60,-234],[164,-148],[42,46],[159,53],[8,110],[86,158],[103,26],[76,73],[77,36],[10,-107],[763,928]],[[62694,83036],[27,-113],[62,-191],[-26,-201],[-60,-83],[-11,-116],[63,-10],[55,-77],[6,-73],[-48,-39],[28,-129],[41,-71],[88,-97],[17,-68],[67,-68],[24,-135],[56,-137],[40,-23],[47,62],[105,-156],[-19,-33],[3,-74],[60,-47],[21,-110],[14,-170],[2,-59],[60,-55],[22,-159],[67,-97],[33,-19],[-5,-72],[-41,-20],[-21,-48],[-151,-169],[-19,-121],[-66,-79],[41,-67],[51,-25],[53,-60],[20,-63],[0,-80],[-66,-554],[32,-126],[61,-33],[106,-210],[81,-141],[39,-15],[37,-85],[79,51],[38,-62],[31,37],[85,-75],[2,-55],[28,-63],[53,-61],[33,-105],[47,29],[21,58],[110,-80],[21,-85],[54,2],[55,-83],[20,-90],[50,62],[47,21],[30,113],[52,3],[50,64],[24,-5],[58,74],[34,14],[17,-68],[60,-102],[26,-1],[57,-84],[30,5],[54,-84],[12,-57],[49,-19],[26,-93],[52,-11],[-3,-52],[43,-82],[9,-86],[103,-88],[7,-89],[36,-113],[32,-30],[-9,-91],[39,-147],[76,-46],[74,1],[113,-22],[81,6],[24,54],[45,38],[97,11],[24,-24],[25,-152],[109,23],[65,136],[48,-81],[50,65],[36,19],[89,-58],[40,39],[46,6],[43,-77],[70,-70],[59,59],[-22,61],[-9,126],[88,210],[88,-51],[106,-104],[15,-116],[26,-42],[58,-23],[13,-118],[47,-96],[54,-55],[47,-26],[23,-52],[37,-23],[76,10],[103,108],[58,-30],[12,-62],[914,-171],[21,126],[26,32],[-13,70],[23,94],[41,41],[69,30],[47,-14],[70,-124],[61,70],[38,-10],[20,-39],[45,56],[63,17],[65,164],[57,3],[33,35],[44,-18],[63,28],[85,5],[51,45],[53,14],[45,81],[88,3],[21,-85],[60,-35],[20,-99],[37,-30],[27,-101],[72,-63],[22,-59],[86,-26],[-20,-80],[-23,-16],[25,-75],[35,-166],[37,-13],[27,-51],[-30,-86],[-2,-47],[29,-81],[48,-76],[17,-68],[-4,-79],[-28,-132],[-9,-195],[-27,-148],[11,-68],[-28,-104],[-45,-84],[-32,-21],[-10,-63],[-90,-77],[-16,-88],[0,-121],[-22,-43],[2,-103],[-74,-73],[80,-143],[-56,-131],[-10,-159],[43,-105],[-23,-56],[-7,-74],[27,-124],[-44,-83],[-9,-74],[19,-27],[-13,-113],[-42,-122],[-38,-72],[-37,53],[-55,41],[-16,67],[-93,-56],[-39,-96],[27,-124],[36,-56],[9,-134],[-89,-146],[-46,-23],[-35,-98],[6,-101],[-9,-89],[14,-118],[-25,-83],[-2,-82],[-21,-71],[111,-116],[48,-133],[113,-67],[16,-56],[-8,-97],[69,-254],[89,88],[48,-17],[57,37],[-4,101],[37,118],[-6,52],[14,134],[65,8],[33,-37],[69,-17],[29,-32],[41,13],[53,-27],[25,-48],[37,17],[33,-25],[95,-17],[59,49],[55,-37],[36,-121],[70,-7],[11,-33],[61,-22],[38,-55],[31,-82],[83,-28],[5,59],[52,-26],[25,137],[47,27],[24,-77],[105,82],[-3,53],[51,83],[29,24],[37,85],[43,-91],[96,50],[47,-30],[106,6],[63,36],[8,57],[52,72],[54,52],[48,106],[-1,107],[28,142],[51,-3],[76,18],[51,47],[55,-39],[49,50],[25,-10],[74,70],[32,130],[33,-1],[29,-74],[98,136],[-42,72],[22,38],[76,288],[38,-77],[46,70],[63,-14],[32,19],[56,177],[-22,42],[8,86],[-29,39],[462,-90]],[[72770,73336],[-4,-263],[38,-123],[7,-119],[33,-50],[25,2],[30,-117],[-19,-150],[11,-112],[27,-131],[-3,-61],[106,56],[22,-38],[-12,-136],[22,-114],[51,-13],[-24,-190],[-25,77],[-68,74],[-31,7],[-27,56],[-65,-74],[-100,-135],[-25,-10],[-55,41],[-40,-31],[27,-138],[-31,-79],[21,-65],[-47,-109],[33,-9],[2,82],[28,33],[-19,82],[21,26],[11,143],[35,-84],[0,-103],[-20,-291],[9,-186],[-12,-43],[28,-134],[28,-52],[58,-15],[55,-74],[48,-9],[39,-65],[-29,-87],[-30,-23],[56,-123],[76,-10],[-26,-77],[-34,-193],[-19,-231],[13,-202],[17,-86],[-8,-156],[11,-153],[0,-126],[28,-28],[40,-205],[55,-158],[34,-30],[-11,-123],[41,-269],[40,-99],[39,-62],[100,-113],[33,-73],[2,-75],[51,-78],[24,-97],[-31,-72],[-27,-263],[10,-151],[-7,-143],[28,-120],[26,-54],[2,-94],[78,-234],[49,-128],[37,-28],[-12,-71],[10,-86],[86,-87],[2,-95],[22,-59],[20,-230],[21,-44],[37,10],[11,-49],[-34,-37],[-13,-60],[-33,-27],[-13,-101],[47,-8],[6,-142],[39,-133],[49,-279],[36,-91],[53,-58],[33,-92],[36,-6],[56,-70],[17,-100],[-26,-47],[10,-61],[34,-22],[-38,-64],[-9,-87],[228,-208],[31,1],[19,-83],[95,-206],[22,-79],[63,-92],[39,-121],[9,-229],[96,-12],[43,47],[52,92],[91,-24],[43,-125],[9,-64],[48,-116],[52,-4],[23,182],[78,78],[70,44],[62,-101],[57,-7],[19,-53],[63,-78],[77,-61],[2,-69],[-89,-41],[-56,-113],[6,-98],[-11,-281],[-26,-118],[5,-81],[65,-126],[87,108],[76,114],[22,62],[42,193],[49,298]],[[75634,62961],[-5,-205],[-104,-363],[-277,-436],[-93,-102],[-136,-123],[-90,-132],[-126,-200],[-69,-71],[-77,7],[-63,-21],[-38,-80],[-31,-244],[-27,-53],[-72,-80],[-83,-185],[-22,-35],[58,-103],[18,-113],[-9,-122],[12,-94],[24,-75],[-30,-27],[-58,72],[-22,-21],[1,-103],[-17,-102],[-133,4],[-23,57],[-51,-39],[-82,39],[-65,-19],[-56,39],[-77,-20],[-50,-58],[-25,-60],[-58,-8],[-52,-64],[-64,-102],[-62,-23],[-55,-44],[-30,-53],[-45,81],[-127,-19],[-31,-44],[-100,111],[-36,135],[-72,98],[-43,6],[-39,-486],[-52,48],[-46,-37],[-7,-36],[-70,-127],[-26,-24],[-36,20],[-49,-62],[-61,26],[-37,76],[-41,44],[-29,209],[-38,14],[-3,50],[-46,43],[-42,-27],[-2,-107],[-28,-114],[27,-46],[-31,-86],[-27,-21],[-23,-104],[-12,-114],[72,-198],[-1,-33],[38,-90],[5,-45],[45,-1],[63,63],[11,-103],[31,-88],[99,-17],[77,-50],[17,-29],[2,-170],[-8,-67],[31,-141],[113,-162],[-24,-91],[-44,-254],[-38,-40],[-58,-15],[-15,-97],[28,-225],[-2,-190],[50,-42],[-21,-61],[8,-195],[-103,-248],[-75,-162],[-123,3],[-251,-273],[-3,-7]],[[75452,62599],[-47,-88],[-35,16],[9,131],[18,28],[55,-87]],[[75481,62780],[-36,-57],[-54,10],[13,71],[75,14],[2,-38]],[[74000,66315],[-30,11],[-56,148],[-41,45],[41,53],[50,-129],[36,-128]],[[73924,68621],[-7,-49],[-84,-166],[-18,-66],[-65,69],[93,89],[81,123]],[[74624,68628],[7,-139],[-28,7],[-33,142],[20,63],[34,-73]],[[74489,69206],[32,56],[22,-60],[-24,-52],[-38,-18],[-32,40],[40,34]],[[75754,70621],[37,-84],[-44,-40],[-9,-45],[-43,24],[7,103],[52,42]],[[73114,70717],[33,34],[22,-23],[65,-13],[35,-141],[-18,-34],[-69,-46],[-74,25],[-95,189],[70,-20],[31,29]],[[74645,72073],[25,1],[42,-67],[-28,-21],[-39,87]],[[75829,73773],[75,-110],[-62,-21],[-60,15],[-49,-90],[-47,-25],[-35,96],[-25,-54],[-30,19],[35,158],[66,-21],[47,35],[40,110],[52,4],[20,-39],[-27,-77]],[[75907,70654],[27,-17],[30,-131],[-18,-19],[-32,89],[-7,78]],[[76064,73031],[26,-51],[-3,-72],[-59,34],[1,57],[-20,61],[32,63],[23,-92]],[[79427,72886],[5,131],[31,1],[9,197],[-17,68],[20,74],[2,149],[48,-160],[58,-84],[26,-63],[79,-39],[43,31],[92,-80],[54,-119],[47,-130],[-30,-66],[-40,33],[-44,-14],[-40,-70],[-15,-55],[-29,12],[-27,-51],[-80,116],[-97,63],[-88,-75],[13,58],[-20,73]],[[76310,73668],[-39,43],[-5,45],[66,-27],[-22,-61]],[[78644,74861],[46,-30],[19,-40],[-22,-43],[-43,113]],[[79546,74859],[23,-9],[73,113],[31,14],[41,-60],[-70,-33],[-67,-53],[-29,-51],[-51,63],[-24,81],[57,-29],[16,-36]],[[76696,75120],[-50,32],[-6,50],[41,13],[43,-17],[-28,-78]],[[76520,75345],[24,-71],[-43,-32],[19,103]],[[79623,75469],[25,-57],[79,12],[-32,-71],[-11,-69],[-38,39],[-10,58],[-36,-1],[23,89]],[[76215,75889],[-75,-15],[-39,22],[4,40],[48,34],[62,-81]],[[76001,76926],[62,-73],[17,-63],[-49,-7],[-30,143]],[[80306,71792],[7,-138],[-40,-74],[22,-87],[-64,-78],[-57,-25],[-55,42],[5,45],[-52,31],[-68,68],[-38,121],[-38,41],[9,54],[53,11],[41,36],[41,-33],[97,-26],[70,32],[90,135],[57,43],[8,86],[45,-8],[-8,-68],[-37,-80],[-77,-86],[-11,-42]],[[80213,72763],[-6,66],[-59,17],[-14,108],[94,39],[24,-76],[47,-12],[12,-99],[-55,21],[-15,-88],[-28,24]],[[75634,62961],[177,-26],[37,3],[55,-103],[24,-89],[66,-109],[136,-98],[50,-99],[7,-96],[35,-92],[26,-181],[89,-298],[66,-127],[71,-208],[20,-37],[89,-59],[77,-63],[58,-70],[54,-28],[32,-67],[10,-107],[70,-61],[73,-9],[54,-85],[98,-93],[42,-120],[82,-178],[29,-90],[38,-158],[46,-109],[0,-110],[-23,-35],[23,-64],[81,-47],[49,-113],[2,-95],[27,-55],[51,-149],[88,-86],[58,-92],[25,-106],[41,-6],[-3,116],[-49,74],[17,109],[-69,34],[-5,66],[13,116],[-87,216],[-19,100],[0,87],[-58,93],[-8,76],[-36,184],[-6,164],[-22,81],[16,119],[-10,107],[-69,104],[-81,217],[-23,115],[-7,175],[-16,42],[-21,133],[-27,98],[-86,143],[-33,148],[-21,131],[-82,276],[-56,215],[-71,158],[-112,404],[-3,50],[-38,143],[21,56],[94,-41],[18,294],[-49,21],[-49,-16],[-19,27],[-3,72],[50,61],[14,91],[-26,43],[-28,94],[-1,73],[23,69],[-8,122],[15,61],[55,93],[43,9],[5,138],[49,179],[17,122],[36,46],[-16,100],[13,166],[44,118],[58,225],[67,154],[102,65],[88,82],[30,86],[13,100],[45,63],[63,37],[164,-56],[42,38],[4,108],[32,30],[10,70],[46,18],[61,-26],[42,-72],[70,-41],[-6,-51],[22,-130],[55,-60],[71,69],[23,-28],[-9,-62],[5,-98],[28,-63],[28,-11],[-15,-72],[13,-115],[105,-400],[7,-92],[68,-122],[7,-82],[48,-71],[47,4],[15,-91],[36,-54],[46,-18],[23,-53],[68,-18],[61,-70],[-16,-36],[3,-127],[61,-198],[-5,-58],[18,-64],[-33,-42],[20,-100],[49,-48],[25,24],[41,-57],[49,-23],[13,-33],[62,-68],[51,-76],[-29,-18],[-24,-131],[-59,-67],[-25,-105],[-7,-91],[21,-76],[52,-60],[129,-80],[55,21],[29,-160],[51,-67],[3,-82],[50,17],[41,-57],[18,31],[186,-73],[31,14],[84,-64],[80,-4],[36,41],[72,-56],[48,-11],[42,32],[-4,-75],[19,-72],[-7,-87],[46,-65],[78,-56],[63,-5],[31,-80],[63,-120],[64,-7],[33,-66],[51,-51],[38,3],[15,-43],[68,-83],[22,-52],[46,-16],[51,8],[30,-28],[17,-92],[84,-50],[57,-77],[18,-110],[-19,-90],[19,-11],[82,30],[54,-65],[24,1],[92,-138],[4,-52],[36,-33],[50,-104],[89,-10],[46,-27],[78,-14],[31,-60],[69,-52],[62,-110],[-5,-90],[17,-74],[40,-85],[33,154],[-5,106],[-103,170],[-20,108],[46,0],[34,-124],[52,-105],[74,-57],[82,-106],[100,-43],[58,-57],[40,-62],[2,-61],[-21,-166],[-63,-146],[-5,-89],[28,-69],[37,-30],[-39,162],[77,193],[24,22],[-3,73],[57,88],[38,-8],[50,-49],[50,-96],[3,-44],[156,35],[-8,98],[12,40],[-24,80],[-34,52],[-41,174],[-39,85],[-68,186],[9,88],[3,167],[-37,39],[-61,110],[-37,116],[23,55],[122,6],[82,-48],[-7,59],[-121,38],[-69,8],[-68,95],[-26,72],[-35,47],[-64,160],[13,67],[152,-98],[64,-1],[97,-48],[59,-55],[12,-74],[54,35],[-29,69],[-32,21],[-36,64],[-47,-8],[-86,52],[-88,23],[-59,48],[-2,85],[-33,67],[52,91],[-31,72],[7,95],[-8,116],[-43,-18],[-18,89],[27,103],[-23,158],[7,87],[42,46],[9,119],[-10,55],[6,117],[31,79],[58,30],[4,81],[42,73],[-3,113],[58,43],[28,57],[46,-56],[35,-68],[43,-13],[41,-46],[25,47],[67,-26],[13,-70],[37,-19],[32,55],[42,3],[55,-44],[53,77],[9,-56],[66,-98],[73,-50],[25,-66],[-39,-139],[-3,-84],[-98,90],[-41,94],[-39,36],[-17,-32],[39,-99],[53,-63],[8,-51],[34,-76],[56,-46],[-21,-113],[-48,20],[1,-67],[-71,-40],[-39,80],[-51,-25],[52,-57],[38,-70],[26,13],[35,-48],[30,64],[49,-25],[47,7],[99,-296],[-24,-65],[8,-107],[-33,-46],[-13,-66],[62,-163],[35,-48],[16,59],[-33,81],[0,91],[14,206],[24,88],[-4,69],[45,84],[-26,127],[-83,149],[-46,128],[-3,40],[57,35],[36,60],[-26,76],[18,85],[40,17],[82,-99],[13,-74],[25,-33],[5,-89],[-17,-57],[65,-60],[-22,-113],[7,-118],[27,-200],[-2,-47],[47,-237],[83,-122],[47,3],[64,-64],[43,8],[73,-54],[40,-7],[8,58],[87,-35],[54,-4],[-40,-117],[23,-75],[60,-114],[-75,-90],[-40,24],[-38,-11],[-55,-107],[-34,-92],[-18,-100],[-3,-259],[-30,-12],[-85,30],[-66,62],[-53,24],[-21,50],[29,69],[-72,72],[-41,7],[-38,106],[-60,-99],[-37,7],[-29,53],[-59,42],[-20,-47],[90,-152],[52,-29],[8,-67],[-82,-42],[-5,-45],[38,-96],[-15,-48],[47,-69],[13,-75],[114,-123],[-34,-79],[2,-103],[-48,-103],[-11,-51],[17,-94],[55,4],[-36,66],[41,99],[40,26],[5,72],[139,30],[25,-38],[48,8],[32,-38],[45,-164],[0,-165],[-51,-179],[-12,-63],[7,-82],[29,-64],[10,-66],[35,-13],[30,-100],[-28,-109],[-65,-60],[-39,-9],[-38,35],[-20,100],[-48,88],[-36,108],[-18,0],[64,-204],[3,-74],[32,-66],[49,-30],[57,11],[53,37],[129,233],[-26,269],[37,196],[56,102],[58,72],[31,252],[43,74],[-72,49],[-23,56],[12,77],[-28,38],[18,112],[70,-50],[26,54],[55,-88],[26,39],[93,-140],[-27,-35],[-48,-11],[12,-104],[55,-46],[0,-62],[-54,-175],[-15,-81],[-13,-152],[-27,-409],[5,-158],[18,-187],[28,-103],[38,-46],[41,-7],[26,63],[62,4],[27,-40],[2,-106],[-15,-28],[12,-188],[74,-116],[52,-24],[102,-12],[-31,-91],[-15,-123],[28,-73],[-56,-114],[-12,-134],[23,-127],[-42,-33],[-19,-90],[-1,-125],[-34,-44],[-40,-315],[-15,-198],[3,-90],[27,-58],[-26,-96],[36,-163],[-58,27],[-29,-43],[-28,-85],[1,-45],[-32,-249],[-42,-415],[-8,-176],[-8,-359],[6,-101],[40,-33],[15,-66],[45,-26],[-21,-55],[-28,-1],[-18,-110],[-113,-259],[0,-122],[-16,-412],[-20,-175],[-6,-120],[-1,-362],[-6,-116],[-32,-175],[-68,-245],[-61,-252],[-20,-237],[10,-188],[28,-42],[40,-4],[29,-43],[28,-135],[30,-101],[43,-82],[72,-21],[13,100],[36,3],[27,-44],[-8,-135],[15,-81],[48,-15],[6,-55],[-54,-46],[-8,-127],[8,-77],[-45,-11],[9,-94],[22,-86],[56,-129],[2,-53],[66,-32],[44,37],[42,84],[31,-186],[40,-77],[-12,-138],[18,-55],[29,-10],[-16,-168],[-28,-154],[-50,-39],[-40,-108],[-25,27],[-32,-41],[-56,-142],[-54,-96],[-65,-41],[-69,29],[-58,108],[-86,45],[-6,-48],[72,-37],[22,-65],[-19,-46],[11,-96],[51,-62],[61,-14],[76,22],[17,-196],[-23,-80],[8,-186],[-8,-74],[26,-30],[45,-273],[70,-291],[66,-208],[42,-100],[110,-236],[127,-230],[146,-221],[29,-65],[-46,-96],[-18,-144],[-21,-64],[-91,-68],[-195,40],[-95,-8],[-85,46],[-72,3],[-41,-17],[-5,-51]],[[83983,47374],[-148,-9],[-85,37],[-111,84],[-170,87],[-48,-19],[-73,-127],[-70,-51],[-120,83],[-73,26],[-35,-13],[-84,-79],[-113,-144],[-44,-42],[-61,-5],[-51,27],[11,110],[34,47],[82,40],[78,64],[15,59],[-11,44],[-44,32],[-154,30],[-17,16],[-59,137],[-20,241],[-26,51],[-47,48],[-65,22],[-58,80],[-41,110],[-30,153],[-109,166],[-75,177],[77,87],[-22,45],[14,146],[65,84],[-1,82],[-43,123],[21,81],[-3,145],[39,0],[90,-74],[27,-48],[51,46],[34,70],[-4,41],[-59,190],[29,44],[-40,101],[-25,20],[-77,156],[-10,44],[50,77],[-1,36],[-53,47],[-42,99],[16,178],[-92,19],[11,127],[-71,15],[-12,-140],[-60,13],[-15,-162],[-90,18],[-6,-53],[-71,14],[-9,-97],[-61,-43],[-23,27],[-21,98],[-35,7],[-71,-60],[-29,15],[-30,-132],[-25,14],[-81,-40],[-62,-108],[-91,22],[-35,-27],[45,-121],[40,-59],[-60,-71],[-112,-243],[-34,-32],[-34,9],[-33,80],[38,178],[0,63],[-38,146],[-84,188],[-27,112],[-38,304],[-17,67],[-6,99],[-45,71],[-51,4],[-77,69],[-67,-27],[-104,-111],[-57,-110],[-29,-101],[-79,-28],[-69,48],[-45,138],[-74,92],[-3,76],[25,51],[47,18],[53,58],[97,154],[63,158],[52,52],[90,69],[49,70],[23,72],[-56,84],[-48,4],[-47,75],[-7,99],[12,63],[46,31],[25,50],[1,70],[-38,83],[-28,94],[-30,10],[-119,-61],[-80,49],[-122,6],[-96,26],[-95,7],[-157,47],[-87,36],[-89,66],[-227,223],[-76,41],[-194,33],[-58,3],[-35,-26],[-40,-86],[-96,-172],[-38,-47],[-164,-165],[-43,-19],[-33,14],[-101,100],[-57,84],[-45,141],[0,60],[28,161],[-6,72],[-34,49],[-89,64],[-83,23],[-84,-56],[-46,9],[-147,60],[-62,10],[-44,48],[-6,47],[15,89],[79,286],[11,81],[-27,79],[-44,64],[-53,47],[-116,-48],[-132,-76],[-22,-43],[-23,-180],[-47,-201],[-81,-30],[-104,-138],[-47,4],[-36,44],[-57,31],[-152,32],[-89,65],[-57,72],[-20,65],[-38,29],[-50,-6],[-69,79],[13,131],[43,57],[7,74],[-29,65],[-17,133],[38,56],[2,82],[-63,68],[-29,14],[-81,-22],[-45,64],[-40,111],[-82,-2],[-43,38],[-33,57],[-45,17],[-85,-94],[-48,62],[-32,0],[-53,42],[-21,-84],[-55,-83],[-47,5],[-20,49],[7,69],[-45,13],[-6,97],[-56,12],[-58,-52],[-36,-83],[-67,-20],[-32,-72],[-44,-33],[-26,-71],[-41,-15],[-42,-103],[-80,-55],[-73,12],[-63,-67],[-65,38],[-72,-101],[-44,0],[-38,-75],[-29,-18],[-29,-99],[18,-176],[-30,-100],[-47,-17],[-47,-53],[-142,-118],[-26,-47],[-7,-130],[-20,-76]],[[75863,68422],[10,-54],[-47,-1],[-42,87],[50,21],[29,-53]],[[77191,61414],[-36,69],[-29,91],[-2,94],[57,-91],[24,-143],[-14,-20]],[[76643,61749],[25,-84],[-38,-40],[-58,122],[-2,72],[73,-70]],[[79629,63271],[65,155],[8,-70],[-37,-40],[-31,-134],[-32,-71],[-31,83],[-47,24],[105,53]],[[76539,64694],[2,-85],[-81,-25],[-40,56],[34,49],[85,5]],[[76459,64965],[67,-170],[-7,-67],[-45,-13],[-78,32],[-22,88],[1,97],[50,53],[34,-20]],[[76681,64718],[-29,-59],[-86,-17],[-11,117],[72,220],[41,81],[26,22],[21,-90],[-21,-230],[-13,-44]],[[76580,64903],[-51,-56],[-35,87],[17,22],[78,9],[-9,-62]],[[79609,65101],[40,15],[53,-65],[-48,-25],[-45,75]],[[76845,65712],[5,-77],[-79,-179],[-29,61],[30,108],[19,160],[16,23],[38,-96]],[[76872,65921],[-32,41],[-8,90],[49,-62],[-9,-69]],[[76336,66139],[14,58],[-20,91],[3,48],[28,61],[16,88],[-24,22],[-18,81],[33,98],[-7,99],[44,75],[36,-14],[7,61],[-37,56],[24,85],[14,109],[-15,131],[44,78],[42,37],[44,77],[50,35],[47,-29],[5,-100],[-36,-90],[20,-65],[-25,-90],[55,-268],[42,-95],[13,-89],[-5,-83],[13,-76],[29,-73],[64,-80],[-8,-62],[-36,-71],[-12,-100],[-22,-56],[25,-267],[-27,-123],[3,-56],[-32,-117],[14,-135],[-36,-140],[-43,-116],[-54,-108],[-38,-41],[-61,-5],[-63,51],[-85,45],[-40,40],[-17,79],[26,77],[70,61],[4,97],[-31,17],[-37,120],[-37,52],[7,133],[-22,54],[-15,139],[12,95],[55,99]],[[77728,66755],[24,-69],[-48,-44],[-15,66],[-83,-35],[-77,34],[-22,-65],[40,-46],[40,-5],[20,-72],[-18,-47],[-38,-21],[-62,6],[-44,-101],[-43,-14],[-90,-82],[-37,-54],[-33,-129],[-30,-47],[-149,-104],[-101,-79],[-15,15],[-24,121],[-32,95],[-28,42],[28,100],[70,52],[39,91],[65,25],[96,-23],[36,179],[64,69],[50,-9],[42,54],[37,-89],[36,-33],[27,98],[-27,70],[64,115],[70,-84],[24,9],[35,-49],[109,60]],[[76304,68237],[2,59],[23,36],[61,1],[20,-48],[-25,-79],[-107,-75],[5,-71],[-61,13],[-50,-8],[-50,106],[4,30],[56,35],[19,-27],[76,-1],[27,29]],[[78559,68319],[3,-74],[-62,-48],[-49,34],[7,78],[23,91],[28,-5],[50,-76]],[[78895,68387],[30,-40],[-11,-96],[-48,-17],[-44,17],[-29,84],[-8,88],[-27,77],[-54,-2],[-28,64],[69,-22],[74,27],[21,38],[39,-22],[9,49],[74,-97],[-6,-46],[-44,-19],[-17,-83]],[[78581,68780],[26,-82],[25,-18],[-16,-67],[22,-91],[-33,-21],[-2,128],[-29,71],[7,80]],[[78385,69387],[5,-52],[-18,-65],[21,-46],[-32,-83],[-47,35],[3,130],[48,18],[20,63]],[[84603,47071],[-26,-80],[-70,-5],[-56,19],[-48,73],[-23,91],[112,-11],[81,-45],[30,-42]],[[84371,47075],[-77,46],[-26,58],[51,5],[28,-25],[24,-84]],[[84643,47353],[-13,-92],[-33,-40],[-91,37],[-14,66],[151,60],[0,-31]],[[81553,60551],[-31,75],[9,87],[28,12],[13,-117],[-19,-57]],[[81404,64368],[-43,8],[-11,60],[-26,28],[-9,69],[61,83],[126,-49],[-28,83],[-59,52],[-9,52],[42,5],[7,102],[48,49],[32,62],[-91,76],[-15,-37],[-69,5],[7,61],[-44,90],[39,55],[6,71],[29,76],[84,-1],[46,-71],[46,-1],[42,-41],[21,-58],[97,-84],[17,-58],[-9,-98],[23,-88],[48,-29],[3,-90],[-28,-15],[-13,-74],[40,-83],[32,2],[18,-74],[-5,-91],[116,-52],[21,-30],[27,-143],[46,-38],[-32,-81],[-36,-48],[-41,91],[-36,-69],[5,-52],[-21,-133],[30,-39],[-15,-39],[-59,-10],[-13,35],[-54,6],[-25,-52],[-37,-11],[-27,-56],[31,-34],[-1,-46],[-85,-63],[-21,63],[-52,-38],[-34,-84],[-47,19],[-27,-32],[-1,-67],[-43,-20],[-22,109],[-38,45],[0,42],[67,157],[-38,27],[10,77],[32,-6],[80,63],[-18,35],[-48,-19],[-111,223],[-100,-33],[17,67],[37,76],[41,22],[-18,48],[85,43]],[[80907,64401],[54,52],[21,51],[42,19],[23,101],[25,23],[-79,91],[7,63],[64,87],[6,120],[16,23],[117,48],[35,42],[33,-10],[1,-58],[-59,-27],[-7,-51],[55,-67],[-18,-38],[29,-62],[-75,0],[29,-57],[42,-32],[-3,-79],[-55,-8],[-88,-89],[-122,-78],[-42,-76],[-5,-72],[10,-146],[-80,86],[-15,101],[39,43]],[[79981,64952],[45,49],[76,-35],[-17,-103],[-57,-35],[-121,-12],[-19,39],[0,69],[93,28]],[[82997,67031],[42,-61],[-26,-51],[-35,26],[19,86]],[[79933,67895],[-64,-28],[-2,60],[66,-32]],[[80487,67992],[36,-50],[-40,-48],[-68,123],[29,13],[43,-38]],[[83135,68977],[38,-76],[-32,-135],[10,-82],[-70,25],[0,65],[27,16],[-11,86],[7,78],[31,23]],[[85501,51485],[19,-96],[-30,-22],[-53,16],[64,102]],[[85213,51639],[20,39],[-50,77],[12,81],[-5,105],[-32,40],[6,78],[99,-56],[53,7],[15,60],[36,40],[18,52],[-14,66],[60,-14],[53,59],[41,-14],[-29,-121],[23,-128],[62,-71],[59,-16],[-5,-51],[-44,-96],[-27,53],[-70,1],[-77,-53],[-31,-52],[-37,46],[-96,-76],[-40,-56]],[[86298,52146],[75,101],[27,-78],[-19,-51],[-83,28]],[[84838,53226],[-35,3],[-39,80],[17,111],[55,66],[-13,48],[3,93],[30,11],[29,-34],[1,-96],[24,-23],[75,-183],[23,-126],[-43,-5],[-40,106],[-59,6],[-28,-57]],[[33280,31546],[-278,-188],[-146,-3018],[-55,-1206],[-1210,-1532],[-168,657],[-516,-1394],[-146,260],[-1073,-1345],[-230,-634]],[[18269,44647],[75,752],[-648,160],[163,1764],[78,83],[79,-69],[18,205],[-116,18],[134,2011],[455,-58],[-14,53],[-35,45],[-10,84],[29,40],[47,145],[11,87],[52,43],[56,83],[195,-343],[1024,1321],[-409,782],[-339,634],[63,488],[25,437],[112,686],[23,430],[846,-112],[707,942],[107,139],[275,334],[35,72],[45,690],[39,568],[74,111],[20,-39],[263,502],[18,42],[-53,330],[67,108],[805,-76],[22,808],[661,-20],[105,162],[49,23],[631,808],[477,588],[-146,261]],[[62694,83036],[2,48],[-75,178],[-15,-3],[-56,95],[-7,82],[-42,23],[-28,68],[-34,25],[-29,60],[-13,103],[-69,-35],[-29,28],[-33,131],[-39,25],[-34,110],[-33,73],[-45,62],[-22,-14],[-28,79],[-19,99],[57,71],[-24,48],[56,54],[-23,120],[11,46],[43,35],[18,72],[-10,168],[5,77],[28,69],[-34,100],[8,114],[1143,-222],[-14,-186],[497,-94],[796,974],[-35,39],[-41,-22],[4,482],[76,92],[49,1],[49,-53],[97,1],[84,1058],[48,-9],[249,-435],[86,72],[68,99],[64,39],[26,44],[61,51],[16,74],[44,33],[-45,114],[-49,97],[-33,109],[-1,121],[-11,89],[18,74],[69,-26],[-8,-43],[44,-23],[39,-83],[95,-95],[54,1],[27,73],[43,20],[9,146],[41,118],[12,97],[108,77],[107,136],[50,31],[32,-12],[147,-164],[70,-123]],[[66366,88019],[-10,-81],[-49,-94],[8,-51],[51,-74],[48,30],[36,-64],[55,-65],[18,-97],[34,-72],[-31,-63],[-5,-85],[75,-201],[46,-45],[64,0],[11,-42],[59,16],[7,99],[21,41],[43,-24],[-2,-81],[34,-54],[-58,-41],[-43,-154],[-8,-70],[-40,-39],[-31,-1],[-25,-72],[83,-116],[50,-11],[31,-116],[55,-11],[-19,-124],[3,-255],[163,-86],[50,-11],[55,-114],[34,-34],[89,31],[-5,-105],[10,-84],[-13,-61],[5,-72],[27,-99],[58,-5],[52,-63],[27,-63],[40,-51],[45,0],[31,59],[153,-72],[35,-112],[34,-63],[-104,-13],[-57,-64],[15,-67],[-35,-48],[-64,-14],[-68,-51],[6,-63],[84,-26],[103,-103],[43,8],[85,-48],[-7,-48],[86,-271],[-46,-35],[-9,-67],[43,-14],[-20,-119],[-8,-105],[10,-51],[115,94],[63,20],[29,-46],[24,-86],[40,26],[2,82],[-22,32],[-1,62],[43,74],[-9,76],[48,40],[14,-62],[-7,-58],[42,-102],[-5,-181],[116,-104],[74,-13],[17,-78],[32,-7],[75,120],[43,-64],[67,24],[39,112],[76,24],[14,-127],[19,-71],[56,-91],[73,-46],[70,10],[-14,41],[13,74],[78,-36],[26,33],[24,-59],[-21,-89],[80,-130],[100,2],[32,73],[23,89],[42,39],[49,-16],[35,-57],[45,4],[37,-60],[-37,-56],[-6,-61],[49,-116],[89,-35],[-7,-43],[-91,-32],[-46,13],[-31,94],[-25,-24],[-68,25],[-74,-72],[-39,-114],[26,-56],[59,-33],[16,-92],[39,-102],[-11,-33],[-51,36],[-14,-108],[-18,-52],[-4,-168],[-35,-112],[16,-56],[39,15],[69,77],[93,-35],[25,87],[46,58],[22,-30],[96,90],[203,-16],[43,-37],[88,-135],[22,-95],[69,-103],[112,33],[46,69],[37,-47],[94,-49],[73,7],[-14,-97],[1,-108],[36,-159],[98,-170],[7,94],[24,16],[35,-44],[42,16],[15,-100],[57,-212],[55,-151],[69,-131],[65,82],[57,107],[17,7],[26,-109],[-2,-106],[-23,-189],[-9,-126],[47,-18],[21,-66],[-69,-127],[-14,6],[-21,-212],[-3,-105],[11,-123],[-21,-4],[-43,139],[-50,105],[-73,23],[-11,-41],[42,-44],[-39,-39],[-80,-4],[-87,86],[-54,-33],[183,-95],[125,-10],[38,-74],[-54,-44],[-35,-63],[-45,-171],[-20,-196],[-15,-54],[-1,-147],[22,-163],[-11,-59],[-37,-18],[-17,43],[8,86],[-41,62],[-48,36],[3,-65],[39,-15],[21,-74],[0,-78],[31,-41],[29,12],[28,58],[33,-14],[42,-86],[66,-318],[-31,-72],[-37,-130],[-39,-47],[3,-64],[-19,-55],[-57,-55],[-31,11],[-57,-43],[-21,-142],[40,42],[10,52],[47,13],[90,-20],[-48,-94],[-48,-129],[25,-48],[59,50],[11,74],[31,63],[66,71],[12,75],[64,77],[20,64],[63,18],[27,74],[55,53],[80,49],[47,61],[5,-118],[19,-113],[33,-51],[11,-72],[68,-93],[40,-22],[29,37],[60,26],[16,62],[60,-44],[-27,-169],[1,-219],[-9,-98],[8,-88],[-8,-86],[26,-67],[20,-104],[-23,-102],[64,-62],[40,-60],[7,-44],[38,-25],[3,-51],[-49,-20],[-9,-70],[26,-87],[48,22],[12,-36],[-28,-150],[-5,-108],[-81,-29],[-13,-83],[-90,42],[-8,50],[-54,38],[-31,-42],[12,-49],[-53,-40],[9,-44],[74,22],[25,-65],[-48,-26],[22,-54],[73,-68],[62,56],[113,11],[58,-56],[38,62],[41,-19],[17,-127],[27,-82],[-15,-75],[-55,52],[-65,130],[-40,-13],[-14,-85],[-54,-20],[-33,17],[-57,-34],[-42,-171],[-4,-236],[-28,-66],[19,-54],[56,-23],[-23,-44],[-86,-67],[-70,26],[-16,-61],[100,-111],[34,-131],[2,-109],[72,-64],[17,119],[29,-8],[97,101],[18,45],[54,18],[83,51],[19,69],[-4,56],[56,10],[16,-86],[70,-102],[23,-110],[-33,-58],[69,-34],[68,45],[17,37],[156,60],[11,-69],[-16,-100],[-43,-12],[0,-82],[-17,-77],[10,-30],[-23,-67],[-15,-138],[16,-62],[56,-3],[52,26],[38,-34],[11,-63],[-28,-44],[-3,-51],[86,58],[43,-10],[18,31],[69,-8],[18,-39],[117,-77],[6,-110],[24,-78],[14,-107],[33,-6],[43,197],[32,21],[9,105],[47,83],[11,97],[25,80],[82,5],[18,32],[36,-26],[23,-109],[-8,-80],[12,-50],[-18,-160],[4,-108],[-46,8],[-44,-54],[-21,-109],[4,-103],[-50,-77],[-24,-10],[-91,-101],[-52,-132],[-56,-261]],[[68492,84133],[12,-40],[-50,-20],[-25,109],[29,-1],[34,-48]],[[68203,84368],[1,49],[68,16],[65,-61],[4,-129],[67,-125],[-101,-48],[-45,16],[-5,47],[-34,54],[-20,181]],[[69612,87010],[-27,-56],[-25,63],[7,75],[45,-82]],[[69805,86857],[46,-84],[-46,-1],[-21,68],[-35,57],[-36,104],[-39,33],[-86,176],[-17,57],[0,95],[61,-91],[32,-19],[14,-109],[53,-73],[18,-61],[-2,-62],[36,-27],[22,-63]],[[69611,88740],[-40,-1],[-36,-60],[-61,16],[-3,72],[30,50],[-33,33],[2,44],[56,-25],[14,46],[86,13],[50,105],[-4,66],[21,87],[-10,130],[63,0],[-20,104],[8,82],[62,57],[-34,51],[-29,118],[34,51],[-6,84],[27,-5],[7,-85],[51,-14],[4,-88],[-35,-85],[5,-37],[42,-36],[50,-109],[36,-28],[34,-113],[-14,-39],[-50,45],[-5,-118],[-52,36],[-42,53],[-25,-21],[12,-70],[-79,-81],[22,-40],[-6,-79],[-52,-7],[-8,-172],[3,-86],[-32,8],[0,85],[-43,-37]],[[69324,89838],[51,13],[15,122],[27,-7],[28,-107],[23,-3],[38,59],[55,-55],[3,-93],[15,-77],[-42,-14],[-46,-90],[-96,-33],[-40,121],[12,77],[-43,87]],[[69865,90024],[-20,5],[-47,-95],[-9,64],[32,103],[57,35],[-13,-112]],[[69358,90065],[59,-3],[-13,-45],[-46,48]],[[69400,90432],[14,-53],[-19,-45],[-81,35],[-10,54],[27,64],[45,-17],[24,-38]],[[73217,73801],[36,-17],[-19,-66],[-59,6],[-29,98],[42,13],[29,-34]],[[74989,75877],[29,127],[21,-4],[37,-114],[-21,-28],[22,-86],[-24,-40],[-64,145]],[[74743,77634],[-32,88],[-45,12],[-34,60],[28,107],[28,19],[37,-26],[4,-87],[52,-3],[66,-41],[35,-54],[-13,-55],[19,-77],[-26,-57],[-29,11],[-23,-46],[-32,93],[-35,56]],[[75662,82261],[8,-34],[-91,17],[-26,-8],[-26,54],[65,18],[70,-47]],[[72990,82945],[-22,119],[40,-4],[0,-90],[-18,-25]],[[72665,83147],[27,89],[-39,21],[-15,53],[8,59],[40,17],[48,-12],[17,46],[55,-61],[10,60],[55,-36],[8,-65],[53,-55],[-5,-93],[-19,-32],[-38,-136],[-45,-23],[-43,-87],[-30,50],[-78,-44],[-53,22],[55,88],[43,33],[-3,55],[-40,-17],[-11,68]],[[72343,83347],[-26,59],[35,31],[67,5],[38,51],[65,-47],[14,53],[36,-28],[-17,-63],[24,-86],[-15,-48],[46,-27],[24,-89],[-43,-78],[-35,58],[4,60],[-56,8],[5,-56],[-29,-23],[-21,100],[-52,24],[-31,99],[-33,-3]],[[74258,83747],[-41,-70],[-68,71],[-17,-45],[-40,-29],[-43,6],[-68,121],[-50,29],[-18,59],[46,105],[41,-14],[25,-63],[32,46],[43,-65],[43,50],[-34,180],[26,60],[59,-37],[15,-31],[79,-52],[5,-86],[19,-86],[-54,-149]],[[71511,84689],[3,-61],[-26,-62],[-22,47],[-1,59],[-29,32],[-61,-29],[-5,-72],[-58,-13],[29,85],[-26,67],[-43,32],[-56,6],[18,58],[40,41],[117,19],[62,-89],[-11,-35],[31,-77],[38,-8]],[[71438,85229],[40,11],[72,-66],[3,-131],[52,-21],[7,-130],[-46,47],[-55,-11],[-14,-40],[-88,51],[-13,59],[6,73],[-19,69],[55,89]],[[72431,85169],[-77,41],[-2,62],[73,41],[61,-15],[17,-50],[-72,-79]],[[74291,85353],[24,-137],[-56,-7],[-18,-72],[-30,2],[-13,101],[37,41],[19,55],[37,17]],[[73000,85802],[46,-33],[43,-83],[40,-21],[-47,-84],[-40,23],[-5,50],[-57,93],[20,55]],[[70830,86302],[-27,-53],[-51,99],[21,85],[57,-131]],[[70318,86578],[59,31],[12,80],[22,43],[52,-2],[-1,-88],[29,-49],[6,-130],[-76,44],[-3,-56],[-58,-40],[-3,-55],[-40,-43],[-74,107],[30,34],[24,-60],[47,47],[4,90],[-30,47]],[[70594,86580],[-36,8],[-6,50],[68,63],[103,-75],[-56,-46],[-13,-85],[36,-95],[-43,9],[-20,52],[5,54],[-38,65]],[[69985,88375],[45,27],[18,77],[28,-1],[34,-62],[-26,-32],[-6,-100],[-24,-16],[-34,57],[-77,-17],[-25,67],[67,0]],[[70122,89407],[34,50],[61,-9],[-19,-102],[-58,14],[-18,47]],[[70025,89527],[-41,-51],[-11,47],[52,4]],[[76604,82038],[27,-18],[34,-104],[16,-89],[-45,-18],[-98,144],[1,58],[65,27]],[[75406,47741],[9,68],[-17,38],[-1,111],[-38,93],[-60,18],[-31,105],[-74,119],[31,66]],[[83983,47374],[50,-39],[99,-124],[311,-259],[86,-49],[191,-31],[-10,-139],[14,-138],[-89,-122],[-5,-79]],[[51705,75580],[29,45],[13,92],[24,76],[-17,176],[-40,67],[-54,21],[-21,139],[-39,42],[-75,147],[-57,250],[2,146],[55,128],[-28,33],[33,121],[104,68],[77,96],[9,70],[30,61],[13,85],[58,128],[89,52],[47,88],[103,150],[83,34],[55,101],[24,222],[-5,54],[-48,169],[6,146],[-28,72],[-61,101],[-147,16],[-46,87],[-96,74],[-66,36],[-87,4],[-47,29],[-43,57],[-98,195],[-57,135],[-9,80],[17,65],[118,140],[3,42],[-71,121],[-17,147],[-78,182],[-6,61],[-1,201],[-19,55],[-52,93],[-36,100],[27,89],[23,138],[5,97],[-15,70],[62,115],[-1,72],[17,154],[-27,97],[4,134],[29,83],[44,61],[110,207],[11,114],[-36,65],[-24,87],[0,119],[-26,119],[-53,198],[-8,120],[-20,110],[-59,164],[-25,104],[6,99],[74,136],[-7,99],[31,126],[-79,206],[-2,47],[40,107],[15,176],[-37,147],[-3,83],[-38,135],[-10,133],[33,108],[45,98],[36,-6],[45,-67],[40,7],[99,137],[109,14],[72,50],[31,82],[15,84],[13,182],[28,58],[58,30],[97,17],[41,27],[134,142],[16,47],[2,127],[21,109],[7,96],[-9,168],[-31,189],[4,59],[29,115],[91,34],[58,59],[23,62],[2,90],[-52,126],[-52,202],[-10,74],[5,80],[28,54],[218,143],[80,46],[38,-7],[39,-41],[10,-100],[17,-57],[53,-76],[46,-41],[53,-23],[46,8],[31,45],[51,19],[33,-19],[34,-72],[59,-230],[60,-60],[48,15],[90,140],[71,73],[50,13],[104,-25],[74,-47],[128,-149],[63,1],[28,35],[30,85],[12,109],[53,152],[59,78],[5,168],[45,58],[16,-23],[64,67],[21,74],[110,92],[42,144],[66,3],[45,-69],[55,-36],[57,-5],[82,160],[55,81],[51,100],[25,26],[62,10],[42,67],[2,116],[28,106],[13,163],[31,94],[89,135],[15,59],[-1,90],[-77,238],[-9,102],[33,224],[27,126],[23,45],[67,81],[94,68],[90,37],[67,53],[30,69],[21,120],[23,229],[-4,41],[-68,110],[-62,53],[-89,146],[-54,155],[-32,144],[-38,228],[-45,163],[-12,101],[9,126],[67,266],[19,164],[7,168],[-18,559],[-13,140],[-48,264],[-10,139],[-38,229],[-34,144],[-108,288],[-35,124],[4,154],[47,237],[29,119],[69,188],[17,89],[-7,59],[-71,259],[-100,244],[47,33],[61,80],[117,77],[28,-21],[-37,-93],[2,-74],[25,-64],[81,-77],[42,-133],[32,-67],[57,-38],[80,-26],[83,-52],[86,35],[76,-28],[100,-83],[58,-20],[36,-37],[9,-83],[-47,-142],[46,-14],[627,-107],[106,1581],[-8,1],[46,675],[20,28],[-11,101],[49,722],[153,-27],[9,214],[-22,99],[60,54],[50,82],[39,21],[26,51],[67,37],[-10,117],[-16,24],[16,93],[38,44],[38,-9],[18,33],[161,32],[80,87],[212,47],[47,-12],[462,-149],[35,-118],[-8,-43],[37,-78],[103,-55],[68,-7],[101,9],[-31,-49],[66,-75],[94,-26],[3,42],[80,-25],[0,49],[45,36],[77,-3],[42,16],[129,-35],[67,142],[-50,154],[34,69],[-24,72],[6,50],[-16,95],[10,37],[-32,97],[-86,101],[-57,95],[-13,82],[45,227],[33,69],[17,72],[4,85],[27,57],[0,66],[-27,81],[-30,165],[44,-14],[52,13],[50,-12],[71,-55],[38,34],[20,-32],[75,-4],[101,38],[71,-28],[61,6],[82,-119],[8,-79],[65,-86],[30,37],[45,-162],[12,-82],[-30,-156],[26,-32],[3,-92],[-26,-35],[1,-124],[-34,-71],[44,-73],[40,-431],[54,-364],[21,-86],[58,-162],[70,-141],[43,-64],[102,-76],[131,-285],[83,-120],[125,-87],[108,33],[109,-89],[76,-20],[56,8],[43,-32],[128,16],[44,86],[93,72],[1,133],[11,38],[68,100],[142,43],[22,63],[115,-60],[86,49],[58,62],[42,-63],[78,-334],[38,-194],[37,-107],[96,-121],[166,-58],[102,-59],[21,-47],[137,-65],[6,41],[50,66],[104,25],[40,41],[52,-78],[83,-31],[8,33],[58,-23],[87,-96],[54,-202],[48,-102],[30,-40],[108,-23],[38,11],[20,113],[20,2],[27,-105],[15,3],[9,-128],[-16,-17],[1,-155],[26,-114],[-20,-149],[-67,85],[-22,-49],[-39,-31],[-31,80],[-100,-118],[-53,-152],[0,-40],[34,-124],[40,-65],[48,10],[86,-62],[66,-128],[113,-59],[71,-86],[-70,-72],[-13,-45],[16,-66],[-5,-64],[18,-47],[59,-36],[154,-118],[19,-111],[94,-165],[32,-76],[81,-48],[38,33],[37,-48],[-9,-87],[29,-85],[80,-22],[32,-45],[82,-6],[34,19],[58,-61],[64,-4],[43,-28],[87,42],[50,-47],[48,-19],[48,13],[53,46],[44,-77],[48,-24],[17,46],[-11,109],[51,108],[53,67],[42,-9],[60,20],[46,75],[28,108],[-9,62],[60,59],[28,73],[-33,17],[-114,-8],[-40,68],[-60,-28],[-45,28],[5,97],[-26,53],[9,181],[-12,67],[0,120],[33,108],[61,89],[39,-54],[49,-11],[31,31],[68,-38],[29,-55],[57,-149],[31,-38],[36,4],[6,-75],[61,-47],[52,48],[43,-79],[144,-13],[18,79],[62,32],[-10,63],[17,60],[69,62],[53,-29],[24,108],[41,-1],[-14,-62],[37,-59],[4,-80],[-48,-50],[-8,-88],[-42,-38],[17,-56],[-23,-38],[25,-141],[-15,-40],[24,-48],[43,17],[42,-38],[-27,-109],[40,-92],[74,84],[13,-99],[-16,-92],[-86,-77],[-14,-73],[32,-37],[49,12],[10,-37],[-43,-106],[-12,-87],[24,-36],[38,5],[41,72],[37,-45],[71,-4],[-23,-66],[-55,-20],[-29,-63],[-5,-151],[15,-53],[117,-73],[21,24],[22,104],[58,131],[26,2],[34,63],[24,-8],[-53,-189],[-43,-90],[-43,-34],[5,-60],[-26,-72],[32,-47],[45,-21],[35,-62],[29,60],[39,11],[27,-49],[33,-11],[31,71],[-8,135],[-16,35],[-19,155],[23,89],[23,34],[35,157],[62,-44],[1,-331],[18,-48],[-23,-142],[34,-63],[30,-1],[69,144],[-6,51],[51,54],[21,79],[57,51],[4,50],[-22,72],[33,18],[2,-101],[-11,-79],[-59,-83],[-39,-92],[-7,-100],[-28,-60],[11,-95],[27,-47],[19,-100],[-39,-39],[-2,-157],[51,5],[22,115],[51,100],[28,10],[33,-146],[-48,-148],[-19,-29],[17,-68],[-12,-56],[15,-43],[-16,-79],[-43,-46],[3,-90],[39,-25],[60,69],[49,13],[1,72],[31,26],[38,-40],[98,147],[44,2],[2,-42],[34,-36],[58,17],[-4,-100],[84,-112],[14,49],[-52,113],[19,56],[14,118],[-14,68],[42,4],[7,-74],[59,-57],[37,14],[10,50],[-15,114],[12,51],[-5,142],[94,25],[46,-29],[34,-89],[28,-190],[-14,-64],[7,-123],[28,-73],[39,51],[46,-79],[34,16],[26,-59],[-65,-115],[-40,-32],[-72,-2],[-36,61],[-39,-8],[-5,-56],[30,-72],[-3,-45],[66,-80],[47,-29],[97,-108],[-30,-17],[11,-66],[87,-2],[41,35],[24,-31],[40,3],[59,-119],[-62,-130],[-40,34],[-24,-88],[76,-11],[33,-73],[-21,-55],[43,-27],[2,118],[-7,78],[35,37],[75,-112],[43,-81],[3,-60],[-31,-123],[-26,7],[-35,-45],[26,-69],[1,-98],[-18,-65],[-35,12],[-54,-36],[64,-42],[71,14],[35,-111],[3,-114],[-11,-65],[-36,-52],[20,-68],[1,-158],[11,-35],[64,-5],[100,-249],[60,-74],[44,-32],[15,-97],[30,-75],[44,-29],[86,106],[55,3],[29,-37],[45,-113],[-21,-56],[-70,37],[-56,-9],[-54,-147],[30,-85],[39,-22],[39,-79],[57,3],[26,-82],[80,-57],[61,-106],[52,-197],[-36,-55],[-49,67],[-51,-52],[-65,5],[-56,-49],[-28,-71],[-28,49],[-24,96],[-8,84],[-32,61],[-116,1],[-64,-87],[-56,27],[-17,87],[16,82],[-83,-1],[-8,163],[-73,43],[-53,-34],[-49,27],[23,207],[-34,78],[30,17],[-1,84],[-71,160],[-5,47],[55,17],[-5,101],[21,91],[21,30],[-38,58],[30,88],[-38,75],[-33,-133],[27,-64],[-3,-54],[-70,49],[15,121],[-10,135],[-66,25],[-44,-62],[-16,99],[-42,-13],[-23,31],[-27,-141],[21,-143],[28,-93],[-37,-14],[-12,105],[-24,74],[-57,52],[-64,16],[-24,32],[-45,-24],[-10,81],[-26,-19],[17,-69],[35,-23],[33,24],[59,-77],[51,-126],[28,-179],[-15,-145],[-68,-85],[-17,4],[-76,-110],[-31,60],[-72,-6],[-124,-115],[-46,73],[-75,52],[-25,103],[-32,60],[-83,49],[-41,55],[-4,63],[-23,64],[-68,70],[-60,-16],[-10,-30],[41,-51],[63,-4],[-16,-152],[57,-149],[77,-97],[60,-113],[-10,-33],[22,-125],[-28,-126],[-28,-54],[6,-63],[-32,-113],[-113,-285],[-58,-107],[-39,-36],[-26,-121],[-62,-150]],[[68100,87619],[-8,106],[44,-22],[-13,-73],[-23,-11]],[[68592,90816],[37,-102],[-9,-58],[-51,48],[-53,108],[3,143],[-17,55],[21,87],[-19,54],[29,77],[44,-8],[-1,-147],[21,-62],[-14,-93],[9,-102]],[[67875,91104],[38,-59],[18,-65],[43,-57],[41,-154],[36,-46],[26,-132],[-21,-32],[22,-84],[-74,-41],[-36,34],[-13,87],[-42,-5],[-34,101],[6,68],[-24,69],[1,83],[-19,48],[-11,110],[29,135],[-33,88],[44,60],[2,79],[-25,35],[7,90],[59,17],[-4,-106],[9,-116],[-32,-40],[-17,-58],[4,-109]],[[68809,91119],[61,-14],[29,43],[38,-4],[25,-84],[-37,-35],[4,-37],[-30,-108],[-66,26],[13,134],[-108,-164],[5,-107],[-22,-38],[-31,84],[27,15],[3,88],[-52,9],[9,69],[-2,174],[13,40],[-16,116],[22,9],[61,-98],[-12,-81],[37,-47],[29,10]],[[69063,90995],[-41,-2],[10,86],[44,-28],[-13,-56]],[[69729,91682],[-59,1],[-5,73],[41,-16],[23,-58]],[[67823,92162],[-18,-77],[-25,-39],[-73,-63],[-29,19],[19,61],[-32,104],[36,17],[8,53],[-21,35],[16,113],[42,-74],[41,-9],[50,62],[33,-63],[-42,-55],[-5,-84]],[[68335,92196],[55,104],[-16,69],[38,66],[55,-5],[17,-54],[-12,-117],[-35,-101],[-41,-35],[-61,73]],[[68741,92481],[23,-12],[33,67],[5,57],[-53,-10],[-10,50],[25,67],[4,74],[-50,-11],[-86,-207],[-32,34],[13,209],[39,-28],[28,80],[38,53],[20,300],[16,74],[26,45],[-12,75],[7,84],[-15,35],[3,81],[-16,140],[46,28],[43,-1],[84,-59],[17,-45],[-2,-71],[-45,-78],[8,-58],[44,-94],[-6,-79],[-28,-98],[17,-100],[139,44],[22,-44],[2,-140],[-33,7],[-31,-125],[13,-53],[41,-7],[-17,-259],[61,88],[22,66],[52,43],[-11,-150],[-41,-48],[-8,-64],[14,-53],[76,62],[94,223],[5,-81],[-63,-99],[-14,-99],[7,-130],[-18,-73],[24,-19],[58,162],[31,-74],[100,-275],[59,-85],[53,-42],[66,4],[-10,-67],[-62,5],[-29,-51],[-21,-83],[-22,6],[-11,70],[-130,-59],[-21,-60],[8,-68],[-56,-47],[-43,65],[-26,3],[-44,103],[-24,-58],[-33,14],[6,66],[-45,-13],[-38,68],[-38,-35],[-2,-108],[-49,-3],[-2,-52],[68,-35],[-119,-128],[-83,2],[-29,148],[25,119],[1,61],[-56,23],[-15,-66],[-33,4],[6,65],[57,65],[8,69],[84,141],[0,76],[-68,-151],[-38,19],[-10,-86],[-34,-48],[-44,-22],[-16,-65],[-44,-4],[-36,-41],[-12,134],[-125,107],[-35,-4],[3,66],[48,-1],[68,22],[9,100],[48,75],[73,9],[11,75],[43,72],[-5,37],[55,85]],[[67535,92961],[127,-144],[38,-156],[-3,-76],[-30,1],[-53,101],[-4,42],[-75,191],[0,41]],[[69480,93767],[-21,-56],[-26,-6],[-17,-62],[9,-107],[34,-37],[-33,-97],[-13,110],[-87,168],[-42,-8],[9,91],[68,12],[53,-56],[0,105],[41,2],[25,-59]],[[65888,93914],[-2,-39],[-89,3],[36,116],[20,28],[44,-12],[-9,-96]],[[68757,94646],[-15,-151],[-24,-40],[-67,161],[-13,-111],[-49,13],[-1,-97],[45,-75],[-31,-60],[45,-113],[5,-113],[14,-62],[-20,-44],[15,-56],[2,-160],[-27,-95],[-102,-163],[-34,100],[25,119],[31,4],[11,78],[-38,40],[16,88],[-18,46],[18,61],[-29,52],[-36,-66],[-28,-87],[0,-137],[-17,-135],[-63,-81],[-41,58],[-17,55],[39,158],[20,16],[21,151],[14,27],[-3,121],[-13,40],[-43,-197],[-66,4],[7,-119],[-36,-156],[-79,-36],[-30,111],[-2,50],[22,113],[-11,51],[19,133],[-23,68],[31,53],[12,120],[51,14],[28,45],[44,-38],[62,132],[-38,46],[31,47],[10,78],[-57,29],[-20,105],[35,98],[37,29],[27,60],[65,3],[-22,-109],[32,-89],[68,82],[13,57],[53,-6],[14,66],[77,-17],[34,65],[68,-16],[41,-75],[-60,-13],[-18,-51],[-7,-89],[-58,-28],[-18,-38],[18,-61],[-6,-64],[60,1]],[[66240,94611],[-14,-158],[-39,14],[-18,70],[41,83],[30,-9]],[[65866,94559],[-52,15],[37,55],[15,-70]],[[65276,95034],[-8,60],[40,50],[25,-78],[-57,-32]],[[68105,95242],[27,8],[4,102],[21,58],[35,-87],[29,5],[45,-100],[-19,-144],[-29,-10],[-44,53],[-67,14],[-2,101]],[[63148,95493],[25,-32],[45,-1],[31,-46],[-85,-51],[-41,83],[25,47]],[[64758,95664],[7,-232],[-9,-49],[5,-102],[-11,-43],[-55,-32],[-101,26],[-95,93],[23,55],[-2,54],[-54,165],[-21,35],[7,79],[46,117],[-2,69],[-36,89],[1,166],[22,87],[32,59],[42,17],[52,-40],[67,-200],[0,-39],[48,-59],[45,-31],[-4,-71],[19,-87],[-27,-59],[1,-67]],[[70134,90975],[-56,58],[16,132],[60,-32],[6,-101],[-26,-57]],[[69946,92351],[5,96],[22,5],[-3,-133],[-22,-101],[-34,-34],[-31,-94],[-38,-55],[12,-79],[31,-44],[0,-152],[-83,46],[-44,-44],[-30,28],[22,75],[-57,2],[7,118],[46,76],[12,174],[50,-16],[57,18],[-3,-56],[51,28],[-10,58],[16,65],[24,19]],[[69972,92192],[29,60],[39,-125],[-63,-26],[-5,91]],[[70576,92493],[-13,-44],[-38,51],[33,80],[18,-87]],[[12184,44676],[-1156,96],[-138,21],[-11,-193],[-1321,201],[-1233,12],[-8,-202],[-627,110],[-605,112],[-625,1172],[-561,990],[36,47],[-70,49],[-59,-16],[-590,1054],[-47,57],[-30,80],[-294,516],[-165,262],[-717,1310],[-896,-1166],[-111,-127],[-20,6],[-245,427],[-223,384],[-257,471],[-953,1675],[-60,120],[1037,1299],[-56,107],[-130,216],[453,618],[558,722],[-196,337],[-279,140],[-10,14],[16,169],[76,22],[1023,1301],[-64,415],[49,308],[20,42],[-46,644],[-110,151],[-10,24],[-66,667],[-25,65],[-18,125],[10,138],[67,-1],[290,-41],[98,-167],[442,495],[-568,1055],[-422,772],[611,804],[768,1000],[66,191],[-209,328],[-381,672],[133,2690],[795,-93],[-6,109],[-29,123],[10,176],[-23,85],[18,33],[-55,193],[3,292],[32,69],[16,81],[161,531],[1441,-104],[206,2702],[619,-84],[-28,-501],[1327,-178],[12,219],[1651,-220],[905,-118],[76,844],[73,791],[11,611],[14,598],[-38,28],[1,57],[39,-6],[13,574],[9,312],[759,-34],[568,-107],[-30,-629],[890,-150],[-14,-179],[-9,-225],[382,-31],[935,-78],[37,640],[560,-76],[17,10],[760,-106],[-42,-794],[555,731],[-203,375],[510,664],[499,655],[177,-337],[210,-389],[668,876],[88,-165],[376,526],[30,-24],[42,53],[4,71],[239,306],[405,525],[855,1106],[402,-60],[2,25],[1020,-150],[-80,-1256],[-84,-1298],[-66,-976],[-22,-440],[6,-39],[231,-37],[3,-26],[749,-119],[14,23],[668,-100],[662,-105],[325,-47],[-57,-887],[-96,-1277],[649,-112],[605,-119],[2,41],[1224,-122],[40,-30],[917,-113],[-48,-892],[154,-51],[92,7],[199,-15],[160,-40],[-3,-62],[606,-97],[14,-6],[-23,-570],[-24,-480],[690,-108],[55,-488],[-13,-211],[1235,-192],[-33,-505],[-87,-209],[-41,-606],[863,-112],[-10,-284]]],"transform":{"scale":[0.00012041400414004141,0.00007221012210122104],"translate":[140.67789,-26.92686]},"objects":{"qld_central_ldmg_boundaries_gda2020_simp200m":{"type":"GeometryCollection","geometries":[{"arcs":[[0,1,2,3]],"type":"Polygon","properties":{"LGA Code":"370","Abbreviated Name":"Banana","LGA Name":"Banana Shire","Area Sq Km":28548.93438,"LDMG Name":"Banana","Police Region Name":"Central Region","Police Region Code":"CR","Police Region Short Name":"Central"}},{"arcs":[[4,5,6,7,8,9]],"type":"Polygon","properties":{"LGA Code":"410","Abbreviated Name":"Barcaldine","LGA Name":"Barcaldine Regional","Area Sq Km":53439.35687,"LDMG Name":"Barcaldine","Police Region Name":"Central Region","Police Region Code":"CR","Police Region Short Name":"Central"}},{"arcs":[[10,11,12]],"type":"Polygon","properties":{"LGA Code":"450","Abbreviated Name":"Barcoo","LGA Name":"Barcoo Shire","Area Sq Km":62255.69923,"LDMG Name":"Barcoo","Police Region Name":"Central Region","Police Region Code":"CR","Police Region Short Name":"Central"}},{"arcs":[[-9,13,14,15]],"type":"Polygon","properties":{"LGA Code":"760","Abbreviated Name":"Blackall-Tambo","LGA Name":"Blackall-Tambo Regional","Area Sq Km":30580.25956,"LDMG Name":"Blackall-Tambo","Police Region Name":"Central Region","Police Region Code":"CR","Police Region Short Name":"Central"}},{"arcs":[[-1,16,-14,-8,17,18,19,20,21],[22],[23],[24],[25]],"type":"Polygon","properties":{"LGA Code":"2270","Abbreviated Name":"Central Highlands","LGA Name":"Central Highlands Regional","Area Sq Km":59789.95085,"LDMG Name":"Central Highlands","Police Region Name":"Central Region","Police Region Code":"CR","Police Region Short Name":"Central"}},{"arcs":[[[-3,26,27]],[[28]],[[29]],[[30]],[[31]],[[32]],[[33]],[[34]],[[35]],[[36]],[[37]],[[38]],[[39]]],"type":"MultiPolygon","properties":{"LGA Code":"3360","Abbreviated Name":"Gladstone","LGA Name":"Gladstone Regional","Area Sq Km":34865.48449,"LDMG Name":"Gladstone","Police Region Name":"Central Region","Police Region Code":"CR","Police Region Short Name":"Central"}},{"arcs":[[[-7,40,41,42,43,44,-18]],[[45]],[[46]],[[47]],[[48]],[[49]],[[50]],[[51]],[[52]],[[53]],[[54]],[[55]],[[56]],[[57]],[[58]],[[59]],[[60]],[[61]],[[62]],[[63]],[[64]],[[65]],[[66]],[[67]]],"type":"MultiPolygon","properties":{"LGA Code":"3980","Abbreviated Name":"Isaac","LGA Name":"Isaac Regional","Area Sq Km":82596.00469,"LDMG Name":"Isaac","Police Region Name":"Central Region","Police Region Code":"CR","Police Region Short Name":"Central"}},{"arcs":[[[-19,-45,68,69]],[[70]],[[71]],[[72]],[[73]],[[74]],[[75]],[[76]],[[77]],[[78]],[[79]],[[80]],[[81]],[[82]],[[83]],[[84]],[[85]],[[86]],[[87]],[[88]],[[89]],[[90]],[[91]],[[92]],[[93]],[[94]],[[95]],[[96]],[[97]],[[98]],[[99]],[[100]],[[101]],[[102]]],"type":"MultiPolygon","properties":{"LGA Code":"4530","Abbreviated Name":"Livingstone","LGA Name":"Livingstone Shire","Area Sq Km":46965.607,"LDMG Name":"Livingstone","Police Region Name":"Central Region","Police Region Code":"CR","Police Region Short Name":"Central"}},{"arcs":[[-10,-16,103,-12,104]],"type":"Polygon","properties":{"LGA Code":"4710","Abbreviated Name":"Longreach","LGA Name":"Longreach Regional","Area Sq Km":40561.49399,"LDMG Name":"Longreach","Police Region Name":"Central Region","Police Region Code":"CR","Police Region Short Name":"Central"}},{"arcs":[[[-43,105,106]],[[107]],[[108]],[[109]],[[110]],[[111]],[[112]],[[113]],[[114]],[[115]],[[116]],[[117]],[[118]],[[119]],[[120]],[[121]],[[122]],[[123]],[[124]],[[125]],[[126]],[[127]],[[128]],[[129]],[[130]],[[131]],[[132]],[[133]],[[134]],[[135]]],"type":"MultiPolygon","properties":{"LGA Code":"4770","Abbreviated Name":"Mackay","LGA Name":"Mackay Regional","Area Sq Km":34366.07648,"LDMG Name":"Mackay","Police Region Name":"Central Region","Police Region Code":"CR","Police Region Short Name":"Central"}},{"arcs":[[-2,-22,136,-20,-70,137,-27]],"type":"Polygon","properties":{"LGA Code":"6370","Abbreviated Name":"Rockhampton","LGA Name":"Rockhampton Regional","Area Sq Km":6573.09479,"LDMG Name":"Rockhampton","Police Region Name":"Central Region","Police Region Code":"CR","Police Region Short Name":"Central"}},{"arcs":[[[138,-106,-42]],[[139]],[[140]],[[141]],[[142]],[[143]],[[144]],[[145]],[[146]],[[147]],[[148]],[[149]],[[150]],[[151]],[[152]],[[153]],[[154]],[[155]],[[156]],[[157]],[[158]],[[159]],[[160]],[[161]]],"type":"MultiPolygon","properties":{"LGA Code":"7340","Abbreviated Name":"Whitsunday","LGA Name":"Whitsunday Regional","Area Sq Km":40779.62806,"LDMG Name":"Whitsunday","Police Region Name":"Central Region","Police Region Code":"CR","Police Region Short Name":"Central"}},{"arcs":[[-5,-105,-11,162]],"type":"Polygon","properties":{"LGA Code":"7400","Abbreviated Name":"Winton","LGA Name":"Winton Shire","Area Sq Km":53810.28734,"LDMG Name":"Winton","Police Region Name":"Central Region","Police Region Code":"CR","Police Region Short Name":"Central"}},{"arcs":[[[-21,-137]],[[-23]],[[-24]],[[-25]],[[-26]]],"type":"MultiPolygon","properties":{"LGA Code":"7550","Abbreviated Name":"Woorabinda Aboriginal","LGA Name":"Woorabinda Aboriginal Shire","Area Sq Km":393.03009,"LDMG Name":"Woorabinda","Police Region Name":"Central Region","Police Region Code":"CR","Police Region Short Name":"Central"}}]}}}