{"type":"Topology","arcs":[[[41,22534],[-1,1263],[-1,1322],[-1,661],[0,926],[-1,581],[-1,1138],[-1,794],[0,1188],[0,661],[-1,1190],[-1,661],[0,822],[-1,1294],[-1,1323],[-1,842],[-1,1274],[-1,1191],[-1,1322],[-1,1323],[-1,1397]],[[25,43707],[1686,-88],[61,609],[118,1265],[1707,-3],[-278,-206],[658,-596],[418,-389],[-573,-432],[1303,-1241],[412,-17],[282,260],[1022,981],[298,288],[609,214],[755,574],[741,564],[950,704],[104,75],[-39,37],[563,403],[909,-871],[2769,-69],[40,277],[-51,406],[820,-60],[617,-9],[194,-6]],[[16120,46377],[-4,-179],[1,-999],[-120,-1199],[-59,-1035],[-1639,32],[-5,-847],[-5,-267],[-1452,-964],[114,-64],[-97,-83],[-16,-28],[63,-189],[-104,-843],[902,-828],[-443,-1018],[-87,-327],[876,-784],[-362,-257],[1830,-1440],[-1088,-812],[1069,-75],[-25,-359],[113,-4],[1260,-79],[50,639],[1266,-74],[79,599],[866,-77],[441,-618],[-3,-34],[1845,-107],[-22,-286],[-197,-371],[430,-21],[1703,-84],[120,-7],[7,-78],[-10,-190],[690,-38],[429,-12],[33,763],[456,514],[1214,896],[347,-316],[561,-358],[336,-324],[-141,-92],[713,-727],[103,63],[71,31],[108,31],[66,45],[47,48],[42,117],[69,45],[-5,29],[48,10],[37,57],[1,52],[30,29],[15,60],[62,18],[16,36],[-20,39],[36,47],[103,36],[119,145],[60,52],[31,107],[54,43],[27,47],[79,54],[-2,40],[65,87],[3,41],[34,56],[40,22],[65,88],[66,7],[241,-41],[150,12],[137,-45],[15,-26],[60,-36],[41,-1],[63,-45],[50,-11],[65,6],[-38,-484],[1371,-109],[967,-66],[320,-18],[6,61]],[[32973,34105],[473,-442],[261,-215],[-82,-126],[-957,-657],[-760,-528],[525,-507],[707,-693],[-551,-326],[-121,110],[-362,27],[-83,0],[-13,-90],[24,-83],[31,-42],[81,-438],[13,-16],[137,-99],[58,-424],[-26,-27],[-61,-203],[80,-273],[-1274,-854],[-95,-15],[-19,-111],[12,-9],[347,-92],[244,-222],[-694,-474],[-565,-406],[162,-142],[70,-71],[-1291,-853],[74,-79]],[[29318,25725],[-721,-482],[-416,314],[-541,276],[-49,6],[-136,-104],[-287,-209],[-243,-169],[-262,-189],[-1164,-738],[-485,-307],[-298,-267],[-444,-384],[21,-125],[121,-829],[-2074,155],[-1193,92],[-1085,93],[-74,-597],[102,-8],[-25,-241],[-480,-335],[-267,-130],[28,-49],[-9,-56],[-26,-41],[91,-64],[23,-78],[-8,-78],[28,-32],[100,-31],[51,-97],[3,-62],[18,-21],[-884,31],[-1736,123],[-20,-7],[-1430,66],[-353,14],[125,1369],[-1866,99],[451,328],[-1697,1492],[-540,-383],[-479,412],[-1830,-1288],[224,-257],[-486,-332],[-441,-296],[-812,-488],[-171,-111],[-702,660],[-263,260],[-528,435],[-1321,-842],[-389,24],[-4428,287]],[[96735,50965],[-38,1],[-405,39],[-910,81],[-106,79],[-30,-11],[-49,33],[-41,6],[-11,43],[12,56],[68,22],[-85,78],[-9,73],[-16,20],[-94,55],[9,44],[-36,51],[14,28],[-58,97],[-160,109],[-15,-4],[-61,111],[-72,20],[-18,55],[-66,37],[-76,9],[-14,33],[-89,49],[-94,-11],[5,65],[-26,36],[45,23],[5,53],[24,58],[-24,45],[-70,11],[19,55],[-64,67],[45,43],[1,70],[-86,62],[-43,-10],[-66,8],[-32,22],[-62,72],[-50,20],[-75,12],[-17,43],[-38,32],[-61,-10],[-38,20],[-17,49],[-35,11],[-22,-53],[-55,-19],[-74,-71],[-88,1],[-13,38],[-44,13],[-19,-52],[-35,-15],[-19,-43],[-91,-22],[-17,41],[-56,17],[3,23],[75,30],[10,40],[-23,35],[22,62],[-24,27],[53,43],[52,9],[30,26],[22,51],[-18,73],[-7,4],[-58,23],[-43,-9],[-66,22],[-36,64],[-65,-20],[-46,49],[-103,47],[-6,52],[-48,75],[-7,45],[-43,37],[-1,62],[-75,55],[-90,7],[-30,19],[-54,-4],[-55,16],[26,64],[-33,42],[-62,-3],[-48,24],[-22,-22],[-109,8],[-48,34],[-43,1],[8,85],[20,25],[-29,60],[-87,67],[-112,45],[54,76],[-13,45],[34,71],[99,32],[62,-26],[27,5],[75,129],[66,33],[-23,51],[31,44],[-12,29],[36,34],[34,-3],[44,43],[-14,22],[-55,-2],[-15,56],[-65,33],[-48,63],[-10,38],[14,83],[-58,14],[-34,29],[5,69],[-86,100],[-85,59],[30,22],[-11,41],[-62,18],[-30,37],[26,42],[334,-31],[10,72],[33,82],[85,127],[-61,70],[48,275],[-7,181],[14,119],[22,115]],[[92416,56550],[96,-14],[91,52],[94,35],[26,66],[88,51],[190,6],[76,34],[42,124],[43,79],[67,39],[59,121],[62,33],[102,813],[-34,18],[-90,-13],[12,123],[-105,65],[-13,31],[-49,36],[28,41],[53,27],[14,37],[89,58],[35,73],[63,166],[20,149],[-17,139],[-25,39],[-41,108],[-65,64],[-64,-18],[-14,70],[19,154],[140,-13],[6,48],[102,-9],[-11,54],[13,102],[42,22],[25,209],[-44,27],[4,33],[-70,6],[18,142],[71,-8],[91,-42],[43,-187],[24,35],[35,-3],[-1,-48],[37,-40],[29,1],[44,-54],[53,32],[-61,26],[58,26],[45,0],[76,-22],[25,-35],[87,24],[25,-65],[62,-7],[50,30],[-35,33],[43,23],[3,58],[47,22],[37,89],[-7,70]],[[94374,59935],[28,2],[16,-67],[24,-38],[44,5],[51,31],[13,56],[-18,48],[78,3],[71,-10],[125,19],[12,-38],[71,-32],[33,29],[127,-14],[116,-34],[63,-39],[92,-33],[49,2],[54,34],[142,8],[75,-91],[52,-35],[123,15],[48,48],[117,25],[48,27],[27,-12],[97,48],[9,24],[55,32],[65,19],[77,-29],[18,23],[48,-3],[70,-55],[39,5],[90,-19],[109,-14],[60,3],[72,-19],[294,17],[75,-16],[106,-49],[76,-13],[69,1],[117,20],[105,30],[111,135],[29,97],[-19,93],[-62,62],[-7,101],[-47,62],[-61,33],[-98,101],[-11,66],[-71,22],[-27,82],[53,46],[-78,48],[39,14],[157,-166],[75,-96],[71,-115],[21,-17],[36,-76],[34,-43],[47,-102],[28,-37],[55,-147],[10,-69],[23,-67],[30,-141],[28,-67],[49,-58],[-12,-29],[48,-82],[18,-58],[137,-141],[9,-37],[87,-4],[84,-55],[13,-69],[114,-137],[2,-23],[80,-92],[88,-3],[77,-114],[113,-210],[66,-170],[23,-128],[-23,-94],[54,-43],[16,-84],[32,-47],[-71,-40],[72,-56],[46,-89],[-1,-30],[135,33],[60,-49],[121,-220],[22,-66],[-29,-53],[-162,5],[23,-32],[-44,-100],[-19,-73],[-36,-35],[-57,-107],[69,-61],[39,-90],[6,-61],[37,-82],[76,-95],[136,-119],[89,-66],[182,-108],[130,-70],[28,-29],[-575,98],[-59,8],[-264,-31],[-100,-57],[-200,-21],[-23,-22],[-47,6],[-47,-29],[-20,-61],[20,-16],[12,-76],[-83,-25],[-32,-34],[-49,-13],[-62,-54],[-75,-35],[28,-65],[-12,-142],[-191,19],[-60,-475],[13,-66],[-25,-18],[-56,-444],[9,-1],[-132,-1039],[-781,70],[-57,9],[58,94],[-11,55],[-45,24],[-72,13],[-125,54],[-94,19],[-108,-23],[-103,34],[-99,17],[-71,25],[-39,44],[-53,87],[-102,51],[-31,42],[-2,49],[46,61],[-34,13],[-147,-50],[-75,-52],[-58,-22],[123,-161],[89,-169],[8,-39],[-20,-59],[-86,-124],[-37,-78],[-58,-155],[-4,-101],[43,-82],[134,-189],[42,-95],[48,-150],[13,-92],[59,-173],[16,-92],[22,-368],[-8,-110],[-24,-108],[-83,-174],[-12,-83],[16,-67],[56,-107],[47,-150],[40,-95],[67,-101],[111,-96],[77,-35],[85,-72],[5,-28]],[[9108,83003],[-49,-568],[182,-116],[1984,-1264],[63,720],[232,-15]],[[11520,81760],[71,-34],[257,-65],[75,-12],[91,-44],[-31,-49],[-19,-70],[-65,-98],[-52,-206],[-5,-103],[9,-60],[42,-149],[39,-101],[3,-56],[24,-52],[25,-126],[25,-210],[41,-77],[2,-45],[67,-114],[7,-58],[21,-10],[49,-110],[90,-144],[55,-129],[85,-126],[55,-107],[26,-120],[36,-28],[95,-145],[44,-27],[171,-142],[45,-20],[131,-77],[292,-149],[22,-30],[40,-2],[84,-35],[119,-64],[114,-21],[151,-49],[49,-35],[116,5],[116,-6],[132,4],[146,16],[201,0],[88,-16],[66,-34],[201,-90],[89,-65],[98,-10],[115,-34],[64,-30],[192,-117],[119,-107],[92,-43],[162,-64],[83,-68],[121,-115],[-117,-37],[133,-66],[108,-24],[27,-32],[41,8],[52,-32],[55,11],[52,-18],[64,-42],[44,-103],[31,-52],[50,-38],[-4,-36],[54,8],[29,-49],[71,-58],[160,-58],[51,-48],[80,-53],[86,-7],[172,-49],[71,2],[191,-38],[112,-7],[5,-42],[63,-3],[60,24],[116,-41],[38,-49],[38,-12],[47,-46],[51,-5],[45,23],[20,-39],[-20,-55],[42,-6],[169,38],[99,-6],[121,-44]],[[18608,76606],[-43,-140],[5,-42],[48,-47],[94,-33],[85,-44],[54,-62],[20,-77],[-7,-80],[-41,-64],[-77,-13],[-70,48],[-57,-3],[-58,-24],[-71,0],[-61,-14],[-10,-51],[50,-45],[92,-6],[25,-45],[-47,-46],[-6,-51],[60,-44],[122,-11],[111,-49],[27,-59],[-6,-75],[-44,-43],[-87,7],[-89,97],[-80,18],[-53,-9],[-36,-40],[-30,-120],[9,-48],[51,-24],[71,29],[46,-1],[47,-35],[14,-52],[-26,-31],[-113,-10],[-24,-13],[-69,-78],[-28,-53],[-15,-65],[16,-42],[106,-74],[-11,-66],[-66,-90],[-19,-53],[-45,-40],[-82,-21],[-62,-44],[-54,-64],[3,-30],[92,-48],[24,-52],[-1,-56],[-47,-59],[-92,-34],[-54,-73],[18,-57],[99,-64],[118,-24],[57,-67],[-8,-90],[-48,-62],[-111,-110],[-42,-81],[-18,-79],[18,-39],[64,-46],[81,13],[65,69],[51,28],[59,3],[104,-36],[75,-40],[56,-62],[60,-35],[54,-52],[-1,-42],[-56,-74],[-50,-14],[-96,-7],[-54,24],[-32,49],[-52,20],[-63,-29],[-41,-93],[38,-26],[89,-9],[205,-132],[82,-62],[16,-40],[-26,-79],[4,-41],[43,-84],[15,-90],[-2,-147],[-19,-95],[-25,-69],[1,-86],[85,-137],[87,-76],[54,-34],[93,-42],[7,-30],[-12,-154],[11,-66],[69,-67],[107,-80],[109,-64],[55,-53],[72,-92],[4,-43],[-55,-88],[-8,-40],[51,-78],[78,-68],[11,-49],[-29,-94],[-35,-73],[-38,-28],[-67,-10],[-8,-58],[30,-23],[3,-93],[50,-86],[-19,-70],[-71,-89],[-9,-43],[12,-72],[37,-69],[-46,-99],[29,-91],[-32,-54],[-52,-46],[-26,-46],[6,-91],[77,-42],[14,-27],[-5,-74],[33,-56],[-10,-59],[-36,-61],[-24,-112],[42,-60],[-18,-168],[23,-91],[0,-55],[-30,-124],[4,-103],[-28,-122],[-102,-1],[-38,-43],[3,-29],[75,-89],[-2,-57],[11,-113],[-26,-64],[-121,-115],[-9,-37],[-50,-45],[33,-28],[5,-38],[-33,-91],[-41,-40],[-14,-112],[35,-68],[-12,-81],[-54,-104],[-50,-80],[-166,-129],[-137,-141],[-13,-41],[17,-67],[-13,-43],[-126,-73],[-58,-96],[-122,-86],[-5,-72],[-32,-75],[-70,-37],[-26,-30],[17,-60],[177,-116],[34,-46],[-13,-76],[-40,-65],[-10,-50],[14,-70],[-33,-41],[-84,-29],[-48,-47],[10,-44],[101,-47],[57,-56],[5,-29],[-31,-96],[7,-92],[49,-75],[95,-33],[5,-46],[-77,-68],[-13,-38],[25,-35],[49,-10],[101,21],[39,-14],[4,-33],[-75,-60],[-5,-41],[46,-31],[85,-21],[98,-90],[33,-67],[8,-73],[-33,-67],[-41,-14],[-84,18],[-44,-23],[16,-79],[105,-130],[88,-57],[7,-17],[-11,-104],[24,-53],[36,-16],[104,-12],[60,-29],[60,-49],[69,-112],[16,-91],[103,-59],[76,-13],[83,78],[51,-6],[9,-109],[-43,-77],[-57,-67],[29,-43],[86,-47],[69,-50],[52,-54],[67,-48],[18,-35]],[[19826,63437],[3,-79],[31,-18],[47,7],[32,30],[93,10],[31,-31],[29,-59],[43,-123],[0,-101],[-33,-85],[36,-99],[-19,-46],[-106,-23],[-53,-58],[-3,-33],[68,-88],[3,-57],[-22,-123],[17,-70],[31,-58],[63,-62],[27,0],[155,-68],[31,-40],[8,-45],[-32,-106],[-11,-95],[21,-60],[68,-124],[48,-60],[80,-64],[21,-29],[128,-102],[44,-56],[26,-84],[40,-39],[103,-57],[32,-43],[-1,-41],[-104,-65],[-28,-53],[25,-112],[-14,-64],[16,-110],[-4,-74],[53,-62],[115,-33],[73,-39],[20,-67],[-49,-41],[8,-63],[50,-27],[95,2],[2,-84],[-87,-43],[-25,-46],[25,-31],[53,-25],[10,-52],[-72,-51],[-15,-69],[42,-52],[16,-85],[42,-31],[52,-105],[-37,-117],[5,-43],[32,-67],[62,-57],[4,-27],[-52,-95],[54,-71],[58,-5],[32,-27],[40,-82],[44,-64],[5,-31],[52,-92],[-8,-54],[-62,-71],[10,-43],[-36,-156],[19,-58],[-1852,119],[-18,-279],[-1118,58],[82,1106],[-1581,94],[-1222,73]],[[15717,59687],[18,1333],[262,-15],[98,1155],[-2129,147],[-1449,101],[38,501],[-215,19],[-110,70],[9,107],[-116,134],[-92,67],[393,526],[-125,66],[414,553],[-690,362],[-1122,-813],[-637,524],[-25,23],[80,19],[63,42],[67,29],[62,47],[95,46],[128,17],[162,68],[210,65],[88,7],[-932,887],[-731,-552],[-1205,-910],[-447,-336],[-1321,1155],[-247,212],[-600,-455],[-199,-146],[-541,530],[-1693,73],[26,307],[-1286,65],[140,2027],[23,486],[42,971],[23,589],[264,1152],[-2500,177]],[[10,71119],[-1,963],[-1,1323],[-1,1323],[0,1178],[-2,1856],[-1,2172],[-1,748],[-1,1323],[0,662],[-1,1324],[0,1323],[-1,763],[99,-80],[135,-69],[112,-82],[12,-50],[101,-31],[52,-29],[66,-64],[99,-158],[196,-112],[24,-25],[-1,-44],[46,2],[104,-92],[138,-106],[62,-59],[137,-66],[153,-86],[101,-38],[44,-33],[-10,-63],[62,14],[79,-51],[101,-52],[164,-72],[105,-39],[201,-61],[149,-36],[293,-58],[59,-18],[153,-118],[92,-44],[98,-29],[52,-6],[88,-45],[102,25],[21,44],[140,-23],[35,15],[130,-5],[55,-13],[210,-81],[147,-68],[147,-104],[98,-36],[56,-1],[59,18],[150,-5],[86,-45],[57,-3],[173,-57],[65,15],[43,29],[195,-19],[191,-3],[85,-21],[29,24],[169,28],[185,9],[82,-13],[16,12],[177,30],[88,7],[175,24],[30,20],[49,-27],[40,-2],[135,-34],[15,-30],[125,-106],[60,-39],[212,-88],[226,-68],[161,-41],[33,-32],[55,-5],[168,-61],[59,-48],[159,-66],[133,-40],[218,-50],[127,-24],[53,-19],[46,-54],[71,-41],[109,-43],[292,-59]],[[6118,73742],[64,-11],[96,-38],[146,20],[174,7],[53,-14],[82,3],[293,-45],[11,-24],[178,-68],[93,-57],[56,-22],[35,-31],[86,-30],[180,-2],[85,-33],[60,-10],[148,11],[111,-13],[109,10],[151,-11],[181,-74],[122,-33],[40,-28],[134,-52],[58,-45],[21,-70],[39,-60],[-3,-84],[-54,-76],[-22,-62],[12,-51],[67,-71],[70,-39],[140,-31],[93,1619],[163,2832],[-693,33],[-880,315],[-140,125],[-242,1],[-1173,51],[-94,-2572],[-34,-675],[-19,-423],[-22,0],[-71,-67],[63,-51],[33,-54]],[[18608,76606],[57,32],[51,-22],[48,2],[26,35],[52,33],[55,0],[46,-29],[19,-43],[102,-79],[2,-56],[-41,-30],[-17,-52],[14,-28],[119,3],[-37,32],[31,54],[28,-5],[310,-123],[164,-48],[179,-40],[48,-23],[78,-14],[161,-76],[30,-52],[-65,-74],[37,-21],[-4,-101],[21,-51],[46,-70],[135,-134],[157,-115],[100,-59],[104,-52],[147,-39],[245,-47],[148,-9],[467,-8],[359,39],[180,44],[133,19],[49,-16],[22,20],[123,27],[98,4],[63,21],[158,26],[57,-5],[45,-47],[154,53],[34,2],[155,38],[79,9],[66,-5],[164,27],[65,-7],[47,17],[186,33],[50,14],[194,8],[215,23],[141,31],[144,21],[149,44],[218,98],[132,64],[83,66],[122,35],[57,35],[26,-37],[82,-24],[60,37],[115,-1],[286,76],[193,59],[199,99],[156,122],[65,28],[64,5],[117,35],[104,4],[59,50],[71,32],[251,128],[143,92],[89,85],[29,-1],[182,167],[18,27],[149,86],[133,61],[88,75],[60,-28],[173,-30],[40,14],[32,37],[40,80],[158,128],[110,52],[0,35],[208,47],[128,47],[98,26],[169,-4],[-11,63],[82,98],[105,88],[23,53],[75,93],[37,58],[78,89],[161,203],[61,11],[-36,58],[46,72],[12,67],[40,103],[3,57],[68,178],[-11,82],[12,91],[25,65],[44,78],[-25,22],[5,60],[30,11],[20,172],[4,84],[35,165],[36,66],[83,107],[-6,117],[75,95],[78,31],[10,18],[-11,92],[81,172],[31,34],[-11,59],[42,212],[22,157],[-15,42],[32,83],[-18,44],[6,70],[-18,119],[-31,54],[4,81],[-30,34],[-17,58],[7,50],[50,178],[67,155],[56,66],[102,165],[103,90],[123,82],[157,122],[167,174],[156,171],[122,151],[110,146],[89,158],[61,186],[-15,116],[45,115],[26,10],[68,-26],[55,9],[17,69],[128,57],[187,129],[150,120],[198,184],[228,234],[164,230],[43,31],[14,37],[125,193],[55,133],[39,245],[43,154],[35,93],[13,102],[27,59],[56,46],[6,34],[58,112],[98,57],[46,-3],[62,-63],[45,68],[3,86],[85,144],[70,129],[36,80],[117,185],[28,97],[7,77],[-22,145],[-58,109],[-93,89],[-31,53],[2,122],[32,82],[54,18],[31,34],[18,97],[52,75],[68,125],[57,77],[28,61],[58,163],[-1,32],[102,279],[4,39],[58,125],[38,169],[24,128],[-27,66],[23,87],[61,111],[128,166],[16,28],[201,266],[15,29],[120,150],[124,190],[97,161],[86,177],[30,118],[-25,100],[-31,71],[-29,21],[-68,102],[-58,120],[-21,25],[-45,145],[-24,111],[-44,110],[-26,116],[-23,52],[3,51],[-26,82],[-131,232],[-8,55],[52,39],[64,27],[24,-7],[50,32],[-12,86],[69,121],[64,142],[36,145],[31,160],[7,104],[36,302],[4,96],[33,392],[18,180],[13,71],[42,153],[52,244],[7,65],[52,148],[109,396],[45,176],[125,409],[50,141],[68,149],[53,56],[70,21],[9,72],[46,35],[29,-3],[29,-55],[50,-7],[-82,-88],[-74,-55],[4,-67],[36,-10],[0,57],[65,41],[28,-15],[20,-65],[-45,-16],[4,-27],[70,-26],[24,22],[67,-29],[33,-37],[66,0],[-1,44],[-62,7],[-4,76],[106,-7],[-10,45],[47,16],[31,-35],[47,-15],[65,15],[27,-19],[-7,-14],[5,-30],[83,7],[-30,-58],[-7,-69],[71,-35],[24,39],[91,40],[53,0],[23,62],[57,-22],[60,9],[54,-41],[8,-37],[55,-56],[136,-9],[91,-37],[20,-31],[113,25],[1657,-123],[1793,-132],[235,1053],[-37,53],[-81,49],[-15,39],[-116,102],[-23,43],[-47,28],[-74,18],[-14,54],[-51,47],[-62,10],[-50,65],[1,63],[38,42],[129,54],[69,133],[54,90],[76,-19],[87,-43],[121,-21],[56,-30],[115,-45],[69,-59],[57,6],[710,1716],[1029,-1432],[491,-687],[3051,-246],[1189,-94],[17,159],[162,1198],[1777,-112],[1377,-86],[-132,-1331],[-584,43],[-131,-1319],[-1144,59],[-101,-1268],[-659,43],[-109,-1355],[-675,-527],[-89,-568],[93,-34],[58,-66],[48,-92],[79,-110],[119,-98],[119,-51],[86,-27],[85,-9],[106,0],[77,-33],[51,-48],[119,-89],[125,-122],[80,-64],[-1,-23],[-447,-556],[-639,371],[-425,-530],[-172,-1124],[-339,-2217],[-245,-2309],[-155,-1463],[-896,-1049],[63,-44],[13,-34],[74,-44],[44,-3],[52,-35],[64,-7],[47,-23],[30,-70],[36,-20],[-7,-37],[53,-35],[5,-26],[72,-68],[121,-53],[11,-32],[68,-28],[121,-106],[32,-15],[48,-75],[69,-11],[24,-33],[136,-14],[58,12],[-410,-466],[-1029,-1170],[-631,628],[-1712,-1330],[96,-50],[93,-24],[131,-17],[116,5],[85,-34],[43,-56],[93,-52],[63,-4],[70,-45],[11,-27],[67,-50],[42,-85],[50,-61],[-1,-40],[-925,-678],[-1247,1201],[-471,-336],[-1184,1278],[-71,-52],[-1092,-782],[532,-547],[-1149,118],[32,333],[-1576,114],[-38,-346],[-1556,133],[-88,-828],[-74,-684],[-253,18],[-41,-625],[622,-29],[-55,-633],[-115,-58],[-88,-53],[-96,-16],[-57,59],[-53,33],[-109,17],[-87,-7],[-128,-31],[-29,10],[3,72],[-23,22],[-97,8],[-95,-11],[-109,102],[-118,-31],[-129,-1477],[1695,-105],[-23,-259],[-754,38],[-11,-120],[-39,-534],[70,23],[53,1],[-52,-484],[-1173,95],[21,214],[-868,71],[-81,-891],[-467,26],[-66,-20],[-43,-88],[-23,-27],[18,-61],[-10,-52],[41,-66],[6,-42],[39,-69],[-10,-34],[19,-36],[-8,-43],[-56,-93],[-9,-83],[78,-61],[29,24],[104,-28],[55,-78],[40,8],[36,-31],[103,-43],[10,-36],[61,-81],[-3,-48],[32,-21],[10,-57],[-13,-71],[45,-66],[80,7],[33,-24],[3,-38],[46,-29],[20,-68],[-5,-41],[23,-42],[-24,-28],[18,-53],[76,-61],[-17,-63],[18,-70],[-26,-44],[33,-19],[27,-73],[-3,-35],[160,-76],[36,-87],[66,-27],[7,-2],[57,-132],[75,-11],[45,-32],[14,-83],[21,-38],[55,-61],[69,-22],[25,-64],[-14,-63],[14,-41],[-33,-58],[90,-50],[31,-33],[87,-12],[19,-28],[-14,-72],[36,-94],[-41,-23],[2,-50],[-51,-25],[5,-44],[-28,-38],[50,-73],[-60,-40],[1,-46],[66,-72],[-17,-61],[-75,-5],[-59,-47],[9,-87],[-20,-35],[26,-38],[-7,-64],[28,-102],[-1,-48],[43,-19],[66,-72],[17,-63],[-37,-23],[-52,-6],[19,-79],[-15,-24],[26,-67],[54,-32],[24,-58],[-5,-64],[12,-30],[-38,-39],[164,-97],[568,-46],[-61,-509],[2007,-177],[665,-61],[720,-55],[-110,-1026],[-137,-1305],[-330,24],[-166,-1342],[-116,10],[11,-71],[33,-27],[-20,-53],[16,-70],[41,-7],[-15,-39],[63,-29],[24,-42],[49,0],[76,-46],[39,9],[44,-23],[149,0],[111,-18],[101,33],[76,-16],[44,10],[64,-31],[79,-101],[50,-19],[67,-57],[140,0],[57,-45],[47,-10],[56,-61],[90,-13],[93,13],[92,1034],[1655,-105],[107,1012],[1916,-136],[25,218],[491,-24],[-178,-1546],[783,-69],[14,123],[1198,-104],[16,227],[485,-36],[-182,-1683],[-91,-810]],[[45297,60033],[-2150,171],[-76,-668],[-1290,112],[22,189],[-1363,104],[34,353],[-1010,27],[-589,592],[-194,-142],[-440,-345],[-23,52],[-15,95],[-99,54],[-14,57],[-123,40],[-57,60],[-143,1],[-66,63],[-10,34],[-315,-221],[-259,19],[-1787,144],[70,635],[-608,33],[-511,125],[-1201,133],[-1008,107],[29,224],[67,119],[15,132],[-1912,114]],[[30271,62446],[-19,85],[8,47],[-99,-6],[-44,43],[-128,-85],[-795,-557],[-1097,1099],[-429,-290],[-376,381],[-1224,73],[-50,-217],[-6,-266],[-1016,56],[-2,5],[-1124,67],[33,385],[-3175,196],[-8,-82],[-894,57]],[[42597,99989],[-13,-58],[20,-33],[-151,-124],[-5,-55],[-127,-70],[-79,-98],[-45,0],[-41,-21],[-68,-77],[-70,-20],[-47,-58],[-47,6],[-92,-17],[-41,5],[-48,-27],[-61,-6],[-67,-49],[-38,-6],[-23,-32],[-121,-24],[-54,14],[-59,57],[-67,-29],[-60,-43],[-70,-20],[-43,-29],[-57,-16],[-52,-33],[-107,-17],[-51,2],[-67,-68],[-63,-7],[-30,32],[-53,7],[-65,-15],[-11,-33],[-136,-5],[-28,12],[-52,-12],[-85,-46],[-37,13],[-56,-22],[-34,-35],[-54,15],[-62,-25],[-88,11],[-36,-12],[-48,7],[-72,-36],[-138,-53],[-48,35],[-73,-18],[-68,-30],[3,-28],[-105,-31],[-89,-15],[-40,48],[-53,7],[-26,-19],[-21,14],[-48,-20],[-43,20],[-61,7],[-50,-47],[-78,25],[6,-62],[-55,-8],[-31,38],[-74,4],[-5,27],[-76,23],[-29,87],[-31,28],[34,23],[-13,29],[-58,-7],[-40,15],[-2,74],[-35,42],[-51,-15],[-8,49],[-39,32],[-41,-2],[-47,-31],[-25,-56],[-122,-14],[-78,86],[-122,94],[-58,19],[-49,57],[-12,44],[21,77],[54,13],[7,-114],[124,-129],[76,-72],[34,-58],[112,3],[20,52],[37,36],[63,12],[101,-64],[42,-39],[36,25],[50,-5],[24,-23],[-14,-49],[-72,12],[-24,-35],[48,-24],[51,37],[56,-27],[-35,-65],[25,-111],[43,2],[39,-26],[69,9],[37,18],[123,-18],[19,43],[71,-7],[28,-36],[55,11],[39,-14],[46,16],[49,-11],[24,-37],[192,42],[-2,29],[145,45],[48,-34],[87,40],[53,11],[66,41],[66,-13],[30,10],[59,-1],[84,14],[49,-11],[19,24],[67,31],[47,-11],[81,45],[58,15],[67,-17],[89,12],[19,35],[51,8],[66,-9],[41,-30],[45,6],[132,139],[85,30],[34,24],[49,-7],[61,14],[55,31],[109,-4],[84,39],[29,-24],[83,-8],[151,87],[48,5],[84,45],[64,20],[62,-28],[39,28],[129,25],[1,50],[228,109],[52,46],[-2,18],[65,70],[4,39],[117,115],[67,89],[25,-10]],[[77965,39485],[70,761],[-897,76],[122,954],[-1102,70],[-20,-125],[-218,19],[-59,-25],[-59,33],[-639,55],[136,112],[159,183],[-8,161],[-104,126],[-179,398],[1,17],[-53,82],[-80,227],[65,313],[-58,34],[-72,-4],[59,342],[75,593],[-364,25],[-35,456],[-378,277],[-85,268],[483,-30],[76,788],[-666,46],[126,1248],[96,950],[-12,32],[67,862],[-952,55],[1,75],[-143,101],[-60,55],[-148,119],[-157,76],[-60,59],[-68,50],[-75,81],[-27,56],[-57,33],[-108,123],[-37,59],[-6,66],[33,60],[-54,85],[-2,55],[-25,56],[-86,61],[-33,-1],[-59,47],[-108,51],[-2,47],[-23,38],[-94,8],[-42,-37],[-60,27],[-46,4],[-24,40],[-91,42],[-56,4],[-92,-35],[-34,49],[-16,97],[-49,8],[-29,25],[-7,42],[65,136],[107,78],[67,1],[-9,46],[-270,19],[34,315],[-915,366],[1,35],[57,107],[34,141],[27,53],[5,81],[-20,90],[-104,132],[5,152],[41,113],[173,169],[-15,85],[-277,330],[-428,363],[22,216],[-19,11],[35,342],[-1158,75],[34,272],[-464,538],[-17,-206],[-297,4],[-122,35],[-218,315],[-696,-4],[-55,-84],[-64,5],[-12,-113],[-160,12],[-35,19],[-73,-16],[-17,-27],[-211,-3],[-45,58],[-5,45],[-79,128],[-84,40],[-2,43],[-91,23],[-55,42],[57,606],[44,428],[141,1316],[30,219],[-2,31],[37,346],[-729,260],[-2,-18],[-244,60],[-117,14],[-117,1],[-154,-24],[-90,49]],[[65060,58460],[109,62],[38,326],[33,303],[437,-38],[72,706],[184,-56],[185,-6],[655,-95],[204,-61],[71,701],[1174,-120],[72,592],[202,-17],[17,135],[36,80],[74,80],[1246,980],[217,-217],[623,408],[-78,27],[-138,9],[-63,-13],[-103,-45],[-208,130],[-611,1193],[-160,106],[-18,84],[98,546],[144,134],[712,457],[-464,482],[652,441],[-9,47],[-30,25],[22,40],[-9,45],[-44,13],[8,60],[-108,101],[-54,-7],[-96,-61],[-51,37],[-74,74],[-77,0],[-24,30],[-49,1],[-60,30],[-13,85],[31,45],[-53,44],[469,377],[-237,208],[-1164,108],[86,527],[168,1322],[16,1023],[656,-59],[53,-84],[11,-35],[135,-235],[112,-10],[29,-12],[63,8],[204,-12],[179,-114],[55,24],[126,3],[91,-27],[63,20],[58,0],[-36,-277],[-73,-73],[-73,-291],[39,-113],[-48,-371],[453,-38],[-23,-187],[474,-44],[-36,36],[-4,54],[23,71],[-7,34],[304,-26],[-44,59],[46,76],[20,66],[-19,43],[35,19],[14,-61],[46,-38],[40,42],[-15,76],[55,33],[32,-25],[23,-101],[31,-80],[47,-13],[10,-45],[-12,-77],[680,-57],[44,-38],[-5,-102],[22,-17],[-9,-51],[34,-33],[-17,-82],[104,-53],[52,9],[77,-9],[40,-55],[62,7],[49,-57],[109,-6],[66,27],[86,58],[42,15],[81,-16],[59,-61],[1,-44],[-28,-36],[48,-15],[54,18],[-3,65],[85,115],[84,68],[7,65],[23,32],[126,127],[9,36],[49,51],[53,6],[17,144],[-107,9],[-18,50],[62,80],[79,-6],[-38,70],[3,212],[-24,24],[33,139],[-59,57],[-56,16],[-82,76],[-25,77],[-5,74],[25,24],[-24,44],[-121,-27],[-66,28],[-48,5],[-43,45],[-16,65],[23,19],[-29,41],[22,87],[32,-5],[27,42],[84,-60],[77,0],[33,110],[80,52],[287,-26],[8,16],[752,-66],[-82,-658],[274,-24],[-75,-87],[233,-142],[-51,-81],[625,-652],[271,-314],[68,47],[1081,-104],[69,1043],[1268,-138],[957,-104],[-21,74],[-65,86],[73,23],[134,22],[45,38],[-33,75],[72,-35],[17,41]],[[80084,68657],[35,-80],[38,-3],[-5,-43],[358,-230],[-200,-211],[126,-82],[196,213],[236,-274],[12,-45],[-39,-73],[33,-71],[47,-24],[8,-27],[59,-31],[7,-23],[78,-41],[4,-83],[106,-143],[-121,-56],[-234,116],[9,65],[-155,14],[-35,-267],[101,-9],[39,-40],[-2,-55],[109,-10],[-149,-1185],[-62,-15],[1,-36],[-38,-53],[38,-32],[36,-4],[36,-55],[-12,-71],[-91,-3],[-23,-188],[4,-40],[-81,-25],[-62,2],[-20,-98],[38,-32],[67,1],[61,-47],[30,-41],[35,-11],[-10,-105],[192,-13],[47,20],[63,-24],[40,-41],[38,13],[45,-72],[3,-49],[101,-26],[55,-41],[33,31],[99,24],[-11,-121],[731,-64],[25,204],[36,9],[65,-36],[89,-15],[37,-22],[-9,-38],[69,-72],[118,16],[143,-46],[88,45],[87,-66],[-7,-77],[-18,-54],[-35,-38],[88,-24],[57,-78],[75,-39],[40,23],[16,54],[49,-33],[95,-42],[44,25],[62,-3],[26,49],[65,17],[15,38],[78,-23],[40,-53],[42,-10],[41,-60],[66,-25],[45,22],[19,-26],[87,-57],[83,-22],[29,33],[72,40],[53,14],[146,1],[25,-29],[74,-6],[42,40],[59,-54],[75,-37],[0,-24]],[[84524,64264],[-96,-5],[-113,-43],[-24,-87],[30,-77],[282,-493],[79,-4],[21,35],[39,-12],[54,23],[63,-19],[-3,-35],[178,4],[4,30],[97,-6],[52,-23],[78,5],[-1,-57],[94,-45],[-69,-52],[30,-43],[-32,-43],[-45,-21],[18,-36],[93,20],[55,-11],[171,-10],[70,-56],[40,-79],[115,-70],[98,-31],[-16,-33],[79,-79],[26,-59],[36,-45],[9,-67],[-27,-52],[83,-35],[60,-105],[80,7],[41,57],[33,-5],[30,-43],[47,27],[61,-7],[23,24],[193,-26],[50,-50],[28,-82],[55,-49],[12,-45],[77,-41],[10,-54],[-41,-8],[-79,-68],[84,-63],[21,-49],[-1,-92],[78,-12],[11,-42],[63,-10],[43,-24],[39,-113],[44,-22],[-4,-90],[-60,-46],[-70,-34],[-45,-5],[-27,-66],[57,-62],[-45,-44],[-7,-40],[117,-83],[19,-51],[56,-17],[59,-37],[-50,-43],[-114,-32],[-57,-78],[97,-20],[33,43],[47,8],[31,-18],[-8,-41],[14,-54],[119,4],[71,-37],[-1,-60],[21,-24],[49,-4],[45,-41],[48,-12],[-111,-80],[-47,-17],[4,-55],[97,-23],[34,-32],[45,-6],[1,-65],[-27,-51],[61,-31],[1,-40],[50,-97],[109,-7],[44,-33],[44,36],[136,-40],[27,-83],[79,-12],[36,-31],[10,-89],[51,16],[34,-21],[35,79],[66,-13],[41,-44],[10,-51],[41,-6],[21,-44],[72,-40],[56,48],[-30,22],[-3,45],[77,23],[14,-47],[-21,-31],[42,-53],[-46,-8],[-4,-61],[41,-65],[19,-82],[-60,-45],[20,-46],[126,-97],[23,-36],[31,-103],[-11,-232],[12,-35],[56,-48],[-51,-39],[-72,4],[-78,-82],[-49,-16],[-35,-53],[29,-40],[-36,-51],[-33,-14],[-16,-41],[-30,0],[-67,-47],[-26,-44],[4,-127],[63,-23],[-22,-50],[-73,-49],[53,-83],[-24,-27],[26,-43],[51,-17],[73,-111],[6,-31],[-26,-69],[32,-64],[-31,-127],[13,-45],[44,-15],[-37,-83],[-38,-48],[-2,-35],[57,-67],[-20,-29],[-100,-16],[-64,-33],[914,-96],[976,-103],[769,-67],[476,-47],[-39,-83],[-52,-140],[-8,-115],[53,0],[115,23],[156,-34],[54,-26],[69,-15],[85,-40],[103,3],[113,-34],[160,-103],[96,-1]],[[96735,50965],[-28,-150],[-27,-79],[-37,-45],[-83,-35],[-113,-24],[-117,-45],[-83,-53],[-28,-29],[-35,-83],[-41,-148],[12,-67],[96,-156],[1,-60],[-19,-38],[-111,-89],[-38,-62],[-17,-107],[-34,-69],[-4,-77],[-52,-44],[-77,-6],[-31,-17],[-63,-66],[-68,-53],[-103,-105],[-70,3],[-69,24],[-57,45],[-82,-2],[-51,-95],[-138,-60],[-26,-49],[-79,-44],[-21,16],[-55,-39],[-8,-110],[-72,-52],[-66,-99],[-16,-72],[-37,-56],[-35,-23],[-78,-1],[-160,98],[-92,31],[-129,17],[-62,-9],[-89,-48],[-111,-92],[-61,-10],[-75,40],[-73,151],[-42,47],[-42,13],[-63,-13],[-39,-30],[-57,-5],[-66,15],[-57,28],[-66,49],[-21,38],[-12,66],[-49,26],[-48,5],[-100,-30],[-271,-94],[-34,-36],[-7,-52],[13,-49],[64,-132],[65,-83],[-2,-60],[-29,-40],[-72,-39],[-113,-22],[-37,-76],[-4,-39],[38,-124],[11,-111],[-8,-62],[-27,-72],[-2,-83],[-20,-32],[-167,-93],[-51,-18],[-120,-11],[-73,-19],[-35,-38],[-16,-120],[-19,-55],[-39,-54],[-89,-33],[-135,-9],[-124,-90],[-50,-5],[-56,44],[-45,4],[-56,-64],[-41,-71],[13,-87],[47,-89],[3,-55],[46,-97],[-18,-115],[-50,-71],[2,-31],[99,-135],[-39,-82],[9,-65],[-92,-90],[-7,-65],[30,-68],[74,-108],[25,-73],[10,-79],[66,-129],[32,-78],[0,-79],[30,-57],[45,-43],[-14,-74],[-136,-137],[-55,-40],[-36,-54],[-5,-88],[33,-64],[-21,-101],[1,-47],[-77,-76],[19,-46],[-7,-64],[-28,-91],[-34,-58],[45,-66],[65,-61],[23,-36],[1,-132],[9,-40],[97,-120],[21,-96],[88,-80],[-4,-28],[-147,-92],[-22,-43],[12,-52],[71,-89],[122,-128],[54,-37],[58,-19],[109,-3],[82,-24],[120,-48],[56,-57],[183,-11],[76,-66],[36,-48],[-8,-95],[60,-112],[6,-35],[-30,-146],[-68,-66],[-103,-23],[-129,-98],[-58,-58],[-111,-34],[-72,-85],[-17,-55],[-37,-40],[-11,-47],[-96,-62],[-130,-45],[-41,-80],[35,-21],[-68,-85],[-3,-96],[71,-164],[93,-96],[49,-28],[26,-91],[67,-14],[50,-44],[21,-116],[-29,-49],[-16,-61],[-36,-30],[-205,-169],[-73,-71],[-51,-82],[-57,-53],[-3,-30],[28,-51],[14,-62],[-41,-43],[-55,-21],[-48,-69],[-75,-68],[2,-51],[-23,-64],[-122,-115],[-4,-54],[37,-48],[-60,-186],[24,-82],[-10,-34],[25,-46],[-20,-82],[24,-37],[-26,-59],[-21,-6],[-816,67],[-1044,286],[-15,69],[-39,10],[95,119],[-1701,143],[-22,-180],[29,-19],[-27,-285],[-19,-247],[-11,-26],[-36,-277],[-385,113],[-509,44],[-583,847],[59,474],[-2029,165],[-188,-127],[-402,37],[-85,-805],[-9,-107],[-82,-946],[-74,-862],[595,-41],[-168,-737],[161,-4],[235,-18],[659,-36],[-19,-129],[-87,-784],[-8,-61],[-810,58],[-529,35],[-54,-265],[-283,29],[-90,-736],[-250,30],[-1308,147],[3,41],[-399,43],[-750,83],[5,173],[-1577,96],[104,1024],[1008,-126],[106,100],[-508,104],[112,367],[119,-10],[211,544],[-858,176],[180,714],[110,-2],[21,223],[27,242],[-1505,90]],[[16120,46377],[1760,-44],[75,1151],[64,-2],[67,1028],[571,-36],[19,353],[630,-12],[343,-16],[67,48],[13,32],[51,1],[21,25],[5,71],[-14,38],[31,63],[-39,99],[15,26],[-65,71],[-52,4],[-6,51],[-44,17],[-47,48],[6,31],[-57,29],[44,163],[-34,66],[-51,60],[-100,58],[-16,46],[9,108],[-23,66],[-36,19],[56,50],[-8,59],[66,16],[76,139],[-11,42],[-4,150],[12,21],[-28,48],[-5,45],[96,-22],[151,-10],[41,-97],[30,-50],[39,3],[65,-24],[26,-35],[122,-8],[35,20],[53,-13],[36,-38],[54,-15],[-1,-53],[47,-24],[89,-110],[73,-109],[99,-71],[90,-48],[21,-36],[73,-63],[39,-17],[6,-36],[96,-32],[151,-41],[69,25],[-19,43],[-68,62],[-60,134],[-22,15],[25,186],[7,181],[18,139],[2,88],[15,52],[-104,140],[-401,148],[-265,28],[-53,55],[0,47],[41,49],[67,32],[-13,77],[-102,102],[32,95],[-37,47],[40,38],[-16,156],[32,77],[-40,84],[8,76],[32,-5],[24,58],[33,-8],[49,97],[46,-17],[77,14],[-14,58],[64,14],[22,52],[50,45],[-51,73],[-9,46],[28,62],[-15,50],[60,30],[7,30],[-111,92],[-23,91],[-128,30],[-93,5],[-117,-30],[-120,9],[-424,-134],[-204,-15],[-80,-41],[-98,34],[-136,-3],[-282,23],[-86,12],[-670,-113],[-21,64],[-1,144],[91,105],[-9,62],[-106,71],[13,33],[502,-33],[50,621],[30,404],[28,410],[4,21],[25,501],[109,-3],[15,806],[6,703],[-108,9],[8,95],[-700,28],[-28,-495],[-643,63],[-1548,160],[192,899],[-649,48],[40,617],[80,1229],[47,727],[291,-17]],[[30271,62446],[100,-37],[93,-71],[31,-37],[7,-69],[-47,-48],[-1,-79],[40,-4],[7,-51],[30,-18],[60,0],[33,-57],[-26,-39],[39,-69],[106,-49],[-9,-60],[82,-32],[20,-100],[75,-69],[29,-53],[32,-28],[13,-49],[-9,-45],[80,-56],[-11,-32],[-90,-11],[-87,-25],[-31,-26],[-14,-55],[-38,-62],[13,-58],[58,-52],[-1,-51],[54,-64],[8,-36],[-15,-65],[-37,-36],[15,-38],[-52,-26],[34,-47],[2,-46],[56,12],[8,-31],[-32,-47],[-7,-38],[68,-108],[17,-95],[54,-87],[24,2],[52,-75],[38,-24],[-52,-53],[4,-96],[75,-61],[20,-67],[80,-40],[13,-67],[65,29],[39,-3],[5,-44],[-73,-51],[-26,-31],[27,-50],[-5,-36],[22,-46],[-42,-19],[19,-59],[68,-72],[13,-79],[70,-42],[31,-42],[-333,-292],[50,-163],[-5,-76],[38,-39],[-711,-228],[-44,-528],[-807,46],[-55,-47],[-1139,109],[38,-61],[-75,-19],[38,-75],[-15,-38],[26,-67],[-34,-53],[-52,1],[-27,-38],[850,-382],[-37,-443],[4,-17],[703,-41],[-50,-619],[-70,-877],[246,-14],[8,-20],[-1198,-832],[848,-906],[123,53],[137,39],[96,17],[13,-15],[991,-1009],[-838,-574],[-69,-52],[-8,-62],[336,-13],[884,-84],[60,17],[506,-54],[-175,-183],[-55,-106],[-24,-104],[26,-19],[-3,-81],[-47,-10],[-37,-32],[-98,-27],[-20,-16],[-102,-20],[-101,-43],[-20,-23],[-43,-389],[109,-494],[143,-262],[22,-280],[433,-426],[-46,-500],[-1147,127],[-68,-33],[-10,-82],[-36,-30],[43,-95],[-42,-85],[-26,-88],[29,-59],[1,-47],[-52,-81],[25,-116],[-24,-104],[18,-64],[-6,-67],[-28,-66],[-56,-59],[-44,-18],[-104,-19],[-46,-44],[-11,-70],[-98,-141],[-22,-92],[-91,-125],[-20,-65],[-56,-53],[-76,-10],[-39,-50],[-111,3],[-94,-55],[-36,-63],[-122,-76],[6,-68],[-92,-71],[-53,-74],[-58,-40],[0,-60],[23,-29],[2,-78],[16,-44],[41,-47],[-8,-45],[-90,-55],[55,-137],[99,-141],[48,-44],[-6,-90],[-73,-40],[-56,-13],[-19,-119],[-30,-16],[-24,-91],[462,-26],[-83,-975],[-319,19],[-11,-132],[-291,-759],[33,-234],[760,-44],[-67,-889],[-174,10],[-30,-339],[-505,42],[-76,-592],[255,-66],[77,10],[106,-10],[73,-98],[101,-192],[58,-193],[89,-134],[81,-96],[119,-188],[119,-72],[21,-32],[76,-67],[85,-62],[40,-43],[71,-110],[87,-112],[58,-111],[53,-76],[12,-86],[63,-130],[-89,5],[-295,-668],[-12,-139],[58,-166],[-32,-381],[-346,-351],[-257,17],[-47,-540],[214,-13],[-1,-16],[-255,-377],[-16,-189],[597,-34],[-33,-274],[-275,-731],[278,21],[38,-10],[282,-20],[71,8],[27,-14],[318,-24],[89,997],[45,451],[722,-78],[-7,-239],[2552,-100]],[[34286,36924],[-201,-349],[-19,-54],[-40,-45],[-4,-192],[69,-127],[-23,-21],[29,-56],[-12,-115],[36,-82],[6,-71],[-990,61],[-164,-1768]],[[29318,25725],[1187,-1101],[320,-309],[278,-253],[305,-281],[24,-3],[139,83],[1116,766],[892,-861],[206,-172],[367,-339],[37,-52],[59,-38],[734,-692],[74,10],[87,-32],[-45,-31],[699,-650],[778,-771],[753,-73],[782,-73],[10,133],[1535,-8],[1645,-132],[14,127],[172,-14],[1440,-63],[-23,-156],[-81,-646],[-141,-1098],[-99,-773],[-117,-916],[-494,-348],[-299,-312],[-1082,1004],[-1173,-887],[421,-365],[878,-761],[345,-294],[-441,-295],[82,-85],[-688,-460],[1107,-1063],[-36,-26],[-24,-48],[-91,-55],[-78,-20],[-126,-19],[-59,8],[-67,-38],[-88,-31],[-75,-39],[-72,-60],[-86,-19],[-148,-17],[-58,-37],[-54,-82],[-76,-55],[-24,-57],[-39,-26],[-118,-56],[-36,-37],[-104,-48],[-72,-77],[-114,-65],[-151,-15],[-27,-19],[-59,10],[-158,-28],[-34,-42],[-72,-33],[-176,20],[-120,-23],[-35,-29],[-235,53],[-1916,431],[2,39],[-54,15],[-910,857],[-564,5],[-150,-1330],[-1263,-874],[37,356],[-1634,108],[-1271,5],[-1271,43],[-21,-234],[480,-33],[-113,-1337],[-633,40],[-61,-977],[-28,-347],[792,-58],[-91,-860],[-135,-1266],[-1472,113],[-140,34],[-154,-1533],[-87,-802],[1004,-70],[521,-461],[93,148],[47,95],[-18,31],[76,61],[159,44],[79,66],[75,26],[7,25],[58,26],[314,-519],[-150,-1404],[267,-15],[-19,-310],[174,-13],[-126,-1110],[-165,-1442],[-1566,0],[-831,0],[-1664,-1],[-831,0],[-1696,0],[-1630,0],[-1663,0],[-1663,0],[-1663,0],[-1018,-1],[-1290,0],[-1017,0],[-1062,0],[-1432,0],[-1662,-1],[-1662,0],[-1662,0],[-1662,0],[-1662,-1],[-1661,0],[-1105,0],[-1,1322],[-1,1322],[0,1323],[0,661],[0,1321],[0,1322],[0,661],[0,1322],[0,1322],[0,1322],[-1,1322],[0,1321],[0,1323],[0,1322],[0,1322],[0,661],[-1,1308],[-1,1337],[0,720]],[[9108,83003],[64,-14],[52,-41],[126,-12],[96,35],[24,20],[196,-56],[112,-16],[53,-29],[37,17],[145,-15],[196,-13],[19,-23],[95,-22],[62,-57],[46,42],[61,-17],[163,-93],[58,-24],[76,-17],[7,-56],[-36,-22],[-40,-60],[23,-18],[8,-66],[46,-93],[70,-76],[250,-151],[96,-165],[138,-144],[36,1],[133,-58]],[[77965,39485],[-38,-396],[-974,89],[-171,-1403],[-496,52],[-1121,109],[-80,316],[-913,80],[-21,-172],[214,-149],[-43,-280],[119,-184],[1,-55],[-62,-78],[-8,-42],[-31,-11],[15,-54],[-12,-29],[31,-27],[-344,29],[2,17],[-804,68],[-10,-76],[107,-97],[-23,-295],[-1302,112],[-60,-549],[-77,-623],[-1470,125],[-47,-483],[-449,38],[-6,-5],[-63,-485],[6,-3],[-73,-576],[-168,88],[-65,-16],[-540,54],[-286,22],[-862,51],[-186,15],[-368,23],[13,187],[-1075,74],[52,398],[108,137],[41,332],[-1538,126],[16,139],[-69,321],[-859,71],[30,315],[28,375],[-17,4],[-754,63],[3,41],[-199,26],[-248,10],[-114,-4],[-193,33],[60,586],[-1142,75],[-49,19],[-1524,81],[-3,-27],[-753,78],[-808,73],[119,840],[71,582],[-405,32],[-825,68],[-831,66],[-18,-15],[-933,78],[-3,17],[-288,24],[-7,26],[27,290],[82,641],[104,853],[101,825],[-1271,99]],[[54216,42644],[138,1140],[66,-5],[46,387],[386,-30],[3,15],[145,1066],[130,954],[136,939],[998,-74],[12,133],[75,192],[35,50],[12,89],[530,-45],[308,426],[70,574],[52,503],[-75,60],[-581,41],[28,33],[17,105],[35,49],[120,73],[55,60],[-20,58],[43,70],[64,42],[44,82],[99,64],[63,17],[156,90],[89,13],[65,33],[128,97],[93,88],[74,28],[51,-6],[65,-26],[78,9],[71,33],[29,55],[79,54],[120,31],[97,16],[55,-5],[35,-33],[107,-25],[94,42],[67,6],[221,-26],[48,15],[32,37],[51,21],[55,47],[92,52],[109,101],[117,30],[59,56],[-2,68],[26,40],[96,-6],[39,9],[26,45],[-27,50],[34,31],[64,-27],[54,29],[-1,38],[-30,50],[-757,748],[831,561],[-518,520],[-302,-211],[-881,741],[-297,22],[130,1090],[329,-26],[126,1221],[58,558],[239,2148]],[[58824,58244],[341,106],[196,-42],[185,-58],[245,-86],[220,-107],[284,-117],[283,-60],[457,29],[301,28],[134,32],[97,48],[85,22],[121,-9],[95,-22],[120,11],[126,-4],[37,8],[107,58],[152,155],[164,130],[98,119],[66,-3],[117,-34],[176,-33],[151,-13],[94,32],[46,40],[72,-1],[157,57],[80,-1],[102,-17],[159,-81],[25,-109],[55,-54],[72,-27],[104,-22],[99,-36],[59,-58],[147,-79],[52,26],[76,67],[95,131],[73,78],[70,24],[118,64],[64,-1],[59,25]],[[86144,64328],[-36,-7],[-54,21],[-63,2],[-25,-19],[4,-45],[-97,-33],[-44,29],[-35,-18],[12,-71],[-30,-37],[-5,-40],[-68,31],[-47,-30],[-117,19],[-32,-14],[-44,64],[-116,22],[-259,105],[-111,73],[-15,29],[-86,-34],[-35,-38],[29,-33],[-38,-35],[-8,-60],[-40,-15],[-53,29],[-93,21],[-58,-9],[-56,29]],[[80084,68657],[18,25],[48,-4],[29,46],[82,64],[-4,67],[34,15],[23,50],[-51,87],[7,57],[138,-12],[-99,57],[-22,67],[51,17],[69,-50],[69,4],[71,43],[55,-74],[47,-9],[30,20],[-17,33],[2,69],[135,36],[-21,48],[19,24],[47,-2],[83,-78],[-11,-75],[-24,-25],[29,-48],[71,-35],[75,44],[62,-37],[91,14],[94,-9],[91,31],[56,-2],[26,23],[43,-29],[21,-39],[71,26],[48,43],[72,27],[109,82],[1,24],[81,66],[25,-2],[107,78],[42,-7],[144,56],[150,-274],[127,-14],[65,5],[33,-16],[87,30],[93,2],[81,22],[18,21],[103,-5],[62,-22],[105,34],[101,-78],[29,37],[35,-22],[223,-76],[112,23],[78,-98],[80,-33],[-24,-52],[4,-49],[34,-58],[-84,-68],[-22,-70],[25,-31],[76,-1],[33,-19],[31,-88],[70,-85],[1,-50],[44,-18],[36,-41],[-55,-45],[-13,-53],[18,-55],[48,-60],[169,-42],[95,-42],[89,-15],[94,12],[102,-35],[49,-31],[10,-46],[30,-24],[78,37],[-3,43],[48,22],[42,-6],[78,49],[36,75],[142,129],[59,41],[120,-26],[100,-1],[111,-18],[143,-74],[96,-36],[102,-15],[79,-65],[63,-25],[51,-35],[66,24],[42,-30],[46,18],[95,-47],[-17,-66],[93,-192],[5,-47],[-57,-34],[26,-133],[-33,-87],[-18,-138],[15,-41],[-13,-48],[-156,-246],[-31,-20],[-3,-39],[53,-9],[73,53],[31,61],[27,100],[27,-10],[-27,-98],[-165,-251],[-15,-39],[-82,-140],[-102,-208],[-98,-273],[-36,-123],[-14,-104],[-24,-17],[-8,-104],[-65,-247],[-29,-216],[1,-166],[6,-109],[-10,-31],[36,-99],[35,-5],[20,-50],[-2,-52],[72,-114],[46,-25],[35,-59],[63,-38],[80,-88],[52,-14],[66,-99]],[[89628,65757],[-91,-39],[-50,-7],[-26,2],[-17,10],[-44,49],[-12,4],[-18,17],[-8,24],[-51,28],[-78,11],[-64,-36],[-67,59]],[[89102,65879],[50,-40],[87,19],[102,-17],[34,-38],[2,-16],[15,-13],[16,-4],[19,-25],[36,-31],[59,5],[2,0],[104,38]],[[89800,65823],[-14,8],[-5,7],[2,6],[-57,-18],[-20,-27],[-11,-11],[-66,-31]],[[89629,65757],[59,31],[31,35],[13,8],[9,1],[30,11],[18,5],[-6,-7],[3,-9],[14,-9]],[[89363,66050],[54,-81],[36,-21],[50,1],[79,23],[99,11],[76,35],[16,20],[96,31],[53,-33]],[[89922,66036],[-48,29],[-80,-21],[-39,-32],[-68,-29],[-101,-12],[-51,-17],[-61,-9],[-30,2],[-11,6],[-40,38],[-30,59]],[[89309,66207],[53,-50],[7,-25],[-1,-55]],[[89368,66077],[-2,20],[1,0],[-5,53],[-41,45],[-1,0],[-11,12]],[[89282,66246],[16,-16]],[[89298,66230],[-14,13],[-1,1],[-1,2]],[[88958,66542],[-24,-33],[5,-38],[39,-45],[66,-15],[75,-35],[63,-17]],[[89182,66359],[-72,18],[-1,0],[-64,32],[-68,16],[-38,40],[-13,35],[32,42]],[[88790,66473],[0,22],[-60,57]],[[88730,66552],[44,-36],[20,-25],[-4,-18]],[[88848,66253],[40,45],[-31,20],[-25,56]],[[88832,66374],[60,-76],[-44,-45]],[[88771,66116],[0,30],[6,33],[43,50]],[[88820,66229],[-14,-30],[-30,-26],[-5,-57]],[[88693,65941],[15,-3],[28,13],[22,2],[1,22]],[[88759,65975],[9,-12],[-24,-25],[-17,-10],[-34,13]],[[88672,65865],[19,33],[-31,37]],[[88660,65935],[34,-39],[-22,-31]],[[88755,65791],[-70,33],[-13,33]],[[88672,65857],[23,-37],[60,-29]],[[89051,65851],[-103,30],[-80,-6],[-23,-35],[-53,-27],[18,-36]],[[88810,65777],[-24,31],[80,69],[71,11],[114,-37]],[[88370,66773],[-10,15],[35,33],[32,22],[37,-2],[25,-17]],[[88489,66824],[-44,18],[-36,-14],[-37,-30],[-2,-25]],[[88499,66658],[-75,106],[-32,12]],[[88392,66776],[33,-6],[74,-112]],[[88547,66517],[-48,56],[3,80]],[[88502,66653],[3,-82],[30,-14],[12,-40]],[[88665,66675],[-54,-51],[-37,-97]],[[88574,66527],[33,100],[58,48]],[[88408,65161],[54,-10],[8,1],[17,-10],[0,-10],[6,-13],[0,-14],[2,-2],[1,-4],[0,-3],[-13,-43],[-21,7]],[[88462,65060],[16,-5],[8,27],[5,12],[5,4],[-1,3],[-6,6],[-10,27],[2,10],[-12,6],[-61,11]],[[88331,65690],[51,-6],[87,-85],[-47,3]],[[88422,65602],[-44,82],[-47,6]],[[88158,66552],[-62,88],[-7,82],[-72,45],[23,10]],[[88040,66777],[-1,-23],[1,0],[66,-39],[-8,-72],[60,-91]],[[88058,66437],[99,113]],[[88157,66550],[-75,-112],[-24,-1]],[[88186,66274],[-82,56],[-38,44],[-16,34],[6,29]],[[88056,66437],[10,-55],[38,-47],[42,-19],[40,-42]],[[87899,67317],[2,47],[-39,23],[-51,-10],[-40,101],[49,53],[-26,65],[11,18],[83,-48],[50,-82],[2,-90],[68,-69],[-9,-56],[-30,-27],[0,-37],[61,-61],[18,-66],[-34,-15],[20,-100],[-35,-85],[10,-51],[-50,-60],[-110,-38],[11,54],[-10,44],[39,52],[17,47],[48,43],[14,43],[-21,37],[-38,21],[-111,116],[56,10],[22,28],[-21,77],[44,16]],[[87943,67655],[-29,2],[-70,42],[14,67],[-15,44],[34,71],[63,-1],[61,-56],[18,-102],[-43,-51],[-33,-16]],[[45297,60033],[217,-17],[14,126],[1701,-107],[451,-27],[-130,-1305],[180,-11],[-76,-658]],[[47654,58034],[-2348,184],[-126,-1143],[-142,-1217],[311,-23],[-108,-1035],[-83,-793],[-72,-688],[-72,-667],[-115,-1082],[463,-33],[-103,-960],[32,-2],[-125,-1172],[-149,-28],[-29,3],[-21,-132],[-14,-133],[40,-3],[-61,-591],[-45,4],[-257,-451],[554,-47],[-88,-697],[-247,22],[-104,-838],[-197,17],[-65,-622],[-38,-385],[-919,67],[-42,-212],[400,-30],[-54,-512],[-9,3],[-95,-886],[340,-21],[-56,-605],[-954,13],[-1034,166],[-108,-70],[935,-903],[-762,-514],[287,-24],[-118,-963],[-435,-288],[366,-30],[-16,-158]],[[42171,40555],[-12,-205],[-16,-378],[-48,4],[-2,-37],[48,-18],[-17,-393],[-14,-402],[-91,-520],[-94,-555],[-1128,78],[-2057,145],[-15,-144],[-1652,117],[35,329],[-770,55],[-257,-1775],[-1795,68]],[[19243,84830],[-17,50],[-41,68],[31,15],[81,-1],[88,33],[-4,75],[17,28],[46,10],[23,-38],[105,-37],[-80,-29],[-44,-54],[-79,-9],[-74,-39],[-15,-40],[-37,-32]],[[18946,84584],[57,46],[73,-7],[-56,-37],[-74,-2]],[[18747,86463],[-48,58],[17,21],[54,-31],[-23,-48]],[[17952,86423],[-42,68],[-67,27],[-67,-15],[-44,20],[-36,44],[-46,90],[57,14],[55,63],[7,77],[52,65],[95,-12],[38,-38],[-17,-51],[14,-96],[47,-51],[-16,-70],[7,-51],[-13,-83],[-24,-1]],[[13362,84291],[-58,20],[-71,-10],[-62,18],[-40,55],[-138,8],[-79,-13],[-109,-51],[-36,-6],[-29,45],[-1,39],[-31,76],[-55,47],[-89,22],[15,70],[70,58],[-15,26],[-89,-50],[-27,-100],[-54,-5],[-41,123],[13,88],[-1,65],[-40,72],[-33,22],[-145,-10],[-27,14],[-70,-14],[-41,17],[-39,72],[-4,85],[-43,90],[-43,42],[34,45],[62,54],[25,58],[-14,67],[83,62],[69,38],[93,78],[167,97],[101,76],[67,100],[5,37],[-41,51],[80,98],[-29,33],[127,62],[71,47],[43,47],[21,92],[-21,33],[73,28],[73,45],[85,23],[157,86],[121,58],[79,94],[40,33],[78,33],[64,1],[101,-36],[79,-8],[150,32],[87,41],[41,-54],[106,-43],[20,38],[-121,35],[-16,13],[44,56],[170,10],[74,-4],[142,38],[229,17],[77,-20],[154,-5],[117,6],[113,25],[76,32],[2,28],[82,31],[31,45],[134,54],[201,61],[93,35],[85,42],[29,46],[-11,50],[56,14],[52,55],[92,-42],[134,-30],[209,-17],[152,-29],[123,-155],[89,-48],[90,-64],[101,-111],[88,-44],[101,-13],[115,7],[60,-20],[29,-46],[-26,-59],[21,-47],[60,20],[43,-7],[27,-78],[51,-18],[36,-81],[-30,-74],[8,-138],[-19,-36],[34,-27],[84,-33],[4,-53],[21,-37],[-71,-23],[-44,6],[-70,-14],[-67,6],[-8,77],[-50,55],[-85,14],[-113,0],[-57,-14],[-64,-50],[-83,-10],[-43,-53],[-50,8],[-63,-19],[-44,-37],[-113,-39],[-102,-59],[-79,-58],[-29,33],[7,47],[-49,39],[2,88],[-93,36],[-10,64],[-28,48],[51,50],[-5,47],[-36,43],[-117,41],[-75,34],[-2,50],[44,25],[-18,32],[-101,-24],[-92,-35],[-10,-49],[-41,-84],[-58,-35],[-19,-31],[34,-30],[-23,-46],[-31,13],[-154,-3],[-43,41],[-92,-33],[-69,-74],[-109,-1],[-62,29],[-63,-53],[-5,-47],[30,-7],[77,-72],[34,-50],[78,-15],[77,9],[59,18],[88,-1],[16,-16],[14,-92],[-27,-45],[-66,-66],[-1,-78],[-59,10],[-15,41],[-40,35],[4,68],[-123,40],[-100,-11],[-79,-39],[-87,-74],[-37,-106],[101,-12],[59,-27],[-19,-129],[-18,-61],[60,-76],[-18,-50],[-50,-74],[-53,-16],[-52,16],[-82,-1],[-123,-32],[41,-39],[19,-49],[53,-37],[35,-56],[-13,-46],[-4,-92],[-84,-26],[-21,-23],[-48,15],[-132,6],[-52,-11],[-14,25],[27,39],[-17,51],[-83,123],[-82,70],[-61,13],[-95,108],[-66,24],[90,69],[-61,15],[-74,59],[-71,23],[-31,-11],[7,-43],[100,-67],[4,-33],[-56,-4],[29,-68],[2,-138],[9,-39],[87,-78],[-34,-62],[-92,-70],[-36,-64],[40,-100],[-43,20],[-84,78],[-104,22],[-10,-26],[54,-48],[-6,-50],[-46,-43],[-136,-94],[-40,-40],[-39,-5],[-129,-192],[-56,48],[-62,0],[-156,-91]],[[16751,80608],[-56,23],[-47,-11],[-59,83],[-2,74],[-28,79],[115,14],[86,51],[7,52],[-20,57],[56,55],[29,55],[31,26],[8,47],[-19,56],[21,45],[78,-30],[61,-82],[-51,-59],[-11,-47],[-43,-37],[-96,-156],[-60,-83],[-18,-82],[14,-21],[4,-109]],[[14761,80736],[-80,3],[-31,28],[-4,62],[-54,62],[-47,23],[2,55],[-55,84],[-15,78],[109,-20],[89,7],[106,42],[109,116],[127,56],[55,38],[28,47],[10,107],[24,77],[71,5],[95,-16],[22,29],[78,19],[71,59],[41,53],[-7,42],[20,66],[-25,45],[22,62],[-27,88],[105,-38],[66,-110],[115,-116],[52,-30],[120,-93],[66,-73],[54,-32],[74,-15],[-62,-78],[11,-89],[52,-122],[54,-64],[92,-64],[46,-87],[-75,-4],[-78,-23],[-78,-42],[-57,8],[-146,-13],[-143,-45],[-44,-69],[-40,-18],[-25,-52],[-46,26],[-130,26],[-117,-27],[-33,40],[-16,53],[23,64],[-28,64],[-139,-19],[-105,-21],[-47,-18],[-191,-34],[-19,-72],[-42,-55],[-3,-75]],[[16081,80703],[-3,42],[68,77],[33,-25],[-45,-37],[-28,-59],[-25,2]],[[14932,84644],[52,79],[6,46],[42,19],[48,50],[107,34],[28,23],[58,-11],[42,-57],[6,-36],[-41,-26],[-62,-95],[-14,-60],[-55,-23],[-61,-46],[-80,10],[-46,25],[3,48],[-33,20]],[[14367,81219],[-11,-23],[-149,26],[-21,31],[89,-4],[92,-30]],[[13151,81896],[-44,-5],[15,51],[-4,52],[59,-16],[64,-33],[-46,-63],[-44,14]],[[13223,88477],[-9,49],[55,0],[-46,-49]],[[12993,81380],[2,43],[-34,43],[-91,1],[-36,-15],[-70,43],[-49,94],[-53,3],[-44,-22],[-2,55],[-20,53],[-50,53],[-23,51],[19,46],[52,-4],[60,-71],[68,-33],[43,-53],[132,-71],[35,-64],[79,-76],[120,-74],[-138,-2]],[[11841,84156],[37,61],[43,99],[-8,50],[-28,71],[-37,34],[-2,68],[42,58],[15,69],[60,66],[201,134],[64,-7],[68,-21],[41,-40],[-27,-123],[-37,-49],[-3,-30],[41,-102],[11,-59],[-82,-82],[-70,-3],[-61,-35],[-49,-51],[-9,-34],[19,-67],[-82,10],[-59,-9],[-70,-46],[-18,38]],[[11379,83312],[-34,95],[-8,46],[44,77],[3,50],[42,4],[278,92],[47,31],[38,-23],[36,-85],[84,-45],[33,-42],[-47,-52],[-103,6],[-38,18],[-93,-31],[-28,15],[-45,-51],[-22,4],[-93,-33],[-58,-56],[-36,-20]],[[11842,84052],[30,45],[45,-57],[-75,12]],[[11058,82807],[-61,17],[-6,25],[-53,43],[58,31],[20,-30],[91,-45],[34,-78],[-21,-17],[-62,54]],[[11011,83012],[-15,52],[55,47],[33,-59],[-73,-40]],[[25,43707],[-1,1249],[-1,1323],[0,1414],[-1,1232],[-1,1323],[-1,1323],[-1,1323],[-1,1324],[0,1323],[-1,1324],[-1,1324],[-1,1323],[-1,1324],[-1,662],[1,753],[2,878],[-1,1015],[-1,1323],[0,661],[-1,1048],[-3,3943]],[[89102,65879],[-4,0],[-36,-16],[-2,-6],[-3,-2],[-6,-4]],[[88810,65777],[9,-18],[0,-1],[0,0],[-63,32],[-1,1]],[[88672,65857],[0,0],[0,7],[0,1]],[[88660,65935],[-1,0],[-4,12],[0,1],[0,0],[1,1],[4,4],[6,-2],[13,-6],[9,-2],[3,-1],[2,-1]],[[88759,65975],[0,1],[-10,22],[-1,0],[-5,42],[2,1],[12,17],[0,2],[2,6],[3,16],[3,2],[0,0],[0,0],[1,3],[0,1],[0,3],[0,12],[0,1],[2,7],[1,0],[0,4],[2,1]],[[88820,66229],[1,0],[26,24],[1,0]],[[88832,66374],[0,0],[-29,46],[-4,7],[-9,45],[0,1]],[[88730,66552],[0,0],[-8,8],[-8,7],[-4,11],[3,15],[0,1],[1,4],[0,2],[0,2],[3,10],[16,10],[24,-3],[4,-3],[24,-45],[19,-11],[33,-14],[3,0],[10,1],[9,0],[25,-1],[4,0],[12,7],[2,1],[3,1],[56,7],[0,-1],[1,-1],[4,-2],[-3,-13],[-5,-3]],[[89182,66359],[-1,-3],[0,0],[0,-1],[19,-13],[1,0],[2,-2],[2,-1],[7,-13],[4,-12],[21,-31],[2,-3],[42,-34],[1,0]],[[89298,66230],[4,-10],[0,-1],[3,-5],[3,-6],[1,-1]],[[89368,66077],[-2,-2],[-3,-12],[0,-6],[0,-2],[0,-5]],[[89922,66036],[0,-26],[1,-14],[-1,-25],[0,-2],[-2,-5],[-3,-7],[-8,-10],[44,-37],[0,-7],[18,-2],[1,0],[-4,-10],[0,-3],[0,-4],[4,-7],[1,-1],[4,-6],[-3,-5],[2,-6],[-11,-15],[-1,0],[-13,1],[-2,0],[-4,1],[-1,0],[-33,41],[-3,-6],[0,-2],[-1,-1],[-36,-19],[-4,-9],[-3,-7],[-1,-2],[1,-8],[1,-1],[0,-2],[0,0],[-1,-3],[-1,-1],[-14,-10],[-2,0],[-2,-1],[-1,-1],[-38,-1],[0,1],[-1,6],[-5,3]],[[89629,65757],[-1,0]],[[88574,66527],[0,-1],[-27,-9],[0,0]],[[88502,66653],[-3,5]],[[88392,66776],[-22,-3]],[[88489,66824],[2,-2],[1,-1],[25,-16],[6,-3],[10,-8],[26,-16],[1,0],[1,-2],[3,-2],[6,-6],[4,-4],[9,-10],[4,-3],[3,-4],[0,0],[0,0],[5,-6],[0,0],[10,-10],[34,-43],[26,-13]],[[88462,65060],[-12,6],[-44,29],[-2,0],[-20,9],[-1,1],[-15,9],[-9,6],[-14,14],[0,1],[-37,30],[-8,6],[40,31],[2,0],[3,0],[16,-5],[2,-1],[16,-12],[9,-8],[13,-11],[0,0],[7,-4]],[[88422,65602],[-12,3],[-5,-1],[-3,0],[0,0],[-5,3],[-1,2],[-1,1],[-2,3],[-2,4],[0,1],[-1,3],[-4,8],[-17,22],[-1,1],[-2,2],[-35,35],[0,1]],[[88056,66437],[2,0]],[[88157,66550],[1,2]],[[88040,66777],[0,0],[3,-4],[6,-7],[1,0],[1,-1],[2,-1],[1,-1],[8,-4],[6,-2],[53,11],[0,1],[37,3],[6,-2],[28,-18],[46,-72],[2,-5],[2,-6],[0,0],[2,-8],[1,-3],[0,-12],[-5,-18],[0,-1],[-6,-29],[6,-24],[-8,-13],[0,-1],[-1,0],[0,0],[0,0],[-3,-3],[-11,-48],[3,-8],[3,-21],[0,-48],[0,-5],[-5,-28],[1,-18],[1,-1],[0,-1],[0,-2],[0,-3],[-18,-31],[1,-1],[0,-1],[2,-4],[0,-1],[1,-1],[1,-9],[0,-1],[-21,-51],[0,0]],[[88490,65765],[-7,13],[10,-3],[17,1],[5,0],[8,-36],[-6,3],[-3,1],[-24,21]],[[88305,65769],[36,-9],[9,-13],[1,-3],[1,0],[0,0],[0,-3],[-2,-1],[-4,0],[-1,0],[-8,2],[-24,17],[-1,0],[0,1],[-1,0],[-2,2],[-4,7]],[[88135,65771],[32,34],[1,-1],[31,-40],[-3,-7],[-1,-2],[-15,-22],[0,0],[-46,33],[1,5]],[[47654,58034],[-16,-140],[1996,-149],[1871,-137],[574,-39],[1733,-130],[539,-40],[72,73],[50,-6],[42,-38],[46,-69],[51,-20],[108,63],[32,48],[11,132],[91,122],[77,154],[50,56],[68,44],[163,67],[38,40],[55,101],[43,17],[54,-6],[169,-76],[53,-10],[106,11],[116,144],[5,96],[-8,88],[41,12],[51,46],[106,53],[40,-25],[134,36],[42,-19],[101,-7],[37,66],[66,26],[45,84],[39,16],[46,45],[244,83],[119,59],[83,76],[38,97],[-21,126],[-35,69],[63,36],[99,37],[126,37],[145,-43],[163,-82],[149,-103],[36,-42],[76,-52],[103,-132],[50,-78],[124,-244],[17,-26],[286,-217],[77,-33],[242,-88],[49,1]],[[54216,42644],[-2,-17],[-501,40],[-1065,-727],[-504,-345],[-298,-201],[-5,-47],[-52,-34],[-38,15],[-467,-346],[-111,109],[-831,-576],[-261,256],[-222,221],[-621,-430],[-635,-436],[253,-247],[-692,-480],[53,521],[-947,70],[-21,-6],[-698,49],[-45,-420],[-1165,51],[-476,21],[12,147],[18,118],[-1109,99],[38,413],[-708,70],[-945,23]],[[86144,64328],[69,-93],[19,-92],[42,-68],[83,-29],[103,-4],[92,-65],[42,-104],[61,-107],[72,-67],[167,-8],[54,-71],[39,-12],[64,-101],[64,-56],[30,-58],[66,-64],[112,-153],[107,-119],[88,-63],[133,4],[36,-17],[93,-94],[95,-66],[104,-37],[48,11],[126,-27],[87,-54],[43,-50],[108,-45],[50,-48],[36,-62],[69,-83],[79,-51],[100,-22],[139,4],[113,-29],[197,-136],[126,-66],[108,-29],[131,-22],[19,-20],[113,-62],[152,-53],[98,-23],[106,13],[42,-12],[122,47],[53,7],[51,54],[38,-12],[86,23],[145,-7],[116,-35],[40,6],[81,-40],[21,-191],[41,-129],[55,-90],[50,-54],[72,-32],[34,37],[49,4],[110,-102],[49,-24],[34,30],[105,-14],[30,44],[39,-14],[63,-74],[-117,-121],[74,-35],[55,-6],[74,-54],[85,-98],[24,1],[70,-67],[126,-64],[128,-12],[103,17],[29,20],[137,0],[57,33],[46,-2],[99,25],[72,-10],[54,-36],[33,-5],[28,70],[55,41],[119,46],[40,70],[78,78],[40,69],[127,168],[-32,42],[40,46],[20,49],[90,48],[56,48],[13,75],[-47,37],[14,47],[-15,62],[-34,21],[18,31],[43,-25],[13,-48],[191,-129],[26,-132],[20,-28],[-22,-38],[24,-76],[53,-19],[34,-66],[61,-62],[-22,-72],[26,-99],[-20,-33],[-61,35],[-59,-17],[-17,-45],[-9,-79],[-37,-54],[10,-25],[68,-15],[77,-185],[125,-219],[107,-114],[92,-79],[152,-115],[73,-44],[57,-55],[-37,-43],[-2,-42],[96,-128]],[[91739,62645],[-25,46],[33,47],[41,-38],[-5,-29],[46,-20],[100,11],[-34,-42],[-7,-42],[44,-59],[-76,-17],[-21,-48],[-3,-106],[-44,-15],[-97,-67],[-44,-67],[-52,21],[-58,-146],[-85,-49],[-56,29],[-87,73],[-82,29],[-113,53],[-46,86],[-36,24],[-39,95],[-20,20],[-84,23],[-36,45],[42,59],[41,6],[27,59],[57,14],[68,-9],[42,-30],[26,13],[74,-6],[117,31],[26,60],[58,20],[44,-32],[17,-48],[60,-29],[107,-8],[52,14],[28,29]],[[89004,63356],[-6,43],[35,9],[59,-15],[49,22],[80,-14],[-47,-59],[-90,17],[-40,-20],[-40,17]],[[89348,63473],[31,-23],[-19,-72],[-44,29],[33,27],[-1,39]]],"transform":{"scale":[0.00009668796687966881,0.00010987989879898798],"translate":[137.99465,-25.99685]},"objects":{"qld_northern_ldmg_boundaries_gda2020_simp200m":{"type":"GeometryCollection","geometries":[{"arcs":[[0,1,2,3,4]],"type":"Polygon","properties":{"LGA Code":"900","Abbreviated Name":"Boulia","LGA Name":"Boulia Shire","Area Sq Km":60946.43985,"LDMG Name":"Boulia","Police Region Name":"Northern Region","Police Region Code":"NR","Police Region Short Name":"Northern"}},{"arcs":[[5,6,7]],"type":"Polygon","properties":{"LGA Code":"1900","Abbreviated Name":"Burdekin","LGA Name":"Burdekin Shire","Area Sq Km":15646.50249,"LDMG Name":"Burdekin","Police Region Name":"Northern Region","Police Region Code":"NR","Police Region Short Name":"Northern"}},{"arcs":[[8,9,10,11,12,13],[14]],"type":"Polygon","properties":{"LGA Code":"1950","Abbreviated Name":"Burke","LGA Name":"Burke Shire","Area Sq Km":40167.14113,"LDMG Name":"Burke","Police Region Name":"Northern Region","Police Region Code":"NR","Police Region Short Name":"Northern"}},{"arcs":[[[-11,15,16,17]],[[18]]],"type":"MultiPolygon","properties":{"LGA Code":"2250","Abbreviated Name":"Carpentaria","LGA Name":"Carpentaria Shire","Area Sq Km":64182.80075,"LDMG Name":"Carpentaria","Police Region Name":"Northern Region","Police Region Code":"NR","Police Region Short Name":"Northern"}},{"arcs":[[19,20,21,22,-6,23]],"type":"Polygon","properties":{"LGA Code":"2310","Abbreviated Name":"Charters Towers","LGA Name":"Charters Towers Regional","Area Sq Km":68329.4967,"LDMG Name":"Charters Towers","Police Region Name":"Northern Region","Police Region Code":"NR","Police Region Short Name":"Northern"}},{"arcs":[[-3,24,-12,-18,25,26]],"type":"Polygon","properties":{"LGA Code":"2450","Abbreviated Name":"Cloncurry","LGA Name":"Cloncurry Shire","Area Sq Km":48000.46473,"LDMG Name":"Cloncurry","Police Region Name":"Northern Region","Police Region Code":"NR","Police Region Short Name":"Northern"}},{"arcs":[[-5,27]],"type":"Polygon","properties":{"LGA Code":"2750","Abbreviated Name":"Diamantina","LGA Name":"Diamantina Shire","Area Sq Km":94665.36485,"LDMG Name":"Diamantina","Police Region Name":"Northern Region","Police Region Code":"NR","Police Region Short Name":"Northern"}},{"arcs":[[[-9,28]],[[-15]]],"type":"MultiPolygon","properties":{"LGA Code":"2770","Abbreviated Name":"Doomadgee Aboriginal","LGA Name":"Doomadgee Aboriginal Shire","Area Sq Km":1803.36842,"LDMG Name":"Doomadgee","Police Region Name":"Northern Region","Police Region Code":"NR","Police Region Short Name":"Northern"}},{"arcs":[[29,30,31,-20]],"type":"Polygon","properties":{"LGA Code":"3200","Abbreviated Name":"Flinders","LGA Name":"Flinders Shire","Area Sq Km":41226.82747,"LDMG Name":"Flinders","Police Region Name":"Northern Region","Police Region Code":"NR","Police Region Short Name":"Northern"}},{"arcs":[[[32,-22,33]],[[34,35]],[[36,37]],[[38,39]],[[40,41]],[[42,43]],[[44,45]],[[46,47]],[[48,49]],[[50,51]],[[52,53]],[[54,55]],[[56,57]],[[58,59]],[[60,61]],[[62,63]],[[64,65]],[[66,67]],[[68,69]],[[70,71]],[[72,73]],[[74,75]],[[76,77]],[[78]],[[79]]],"type":"MultiPolygon","properties":{"LGA Code":"3800","Abbreviated Name":"Hinchinbrook","LGA Name":"Hinchinbrook Shire","Area Sq Km":11385.08266,"LDMG Name":"Hinchinbrook","Police Region Name":"Northern Region","Police Region Code":"NR","Police Region Short Name":"Northern"}},{"arcs":[[-17,80,81,82,-26]],"type":"Polygon","properties":{"LGA Code":"4800","Abbreviated Name":"McKinlay","LGA Name":"McKinlay Shire","Area Sq Km":40732.91399,"LDMG Name":"McKinlay","Police Region Name":"Northern Region","Police Region Code":"NR","Police Region Short Name":"Northern"}},{"arcs":[[[83]],[[84]],[[85]],[[86]],[[87]],[[88]],[[89]],[[90]],[[91]],[[92]],[[93]],[[94]],[[95]],[[96]],[[97]],[[98]],[[99]],[[100]]],"type":"MultiPolygon","properties":{"LGA Code":"5250","Abbreviated Name":"Mornington","LGA Name":"Mornington Shire","Area Sq Km":1212.20294,"LDMG Name":"Mornington","Police Region Name":"Northern Region","Police Region Code":"NR","Police Region Short Name":"Northern"}},{"arcs":[[-2,101,-13,-25]],"type":"Polygon","properties":{"LGA Code":"5300","Abbreviated Name":"Mount Isa","LGA Name":"Mount Isa City","Area Sq Km":43209.77211,"LDMG Name":"Mount Isa","Police Region Name":"Northern Region","Police Region Code":"NR","Police Region Short Name":"Northern"}},{"arcs":[[[-36,102,-60,103,-58,104,-56,105,-54,106,-52,107,-50,108,-48,109,-46,110,-44,111,-42,112,-40,113,-38,114]],[[-68,115,-66,116,-64,117,-62,118]],[[-70,119]],[[-72,120]],[[-78,121,-76,122,-74,123]],[[124]],[[125]],[[126]]],"type":"MultiPolygon","properties":{"LGA Code":"5790","Abbreviated Name":"Palm Island Aboriginal","LGA Name":"Palm Island Aboriginal Shire","Area Sq Km":69.29859,"LDMG Name":"Palm Island","Police Region Name":"Northern Region","Police Region Code":"NR","Police Region Short Name":"Northern"}},{"arcs":[[127,-31,128,-82]],"type":"Polygon","properties":{"LGA Code":"6300","Abbreviated Name":"Richmond","LGA Name":"Richmond Shire","Area Sq Km":26584.37452,"LDMG Name":"Richmond","Police Region Name":"Northern Region","Police Region Code":"NR","Police Region Short Name":"Northern"}},{"arcs":[[[-23,-33,129,-7]],[[130]],[[131]],[[132]]],"type":"MultiPolygon","properties":{"LGA Code":"7010","Abbreviated Name":"Townsville","LGA Name":"Townsville City","Area Sq Km":12107.9537,"LDMG Name":"Townsville","Police Region Name":"Northern Region","Police Region Code":"NR","Police Region Short Name":"Northern"}}]}}}