{"type":"FeatureCollection","name":"qld_brisbane_ldmg_boundaries_gda2020_simp20","crs":{"type":"name","properties":{"name":"urn:ogc:def:crs:EPSG::7844"}},"features":[{"type":"Feature","geometry":{"type":"MultiPolygon","coordinates":[[[[153.41919,-27.3554],[153.42017,-27.35642],[153.42469,-27.35869],[153.42635,-27.3601],[153.42602,-27.36271],[153.4296,-27.36185],[153.43036,-27.35161],[153.432,-27.34748],[153.43501,-27.34174],[153.43882,-27.33702],[153.43785,-27.33492],[153.43782,-27.32889],[153.43988,-27.32877],[153.43458,-27.32219],[153.43251,-27.31894],[153.4248,-27.30089],[153.42268,-27.29295],[153.42004,-27.28033],[153.41908,-27.27431],[153.41866,-27.26873],[153.4174,-27.26103],[153.41735,-27.24904],[153.41693,-27.23584],[153.41713,-27.22764],[153.41814,-27.21639],[153.42004,-27.19944],[153.42227,-27.18582],[153.42385,-27.17506],[153.42842,-27.15379],[153.43145,-27.14255],[153.43427,-27.1305],[153.43699,-27.12177],[153.44366,-27.09809],[153.44595,-27.09029],[153.45737,-27.05581],[153.46259,-27.0424],[153.46455,-27.03859],[153.4661,-27.03791],[153.46823,-27.02862],[153.46231,-27.02821],[153.45725,-27.02437],[153.45546,-27.02437],[153.45469,-27.02186],[153.45257,-27.02472],[153.44201,-27.03105],[153.43482,-27.0335],[153.43056,-27.03442],[153.42,-27.03432],[153.40978,-27.03636],[153.4084,-27.03603],[153.40292,-27.03679],[153.39693,-27.03911],[153.3869,-27.04355],[153.38148,-27.04539],[153.37547,-27.04892],[153.37337,-27.0529],[153.36482,-27.06003],[153.36295,-27.06432],[153.36405,-27.06754],[153.36692,-27.07339],[153.36821,-27.07996],[153.36884,-27.08498],[153.36987,-27.08913],[153.37034,-27.10256],[153.36966,-27.1102],[153.36903,-27.11339],[153.36607,-27.12377],[153.3624,-27.13333],[153.36194,-27.13561],[153.36268,-27.13908],[153.36638,-27.14811],[153.36763,-27.15316],[153.36869,-27.15531],[153.37017,-27.16076],[153.36969,-27.16281],[153.37131,-27.16531],[153.37238,-27.16924],[153.37327,-27.17521],[153.37231,-27.18065],[153.36904,-27.18732],[153.36706,-27.19208],[153.3652,-27.19887],[153.36612,-27.20255],[153.37195,-27.21226],[153.37416,-27.21683],[153.37622,-27.2238],[153.37683,-27.22708],[153.37704,-27.23319],[153.3776,-27.23658],[153.3838,-27.25027],[153.39037,-27.26187],[153.39317,-27.26546],[153.39636,-27.2707],[153.39869,-27.27545],[153.40282,-27.28584],[153.40554,-27.2951],[153.40496,-27.29994],[153.41497,-27.31825],[153.41597,-27.32091],[153.42197,-27.33125],[153.42311,-27.33433],[153.42398,-27.33955],[153.42253,-27.34439],[153.41935,-27.3495],[153.41845,-27.35328],[153.41919,-27.3554]]],[[[153.24905,-27.34962],[153.25422,-27.35013],[153.25618,-27.34947],[153.26024,-27.34513],[153.26338,-27.33576],[153.26488,-27.3334],[153.25933,-27.33041],[153.25917,-27.32921],[153.25572,-27.32811],[153.25498,-27.32913],[153.25033,-27.32599],[153.2488,-27.32371],[153.24658,-27.32409],[153.24499,-27.32639],[153.24156,-27.32798],[153.23996,-27.33127],[153.23754,-27.33439],[153.2358,-27.33482],[153.23654,-27.33826],[153.23592,-27.34132],[153.23749,-27.3446],[153.23958,-27.34504],[153.24396,-27.3474],[153.24546,-27.34965],[153.24905,-27.34962]]],[[[153.23691,-27.37298],[153.23514,-27.37282],[153.23351,-27.3742],[153.22973,-27.37945],[153.22781,-27.38132],[153.22679,-27.38481],[153.22798,-27.38756],[153.22413,-27.39011],[153.22435,-27.39359],[153.23108,-27.39747],[153.23581,-27.40126],[153.23903,-27.40021],[153.24106,-27.39803],[153.2426,-27.39412],[153.24305,-27.38953],[153.2417,-27.38602],[153.24127,-27.38025],[153.24063,-27.37851],[153.23737,-27.37685],[153.23691,-27.37298]]],[[[153.23663,-27.43647],[153.2385,-27.43793],[153.24087,-27.4373],[153.24101,-27.43184],[153.2416,-27.42619],[153.24089,-27.42354],[153.24173,-27.42027],[153.23896,-27.41787],[153.23616,-27.41848],[153.23231,-27.41775],[153.22937,-27.41886],[153.22601,-27.41829],[153.22551,-27.42079],[153.23174,-27.42765],[153.23291,-27.43012],[153.23305,-27.43277],[153.23663,-27.43647]]],[[[153.17572,-27.6066],[153.17878,-27.60497],[153.17607,-27.60165],[153.17156,-27.59944],[153.17417,-27.59548],[153.17185,-27.59108],[153.17456,-27.58946],[153.17508,-27.58811],[153.17763,-27.5867],[153.17708,-27.584],[153.17908,-27.58071],[153.17764,-27.57855],[153.18256,-27.57365],[153.17979,-27.57016],[153.18053,-27.56703],[153.18197,-27.56439],[153.18192,-27.56231],[153.18679,-27.56047],[153.19133,-27.56088],[153.19169,-27.55838],[153.19007,-27.55667],[153.18954,-27.55269],[153.18872,-27.55171],[153.18286,-27.55024],[153.18331,-27.54454],[153.18198,-27.54113],[153.18019,-27.54122],[153.17769,-27.54291],[153.17426,-27.54218],[153.17349,-27.53895],[153.17195,-27.53658],[153.17236,-27.53503],[153.17558,-27.53343],[153.18007,-27.52987],[153.18441,-27.52936],[153.18579,-27.52749],[153.18404,-27.52294],[153.18445,-27.52157],[153.18833,-27.51819],[153.19346,-27.51804],[153.19345,-27.51588],[153.19665,-27.51648],[153.20086,-27.51452],[153.2015,-27.5128],[153.19888,-27.51206],[153.1975,-27.5101],[153.19475,-27.51133],[153.19485,-27.509],[153.1911,-27.50861],[153.19138,-27.50689],[153.18805,-27.5038],[153.18745,-27.50098],[153.18579,-27.49822],[153.18798,-27.49504],[153.18944,-27.49429],[153.19214,-27.49533],[153.1918,-27.49229],[153.18746,-27.49089],[153.18663,-27.48675],[153.18812,-27.48404],[153.19144,-27.48278],[153.19653,-27.48155],[153.19758,-27.48012],[153.19713,-27.47412],[153.19793,-27.47119],[153.19982,-27.46871],[153.20344,-27.46803],[153.20989,-27.46684],[153.21007,-27.46497],[153.20536,-27.466],[153.20149,-27.46205],[153.19874,-27.46041],[153.19993,-27.45696],[153.19709,-27.45518],[153.19511,-27.4512],[153.19256,-27.45213],[153.19329,-27.45755],[153.19038,-27.46006],[153.18701,-27.4573],[153.18667,-27.45478],[153.18854,-27.45417],[153.18933,-27.45241],[153.19124,-27.45148],[153.19254,-27.44867],[153.19709,-27.44662],[153.19722,-27.44363],[153.19402,-27.44477],[153.18644,-27.44487],[153.18157,-27.44228],[153.17922,-27.43899],[153.17854,-27.4364],[153.17668,-27.43382],[153.18175,-27.43294],[153.18259,-27.42814],[153.18065,-27.42215],[153.18482,-27.42587],[153.19361,-27.42256],[153.19606,-27.42272],[153.19185,-27.41784],[153.1914,-27.41634],[153.18864,-27.41311],[153.18937,-27.41091],[153.1884,-27.40828],[153.18316,-27.40078],[153.18131,-27.39994],[153.1772,-27.39975],[153.17611,-27.39847],[153.16857,-27.39928],[153.16663,-27.40011],[153.16579,-27.39802],[153.16721,-27.39653],[153.16769,-27.39386],[153.17054,-27.39458],[153.17294,-27.39619],[153.1798,-27.39841],[153.18386,-27.40013],[153.18771,-27.40376],[153.19045,-27.40771],[153.19236,-27.41189],[153.19318,-27.41501],[153.19525,-27.4166],[153.19695,-27.41623],[153.19882,-27.41241],[153.19633,-27.40507],[153.19692,-27.40242],[153.19643,-27.39831],[153.19389,-27.39517],[153.19257,-27.38989],[153.19733,-27.38608],[153.1957,-27.3847],[153.19256,-27.3849],[153.19447,-27.38211],[153.19432,-27.37969],[153.19244,-27.3778],[153.19075,-27.37404],[153.18827,-27.37281],[153.20219,-27.35288],[153.18885,-27.34545],[153.17386,-27.3669],[153.155,-27.36308],[153.15405,-27.36027],[153.15117,-27.35646],[153.14572,-27.35216],[153.14274,-27.35137],[153.13902,-27.35168],[153.13406,-27.35306],[153.12822,-27.35318],[153.12596,-27.35056],[153.12299,-27.3508],[153.1161,-27.34752],[153.11273,-27.34649],[153.11052,-27.34413],[153.0962,-27.33512],[153.09186,-27.33172],[153.08928,-27.33024],[153.0893,-27.3273],[153.08699,-27.32371],[153.08448,-27.32167],[153.08236,-27.32093],[153.07679,-27.31737],[153.07401,-27.31377],[153.07083,-27.30727],[153.06991,-27.30338],[153.06906,-27.29559],[153.06937,-27.29262],[153.06882,-27.28762],[153.06681,-27.28149],[153.05844,-27.28002],[153.05138,-27.27936],[153.04959,-27.27866],[153.04486,-27.27878],[153.04081,-27.27952],[153.03746,-27.28183],[153.03584,-27.28401],[153.03509,-27.28666],[153.03658,-27.29294],[153.03622,-27.29563],[153.03472,-27.2979],[153.03094,-27.29837],[153.02748,-27.29676],[153.02299,-27.29308],[153.01918,-27.29143],[153.01581,-27.28749],[153.0146,-27.28849],[153.0135,-27.29353],[153.01168,-27.29697],[153.00862,-27.29836],[153.0106,-27.30017],[153.00968,-27.302],[153.00717,-27.30115],[152.99944,-27.3017],[152.99699,-27.30254],[152.99728,-27.30608],[152.99672,-27.30919],[152.9986,-27.31249],[153.00042,-27.31205],[153.00261,-27.31664],[153.00249,-27.31954],[153.00088,-27.32],[153.00023,-27.32289],[152.9974,-27.32388],[152.9967,-27.32619],[152.99475,-27.32857],[152.99506,-27.32985],[152.9941,-27.33395],[152.99282,-27.33547],[152.98904,-27.33609],[152.98314,-27.34005],[152.98131,-27.34241],[152.98052,-27.34854],[152.98239,-27.35157],[152.98255,-27.35319],[152.98524,-27.35278],[152.98743,-27.35474],[152.98852,-27.35766],[152.98775,-27.35951],[152.98167,-27.35862],[152.98069,-27.36408],[152.98371,-27.36453],[152.98308,-27.36811],[152.98056,-27.36776],[152.98004,-27.37075],[152.98036,-27.37517],[152.98147,-27.38053],[152.98316,-27.38213],[152.9839,-27.38469],[152.98061,-27.38814],[152.97675,-27.38977],[152.97529,-27.39202],[152.97809,-27.39458],[152.97693,-27.40066],[152.97439,-27.40074],[152.97166,-27.39819],[152.97068,-27.39846],[152.96586,-27.39685],[152.96217,-27.39794],[152.95921,-27.40013],[152.95895,-27.40279],[152.95753,-27.40391],[152.95259,-27.40586],[152.95207,-27.40767],[152.94898,-27.40874],[152.94781,-27.40652],[152.94457,-27.40599],[152.93595,-27.39984],[152.93436,-27.39974],[152.93201,-27.39711],[152.93067,-27.39714],[152.92791,-27.39406],[152.9252,-27.39332],[152.92273,-27.3944],[152.92118,-27.39384],[152.91695,-27.39417],[152.91505,-27.4057],[152.89932,-27.40355],[152.89723,-27.41727],[152.8769,-27.41435],[152.87453,-27.41136],[152.8648,-27.41784],[152.86312,-27.41765],[152.86245,-27.42122],[152.86115,-27.42236],[152.8583,-27.42097],[152.85303,-27.42059],[152.85174,-27.4219],[152.84932,-27.42194],[152.84725,-27.41957],[152.84278,-27.41765],[152.8368,-27.41884],[152.83116,-27.41694],[152.8276,-27.41465],[152.8257,-27.41227],[152.82086,-27.41069],[152.81538,-27.40525],[152.81416,-27.4021],[152.80272,-27.39992],[152.8016,-27.3988],[152.79933,-27.40164],[152.79866,-27.40509],[152.77562,-27.40167],[152.77475,-27.40093],[152.77478,-27.39313],[152.77573,-27.38923],[152.77238,-27.38302],[152.77291,-27.37904],[152.76959,-27.37885],[152.76232,-27.37174],[152.76195,-27.36983],[152.76264,-27.3669],[152.76001,-27.36388],[152.76152,-27.36182],[152.76262,-27.35825],[152.76207,-27.35621],[152.7629,-27.3546],[152.76564,-27.35294],[152.76668,-27.35137],[152.76906,-27.35116],[152.77204,-27.34987],[152.77102,-27.34795],[152.77201,-27.34597],[152.77189,-27.34318],[152.77002,-27.34116],[152.7676,-27.33497],[152.7645,-27.33549],[152.76233,-27.33395],[152.75949,-27.33026],[152.75563,-27.32831],[152.75468,-27.33313],[152.74885,-27.33229],[152.75052,-27.3204],[152.74851,-27.31874],[152.74486,-27.319],[152.74239,-27.32152],[152.73917,-27.32333],[152.73117,-27.32321],[152.73011,-27.32412],[152.72688,-27.32345],[152.72491,-27.32221],[152.71956,-27.32345],[152.71907,-27.32774],[152.7173,-27.33061],[152.7102,-27.33254],[152.7071,-27.3344],[152.70311,-27.33815],[152.69864,-27.34055],[152.69567,-27.34284],[152.69351,-27.34241],[152.69084,-27.34356],[152.68872,-27.34676],[152.68606,-27.34907],[152.68419,-27.34878],[152.6797,-27.37225],[152.68641,-27.3732],[152.68705,-27.36964],[152.69051,-27.37011],[152.69226,-27.36],[152.69953,-27.36098],[152.70034,-27.35613],[152.70693,-27.35698],[152.70782,-27.35179],[152.7239,-27.35396],[152.72202,-27.36507],[152.73324,-27.36662],[152.73219,-27.37265],[152.73685,-27.37333],[152.73295,-27.39598],[152.73444,-27.39575],[152.73725,-27.39292],[152.74177,-27.39311],[152.74337,-27.39471],[152.74237,-27.39808],[152.74038,-27.40019],[152.74137,-27.40616],[152.74723,-27.40707],[152.74583,-27.41522],[152.74813,-27.41552],[152.74754,-27.41792],[152.74809,-27.42089],[152.74753,-27.42325],[152.74287,-27.42541],[152.74095,-27.4274],[152.7442,-27.42784],[152.74273,-27.43637],[152.74605,-27.43685],[152.74541,-27.44057],[152.74741,-27.44085],[152.74721,-27.44301],[152.74413,-27.46012],[152.73827,-27.45931],[152.73785,-27.46463],[152.73926,-27.46728],[152.73833,-27.469],[152.73924,-27.47088],[152.74138,-27.47177],[152.74061,-27.47574],[152.74337,-27.47616],[152.74264,-27.47981],[152.74033,-27.47948],[152.73973,-27.48261],[152.7406,-27.48655],[152.73933,-27.48759],[152.73801,-27.49459],[152.73412,-27.49447],[152.73017,-27.49561],[152.73052,-27.49721],[152.73458,-27.49993],[152.73967,-27.50531],[152.74019,-27.50751],[152.744,-27.51388],[152.74868,-27.51676],[152.75158,-27.51765],[152.75913,-27.51723],[152.7622,-27.51885],[152.76302,-27.52119],[152.76235,-27.52404],[152.76011,-27.5251],[152.7557,-27.52339],[152.75289,-27.52351],[152.74979,-27.52491],[152.74798,-27.52722],[152.74551,-27.5341],[152.74352,-27.54353],[152.74224,-27.54811],[152.74147,-27.55452],[152.74034,-27.55892],[152.74026,-27.56416],[152.74321,-27.56713],[152.74666,-27.56709],[152.74912,-27.56534],[152.75096,-27.56756],[152.75382,-27.56831],[152.75871,-27.56339],[152.76093,-27.56233],[152.76258,-27.55994],[152.76736,-27.55599],[152.77053,-27.55644],[152.77264,-27.55947],[152.77567,-27.5599],[152.77981,-27.55972],[152.78246,-27.55851],[152.78279,-27.55661],[152.78528,-27.55616],[152.78275,-27.55157],[152.78649,-27.55035],[152.78711,-27.55273],[152.78931,-27.55454],[152.79364,-27.55596],[152.7965,-27.55483],[152.80325,-27.55586],[152.80486,-27.55734],[152.80893,-27.55754],[152.81589,-27.55678],[152.82012,-27.55593],[152.82284,-27.5533],[152.82352,-27.55043],[152.82699,-27.54957],[152.83254,-27.5469],[152.83655,-27.5458],[152.84082,-27.54523],[152.84164,-27.5428],[152.83977,-27.5398],[152.83053,-27.53678],[152.83037,-27.53471],[152.83146,-27.53312],[152.83588,-27.53114],[152.84173,-27.53086],[152.84722,-27.53276],[152.84962,-27.53619],[152.85268,-27.54269],[152.85292,-27.54569],[152.8519,-27.54967],[152.84953,-27.55475],[152.84899,-27.56464],[152.8507,-27.56958],[152.85335,-27.5744],[152.85566,-27.58251],[152.85562,-27.58612],[152.85631,-27.5915],[152.85639,-27.59604],[152.85819,-27.59763],[152.86071,-27.59797],[152.86353,-27.59563],[152.86867,-27.58331],[152.86992,-27.58097],[152.87272,-27.57924],[152.87655,-27.57992],[152.88306,-27.5857],[152.88828,-27.58965],[152.89158,-27.59313],[152.89463,-27.59948],[152.89816,-27.60239],[152.9008,-27.60243],[152.90381,-27.60564],[152.90645,-27.60525],[152.90894,-27.60637],[152.91215,-27.60648],[152.91553,-27.60499],[152.92178,-27.60624],[152.92844,-27.61124],[152.93248,-27.61278],[152.93426,-27.61405],[152.93762,-27.61808],[152.94072,-27.62341],[152.93977,-27.62846],[152.94089,-27.62865],[152.94479,-27.62947],[152.94787,-27.63212],[152.95637,-27.63462],[152.96449,-27.63528],[152.96837,-27.63613],[152.97322,-27.63915],[152.97689,-27.64484],[152.97949,-27.64675],[152.98975,-27.65158],[152.99795,-27.65452],[153.00362,-27.65583],[153.01205,-27.65713],[153.01625,-27.65689],[153.03722,-27.66021],[153.04004,-27.65401],[153.05876,-27.65679],[153.06766,-27.65105],[153.06946,-27.65292],[153.07262,-27.65093],[153.0781,-27.65186],[153.08376,-27.64989],[153.08797,-27.64756],[153.09541,-27.64504],[153.09443,-27.64286],[153.09685,-27.64201],[153.09457,-27.63932],[153.09617,-27.63033],[153.09461,-27.63176],[153.09099,-27.62892],[153.09147,-27.6263],[153.09674,-27.6271],[153.09749,-27.62288],[153.09582,-27.6211],[153.09373,-27.6208],[153.09471,-27.61716],[153.10113,-27.61792],[153.10585,-27.59318],[153.10973,-27.59365],[153.11053,-27.59376],[153.12192,-27.59531],[153.12315,-27.58742],[153.12696,-27.58776],[153.14025,-27.58961],[153.1423,-27.59129],[153.14736,-27.59055],[153.14928,-27.59118],[153.15637,-27.59183],[153.15984,-27.59575],[153.16204,-27.59733],[153.16404,-27.59767],[153.16681,-27.60059],[153.17144,-27.60327],[153.17328,-27.60603],[153.17572,-27.6066]]]]},"properties":{"LGA Code":"1000","Abbreviated Name":"Brisbane","LGA Name":"Brisbane City","Area Sq Km":1378.04081,"LDMG Name":"Brisbane","Police Region Name":"Brisbane Region","Police Region Code":"BR","Police Region Short Name":"Brisbane"}},{"type":"Feature","geometry":{"type":"Polygon","coordinates":[[[153.06681,-27.28149],[153.08067,-27.26308],[153.08091,-27.26142],[153.0848,-27.25827],[153.08745,-27.25935],[153.08962,-27.25732],[153.09272,-27.25632],[153.09779,-27.25747],[153.1023,-27.2603],[153.10352,-27.26324],[153.10798,-27.2615],[153.11039,-27.25461],[153.10962,-27.25402],[153.11129,-27.24558],[153.11515,-27.23496],[153.11781,-27.2333],[153.11716,-27.23005],[153.11515,-27.22699],[153.11531,-27.2231],[153.11666,-27.21979],[153.1164,-27.21659],[153.11908,-27.21234],[153.11677,-27.21022],[153.11625,-27.20858],[153.11685,-27.20435],[153.11556,-27.20096],[153.11668,-27.19835],[153.11468,-27.19298],[153.11494,-27.19171],[153.11256,-27.19049],[153.11008,-27.1924],[153.10835,-27.19474],[153.10659,-27.19554],[153.10362,-27.19413],[153.10478,-27.1975],[153.10323,-27.19981],[153.10023,-27.20082],[153.09708,-27.20314],[153.09255,-27.20412],[153.08871,-27.20285],[153.08873,-27.20524],[153.0875,-27.20601],[153.08454,-27.20505],[153.08222,-27.20345],[153.07463,-27.2023],[153.0616,-27.19835],[153.05742,-27.1975],[153.04985,-27.19435],[153.04562,-27.19616],[153.04035,-27.19718],[153.03707,-27.19635],[153.03205,-27.18935],[153.02979,-27.1833],[153.02947,-27.18021],[153.0305,-27.17382],[153.03264,-27.16983],[153.03542,-27.16723],[153.03484,-27.16412],[153.03542,-27.16257],[153.04046,-27.15868],[153.04145,-27.15697],[153.0415,-27.15377],[153.04455,-27.1483],[153.04593,-27.14756],[153.04852,-27.14417],[153.05485,-27.12942],[153.05951,-27.12156],[153.06256,-27.11742],[153.06374,-27.11382],[153.06702,-27.11008],[153.0725,-27.10657],[153.07446,-27.10623],[153.07878,-27.10333],[153.08304,-27.10136],[153.09856,-27.09296],[153.10253,-27.09186],[153.10618,-27.0884],[153.1126,-27.08615],[153.12028,-27.08499],[153.12164,-27.08623],[153.12439,-27.08678],[153.12666,-27.08637],[153.13004,-27.08691],[153.13303,-27.08593],[153.16678,-27.09986],[153.17259,-27.10034],[153.17642,-27.10016],[153.18157,-27.09817],[153.18443,-27.09795],[153.19159,-27.09824],[153.19548,-27.09667],[153.19831,-27.0937],[153.20079,-27.08836],[153.20659,-27.08342],[153.20739,-27.0793],[153.20629,-27.07278],[153.20442,-27.06702],[153.20273,-27.06322],[153.19874,-27.05611],[153.19078,-27.04543],[153.18768,-27.03997],[153.17979,-27.02694],[153.17373,-27.01442],[153.17076,-27.00891],[153.16913,-27.0049],[153.16753,-27.0024],[153.1654,-26.99503],[153.16133,-26.98536],[153.15763,-26.97421],[153.15472,-26.96356],[153.14696,-26.93732],[153.08704,-26.95186],[153.08675,-26.95465],[153.08333,-26.9584],[153.07926,-26.96075],[153.08017,-26.96444],[153.07987,-26.96967],[153.07896,-26.97358],[153.07751,-26.97632],[153.06634,-26.9837],[153.06155,-26.98071],[153.05932,-26.97995],[153.05505,-26.98045],[153.05327,-26.97577],[153.05166,-26.97463],[153.04963,-26.97504],[153.04277,-26.96945],[153.01846,-26.96634],[153.01753,-26.97245],[153.01808,-26.97644],[153.01686,-26.97905],[153.0116,-26.97898],[153.00297,-26.98477],[152.99427,-26.98409],[152.99167,-26.98452],[152.98843,-26.98312],[152.98514,-26.98471],[152.98035,-26.9822],[152.97559,-26.98467],[152.97409,-26.98235],[152.97814,-26.98025],[152.97502,-26.97437],[152.96664,-26.97879],[152.96134,-26.97255],[152.95337,-26.96844],[152.95161,-26.96602],[152.94942,-26.96574],[152.9459,-26.96656],[152.94402,-26.96531],[152.93738,-26.96436],[152.93504,-26.96311],[152.93258,-26.96331],[152.92352,-26.96008],[152.92151,-26.96063],[152.9202,-26.95826],[152.91973,-26.9555],[152.91329,-26.95396],[152.91042,-26.95442],[152.90372,-26.95388],[152.89844,-26.95802],[152.89313,-26.95948],[152.89116,-26.96074],[152.8878,-26.95726],[152.88552,-26.95594],[152.87401,-26.95831],[152.85806,-26.95619],[152.86136,-26.93627],[152.86365,-26.93488],[152.86791,-26.93577],[152.86828,-26.9336],[152.87254,-26.9302],[152.87545,-26.91351],[152.85947,-26.91129],[152.86118,-26.90274],[152.85534,-26.90189],[152.85653,-26.89487],[152.85428,-26.89456],[152.85549,-26.88737],[152.86679,-26.88891],[152.86948,-26.87286],[152.85748,-26.87122],[152.85834,-26.86607],[152.85171,-26.86518],[152.8532,-26.85621],[152.84856,-26.85511],[152.84805,-26.85815],[152.84395,-26.85758],[152.83858,-26.85501],[152.83237,-26.85611],[152.83167,-26.85297],[152.82905,-26.85021],[152.82448,-26.84937],[152.81815,-26.8402],[152.8184,-26.83745],[152.81433,-26.83344],[152.81144,-26.82838],[152.80796,-26.8278],[152.80702,-26.82514],[152.8049,-26.82415],[152.80102,-26.82631],[152.79209,-26.82708],[152.79127,-26.82515],[152.78674,-26.82225],[152.78648,-26.82035],[152.78851,-26.81805],[152.78861,-26.81296],[152.78937,-26.80962],[152.78526,-26.81242],[152.78082,-26.81003],[152.77726,-26.80939],[152.7795,-26.79712],[152.77589,-26.79572],[152.77103,-26.79594],[152.76692,-26.79331],[152.76347,-26.79226],[152.7611,-26.79235],[152.75919,-26.80304],[152.75716,-26.80034],[152.75308,-26.79734],[152.74949,-26.81628],[152.74678,-26.8151],[152.74213,-26.81015],[152.73988,-26.80979],[152.73918,-26.80801],[152.73367,-26.80748],[152.73517,-26.81124],[152.73297,-26.81494],[152.72908,-26.81662],[152.72639,-26.81418],[152.72663,-26.81146],[152.72223,-26.8068],[152.72099,-26.80855],[152.70914,-26.81112],[152.69645,-26.80912],[152.69552,-26.8079],[152.69813,-26.80554],[152.6988,-26.80297],[152.67922,-26.79986],[152.67998,-26.80162],[152.67806,-26.80434],[152.67791,-26.807],[152.67877,-26.80877],[152.68132,-26.80993],[152.67903,-26.81642],[152.67515,-26.81832],[152.67197,-26.81892],[152.67203,-26.82076],[152.67447,-26.82199],[152.67759,-26.82092],[152.67908,-26.82218],[152.67638,-26.82603],[152.67847,-26.8286],[152.67846,-26.83033],[152.67274,-26.83439],[152.66736,-26.83608],[152.66679,-26.84026],[152.67084,-26.84499],[152.66975,-26.8475],[152.67017,-26.85018],[152.67002,-26.8548],[152.67182,-26.85775],[152.67426,-26.85635],[152.6757,-26.85831],[152.67524,-26.86019],[152.67762,-26.86358],[152.67592,-26.86613],[152.68022,-26.86936],[152.68237,-26.87308],[152.68664,-26.87756],[152.68526,-26.88049],[152.6874,-26.88049],[152.6873,-26.88639],[152.68934,-26.88888],[152.68972,-26.89181],[152.68854,-26.89261],[152.68862,-26.89691],[152.67894,-26.89558],[152.67857,-26.89777],[152.66751,-26.89624],[152.66793,-26.9002],[152.66745,-26.90412],[152.66514,-26.90796],[152.66302,-26.90848],[152.66225,-26.91011],[152.68743,-26.91362],[152.68558,-26.91476],[152.68233,-26.91515],[152.68251,-26.91735],[152.6783,-26.91843],[152.6763,-26.92353],[152.67333,-26.92388],[152.66966,-26.92934],[152.67053,-26.93308],[152.67005,-26.93712],[152.6709,-26.93848],[152.66761,-26.9401],[152.66537,-26.94282],[152.66308,-26.94816],[152.66024,-26.94787],[152.65885,-26.94983],[152.65581,-26.94776],[152.65327,-26.94904],[152.65223,-26.95077],[152.65178,-26.95381],[152.65756,-26.95391],[152.6577,-26.95636],[152.66289,-26.95854],[152.66574,-26.95772],[152.66773,-26.95906],[152.66629,-26.96369],[152.66368,-26.96474],[152.66452,-26.9688],[152.66594,-26.96896],[152.67145,-26.96525],[152.67414,-26.96624],[152.67765,-26.96575],[152.6807,-26.96415],[152.68343,-26.96467],[152.68446,-26.96855],[152.68206,-26.96961],[152.68022,-26.97197],[152.68119,-26.97525],[152.67956,-26.97666],[152.67986,-26.97836],[152.68224,-26.98046],[152.68677,-26.97961],[152.68649,-26.98475],[152.68927,-26.98454],[152.68821,-26.98736],[152.68574,-26.98657],[152.68451,-26.98799],[152.68504,-26.98997],[152.68328,-26.99215],[152.68525,-26.99584],[152.68715,-26.99693],[152.6886,-26.99906],[152.6889,-27.00115],[152.69106,-27.00453],[152.6946,-27.00683],[152.69705,-27.0095],[152.69554,-27.01238],[152.69721,-27.01296],[152.69729,-27.01605],[152.70081,-27.01827],[152.70024,-27.02271],[152.70314,-27.02424],[152.70153,-27.02645],[152.70313,-27.02833],[152.70251,-27.03079],[152.69846,-27.03169],[152.69747,-27.03346],[152.6974,-27.03739],[152.69812,-27.03954],[152.69655,-27.04217],[152.69305,-27.0451],[152.69231,-27.04668],[152.68915,-27.04827],[152.68927,-27.051],[152.69072,-27.05272],[152.68935,-27.05518],[152.69544,-27.05624],[152.69497,-27.05901],[152.67768,-27.05695],[152.67858,-27.05936],[152.68096,-27.06112],[152.68232,-27.06443],[152.68355,-27.06556],[152.68563,-27.072],[152.684,-27.0747],[152.68567,-27.07656],[152.68709,-27.08164],[152.68691,-27.08332],[152.68226,-27.08607],[152.67713,-27.08745],[152.67614,-27.08901],[152.67932,-27.09476],[152.68334,-27.09514],[152.687,-27.09333],[152.68976,-27.09278],[152.69581,-27.09486],[152.7021,-27.0948],[152.70797,-27.09626],[152.71207,-27.0989],[152.71506,-27.09998],[152.71831,-27.10037],[152.71807,-27.10221],[152.72621,-27.10321],[152.72649,-27.10137],[152.73447,-27.10233],[152.73352,-27.10742],[152.73032,-27.10874],[152.73044,-27.11312],[152.72953,-27.11532],[152.73011,-27.11845],[152.72811,-27.12193],[152.72871,-27.12396],[152.73053,-27.12585],[152.73122,-27.128],[152.73083,-27.13045],[152.73264,-27.13305],[152.73483,-27.14167],[152.73669,-27.14394],[152.73808,-27.14768],[152.73794,-27.1505],[152.73934,-27.15092],[152.73618,-27.15558],[152.72982,-27.16153],[152.72907,-27.16376],[152.7334,-27.17065],[152.73059,-27.17163],[152.72902,-27.17324],[152.72969,-27.17504],[152.72849,-27.17685],[152.72618,-27.17657],[152.72298,-27.18046],[152.71861,-27.18273],[152.71631,-27.18663],[152.71228,-27.18873],[152.7112,-27.19214],[152.70896,-27.19223],[152.70699,-27.1954],[152.70355,-27.19919],[152.70174,-27.20432],[152.70303,-27.20511],[152.70417,-27.20879],[152.70325,-27.21355],[152.70124,-27.21668],[152.70047,-27.21979],[152.70103,-27.22386],[152.70223,-27.22634],[152.70022,-27.23021],[152.69545,-27.23398],[152.69308,-27.23422],[152.69087,-27.23594],[152.69134,-27.23831],[152.69274,-27.24035],[152.69238,-27.24209],[152.68936,-27.24521],[152.68741,-27.24898],[152.68176,-27.25402],[152.68098,-27.25606],[152.68156,-27.26378],[152.68349,-27.26619],[152.68358,-27.2716],[152.68417,-27.27315],[152.68691,-27.27491],[152.69052,-27.27444],[152.6984,-27.27566],[152.70462,-27.27696],[152.7055,-27.28001],[152.70444,-27.28283],[152.70557,-27.28606],[152.70376,-27.2904],[152.70401,-27.2926],[152.70718,-27.29221],[152.71309,-27.28958],[152.71451,-27.28975],[152.71756,-27.29274],[152.72414,-27.29464],[152.72777,-27.29502],[152.73262,-27.29721],[152.73508,-27.29698],[152.73928,-27.29369],[152.74561,-27.29337],[152.7488,-27.29511],[152.75224,-27.29543],[152.75414,-27.29818],[152.75685,-27.30065],[152.75636,-27.30281],[152.75655,-27.30717],[152.75596,-27.30978],[152.75395,-27.31133],[152.75213,-27.31151],[152.74913,-27.31321],[152.74851,-27.31874],[152.75052,-27.3204],[152.74885,-27.33229],[152.75468,-27.33313],[152.75563,-27.32831],[152.75949,-27.33026],[152.76233,-27.33395],[152.7645,-27.33549],[152.7676,-27.33497],[152.77002,-27.34116],[152.77189,-27.34318],[152.77201,-27.34597],[152.77102,-27.34795],[152.77204,-27.34987],[152.76906,-27.35116],[152.76668,-27.35137],[152.76564,-27.35294],[152.7629,-27.3546],[152.76207,-27.35621],[152.76262,-27.35825],[152.76152,-27.36182],[152.76001,-27.36388],[152.76264,-27.3669],[152.76195,-27.36983],[152.76232,-27.37174],[152.76959,-27.37885],[152.77291,-27.37904],[152.77238,-27.38302],[152.77573,-27.38923],[152.77478,-27.39313],[152.77475,-27.40093],[152.77562,-27.40167],[152.79866,-27.40509],[152.79933,-27.40164],[152.8016,-27.3988],[152.80272,-27.39992],[152.81416,-27.4021],[152.81538,-27.40525],[152.82086,-27.41069],[152.8257,-27.41227],[152.8276,-27.41465],[152.83116,-27.41694],[152.8368,-27.41884],[152.84278,-27.41765],[152.84725,-27.41957],[152.84932,-27.42194],[152.85174,-27.4219],[152.85303,-27.42059],[152.8583,-27.42097],[152.86115,-27.42236],[152.86245,-27.42122],[152.86312,-27.41765],[152.8648,-27.41784],[152.87453,-27.41136],[152.8769,-27.41435],[152.89723,-27.41727],[152.89932,-27.40355],[152.91505,-27.4057],[152.91695,-27.39417],[152.92118,-27.39384],[152.92273,-27.3944],[152.9252,-27.39332],[152.92791,-27.39406],[152.93067,-27.39714],[152.93201,-27.39711],[152.93436,-27.39974],[152.93595,-27.39984],[152.94457,-27.40599],[152.94781,-27.40652],[152.94898,-27.40874],[152.95207,-27.40767],[152.95259,-27.40586],[152.95753,-27.40391],[152.95895,-27.40279],[152.95921,-27.40013],[152.96217,-27.39794],[152.96586,-27.39685],[152.97068,-27.39846],[152.97166,-27.39819],[152.97439,-27.40074],[152.97693,-27.40066],[152.97809,-27.39458],[152.97529,-27.39202],[152.97675,-27.38977],[152.98061,-27.38814],[152.9839,-27.38469],[152.98316,-27.38213],[152.98147,-27.38053],[152.98036,-27.37517],[152.98004,-27.37075],[152.98056,-27.36776],[152.98308,-27.36811],[152.98371,-27.36453],[152.98069,-27.36408],[152.98167,-27.35862],[152.98775,-27.35951],[152.98852,-27.35766],[152.98743,-27.35474],[152.98524,-27.35278],[152.98255,-27.35319],[152.98239,-27.35157],[152.98052,-27.34854],[152.98131,-27.34241],[152.98314,-27.34005],[152.98904,-27.33609],[152.99282,-27.33547],[152.9941,-27.33395],[152.99506,-27.32985],[152.99475,-27.32857],[152.9967,-27.32619],[152.9974,-27.32388],[153.00023,-27.32289],[153.00088,-27.32],[153.00249,-27.31954],[153.00261,-27.31664],[153.00042,-27.31205],[152.9986,-27.31249],[152.99672,-27.30919],[152.99728,-27.30608],[152.99699,-27.30254],[152.99944,-27.3017],[153.00717,-27.30115],[153.00968,-27.302],[153.0106,-27.30017],[153.00862,-27.29836],[153.01168,-27.29697],[153.0135,-27.29353],[153.0146,-27.28849],[153.01581,-27.28749],[153.01918,-27.29143],[153.02299,-27.29308],[153.02748,-27.29676],[153.03094,-27.29837],[153.03472,-27.2979],[153.03622,-27.29563],[153.03658,-27.29294],[153.03509,-27.28666],[153.03584,-27.28401],[153.03746,-27.28183],[153.04081,-27.27952],[153.04486,-27.27878],[153.04959,-27.27866],[153.05138,-27.27936],[153.05844,-27.28002],[153.06681,-27.28149]],[[152.84695,-26.88745],[152.85066,-26.88675],[152.8519,-26.88812],[152.85204,-26.89202],[152.84621,-26.89183],[152.84695,-26.88745]]]},"properties":{"LGA Code":"5010","Abbreviated Name":"Moreton Bay","LGA Name":"Moreton Bay City","Area Sq Km":2071.09352,"LDMG Name":"Moreton Bay","Police Region Name":"Brisbane Region","Police Region Code":"BR","Police Region Short Name":"Brisbane"}},{"type":"Feature","geometry":{"type":"Polygon","coordinates":[[[153.17572,-27.6066],[153.18083,-27.6091],[153.18377,-27.61257],[153.18174,-27.6243],[153.17575,-27.62346],[153.17385,-27.63424],[153.17705,-27.63482],[153.1823,-27.63407],[153.18403,-27.6355],[153.18322,-27.63828],[153.18755,-27.64074],[153.19356,-27.64157],[153.19393,-27.63946],[153.207,-27.64121],[153.20612,-27.64392],[153.20872,-27.64507],[153.23879,-27.64921],[153.23889,-27.64734],[153.25493,-27.64957],[153.25453,-27.65279],[153.26246,-27.65397],[153.26286,-27.65606],[153.27991,-27.65841],[153.28066,-27.66147],[153.28025,-27.66307],[153.28236,-27.6668],[153.28119,-27.66869],[153.28175,-27.67149],[153.2805,-27.67276],[153.28265,-27.67418],[153.28098,-27.68316],[153.283,-27.68347],[153.28234,-27.68697],[153.28857,-27.68694],[153.28772,-27.68887],[153.28795,-27.69165],[153.28658,-27.69327],[153.29253,-27.69202],[153.29304,-27.6978],[153.29402,-27.7001],[153.29709,-27.70324],[153.30103,-27.70873],[153.30462,-27.71043],[153.30887,-27.71054],[153.31714,-27.70767],[153.32067,-27.70511],[153.32549,-27.69775],[153.32776,-27.69582],[153.33541,-27.69587],[153.3387,-27.69692],[153.34251,-27.69537],[153.34789,-27.69389],[153.35448,-27.69086],[153.35624,-27.69046],[153.35921,-27.69118],[153.36074,-27.69463],[153.3608,-27.69693],[153.36197,-27.70052],[153.3618,-27.70783],[153.36284,-27.70961],[153.36684,-27.71246],[153.36863,-27.71223],[153.37044,-27.70893],[153.37437,-27.70824],[153.38054,-27.71115],[153.3844,-27.71055],[153.38765,-27.70744],[153.39046,-27.70702],[153.39198,-27.70804],[153.39245,-27.71352],[153.39312,-27.71506],[153.39687,-27.71711],[153.40139,-27.72161],[153.4046,-27.72852],[153.40508,-27.73384],[153.40827,-27.74084],[153.41054,-27.74274],[153.41563,-27.74375],[153.42525,-27.74265],[153.42971,-27.74118],[153.43929,-27.73573],[153.44327,-27.73512],[153.44675,-27.73519],[153.44769,-27.7292],[153.45129,-27.72716],[153.45324,-27.72222],[153.45386,-27.71705],[153.45364,-27.7071],[153.45446,-27.69706],[153.4556,-27.68849],[153.45713,-27.67898],[153.45904,-27.66895],[153.46596,-27.63584],[153.46885,-27.62267],[153.47292,-27.60623],[153.48139,-27.57912],[153.48715,-27.56264],[153.4939,-27.54408],[153.50045,-27.52657],[153.50702,-27.50994],[153.51111,-27.50027],[153.51126,-27.49896],[153.51519,-27.48931],[153.51855,-27.48186],[153.52351,-27.46915],[153.52871,-27.45803],[153.53498,-27.44763],[153.54007,-27.44006],[153.54133,-27.43766],[153.54363,-27.43621],[153.54545,-27.43687],[153.54636,-27.43403],[153.54286,-27.43081],[153.54364,-27.42499],[153.54157,-27.42435],[153.53914,-27.42498],[153.53471,-27.42353],[153.53291,-27.42587],[153.52872,-27.42587],[153.52775,-27.42683],[153.52475,-27.42623],[153.51961,-27.42413],[153.51454,-27.42077],[153.51243,-27.42192],[153.50867,-27.42196],[153.49808,-27.42102],[153.49366,-27.41991],[153.48411,-27.4159],[153.47667,-27.41151],[153.47236,-27.40733],[153.4693,-27.40374],[153.46399,-27.3961],[153.45806,-27.3912],[153.45531,-27.38987],[153.45377,-27.38812],[153.45042,-27.38988],[153.4442,-27.38931],[153.43641,-27.39157],[153.41918,-27.39612],[153.34757,-27.41474],[153.25295,-27.43928],[153.21774,-27.44839],[153.21659,-27.46823],[153.20344,-27.46803],[153.19982,-27.46871],[153.19793,-27.47119],[153.19713,-27.47412],[153.19758,-27.48012],[153.19653,-27.48155],[153.19144,-27.48278],[153.18812,-27.48404],[153.18663,-27.48675],[153.18746,-27.49089],[153.1918,-27.49229],[153.19214,-27.49533],[153.18944,-27.49429],[153.18798,-27.49504],[153.18579,-27.49822],[153.18745,-27.50098],[153.18805,-27.5038],[153.19138,-27.50689],[153.1911,-27.50861],[153.19485,-27.509],[153.19475,-27.51133],[153.1975,-27.5101],[153.19888,-27.51206],[153.2015,-27.5128],[153.20086,-27.51452],[153.19665,-27.51648],[153.19345,-27.51588],[153.19346,-27.51804],[153.18833,-27.51819],[153.18445,-27.52157],[153.18404,-27.52294],[153.18579,-27.52749],[153.18441,-27.52936],[153.18007,-27.52987],[153.17558,-27.53343],[153.17236,-27.53503],[153.17195,-27.53658],[153.17349,-27.53895],[153.17426,-27.54218],[153.17769,-27.54291],[153.18019,-27.54122],[153.18198,-27.54113],[153.18331,-27.54454],[153.18286,-27.55024],[153.18872,-27.55171],[153.18954,-27.55269],[153.19007,-27.55667],[153.19169,-27.55838],[153.19133,-27.56088],[153.18679,-27.56047],[153.18192,-27.56231],[153.18197,-27.56439],[153.18053,-27.56703],[153.17979,-27.57016],[153.18256,-27.57365],[153.17764,-27.57855],[153.17908,-27.58071],[153.17708,-27.584],[153.17763,-27.5867],[153.17508,-27.58811],[153.17456,-27.58946],[153.17185,-27.59108],[153.17417,-27.59548],[153.17156,-27.59944],[153.17607,-27.60165],[153.17878,-27.60497],[153.17572,-27.6066]]]},"properties":{"LGA Code":"6250","Abbreviated Name":"Redland","LGA Name":"Redland City","Area Sq Km":907.3914,"LDMG Name":"Redland","Police Region Name":"Brisbane Region","Police Region Code":"BR","Police Region Short Name":"Brisbane"}}]}