{"type":"Topology","arcs":[[[86128,40836],[38,603],[520,1045],[-225,873],[-1881,3270],[50,549],[-896,2314],[-847,1198],[-694,1168],[-721,1480],[-127,1264],[-501,1292],[-621,926],[-123,400],[187,738],[590,1206],[115,483],[-372,1798],[-815,2112],[-32,605],[745,2095],[147,1139],[-53,1411],[-376,1779],[-401,829],[210,451],[1002,819],[661,309],[1111,335],[578,345],[1391,586],[572,-258],[1326,290],[2024,620],[1395,786],[510,-374],[1039,-157],[-1062,-2346],[-1387,-4005],[-88,-149],[-1435,-4882],[-656,-2329],[-313,-1394],[-469,-2849],[-327,-2964],[6,-2058],[-64,-1454],[206,-1952],[597,-2470],[546,-702],[436,-960],[353,-479],[195,-1636],[-337,-388],[-453,-931],[-117,-1093],[-1157,712]],[[67026,41451],[-1221,484],[-230,363],[182,729],[451,673],[813,449],[1805,-1018],[-521,-1233],[-456,-456],[-823,9]],[[65715,38944],[371,-534],[289,-1179],[-50,-482],[-401,-640],[-362,-111],[-1286,806],[-25,366],[433,268],[-20,656],[640,748],[411,102]],[[61220,28338],[-67,-779],[-944,-262],[-74,-720],[487,-147],[-675,-623],[596,-1092],[719,-157],[377,-464],[-831,-370],[-576,-16],[-481,-499],[196,-479],[-642,-250],[-865,-542],[213,-752],[867,111],[98,-958],[658,-154],[293,-964],[-1056,-150],[-239,-825],[311,-367],[-553,-515],[162,-227],[-163,-630],[-649,-460],[261,-463],[-293,-416],[506,-232],[-39,-521]],[[58817,14415],[-1783,1141],[-389,412],[-3730,463],[-138,-829],[-1278,163],[-90,12],[-436,49],[-530,-2600],[-720,80],[-110,-383],[422,-219],[-323,-933],[89,-1396],[-1943,-717],[-1172,85],[-999,-603],[-2101,292],[-317,-651],[-2354,349],[-472,-26],[-1582,275],[-921,309],[-1444,708],[-412,598],[-544,318],[-1347,158],[-954,263],[-784,365],[-19,551],[-725,983],[-653,296],[-748,525],[-702,132],[-379,-157],[-1021,109],[-234,242],[511,99],[139,133],[-99,501],[-313,494],[-682,579],[-254,623],[92,537],[629,574],[138,326],[-809,563],[254,167],[843,181],[256,219],[-428,818],[366,407],[1737,82],[581,466],[79,868],[177,194],[1802,43],[816,-243],[807,-650],[394,-732],[844,-184],[347,92],[84,528],[-407,716],[171,671],[-570,1122],[266,859],[521,52],[751,-559],[811,-778],[654,-430],[1337,-14],[434,171],[148,392],[-405,295],[-943,192],[225,520],[462,324],[1526,120],[324,214],[-138,818],[-888,526],[-1578,-1],[-283,318],[903,1074],[1074,710],[488,-99],[890,-1090],[750,91],[137,392],[-44,1137],[506,-332],[168,-632],[699,-294],[1176,615],[70,415],[-380,614],[-59,807],[-301,1023],[315,266],[1158,-114],[2995,-691],[983,190],[1795,870],[849,808],[971,563],[862,284],[705,646],[520,863],[923,1087],[-198,729],[485,977],[783,728],[2364,3234],[1498,-781],[-2575,-3450],[475,-795],[-654,-329],[-1119,268],[-211,-774],[490,-27],[375,-348],[21,-1165],[-393,-127],[147,-1554],[440,-895],[685,-533],[613,-87],[2,-1158],[379,-290],[427,-1303],[330,-177]],[[10859,44672],[225,-175],[-187,-1250],[654,-88],[540,302],[563,-550],[348,55],[481,-863],[17,-703],[-601,-158],[-425,-340],[-155,-758],[90,-1043],[816,-747],[689,-1091],[-106,-410],[94,-898],[2587,-359],[455,543],[1285,-229],[137,-331],[615,-572],[543,-166],[613,-491],[633,-200],[671,125],[735,-450],[416,141],[912,-186],[409,475],[1093,682],[266,-315],[2282,-307],[235,1442],[1765,-226],[214,1212],[926,90],[2174,-1332],[901,14],[714,322],[29,280],[746,345],[1243,-401],[130,639],[-314,269],[966,771],[-272,437],[-161,1028],[341,277],[-268,424],[110,574],[683,-94],[-36,502],[-548,163],[-228,488],[89,645],[867,664],[568,225],[73,565],[616,597],[267,657],[-246,483],[-415,300],[30,699],[1143,146],[506,440],[328,891],[1834,-1038],[424,49],[209,521],[-167,660],[266,508],[376,243],[986,90],[1867,-274]],[[46525,48610],[-242,-240],[111,-556],[-65,-893],[210,-954],[377,-810],[633,-682],[923,-190],[358,-302],[88,-435],[-559,-424],[1267,-594],[1566,-935],[1644,-461],[1816,-920],[1537,-22],[425,-204],[140,-1242],[348,-296],[-858,-698],[-721,-380],[456,-675],[-543,-851],[-45,-781],[-511,-780],[-532,-366],[-1837,-830],[-1063,-1177],[-1715,-490],[-1266,-49],[-1831,459],[-1235,176],[-767,-118],[-312,-286],[49,-557],[337,-576],[247,-1156],[281,-444],[-637,-532],[-764,-22],[-299,912],[-650,291],[-315,-583],[189,-845],[-507,-317],[-1169,1198],[-775,-108],[-1310,-1066],[-434,-614],[-82,-492],[739,-297],[1224,111],[750,-451],[210,-514],[-1519,-305],[-746,-340],[-296,-836],[425,-225],[671,-20],[-23,-450],[-1056,-63],[-859,429],[-425,562],[-1075,699],[-712,148],[-281,-286],[-252,-788],[106,-449],[436,-638],[-92,-1046],[411,-589],[-302,-300],[-494,5],[-802,1138],[-1041,566],[-1308,197],[-972,-232],[-255,-204],[-95,-991],[-497,-351],[-1799,-138],[-382,-389],[363,-598],[-110,-408],[-915,-241],[-258,-141],[147,-261],[641,-484],[-733,-747],[-119,-481],[345,-776],[902,-985],[102,-547],[-582,-124],[-693,311],[-342,667],[-1688,1389],[-744,-111],[-717,-1541],[-317,-245],[-485,202],[-82,1422],[-259,853],[-489,1026],[60,1039],[266,534],[88,734],[-613,1044],[-616,199],[-1153,-237],[-105,-385],[1038,-317],[117,-571],[-929,-176],[-1013,-371],[-381,-578],[-1257,-169],[-1395,285],[-807,30],[-317,441],[-419,-128],[284,-483],[-615,-374],[-804,26],[-593,366],[-1520,-1295],[-528,312],[-663,-188],[-331,312],[9,551],[580,2609],[480,966],[664,159],[746,-68],[-16,546],[-345,170],[-848,-44],[-850,396],[-487,901],[-1066,1019],[880,108],[193,1259],[327,294],[-228,428],[-310,1168],[47,559],[658,-85],[346,1798],[-130,647],[-373,51],[165,896],[374,483],[67,812],[-258,32],[157,856],[-658,96],[-111,628],[336,576],[-687,188],[-483,-322],[438,2381],[-523,71],[118,634],[-1260,163],[211,1168],[-1805,228],[-100,-546],[-740,90],[-91,-510],[-816,103],[-196,-1063],[-460,-325],[-754,100],[504,2467],[747,549],[542,76],[1631,1082],[797,203],[254,753],[600,130],[1601,-118],[639,455],[410,28]],[[65594,33818],[110,-544],[-404,-298],[-555,829],[849,13]],[[60252,35946],[-1178,525],[704,308],[474,-833]],[[10859,44672],[69,581],[767,360],[100,960],[-517,549],[-745,216],[-710,-33],[-472,-346],[-1967,445],[-501,333],[-664,-277],[-384,190],[203,457],[-106,956],[-1583,265],[-405,-50],[-374,348],[-227,822],[23,1026],[634,530],[598,907],[-210,463],[1050,603],[225,407],[-197,688],[415,1156],[-273,470],[204,539],[980,1100],[452,220],[258,410],[491,239],[678,759],[492,272],[-487,724],[1153,1350],[-506,972],[-483,1663],[-271,412],[224,366],[24,1020],[359,139],[107,535],[-928,-93],[-913,105],[-1134,626],[-1365,147],[-679,219],[-721,-248],[-451,40],[-357,604],[1209,598],[-144,1190],[-234,677],[-658,905],[1940,-217],[53,291],[-530,370],[-176,468],[355,167],[652,751],[-73,639],[566,280],[-255,850],[64,466],[-395,234],[-27,688],[-672,522],[-439,799],[-435,503],[361,777],[31,541],[-776,131],[41,672],[476,359],[-422,463],[-737,-220],[-302,104],[-618,-390],[201,1041],[-1791,551],[167,502],[627,-83],[475,175],[257,562],[525,599],[-44,817],[412,574],[334,37],[224,536],[453,345],[572,161],[-2827,369],[584,629],[7,828],[1241,-160],[42,230],[1087,-140],[80,844],[-229,262],[-74,928],[-720,862],[-483,339],[191,268],[-853,923],[92,1031],[-455,497],[64,440],[604,177],[642,427],[-728,1199],[792,263],[257,682],[-286,122],[50,937],[2198,-327],[-263,-647],[1424,-210],[1330,270],[634,-306],[275,-542],[436,177],[697,728],[1158,-869],[403,1991],[686,-600],[214,1124],[653,-101],[462,-276],[951,-124],[-252,-1290],[1274,-375],[-210,-977],[601,-507],[1003,81],[435,227],[734,-445],[782,-953],[-29,-289],[711,-964],[513,-89],[373,-620],[697,116],[1063,-330],[578,204],[-167,-943],[744,-94],[-96,-541],[1347,-172],[-302,-1687],[-1269,162],[-136,-756],[119,-770],[656,-90],[-192,-898],[1794,-234],[-327,-1754],[-478,-357],[-777,-281],[-370,-2094],[1790,-223],[1292,250],[634,-505],[817,286],[592,435],[1075,-8],[723,-162],[425,-482],[1017,-339],[2137,-285],[197,-254],[895,-432],[595,-656],[941,464],[350,-618],[786,-468],[369,167],[1632,-174],[969,609],[590,-8],[180,1336],[2730,-328],[768,-587],[410,-77],[291,-529],[474,89],[702,-393],[397,-483],[-139,-521],[-558,-353],[862,-386],[116,-882],[619,-573],[605,-89],[275,-321],[-230,-459],[135,-502],[447,139],[546,-175],[1001,-793],[276,-869],[842,-1003],[-165,-413],[-399,-117],[545,-692],[1488,184],[899,-417],[500,-548],[664,-412],[-137,-488],[-1438,-674],[-1096,201],[-1583,-358],[-855,-479],[-3541,-1800],[-1366,-2032],[-710,-1551],[-789,-1009],[-116,-516],[-566,-409],[0,-490],[-552,-692],[-116,-701],[290,-932],[563,-735],[368,-88],[966,281],[2883,-819],[852,-121],[592,-269],[1076,302],[690,350],[1048,980],[462,-827],[-48,-1075],[318,-395],[-301,-447],[-141,-1093],[299,-663],[-299,-175],[-433,-1116],[-372,-1673],[-637,126],[-1076,418],[-591,-318],[-298,113],[-594,-536],[-905,711],[-265,1010],[148,601],[271,192],[436,824],[-110,381],[-658,182],[-223,-230],[-1493,-140],[154,-519],[632,-256],[581,-1017],[285,-1045],[508,-614],[540,-199],[-1392,-1762]],[[21826,89543],[655,-20],[-155,554],[-416,-74],[-84,-460]],[[47792,80662],[4,7],[33,45],[15,29],[57,107],[30,59],[23,40],[10,121],[22,87],[24,110],[36,71],[-44,1009],[476,230],[11,18],[29,49],[6,9],[305,286],[16,269],[9,14],[6734,1540],[1198,-3878],[1111,-2963],[1502,-2764],[1108,-1759],[882,-1107],[460,-762],[400,-1005],[33,-1119],[-651,-519],[-278,-561],[-459,-389],[-1530,-101],[-469,-189],[-1082,31],[-737,1017],[-568,1849],[-949,530],[-302,530],[-543,256],[-430,630],[-368,1368],[-46,541],[-741,153],[-654,771],[-1142,578],[-1111,764],[-222,1554],[-275,617],[-467,535],[-773,219],[-649,616],[-44,457]],[[48577,77205],[-805,-3],[20,513],[340,317],[493,-397],[-48,-430]],[[61220,28338],[638,89],[136,-700],[1005,-258],[542,112],[518,-191],[1022,145],[402,199],[424,781],[381,-297],[58,-646],[1925,-158],[133,-1494],[262,-249],[-35,-705],[-277,-800],[200,-251],[1222,-9],[1780,235],[-287,-1035],[-339,-597],[137,-552],[-780,-596],[470,-234],[-97,-528],[409,-782],[635,-607],[-122,-383],[1144,150],[962,-179],[54,-437],[-422,-519],[401,-621],[418,-186],[24,-851],[-601,-63],[-532,-521],[-69,-840],[246,-192],[61,-714],[778,-613],[-105,-960],[132,-755],[285,-697],[-625,-842],[-22,-668],[329,-876],[971,-978],[-387,-620],[-36,-378],[546,-1087],[200,-696],[-1094,-676],[-627,-168],[-730,68],[-670,745],[-283,783],[-668,-130],[223,665],[-699,-3],[-153,400],[188,944],[-308,1658],[-1914,247],[-45,220],[-890,124],[45,338],[-1801,234],[-11,-196],[-3376,435],[-193,406],[-1467,184],[-716,-135],[-486,259],[-103,442],[-949,-18],[213,1133],[673,-88],[228,1233],[-904,627]],[[82355,3562],[-545,-136],[-1012,304],[-194,-227],[240,330],[1511,-271]],[[87783,497],[-954,-381],[-1080,-116],[-826,306],[-358,736],[-54,559],[-361,726],[-928,689],[-262,827],[1263,-1335],[290,-649],[130,-877],[433,-510],[618,-267],[1263,-10],[826,302]],[[89433,37118],[597,261],[856,-577],[1396,-1606],[1200,-779],[1523,-496],[1188,-99],[659,126],[1147,-574],[916,37],[284,202],[723,-121],[77,-1137],[-1556,-2324],[-584,-1169],[-2418,-5607],[-1640,-4159],[-670,-1792],[-951,-2850],[-457,-1728],[-819,-3474],[-542,-2694],[-277,-1840],[-129,-1533],[24,-886],[-228,-555],[-680,-420],[-693,-227],[-375,323],[252,330],[698,2],[175,1132],[-1000,-182],[-527,-1078],[404,-706],[-1179,-570],[-965,16],[-997,517],[-223,347],[-52,1060],[-1368,1608],[791,445],[223,1062],[-605,1079],[520,1381],[-293,428],[125,360],[1017,525],[268,332],[792,458],[366,723],[-613,1060],[-423,974],[-344,254],[-257,975],[379,512],[369,1245],[-227,767],[187,855],[-345,213],[252,500],[-250,454],[180,1995],[-301,1148],[129,710],[-52,746],[312,755],[-20,544],[-287,534],[-833,388],[-468,678],[905,678],[279,739],[21,728],[966,136],[595,483],[114,560],[580,1286],[-51,293],[741,2088],[438,1683],[-306,1058],[178,810],[315,399],[844,181]],[[75099,6786],[643,188],[945,-600],[562,-790],[-90,-478],[-1309,35],[-682,480],[-217,900],[148,265]],[[81171,3869],[-652,406],[-412,737],[477,833],[467,334],[-2,474],[472,362],[-97,636],[-484,266],[-370,-338],[-414,184],[-91,1804],[668,701],[2113,7],[-42,379],[889,-339],[988,350],[-1150,-1194],[-634,-188],[-214,-331],[449,-805],[145,-785],[-56,-1145],[219,-757],[-529,-1321],[-610,-521],[-1130,251]],[[79010,8220],[360,-1241],[333,-695],[-731,-331],[-558,308],[-87,526],[435,1258],[-226,1047],[529,480],[-55,-1352]],[[83525,8895],[706,733],[922,234],[-137,-495],[-760,-153],[-731,-319]],[[75962,11229],[383,108],[1042,-1125],[-214,-996],[-1127,-1514],[-175,1115],[-527,831],[282,372],[336,1209]],[[82295,11030],[-60,-216],[-780,-181],[-1389,322],[-205,465],[1194,-104],[673,-306],[567,20]],[[76764,12902],[432,56],[320,-701],[864,-326],[206,-491],[-498,-402],[-1254,1200],[-70,664]],[[82088,13022],[263,-687],[-797,-579],[-654,121],[328,1017],[860,128]],[[76719,13325],[-184,144],[280,843],[585,357],[-35,-1322],[-646,-22]],[[79265,16437],[-74,404],[701,145],[-120,-2065],[-380,-532],[152,-785],[874,-184],[84,653],[459,-96],[356,-868],[-418,-167],[67,-401],[-607,-665],[-642,-170],[-657,734],[-836,277],[45,2160],[293,174],[300,693],[-77,289],[480,404]],[[74874,17893],[256,354],[599,-26],[46,556],[582,246],[764,-420],[-149,-702],[-1527,-150],[-571,142]],[[77446,24314],[-16,943],[-381,744],[776,346],[747,-16],[678,297],[173,489],[511,-352],[816,-56],[312,-364],[84,-560],[-1159,-188],[-847,-286],[-541,-349],[-829,-809],[-324,161]]],"transform":{"scale":[0.000008907989079890896,0.000009514095140951404],"translate":[152.65178,-27.74375]},"objects":{"qld_brisbane_ldmg_boundaries_gda2020_simp200m":{"type":"GeometryCollection","geometries":[{"arcs":[[[0]],[[1]],[[2]],[[3,4]],[[5,6]],[[7]],[[8]]],"type":"MultiPolygon","properties":{"LGA Code":"1000","Abbreviated Name":"Brisbane","LGA Name":"Brisbane City","Area Sq Km":1378.04081,"LDMG Name":"Brisbane","Police Region Name":"Brisbane Region","Police Region Code":"BR","Police Region Short Name":"Brisbane"}},{"arcs":[[[-6,9],[10]],[[11]],[[12]]],"type":"MultiPolygon","properties":{"LGA Code":"5010","Abbreviated Name":"Moreton Bay","LGA Name":"Moreton Bay City","Area Sq Km":2071.09352,"LDMG Name":"Moreton Bay","Police Region Name":"Brisbane Region","Police Region Code":"BR","Police Region Short Name":"Brisbane"}},{"arcs":[[[-4,13]],[[14]],[[15]],[[16]],[[17]],[[18]],[[19]],[[20]],[[21]],[[22]],[[23]],[[24]],[[25]],[[26]],[[27]],[[28]]],"type":"MultiPolygon","properties":{"LGA Code":"6250","Abbreviated Name":"Redland","LGA Name":"Redland City","Area Sq Km":907.3914,"LDMG Name":"Redland","Police Region Name":"Brisbane Region","Police Region Code":"BR","Police Region Short Name":"Brisbane"}}]}}}