{"type":"Topology","arcs":[[[46421,48579],[245,-721],[115,-1643],[499,-1103],[394,-410],[967,-521],[332,-511],[-42,-216],[2373,-1460],[248,-248],[1146,-453],[231,69],[468,-341],[1656,196],[792,-520],[428,-696],[2107,-400],[1675,2255],[1490,-781],[-1555,-2097],[278,-129],[398,-594],[18,-253],[-244,-477],[459,232],[123,-72],[-552,-501],[148,-556],[285,-329],[-13,-711],[279,-772],[-209,-401],[-380,65],[-485,1038],[-644,614],[-1681,643],[-315,-646],[-109,-20],[12,-34],[1274,206],[121,-134],[532,-37],[719,-859],[109,-277],[-82,-232],[893,-1212],[-201,-53],[-224,343],[-894,-418],[-358,418],[-108,-28],[346,-765],[-161,-87],[-162,-344],[-381,133],[-86,-163],[446,-785],[517,-322],[535,-80],[797,156],[52,-248],[-574,-282],[-62,-208],[-298,-185],[-71,-181],[-173,45],[-33,-323],[189,-190],[28,253],[10,-333],[168,-75],[325,262],[-96,601],[353,35],[129,-344],[357,-229],[-62,-180],[-208,0],[137,-182],[739,-588],[573,85],[-67,-173],[-721,-125],[1470,-21],[127,2085],[25300,6211],[486,-42],[14,-101],[19,98],[562,173],[238,-64],[-79,-124],[969,-655],[1264,-1495],[1031,-628],[1515,-495],[1358,-105],[465,136],[774,-446],[712,-196],[114,101],[592,43],[115,210],[457,-161],[419,71],[132,-131],[-152,-518],[406,-373],[1,-91],[-212,31],[218,-127],[-70,-110],[-293,114],[-73,-28],[141,-118],[-212,48],[-1715,-2659],[-2932,-6836],[-2134,-5544],[-1017,-3128],[-1515,-6525],[-452,-2677],[-75,-2260],[-181,-729],[-176,-254],[-324,-136],[-106,-629],[-833,-58],[-1568,-726],[-1204,-92],[-127,-9],[-100,52],[-467,239],[-264,545],[-93,191],[-141,762],[-98,190],[-248,393],[-603,473],[-246,156],[-9,43],[-146,730],[-456,28],[-316,-299],[-350,-105],[-709,293],[-426,25],[-323,-417],[-246,-8],[-498,411],[-6,889],[-316,881],[-76,75],[-439,-2],[-1609,-626],[-1375,105],[-792,-977],[-394,-270],[-925,-301],[-474,11],[-401,180],[-783,907],[-168,849],[-342,-42],[-311,-202],[14,103],[6,45],[50,21],[21,51],[11,6],[2,24],[10,186],[6,128],[-152,123],[396,-86],[45,92],[-9,2],[-506,118],[-389,-52],[85,382],[-226,32],[187,945],[-205,28],[-39,143],[143,111],[-78,245],[145,220],[-8,15],[-228,406],[49,534],[-2001,205],[-35,217],[-886,123],[45,340],[-1792,233],[-11,-195],[-3382,425],[-268,130],[99,286],[-1461,184],[-40,-222],[-671,87],[6,102],[-491,157],[44,376],[-1091,48],[213,1133],[668,-88],[227,1232],[-327,365],[-844,324],[-205,290],[-1296,789],[-389,414],[-1005,134],[-565,-79],[-231,178],[-1815,252],[-103,-51],[-134,-803],[-1782,226],[-8,1],[-527,-2601],[-718,80],[-109,-383],[234,-31],[186,-188],[-84,-444],[-589,85],[-52,-275],[404,-300],[30,184],[143,-33],[-177,-945],[210,-28],[43,-256],[-269,-88],[108,-229],[-1970,-726],[-608,104],[-321,-206],[-200,196],[-995,-603],[-2091,292],[-314,-652],[-4309,592],[-349,110],[-1865,753],[-627,759],[-401,263],[-2205,387],[-628,403],[-16,3],[-24,9],[-339,41],[-125,18],[106,530],[-720,985],[-36,17],[-706,327],[-653,477],[-53,9],[-645,122],[-324,-148],[-413,3],[-204,207],[-415,-126],[-289,333],[-491,107],[-655,1013],[-1707,1289],[-33,24],[-146,-7],[-135,-5],[-29,-1],[-254,-164],[-859,-1710],[-232,-78],[-334,104],[-27,34],[-230,1890],[-657,1476],[18,848],[363,909],[31,550],[-18,32],[-531,949],[-364,183],[-636,103],[-821,-260],[-121,-167],[37,-244],[1054,-313],[149,-456],[-158,-134],[-429,-27],[-23,-10],[-1089,-413],[-226,8],[-3,-8],[-65,-126],[-163,-318],[-189,-156],[-78,-39],[-593,-80],[-730,-83],[-309,4],[-215,172],[-424,84],[-110,5],[-134,6],[-145,7],[-261,-113],[-577,195],[-222,395],[-152,2],[-277,-194],[152,-86],[129,-398],[-265,17],[-132,-284],[-1001,-16],[-237,318],[-354,48],[-1223,-1071],[-212,-11],[-78,-213],[-318,79],[-279,278],[-265,-230],[-164,-2],[-204,41],[-285,270],[167,1261],[209,947],[498,1687],[76,92],[150,154],[197,83],[148,48],[59,2],[824,-170],[207,345],[12,20],[-248,426],[-1083,3],[-705,312],[-617,1014],[-41,67],[-17,28],[-923,772],[-40,115],[877,108],[148,736],[334,-50],[-193,158],[-126,379],[95,365],[259,-36],[82,385],[-308,43],[81,400],[146,55],[-522,-110],[140,167],[-101,198],[104,181],[-158,277],[3,385],[44,174],[655,-84],[366,2026],[-222,29],[70,391],[-371,51],[165,897],[-362,46],[214,208],[471,173],[108,205],[8,662],[-257,32],[156,857],[-654,96],[-67,380],[-13,399],[191,69],[113,355],[-180,168],[-29,213],[-955,-514],[436,2380],[-522,71],[118,635],[-1254,162],[211,1169],[-1797,228],[-99,-545],[-736,88],[-92,-509],[-812,102],[-194,-1062],[-388,50],[-71,-376],[-750,101],[503,2468],[207,-31],[663,662],[411,-8],[1623,1084],[795,203],[196,300],[55,452],[420,146],[758,-217],[120,97],[894,-13],[634,455],[408,27],[-143,175]],[[10720,44838],[153,-165],[216,-184],[-188,-1250],[651,-88],[115,517],[423,-216],[559,-550],[339,65],[461,-844],[27,-49],[20,-36],[-16,-53],[-103,-344],[115,-250],[-599,-158],[-421,-339],[-67,-558],[-256,-418],[323,-362],[-101,-401],[502,-612],[363,-207],[353,-11],[-58,-419],[234,-466],[228,-128],[-215,-449],[11,-812],[103,-106],[2573,-360],[123,530],[206,132],[21,-9],[60,-26],[426,-190],[707,-52],[189,-71],[137,-330],[449,-420],[704,-318],[610,-491],[629,-200],[813,93],[586,-418],[270,4],[145,138],[715,-98],[357,-49],[56,456],[186,-28],[1087,689],[266,-314],[2271,-307],[232,1442],[1758,-227],[213,1213],[694,-26],[413,101],[364,-360],[218,18],[169,-264],[265,-65],[556,-480],[767,-222],[-47,-151],[15,-7],[181,-64],[282,86],[50,19],[63,194],[712,322],[18,273],[2,2],[55,53],[88,88],[6,2],[549,198],[731,-154],[438,-301],[54,20],[186,675],[-312,268],[162,237],[432,172],[367,363],[-297,472],[-98,527],[23,780],[282,-36],[70,376],[-338,46],[110,575],[679,-93],[-57,87],[146,113],[-179,161],[21,209],[-212,136],[-325,-37],[-16,205],[-341,159],[155,120],[-183,179],[253,89],[-73,211],[109,193],[204,55],[-87,96],[69,68],[196,41],[380,358],[577,138],[144,671],[290,483],[322,114],[73,304],[181,47],[12,305],[-386,883],[-95,-44],[135,-377],[-408,176],[158,896],[545,3],[310,298],[141,-62],[-149,-153],[290,-4],[-20,-122],[755,25],[-603,452],[391,140],[277,849],[134,106],[376,-415],[426,-173],[690,-506],[561,-31],[226,332],[10,54],[-134,826],[21,58],[38,102],[75,200],[163,127],[213,166],[128,97],[114,11],[867,80],[1923,-298]],[[65302,42983],[245,67],[396,642],[383,167],[305,323],[774,-607],[130,114],[334,-93],[118,-218],[478,-113],[84,-144],[-519,-1232],[-616,-530],[-1097,60],[-106,232],[-509,254],[-254,-8],[-134,393],[-12,693]],[[64065,34126],[1588,117],[248,-178],[-35,-1865],[-265,-66],[-504,421],[-251,659],[-781,912]],[[63917,37149],[316,244],[175,-28],[-115,395],[406,715],[457,391],[48,195],[221,-100],[51,-407],[395,-249],[239,-1084],[-223,-894],[-226,-228],[-360,-110],[-1207,742],[-177,418]],[[79543,71569],[171,291],[900,689],[479,608],[2792,1121],[1888,289],[1608,31],[1259,452],[877,521],[171,334],[213,-124],[-183,-84],[539,-194],[40,-182],[297,-117],[643,46],[-21,-715],[-209,-166],[78,-229],[-71,-88],[-153,68],[-226,-407],[-1114,-2919],[-136,-107],[-572,-1929],[-162,-72],[89,-149],[-1953,-6475],[-972,-5366],[-280,-3551],[38,-2242],[271,-1995],[725,-2745],[707,-1522],[1000,-1359],[-505,384],[205,-942],[-425,-484],[-483,-912],[-141,-1212],[-574,-65],[-646,568],[220,-125],[281,-287],[419,34],[-321,277],[-394,134],[-207,379],[618,1445],[-171,757],[-1954,3407],[59,558],[-802,2101],[-1621,2562],[-692,1439],[-293,1828],[-1070,2017],[185,833],[587,1201],[107,573],[-177,920],[-221,362],[-2,492],[-866,2344],[791,2380],[148,1139],[-53,1412],[-329,1654],[-393,777],[-13,337]],[[10720,44838],[158,20],[54,387],[540,197],[97,103],[114,121],[50,53],[-81,90],[109,70],[34,686],[-405,387],[43,207],[-538,-11],[-349,190],[-760,-45],[-353,-309],[-409,-51],[-549,252],[-1102,224],[-410,329],[-1044,-319],[-63,198],[210,481],[-130,364],[129,294],[-3,14],[-26,93],[-41,154],[-22,4],[-1473,284],[-52,10],[-6,0],[-74,0],[-465,-3],[-282,227],[9,597],[-285,416],[32,832],[661,613],[560,742],[8,12],[-3,11],[-178,606],[246,180],[266,26],[532,395],[224,408],[-197,688],[343,729],[9,20],[27,200],[30,218],[2,19],[-63,117],[-210,461],[54,106],[757,1028],[250,9],[121,358],[451,221],[256,409],[488,240],[359,409],[258,-30],[133,190],[-15,247],[23,23],[425,103],[-503,813],[85,234],[786,660],[277,456],[-157,44],[-139,690],[-304,143],[96,96],[-194,780],[-253,398],[-14,440],[-290,457],[237,408],[-86,227],[97,751],[76,118],[280,21],[107,535],[-891,101],[-31,-193],[-911,104],[27,194],[-705,153],[-23,115],[-427,163],[-656,155],[-701,-8],[-677,220],[-906,-248],[-296,102],[-53,90],[-218,525],[30,42],[605,193],[544,391],[-162,610],[-188,196],[182,283],[-155,497],[-732,1086],[1952,-219],[73,183],[-100,180],[-239,-212],[-30,163],[-366,105],[184,208],[-179,216],[-13,288],[400,205],[347,410],[262,12],[-161,143],[154,148],[-74,639],[111,186],[445,80],[91,227],[-193,244],[221,173],[-365,219],[63,468],[-392,233],[37,267],[-233,119],[163,340],[-613,427],[-325,632],[-586,662],[52,237],[136,58],[-23,314],[355,-57],[141,313],[-343,2],[56,590],[-498,-163],[-305,359],[194,213],[-116,321],[241,162],[-34,86],[251,91],[-27,205],[125,114],[-556,166],[-388,-204],[-591,86],[-748,-398],[-26,236],[-195,19],[-19,102],[411,205],[202,282],[-41,205],[-200,138],[-300,-98],[-620,244],[-16,257],[-703,-148],[259,690],[281,105],[338,-222],[124,209],[182,-143],[139,128],[-96,217],[205,-141],[16,431],[380,-42],[-88,79],[85,289],[384,199],[-111,114],[32,369],[158,47],[-232,401],[33,202],[355,320],[1,187],[376,-99],[196,345],[-42,169],[515,138],[-20,231],[572,150],[-3019,407],[683,354],[155,661],[-47,415],[1236,-160],[42,230],[1080,-140],[-7,452],[146,122],[-57,271],[-229,260],[49,567],[-415,158],[185,42],[82,348],[-219,19],[-473,656],[-441,273],[156,353],[-266,321],[-4,320],[-111,102],[-295,-138],[-192,498],[-167,107],[193,155],[-41,308],[146,277],[-477,485],[52,362],[480,215],[133,39],[93,63],[209,138],[337,225],[1,183],[-234,270],[302,405],[-142,135],[-522,-110],[-111,272],[57,71],[150,51],[128,-14],[433,201],[257,682],[-285,122],[-96,186],[16,280],[215,286],[-40,176],[2142,-318],[-75,-271],[-291,-249],[104,-127],[1451,-208],[1291,268],[138,183],[492,-489],[-28,-286],[122,-195],[178,-61],[435,175],[246,390],[-172,415],[620,-76],[79,-186],[250,-38],[521,-522],[93,-37],[208,-87],[402,1992],[682,-599],[215,1124],[650,-101],[459,-276],[606,43],[339,-167],[-264,-1307],[411,-51],[398,-254],[559,298],[-85,-352],[158,-27],[-170,-508],[-227,-241],[29,-200],[507,-305],[92,-203],[996,81],[435,226],[236,-104],[-36,-189],[140,-91],[505,-34],[19,-303],[609,-558],[6,-407],[194,-373],[513,-591],[510,-88],[314,-322],[24,-331],[728,147],[599,-269],[458,-60],[58,318],[612,-77],[-95,-37],[-166,-944],[740,-93],[-96,-541],[1342,-173],[-302,-1687],[-1261,162],[-136,-756],[251,-32],[-133,-738],[654,-89],[-192,-899],[1786,-234],[-314,-1767],[-487,-346],[-41,-227],[-477,94],[-325,-117],[-299,-2124],[1781,-222],[1286,249],[631,-505],[812,286],[591,434],[1513,-85],[276,-84],[197,-539],[225,58],[417,-220],[871,-99],[260,-131],[138,55],[814,-286],[677,42],[137,-232],[1045,-482],[458,-615],[936,466],[349,-619],[-452,-220],[168,-244],[539,294],[527,-299],[367,168],[362,-147],[1263,-28],[964,610],[587,-8],[122,72],[-61,129],[187,94],[-142,127],[-31,271],[104,643],[2716,-326],[766,-588],[349,-10],[278,-572],[543,65],[698,-393],[1285,828],[225,647],[-61,979],[448,205],[383,394],[31,293],[6694,1529],[1192,-3878],[1106,-2963],[1417,-2662],[2475,-3654],[459,-1153],[87,-871],[-135,-255],[-537,-379],[-327,-624],[-426,-373],[-493,-120],[-952,23],[-690,-222],[-962,44],[-3770,1465],[-334,-103],[-838,35],[-251,167],[-642,-71],[-1135,-303],[-169,-331],[-466,-64],[-2927,-1500],[-611,-369],[-368,-394],[-132,-377],[-866,-1272],[-702,-1541],[-442,-433],[-342,-576],[78,-516],[-304,-54],[-452,-355],[0,-490],[-551,-692],[-108,-761],[281,-872],[685,-806],[466,9],[839,272],[844,-331],[2772,-627],[331,-198],[459,-89],[-65,351],[441,-147],[494,116],[675,341],[235,260],[-182,356],[137,48],[196,-205],[399,312],[-275,66],[-424,-137],[99,169],[210,66],[497,-110],[258,155],[170,-119],[195,-686],[-131,-340],[176,-296],[-82,-520],[348,-334],[-318,-365],[42,-451],[-193,-356],[-8,-384],[218,-299],[73,-342],[-285,-154],[-388,-973],[-242,-962],[91,-193],[-305,-708],[-442,-176],[-280,435],[-903,350],[-689,-382],[-272,131],[-406,-323],[-41,-198],[-1536,-1912]],[[21861,90001],[-83,-460],[772,-84],[-202,347],[225,328],[-181,66],[-193,-174],[-338,-23]]],"transform":{"scale":[0.00000895150000000001,0.000009512695126951283],"translate":[152.65126,-27.74362]},"objects":{"qld_brisbane_ddmg_boundaries_gda2020_simp20":{"type":"GeometryCollection","geometries":[{"arcs":[[[0,1]],[[2]],[[3]],[[4]],[[5]]],"type":"MultiPolygon","properties":{"District Name":"Brisbane","DDMG Name":"Brisbane","Police Region Name":"Brisbane Region","Police Region Code":"BR","Police Region Short Name":"Brisbane"}},{"arcs":[[-2,6],[7]],"type":"Polygon","properties":{"District Name":"Moreton","DDMG Name":"Moreton","Police Region Name":"Brisbane Region","Police Region Code":"BR","Police Region Short Name":"Brisbane"}}]}}}