{"type":"FeatureCollection","name":"qld_south_east_ldmg_boundaries_gda2020_simp20","crs":{"type":"name","properties":{"name":"urn:ogc:def:crs:EPSG::7844"}},"features":[{"type":"Feature","geometry":{"type":"Polygon","coordinates":[[[153.20738,-28.25295],[153.21139,-28.25747],[153.2125,-28.25776],[153.21885,-28.26337],[153.22198,-28.26339],[153.23284,-28.26506],[153.23451,-28.26285],[153.23562,-28.25663],[153.23907,-28.25184],[153.24393,-28.24729],[153.24653,-28.24667],[153.24974,-28.24748],[153.25479,-28.24531],[153.26114,-28.24358],[153.26401,-28.24347],[153.26534,-28.24124],[153.26906,-28.2386],[153.27424,-28.238],[153.27721,-28.23419],[153.2796,-28.23348],[153.28199,-28.23378],[153.28661,-28.23542],[153.29152,-28.23375],[153.29619,-28.23379],[153.30037,-28.23801],[153.30477,-28.23968],[153.3079,-28.23825],[153.31457,-28.23717],[153.31685,-28.23852],[153.32187,-28.23779],[153.32572,-28.23592],[153.32977,-28.23686],[153.33091,-28.24053],[153.3319,-28.24611],[153.33396,-28.24679],[153.33471,-28.24833],[153.33911,-28.25053],[153.34236,-28.25012],[153.34586,-28.24844],[153.35104,-28.24908],[153.35402,-28.24836],[153.35729,-28.24926],[153.36473,-28.24734],[153.36958,-28.24506],[153.37219,-28.24273],[153.37893,-28.2403],[153.38251,-28.23744],[153.38753,-28.23637],[153.38973,-28.23482],[153.39052,-28.23272],[153.38945,-28.23096],[153.39091,-28.22787],[153.39756,-28.21894],[153.40013,-28.21706],[153.40572,-28.21101],[153.41212,-28.20913],[153.41492,-28.20741],[153.41824,-28.20246],[153.41782,-28.20054],[153.42136,-28.19955],[153.42433,-28.19784],[153.42679,-28.19493],[153.42863,-28.19433],[153.4313,-28.1909],[153.43576,-28.18716],[153.44451,-28.18397],[153.44792,-28.18346],[153.45263,-28.18103],[153.45706,-28.18051],[153.45915,-28.17815],[153.45853,-28.175],[153.4649,-28.16756],[153.46846,-28.16242],[153.47249,-28.16174],[153.47461,-28.15956],[153.47497,-28.15801],[153.47695,-28.15688],[153.48059,-28.15738],[153.48151,-28.15823],[153.48586,-28.15702],[153.53117,-28.17523],[153.53465,-28.17763],[153.53952,-28.17205],[153.54145,-28.16898],[153.55195,-28.16448],[153.54863,-28.16298],[153.54781,-28.1644],[153.5439,-28.16562],[153.54217,-28.16725],[153.5386,-28.16689],[153.53476,-28.16575],[153.53286,-28.16698],[153.52983,-28.16729],[153.5251,-28.16663],[153.51748,-28.16301],[153.51131,-28.15894],[153.50435,-28.15273],[153.49894,-28.14655],[153.49516,-28.14128],[153.49038,-28.13319],[153.48876,-28.13137],[153.48619,-28.12679],[153.48231,-28.12775],[153.47764,-28.12569],[153.47166,-28.11731],[153.46775,-28.11037],[153.46265,-28.09894],[153.46031,-28.09574],[153.46052,-28.09265],[153.45971,-28.09063],[153.45732,-28.08942],[153.45362,-28.08911],[153.45167,-28.0868],[153.44838,-28.07924],[153.4457,-28.07103],[153.44501,-28.06987],[153.43987,-28.0502],[153.4367,-28.03602],[153.43441,-28.02404],[153.43207,-28.00989],[153.43055,-27.99522],[153.42974,-27.97808],[153.42922,-27.97095],[153.42927,-27.96309],[153.4301,-27.96312],[153.43029,-27.95515],[153.43017,-27.94661],[153.4304,-27.939],[153.42899,-27.9381],[153.42983,-27.93307],[153.42878,-27.92521],[153.42663,-27.91784],[153.42525,-27.91028],[153.42482,-27.90513],[153.42481,-27.89733],[153.42548,-27.89171],[153.42565,-27.88183],[153.42644,-27.87451],[153.42731,-27.87049],[153.42779,-27.86342],[153.42895,-27.85742],[153.42889,-27.85407],[153.43051,-27.84341],[153.43074,-27.83891],[153.43274,-27.82915],[153.43377,-27.82016],[153.43628,-27.80411],[153.43723,-27.80026],[153.43837,-27.79313],[153.44038,-27.78264],[153.44157,-27.77772],[153.44194,-27.77193],[153.44425,-27.76121],[153.44644,-27.75541],[153.44712,-27.75166],[153.44925,-27.74806],[153.44906,-27.74378],[153.44704,-27.74001],[153.4456,-27.7389],[153.44675,-27.73519],[153.44327,-27.73512],[153.43929,-27.73573],[153.42971,-27.74118],[153.42525,-27.74265],[153.41563,-27.74375],[153.41054,-27.74274],[153.40827,-27.74084],[153.40508,-27.73384],[153.4046,-27.72852],[153.40139,-27.72161],[153.39687,-27.71711],[153.39312,-27.71506],[153.39245,-27.71352],[153.39198,-27.70804],[153.39046,-27.70702],[153.38765,-27.70744],[153.3844,-27.71055],[153.38054,-27.71115],[153.37437,-27.70824],[153.37044,-27.70893],[153.36863,-27.71223],[153.36684,-27.71246],[153.36284,-27.70961],[153.3618,-27.70783],[153.36197,-27.70052],[153.3608,-27.69693],[153.36074,-27.69463],[153.35921,-27.69118],[153.35624,-27.69046],[153.35448,-27.69086],[153.34789,-27.69389],[153.34251,-27.69537],[153.3387,-27.69692],[153.33541,-27.69587],[153.32776,-27.69582],[153.32549,-27.69775],[153.32067,-27.70511],[153.31714,-27.70767],[153.30887,-27.71054],[153.30462,-27.71043],[153.30103,-27.70873],[153.29709,-27.70324],[153.29402,-27.7001],[153.29304,-27.6978],[153.29253,-27.69202],[153.28658,-27.69327],[153.2829,-27.69501],[153.27682,-27.69563],[153.27246,-27.69678],[153.26708,-27.69246],[153.26417,-27.6919],[153.25851,-27.69236],[153.25569,-27.69038],[153.25334,-27.69169],[153.25356,-27.69624],[153.2494,-27.6975],[153.24665,-27.697],[153.24324,-27.69738],[153.24161,-27.69616],[153.23461,-27.69396],[153.23338,-27.69599],[153.23414,-27.70015],[153.23607,-27.70408],[153.23258,-27.70537],[153.23187,-27.70665],[153.23337,-27.70903],[153.23333,-27.71116],[153.22916,-27.7125],[153.22696,-27.71537],[153.22109,-27.71424],[153.21364,-27.71433],[153.21274,-27.71528],[153.21546,-27.71816],[153.22162,-27.71864],[153.22621,-27.72063],[153.23059,-27.72158],[153.2326,-27.72384],[153.22873,-27.72731],[153.22753,-27.72654],[153.22758,-27.72371],[153.22512,-27.72343],[153.22162,-27.72523],[153.22047,-27.72669],[153.21623,-27.72739],[153.21835,-27.73079],[153.21983,-27.73474],[153.21834,-27.73691],[153.21654,-27.73774],[153.20942,-27.73967],[153.20733,-27.73897],[153.20125,-27.74001],[153.20005,-27.74386],[153.19754,-27.74659],[153.19727,-27.754],[153.19885,-27.75901],[153.19797,-27.7641],[153.196,-27.76613],[153.19394,-27.76682],[153.19327,-27.76837],[153.19378,-27.77194],[153.19221,-27.77364],[153.18707,-27.77412],[153.18637,-27.77544],[153.18785,-27.77707],[153.19123,-27.77722],[153.19301,-27.77939],[153.19139,-27.78153],[153.18424,-27.78886],[153.18235,-27.79454],[153.17821,-27.79641],[153.17006,-27.7994],[153.16901,-27.80057],[153.16945,-27.80363],[153.17618,-27.80836],[153.17803,-27.81126],[153.17689,-27.81204],[153.17783,-27.81429],[153.18055,-27.81521],[153.18335,-27.82001],[153.18004,-27.82448],[153.17567,-27.82942],[153.17442,-27.83251],[153.17291,-27.8344],[153.17573,-27.83684],[153.1757,-27.83942],[153.17969,-27.84027],[153.1815,-27.84398],[153.18063,-27.84832],[153.18202,-27.84854],[153.18108,-27.85392],[153.18895,-27.85509],[153.18542,-27.87375],[153.18637,-27.87519],[153.18574,-27.87801],[153.18627,-27.88123],[153.18469,-27.88494],[153.1847,-27.88766],[153.18335,-27.89135],[153.18069,-27.89507],[153.19505,-27.89716],[153.19499,-27.89745],[153.2121,-27.90011],[153.21169,-27.90217],[153.21544,-27.90273],[153.21257,-27.91789],[153.21358,-27.91805],[153.21571,-27.92197],[153.21479,-27.92601],[153.21375,-27.92585],[153.21059,-27.94147],[153.20824,-27.94113],[153.2066,-27.94923],[153.21913,-27.95123],[153.21983,-27.94763],[153.2252,-27.95611],[153.22321,-27.9579],[153.22275,-27.96229],[153.22405,-27.96285],[153.22177,-27.96812],[153.22016,-27.97624],[153.22593,-27.97717],[153.22512,-27.98164],[153.21677,-27.98026],[153.20353,-27.97836],[153.20077,-27.98054],[153.20162,-27.98264],[153.20793,-27.98577],[153.21124,-27.98983],[153.21067,-27.99296],[153.22053,-27.99437],[153.2209,-27.99969],[153.21973,-28.00338],[153.2181,-28.00601],[153.21765,-28.00819],[153.23888,-28.01116],[153.23628,-28.02595],[153.23258,-28.02566],[153.2301,-28.03964],[153.22922,-28.04006],[153.23076,-28.04434],[153.22876,-28.05511],[153.22633,-28.05475],[153.22513,-28.0612],[153.21898,-28.06129],[153.21987,-28.06294],[153.21996,-28.06624],[153.21619,-28.06567],[153.21336,-28.08033],[153.22949,-28.08279],[153.22943,-28.08485],[153.23244,-28.08531],[153.23155,-28.08986],[153.22961,-28.08957],[153.22753,-28.09725],[153.22989,-28.09997],[153.22372,-28.10308],[153.22279,-28.10294],[153.22131,-28.11122],[153.21786,-28.10888],[153.21566,-28.10859],[153.21408,-28.11742],[153.20604,-28.11629],[153.20579,-28.11784],[153.20247,-28.11711],[153.20028,-28.12058],[153.20124,-28.12127],[153.19951,-28.12985],[153.2004,-28.12998],[153.19732,-28.14717],[153.1958,-28.15126],[153.19454,-28.15744],[153.19534,-28.16029],[153.19852,-28.16276],[153.19565,-28.16692],[153.19508,-28.16969],[153.19291,-28.17308],[153.19333,-28.17602],[153.19106,-28.1791],[153.18903,-28.17888],[153.18766,-28.1801],[153.1866,-28.18706],[153.1843,-28.1929],[153.19345,-28.19159],[153.19255,-28.19297],[153.1927,-28.19651],[153.19429,-28.20065],[153.19264,-28.20114],[153.18948,-28.2005],[153.18858,-28.20328],[153.19063,-28.20636],[153.1907,-28.20974],[153.19301,-28.21166],[153.19487,-28.21429],[153.19511,-28.22027],[153.19807,-28.22475],[153.19862,-28.2267],[153.19764,-28.2313],[153.19972,-28.23641],[153.19997,-28.2395],[153.20712,-28.24659],[153.20738,-28.25295]]]},"properties":{"LGA Code":"3430","Abbreviated Name":"Gold Coast","LGA Name":"Gold Coast City","Area Sq Km":1376.56555,"LDMG Name":"Gold Coast","Police Region Name":"South Eastern Region","Police Region Code":"SER","Police Region Short Name":"South East"}},{"type":"Feature","geometry":{"type":"Polygon","coordinates":[[[152.94089,-27.62865],[152.93856,-27.63997],[152.93616,-27.64488],[152.92456,-27.65781],[152.92503,-27.65947],[152.92751,-27.66288],[152.9314,-27.66637],[152.9263,-27.69209],[152.92331,-27.70816],[152.89066,-27.70358],[152.88811,-27.71789],[152.88676,-27.72637],[152.88279,-27.74735],[152.87466,-27.74627],[152.87333,-27.75344],[152.85795,-27.75111],[152.8568,-27.75726],[152.84345,-27.75529],[152.84318,-27.75677],[152.836,-27.75572],[152.83395,-27.75266],[152.83458,-27.74756],[152.82926,-27.74677],[152.82825,-27.75272],[152.82303,-27.75203],[152.82226,-27.75637],[152.8114,-27.75489],[152.81105,-27.75903],[152.80804,-27.75864],[152.80653,-27.76825],[152.80558,-27.76813],[152.80412,-27.77632],[152.80483,-27.77642],[152.80331,-27.78557],[152.81144,-27.7868],[152.81184,-27.78451],[152.81471,-27.7853],[152.81834,-27.78494],[152.82241,-27.78612],[152.82176,-27.78909],[152.82444,-27.79376],[152.8246,-27.79646],[152.82568,-27.79811],[152.82532,-27.80017],[152.82647,-27.8075],[152.82741,-27.80964],[152.82641,-27.81504],[152.81636,-27.81362],[152.81406,-27.8262],[152.80405,-27.82485],[152.80268,-27.83185],[152.80056,-27.83154],[152.80043,-27.83707],[152.80095,-27.84046],[152.80056,-27.84314],[152.80165,-27.84464],[152.80575,-27.84558],[152.80703,-27.84445],[152.80968,-27.84682],[152.81229,-27.8474],[152.81537,-27.85191],[152.81361,-27.85508],[152.8161,-27.85612],[152.81486,-27.85771],[152.81964,-27.85897],[152.82006,-27.86226],[152.81862,-27.86382],[152.82062,-27.86573],[152.82313,-27.86557],[152.82506,-27.86385],[152.82824,-27.86607],[152.83046,-27.86493],[152.83277,-27.86786],[152.83598,-27.86901],[152.83949,-27.86729],[152.84094,-27.86466],[152.84361,-27.86836],[152.84702,-27.86809],[152.84824,-27.86633],[152.85195,-27.86633],[152.85594,-27.86213],[152.85618,-27.85999],[152.85888,-27.86152],[152.86288,-27.86057],[152.85916,-27.85767],[152.8631,-27.85627],[152.86755,-27.85572],[152.87143,-27.8544],[152.87324,-27.85553],[152.8754,-27.85529],[152.8741,-27.85256],[152.87181,-27.85298],[152.87064,-27.85135],[152.87263,-27.85041],[152.87863,-27.85185],[152.88097,-27.85133],[152.88069,-27.8489],[152.88772,-27.85009],[152.89264,-27.85053],[152.89276,-27.85215],[152.89571,-27.85691],[152.89736,-27.85756],[152.90011,-27.85312],[152.9088,-27.85073],[152.91392,-27.85008],[152.91827,-27.84853],[152.92054,-27.84581],[152.92459,-27.84208],[152.92974,-27.84115],[152.93101,-27.83992],[152.93395,-27.84072],[152.93831,-27.84067],[152.94301,-27.84265],[152.9447,-27.8446],[152.94491,-27.84981],[152.9479,-27.85007],[152.9508,-27.85195],[152.94834,-27.8536],[152.95161,-27.85817],[152.94787,-27.85913],[152.94291,-27.86144],[152.94291,-27.86291],[152.94477,-27.86577],[152.94397,-27.86723],[152.94423,-27.8704],[152.94613,-27.87735],[152.94795,-27.88065],[152.95008,-27.88195],[152.95133,-27.8861],[152.95103,-27.89015],[152.95176,-27.89175],[152.94928,-27.89541],[152.94735,-27.89696],[152.94979,-27.90168],[152.95335,-27.90129],[152.95436,-27.90239],[152.95289,-27.90621],[152.95352,-27.90855],[152.95531,-27.90922],[152.95588,-27.91182],[152.95931,-27.91282],[152.96017,-27.9162],[152.95933,-27.9202],[152.96032,-27.92094],[152.98252,-27.92412],[152.98398,-27.91613],[152.98503,-27.91198],[152.98816,-27.91426],[152.99104,-27.91525],[152.99587,-27.91557],[152.99943,-27.91632],[153.00144,-27.91831],[153.005,-27.91948],[153.01261,-27.92057],[153.01411,-27.91158],[153.0133,-27.90937],[153.01364,-27.90667],[153.01521,-27.90101],[153.01703,-27.90038],[153.02108,-27.9013],[153.02302,-27.90096],[153.02618,-27.90212],[153.02999,-27.90205],[153.03213,-27.90405],[153.03054,-27.90845],[153.03151,-27.90928],[153.03098,-27.91572],[153.03217,-27.91734],[153.03711,-27.9177],[153.03989,-27.92279],[153.04857,-27.92395],[153.04779,-27.92864],[153.04867,-27.92875],[153.04748,-27.93566],[153.05204,-27.93649],[153.05792,-27.93672],[153.06975,-27.93859],[153.07144,-27.93661],[153.07518,-27.93567],[153.07528,-27.93429],[153.08071,-27.9326],[153.08475,-27.93344],[153.08543,-27.93171],[153.08871,-27.93042],[153.09047,-27.92573],[153.09518,-27.92407],[153.09402,-27.91822],[153.10047,-27.91811],[153.10172,-27.91436],[153.10632,-27.91143],[153.1057,-27.90963],[153.10265,-27.90821],[153.10118,-27.90647],[153.10289,-27.90426],[153.10257,-27.90268],[153.09828,-27.90101],[153.09775,-27.89947],[153.09789,-27.89544],[153.09984,-27.89115],[153.10191,-27.89197],[153.10338,-27.89024],[153.10122,-27.88825],[153.10313,-27.88553],[153.10543,-27.88582],[153.10698,-27.88467],[153.1112,-27.8836],[153.11138,-27.88277],[153.10396,-27.88124],[153.10188,-27.87772],[153.10323,-27.87534],[153.10085,-27.87302],[153.10256,-27.87194],[153.10582,-27.87332],[153.10751,-27.87008],[153.10414,-27.86844],[153.1051,-27.86702],[153.10979,-27.86353],[153.11185,-27.86312],[153.11442,-27.86058],[153.11605,-27.86094],[153.1223,-27.866],[153.12416,-27.86534],[153.12366,-27.86309],[153.12825,-27.86242],[153.13273,-27.86229],[153.13474,-27.86154],[153.13233,-27.85541],[153.13298,-27.8545],[153.13801,-27.85236],[153.14326,-27.85468],[153.14578,-27.85332],[153.14785,-27.85587],[153.15259,-27.85871],[153.15699,-27.85951],[153.15791,-27.85874],[153.15702,-27.85409],[153.1512,-27.85072],[153.15881,-27.84646],[153.16105,-27.84339],[153.16944,-27.84153],[153.16871,-27.8389],[153.17122,-27.837],[153.17291,-27.8344],[153.17442,-27.83251],[153.17567,-27.82942],[153.18004,-27.82448],[153.18335,-27.82001],[153.18055,-27.81521],[153.17783,-27.81429],[153.17689,-27.81204],[153.17803,-27.81126],[153.17618,-27.80836],[153.16945,-27.80363],[153.16901,-27.80057],[153.17006,-27.7994],[153.17821,-27.79641],[153.18235,-27.79454],[153.18424,-27.78886],[153.19139,-27.78153],[153.19301,-27.77939],[153.19123,-27.77722],[153.18785,-27.77707],[153.18637,-27.77544],[153.18707,-27.77412],[153.19221,-27.77364],[153.19378,-27.77194],[153.19327,-27.76837],[153.19394,-27.76682],[153.196,-27.76613],[153.19797,-27.7641],[153.19885,-27.75901],[153.19727,-27.754],[153.19754,-27.74659],[153.20005,-27.74386],[153.20125,-27.74001],[153.20733,-27.73897],[153.20942,-27.73967],[153.21654,-27.73774],[153.21834,-27.73691],[153.21983,-27.73474],[153.21835,-27.73079],[153.21623,-27.72739],[153.22047,-27.72669],[153.22162,-27.72523],[153.22512,-27.72343],[153.22758,-27.72371],[153.22753,-27.72654],[153.22873,-27.72731],[153.2326,-27.72384],[153.23059,-27.72158],[153.22621,-27.72063],[153.22162,-27.71864],[153.21546,-27.71816],[153.21274,-27.71528],[153.21364,-27.71433],[153.22109,-27.71424],[153.22696,-27.71537],[153.22916,-27.7125],[153.23333,-27.71116],[153.23337,-27.70903],[153.23187,-27.70665],[153.23258,-27.70537],[153.23607,-27.70408],[153.23414,-27.70015],[153.23338,-27.69599],[153.23461,-27.69396],[153.24161,-27.69616],[153.24324,-27.69738],[153.24665,-27.697],[153.2494,-27.6975],[153.25356,-27.69624],[153.25334,-27.69169],[153.25569,-27.69038],[153.25851,-27.69236],[153.26417,-27.6919],[153.26708,-27.69246],[153.27246,-27.69678],[153.27682,-27.69563],[153.2829,-27.69501],[153.28658,-27.69327],[153.28795,-27.69165],[153.28772,-27.68887],[153.28857,-27.68694],[153.28234,-27.68697],[153.283,-27.68347],[153.28098,-27.68316],[153.28265,-27.67418],[153.2805,-27.67276],[153.28175,-27.67149],[153.28119,-27.66869],[153.28236,-27.6668],[153.28025,-27.66307],[153.28066,-27.66147],[153.27991,-27.65841],[153.26286,-27.65606],[153.26246,-27.65397],[153.25453,-27.65279],[153.25493,-27.64957],[153.23889,-27.64734],[153.23879,-27.64921],[153.20872,-27.64507],[153.20612,-27.64392],[153.207,-27.64121],[153.19393,-27.63946],[153.19356,-27.64157],[153.18755,-27.64074],[153.18322,-27.63828],[153.18403,-27.6355],[153.1823,-27.63407],[153.17705,-27.63482],[153.17385,-27.63424],[153.17575,-27.62346],[153.18174,-27.6243],[153.18377,-27.61257],[153.18083,-27.6091],[153.17572,-27.6066],[153.17328,-27.60603],[153.17144,-27.60327],[153.16681,-27.60059],[153.16404,-27.59767],[153.16204,-27.59733],[153.15984,-27.59575],[153.15637,-27.59183],[153.14928,-27.59118],[153.14736,-27.59055],[153.1423,-27.59129],[153.14025,-27.58961],[153.12696,-27.58776],[153.12315,-27.58742],[153.12192,-27.59531],[153.11053,-27.59376],[153.10973,-27.59365],[153.10585,-27.59318],[153.10113,-27.61792],[153.09471,-27.61716],[153.09373,-27.6208],[153.09582,-27.6211],[153.09749,-27.62288],[153.09674,-27.6271],[153.09147,-27.6263],[153.09099,-27.62892],[153.09461,-27.63176],[153.09617,-27.63033],[153.09457,-27.63932],[153.09685,-27.64201],[153.09443,-27.64286],[153.09541,-27.64504],[153.08797,-27.64756],[153.08376,-27.64989],[153.0781,-27.65186],[153.07262,-27.65093],[153.06946,-27.65292],[153.06766,-27.65105],[153.05876,-27.65679],[153.04004,-27.65401],[153.03722,-27.66021],[153.01625,-27.65689],[153.01205,-27.65713],[153.00362,-27.65583],[152.99795,-27.65452],[152.98975,-27.65158],[152.97949,-27.64675],[152.97689,-27.64484],[152.97322,-27.63915],[152.96837,-27.63613],[152.96449,-27.63528],[152.95637,-27.63462],[152.94787,-27.63212],[152.94479,-27.62947],[152.94089,-27.62865]]]},"properties":{"LGA Code":"4590","Abbreviated Name":"Logan","LGA Name":"Logan City","Area Sq Km":957.87316,"LDMG Name":"Logan","Police Region Name":"South Eastern Region","Police Region Code":"SER","Police Region Short Name":"South East"}},{"type":"Feature","geometry":{"type":"Polygon","coordinates":[[[153.17291,-27.8344],[153.17122,-27.837],[153.16871,-27.8389],[153.16944,-27.84153],[153.16105,-27.84339],[153.15881,-27.84646],[153.1512,-27.85072],[153.15702,-27.85409],[153.15791,-27.85874],[153.15699,-27.85951],[153.15259,-27.85871],[153.14785,-27.85587],[153.14578,-27.85332],[153.14326,-27.85468],[153.13801,-27.85236],[153.13298,-27.8545],[153.13233,-27.85541],[153.13474,-27.86154],[153.13273,-27.86229],[153.12825,-27.86242],[153.12366,-27.86309],[153.12416,-27.86534],[153.1223,-27.866],[153.11605,-27.86094],[153.11442,-27.86058],[153.11185,-27.86312],[153.10979,-27.86353],[153.1051,-27.86702],[153.10414,-27.86844],[153.10751,-27.87008],[153.10582,-27.87332],[153.10256,-27.87194],[153.10085,-27.87302],[153.10323,-27.87534],[153.10188,-27.87772],[153.10396,-27.88124],[153.11138,-27.88277],[153.1112,-27.8836],[153.10698,-27.88467],[153.10543,-27.88582],[153.10313,-27.88553],[153.10122,-27.88825],[153.10338,-27.89024],[153.10191,-27.89197],[153.09984,-27.89115],[153.09789,-27.89544],[153.09775,-27.89947],[153.09828,-27.90101],[153.10257,-27.90268],[153.10289,-27.90426],[153.10118,-27.90647],[153.10265,-27.90821],[153.1057,-27.90963],[153.10632,-27.91143],[153.10172,-27.91436],[153.10047,-27.91811],[153.09402,-27.91822],[153.09518,-27.92407],[153.09047,-27.92573],[153.08871,-27.93042],[153.08543,-27.93171],[153.08475,-27.93344],[153.08071,-27.9326],[153.07528,-27.93429],[153.07518,-27.93567],[153.07144,-27.93661],[153.06975,-27.93859],[153.05792,-27.93672],[153.05204,-27.93649],[153.04748,-27.93566],[153.04867,-27.92875],[153.04779,-27.92864],[153.04857,-27.92395],[153.03989,-27.92279],[153.03711,-27.9177],[153.03217,-27.91734],[153.03098,-27.91572],[153.03151,-27.90928],[153.03054,-27.90845],[153.03213,-27.90405],[153.02999,-27.90205],[153.02618,-27.90212],[153.02302,-27.90096],[153.02108,-27.9013],[153.01703,-27.90038],[153.01521,-27.90101],[153.01364,-27.90667],[153.0133,-27.90937],[153.01411,-27.91158],[153.01261,-27.92057],[153.005,-27.91948],[153.00144,-27.91831],[152.99943,-27.91632],[152.99587,-27.91557],[152.99104,-27.91525],[152.98816,-27.91426],[152.98503,-27.91198],[152.98398,-27.91613],[152.98252,-27.92412],[152.96032,-27.92094],[152.95933,-27.9202],[152.96017,-27.9162],[152.95931,-27.91282],[152.95588,-27.91182],[152.95531,-27.90922],[152.95352,-27.90855],[152.95289,-27.90621],[152.95436,-27.90239],[152.95335,-27.90129],[152.94979,-27.90168],[152.94735,-27.89696],[152.94928,-27.89541],[152.95176,-27.89175],[152.95103,-27.89015],[152.95133,-27.8861],[152.95008,-27.88195],[152.94795,-27.88065],[152.94613,-27.87735],[152.94423,-27.8704],[152.94397,-27.86723],[152.94477,-27.86577],[152.94291,-27.86291],[152.94291,-27.86144],[152.94787,-27.85913],[152.95161,-27.85817],[152.94834,-27.8536],[152.9508,-27.85195],[152.9479,-27.85007],[152.94491,-27.84981],[152.9447,-27.8446],[152.94301,-27.84265],[152.93831,-27.84067],[152.93395,-27.84072],[152.93101,-27.83992],[152.92974,-27.84115],[152.92459,-27.84208],[152.92054,-27.84581],[152.91827,-27.84853],[152.91392,-27.85008],[152.9088,-27.85073],[152.90011,-27.85312],[152.89736,-27.85756],[152.89571,-27.85691],[152.89276,-27.85215],[152.89264,-27.85053],[152.88772,-27.85009],[152.88069,-27.8489],[152.88097,-27.85133],[152.87863,-27.85185],[152.87263,-27.85041],[152.87064,-27.85135],[152.87181,-27.85298],[152.8741,-27.85256],[152.8754,-27.85529],[152.87324,-27.85553],[152.87143,-27.8544],[152.86755,-27.85572],[152.8631,-27.85627],[152.85916,-27.85767],[152.86288,-27.86057],[152.85888,-27.86152],[152.85618,-27.85999],[152.85594,-27.86213],[152.85195,-27.86633],[152.84824,-27.86633],[152.84702,-27.86809],[152.84361,-27.86836],[152.84094,-27.86466],[152.83949,-27.86729],[152.83598,-27.86901],[152.83277,-27.86786],[152.83046,-27.86493],[152.82824,-27.86607],[152.82506,-27.86385],[152.82313,-27.86557],[152.82062,-27.86573],[152.81862,-27.86382],[152.82006,-27.86226],[152.81964,-27.85897],[152.81486,-27.85771],[152.8161,-27.85612],[152.81361,-27.85508],[152.81537,-27.85191],[152.81229,-27.8474],[152.80968,-27.84682],[152.80703,-27.84445],[152.80575,-27.84558],[152.80165,-27.84464],[152.80056,-27.84314],[152.80095,-27.84046],[152.80043,-27.83707],[152.80056,-27.83154],[152.80268,-27.83185],[152.80405,-27.82485],[152.80559,-27.81697],[152.79576,-27.81542],[152.79981,-27.81452],[152.80248,-27.79836],[152.78564,-27.79621],[152.78655,-27.79088],[152.78486,-27.78882],[152.78215,-27.78818],[152.76073,-27.78529],[152.76271,-27.77293],[152.75801,-27.76741],[152.73775,-27.7644],[152.73751,-27.76347],[152.72129,-27.76099],[152.72153,-27.76044],[152.70756,-27.7583],[152.70758,-27.75685],[152.70442,-27.74963],[152.68639,-27.74685],[152.6858,-27.7497],[152.68429,-27.75247],[152.66754,-27.74996],[152.66864,-27.74332],[152.65537,-27.74135],[152.65598,-27.73829],[152.64768,-27.73775],[152.63913,-27.73654],[152.63822,-27.74159],[152.62832,-27.74022],[152.60765,-27.73709],[152.60866,-27.73163],[152.60462,-27.73134],[152.60577,-27.72497],[152.59863,-27.72391],[152.5982,-27.72625],[152.57984,-27.72359],[152.58066,-27.71912],[152.56201,-27.71646],[152.56179,-27.72101],[152.54213,-27.71826],[152.54214,-27.71936],[152.52946,-27.71762],[152.52548,-27.7206],[152.52446,-27.72203],[152.52297,-27.72698],[152.52371,-27.73631],[152.51933,-27.76116],[152.49901,-27.75826],[152.4945,-27.78341],[152.4819,-27.78164],[152.48123,-27.78512],[152.46741,-27.78312],[152.46664,-27.78766],[152.46717,-27.78922],[152.46386,-27.79377],[152.46226,-27.80248],[152.45938,-27.80314],[152.45118,-27.80199],[152.4434,-27.84476],[152.43587,-27.84371],[152.43626,-27.84162],[152.42848,-27.84046],[152.42547,-27.85717],[152.42089,-27.85655],[152.41929,-27.86546],[152.41344,-27.8651],[152.40236,-27.86369],[152.40175,-27.86654],[152.40337,-27.8694],[152.40529,-27.87122],[152.40608,-27.87708],[152.4087,-27.88087],[152.41158,-27.88334],[152.41022,-27.88704],[152.41133,-27.89155],[152.41011,-27.89587],[152.41168,-27.89803],[152.41066,-27.90117],[152.40485,-27.90431],[152.40406,-27.90573],[152.40486,-27.91104],[152.40445,-27.91233],[152.40563,-27.91909],[152.4091,-27.91952],[152.40852,-27.9232],[152.41061,-27.92675],[152.4111,-27.93029],[152.4105,-27.93423],[152.41274,-27.9354],[152.41319,-27.93892],[152.41536,-27.94155],[152.41588,-27.94462],[152.41129,-27.94783],[152.41018,-27.95044],[152.40504,-27.95445],[152.40226,-27.95901],[152.40278,-27.96344],[152.40133,-27.96773],[152.40182,-27.97145],[152.39952,-27.97396],[152.39732,-27.97469],[152.39458,-27.97752],[152.39117,-27.97484],[152.38906,-27.9741],[152.38613,-27.97533],[152.38282,-27.97879],[152.38363,-27.98372],[152.38088,-27.98612],[152.37801,-27.99055],[152.378,-27.99925],[152.37633,-28.00603],[152.37685,-28.00755],[152.3749,-28.01232],[152.37569,-28.01399],[152.38132,-28.02082],[152.38285,-28.02444],[152.38734,-28.02865],[152.39032,-28.03085],[152.38848,-28.03628],[152.39107,-28.03868],[152.3943,-28.04376],[152.39372,-28.04567],[152.39504,-28.04898],[152.39377,-28.05243],[152.38996,-28.05908],[152.39401,-28.0603],[152.39943,-28.0627],[152.40236,-28.06532],[152.40673,-28.06661],[152.41065,-28.06874],[152.41632,-28.06974],[152.41641,-28.07372],[152.4148,-28.07886],[152.41638,-28.08104],[152.41846,-28.08847],[152.41713,-28.09067],[152.41243,-28.09238],[152.40941,-28.09576],[152.40855,-28.1001],[152.41081,-28.10331],[152.41172,-28.10571],[152.41144,-28.11262],[152.41197,-28.11445],[152.41394,-28.11631],[152.41901,-28.11869],[152.42014,-28.1199],[152.42153,-28.12443],[152.42376,-28.12603],[152.42615,-28.12909],[152.43405,-28.131],[152.43343,-28.13243],[152.43357,-28.13614],[152.43205,-28.14261],[152.43377,-28.14378],[152.43489,-28.1475],[152.43441,-28.15083],[152.43548,-28.15308],[152.43554,-28.1563],[152.43734,-28.15779],[152.43845,-28.16017],[152.44378,-28.16329],[152.44655,-28.16388],[152.44669,-28.16641],[152.44446,-28.16998],[152.4436,-28.1734],[152.44206,-28.176],[152.44215,-28.17904],[152.4443,-28.18088],[152.44538,-28.18431],[152.44731,-28.18663],[152.44762,-28.18932],[152.45056,-28.19042],[152.45385,-28.19415],[152.45584,-28.19562],[152.45788,-28.19439],[152.46304,-28.19526],[152.46472,-28.19485],[152.47086,-28.19495],[152.47087,-28.20053],[152.47324,-28.20435],[152.47206,-28.20683],[152.47053,-28.20762],[152.46983,-28.21067],[152.46759,-28.21235],[152.46561,-28.21674],[152.46021,-28.21836],[152.45825,-28.22099],[152.45896,-28.22657],[152.46992,-28.22886],[152.46943,-28.23195],[152.47544,-28.23355],[152.4763,-28.22822],[152.48236,-28.22949],[152.48454,-28.23314],[152.48799,-28.23468],[152.48728,-28.23886],[152.48911,-28.2386],[152.49203,-28.24036],[152.49241,-28.24374],[152.48853,-28.24633],[152.48734,-28.24942],[152.48768,-28.25344],[152.49281,-28.25406],[152.50099,-28.2524],[152.50334,-28.25055],[152.50589,-28.25037],[152.50754,-28.24899],[152.50931,-28.24917],[152.5131,-28.25144],[152.51582,-28.25179],[152.51674,-28.25471],[152.51607,-28.25681],[152.51869,-28.25694],[152.5217,-28.26072],[152.52895,-28.26171],[152.53649,-28.26588],[152.53428,-28.27067],[152.5329,-28.2723],[152.53281,-28.27957],[152.53146,-28.28268],[152.52889,-28.28663],[152.52937,-28.29331],[152.52871,-28.29394],[152.5293,-28.29793],[152.52863,-28.29949],[152.5256,-28.30178],[152.52513,-28.30419],[152.52592,-28.30596],[152.53169,-28.30895],[152.53355,-28.31071],[152.53888,-28.31134],[152.54159,-28.31361],[152.54325,-28.31591],[152.54405,-28.31893],[152.54906,-28.32126],[152.55495,-28.31896],[152.55391,-28.32443],[152.55975,-28.32358],[152.56404,-28.32352],[152.5723,-28.32674],[152.57317,-28.32776],[152.57463,-28.33408],[152.57567,-28.33454],[152.57951,-28.33919],[152.58059,-28.3367],[152.58293,-28.33439],[152.58294,-28.33188],[152.58524,-28.3284],[152.58919,-28.32599],[152.5906,-28.32328],[152.59275,-28.32175],[152.59388,-28.31913],[152.59653,-28.31807],[152.59759,-28.31448],[152.59679,-28.31354],[152.59908,-28.30956],[152.60183,-28.3073],[152.60054,-28.30292],[152.59919,-28.30023],[152.59733,-28.29128],[152.59806,-28.28811],[152.59977,-28.28548],[152.59963,-28.28367],[152.60328,-28.28021],[152.60328,-28.27923],[152.61066,-28.27444],[152.61248,-28.27092],[152.61442,-28.27004],[152.6161,-28.27183],[152.61571,-28.27463],[152.61722,-28.27701],[152.61753,-28.28256],[152.62093,-28.284],[152.62352,-28.28887],[152.62323,-28.29155],[152.62215,-28.29317],[152.62395,-28.29573],[152.62413,-28.29828],[152.62696,-28.3001],[152.62844,-28.30355],[152.63038,-28.30505],[152.63263,-28.30514],[152.63537,-28.30717],[152.63658,-28.30923],[152.63975,-28.31217],[152.64431,-28.31301],[152.64681,-28.31206],[152.64848,-28.31336],[152.65188,-28.31242],[152.65284,-28.31131],[152.65731,-28.31117],[152.65912,-28.30987],[152.6637,-28.31028],[152.66752,-28.31169],[152.66819,-28.3138],[152.67183,-28.31532],[152.67356,-28.31796],[152.67339,-28.32124],[152.67397,-28.32627],[152.67644,-28.32757],[152.6795,-28.33057],[152.68161,-28.3297],[152.68638,-28.32913],[152.68759,-28.33073],[152.6884,-28.33482],[152.69241,-28.33679],[152.69522,-28.33691],[152.69858,-28.33566],[152.70133,-28.33802],[152.70415,-28.33842],[152.70464,-28.34097],[152.70829,-28.34427],[152.711,-28.34203],[152.71324,-28.34149],[152.71546,-28.34341],[152.72021,-28.34527],[152.72306,-28.34412],[152.72725,-28.34928],[152.73095,-28.3523],[152.73158,-28.35424],[152.7341,-28.35337],[152.73702,-28.35512],[152.74033,-28.35917],[152.74654,-28.36066],[152.75096,-28.36387],[152.75661,-28.36356],[152.76105,-28.36015],[152.76186,-28.35827],[152.75822,-28.35507],[152.7598,-28.35245],[152.76502,-28.35104],[152.76832,-28.34942],[152.77292,-28.3481],[152.77495,-28.34654],[152.77739,-28.34595],[152.78174,-28.34667],[152.78501,-28.34888],[152.7867,-28.34918],[152.78791,-28.35122],[152.79168,-28.35206],[152.79338,-28.35403],[152.79801,-28.35294],[152.79991,-28.35393],[152.80426,-28.35356],[152.80595,-28.35145],[152.80908,-28.35062],[152.80862,-28.34719],[152.80932,-28.34207],[152.81233,-28.34069],[152.81254,-28.33915],[152.81596,-28.33734],[152.81861,-28.33503],[152.82312,-28.33547],[152.82457,-28.33218],[152.8237,-28.3289],[152.82832,-28.32467],[152.82859,-28.32285],[152.83137,-28.31966],[152.83362,-28.31987],[152.83555,-28.32139],[152.83876,-28.32213],[152.84367,-28.31954],[152.84796,-28.31475],[152.84943,-28.31117],[152.85184,-28.31115],[152.85472,-28.31278],[152.85775,-28.31141],[152.8596,-28.31146],[152.86578,-28.31356],[152.8781,-28.31173],[152.88043,-28.3098],[152.88269,-28.31331],[152.88624,-28.31505],[152.88914,-28.31543],[152.89094,-28.31728],[152.89343,-28.31792],[152.89404,-28.31962],[152.89835,-28.3241],[152.90019,-28.32546],[152.90625,-28.32583],[152.90996,-28.32698],[152.91104,-28.32827],[152.91748,-28.33103],[152.92337,-28.33158],[152.92835,-28.33492],[152.93151,-28.3358],[152.93427,-28.33764],[152.93917,-28.33474],[152.94296,-28.33473],[152.94515,-28.33566],[152.94853,-28.3349],[152.95075,-28.33363],[152.95272,-28.33413],[152.95905,-28.33349],[152.96267,-28.33212],[152.96558,-28.33261],[152.97319,-28.33181],[152.97816,-28.33364],[152.9836,-28.33809],[152.98601,-28.33799],[152.98983,-28.33661],[152.99249,-28.33858],[152.9961,-28.33995],[153.00024,-28.34024],[153.00318,-28.33967],[153.01007,-28.34128],[153.02223,-28.33803],[153.02517,-28.33943],[153.03049,-28.3397],[153.0326,-28.34194],[153.03544,-28.34167],[153.03808,-28.34344],[153.04491,-28.339],[153.04759,-28.34031],[153.04908,-28.34201],[153.05175,-28.3414],[153.05326,-28.34314],[153.05785,-28.34274],[153.05941,-28.34392],[153.06164,-28.34351],[153.06531,-28.34423],[153.06713,-28.34635],[153.07066,-28.34783],[153.0716,-28.3503],[153.07418,-28.35219],[153.07751,-28.35196],[153.07931,-28.354],[153.08295,-28.35396],[153.08631,-28.35461],[153.08918,-28.35331],[153.09379,-28.3555],[153.1023,-28.35787],[153.10459,-28.35719],[153.10766,-28.35848],[153.10946,-28.35607],[153.11115,-28.35641],[153.1132,-28.35289],[153.11382,-28.34924],[153.11547,-28.34767],[153.11674,-28.34149],[153.12051,-28.34199],[153.12389,-28.33948],[153.12531,-28.3393],[153.1252,-28.33673],[153.12677,-28.33622],[153.12919,-28.33104],[153.13025,-28.33027],[153.12716,-28.32608],[153.12484,-28.32392],[153.12407,-28.32019],[153.12584,-28.31728],[153.13297,-28.31752],[153.13576,-28.31211],[153.13829,-28.31124],[153.14329,-28.31219],[153.14329,-28.30463],[153.14664,-28.30437],[153.15292,-28.30191],[153.15385,-28.3007],[153.15398,-28.29724],[153.15515,-28.29611],[153.15932,-28.29666],[153.16084,-28.29608],[153.16438,-28.29788],[153.16774,-28.29546],[153.16918,-28.29309],[153.16512,-28.28771],[153.1665,-28.2851],[153.16226,-28.28245],[153.16116,-28.27975],[153.16783,-28.27714],[153.16946,-28.27561],[153.17106,-28.27618],[153.17518,-28.27419],[153.17393,-28.27018],[153.1746,-28.26853],[153.17164,-28.26363],[153.17149,-28.25917],[153.17292,-28.25884],[153.17362,-28.25543],[153.17584,-28.25232],[153.17667,-28.24959],[153.17979,-28.25024],[153.18252,-28.24859],[153.18817,-28.2475],[153.19164,-28.24964],[153.19434,-28.25319],[153.19948,-28.25654],[153.2032,-28.2557],[153.20397,-28.25375],[153.20738,-28.25295],[153.20712,-28.24659],[153.19997,-28.2395],[153.19972,-28.23641],[153.19764,-28.2313],[153.19862,-28.2267],[153.19807,-28.22475],[153.19511,-28.22027],[153.19487,-28.21429],[153.19301,-28.21166],[153.1907,-28.20974],[153.19063,-28.20636],[153.18858,-28.20328],[153.18948,-28.2005],[153.19264,-28.20114],[153.19429,-28.20065],[153.1927,-28.19651],[153.19255,-28.19297],[153.19345,-28.19159],[153.1843,-28.1929],[153.1866,-28.18706],[153.18766,-28.1801],[153.18903,-28.17888],[153.19106,-28.1791],[153.19333,-28.17602],[153.19291,-28.17308],[153.19508,-28.16969],[153.19565,-28.16692],[153.19852,-28.16276],[153.19534,-28.16029],[153.19454,-28.15744],[153.1958,-28.15126],[153.19732,-28.14717],[153.2004,-28.12998],[153.19951,-28.12985],[153.20124,-28.12127],[153.20028,-28.12058],[153.20247,-28.11711],[153.20579,-28.11784],[153.20604,-28.11629],[153.21408,-28.11742],[153.21566,-28.10859],[153.21786,-28.10888],[153.22131,-28.11122],[153.22279,-28.10294],[153.22372,-28.10308],[153.22989,-28.09997],[153.22753,-28.09725],[153.22961,-28.08957],[153.23155,-28.08986],[153.23244,-28.08531],[153.22943,-28.08485],[153.22949,-28.08279],[153.21336,-28.08033],[153.21619,-28.06567],[153.21996,-28.06624],[153.21987,-28.06294],[153.21898,-28.06129],[153.22513,-28.0612],[153.22633,-28.05475],[153.22876,-28.05511],[153.23076,-28.04434],[153.22922,-28.04006],[153.2301,-28.03964],[153.23258,-28.02566],[153.23628,-28.02595],[153.23888,-28.01116],[153.21765,-28.00819],[153.2181,-28.00601],[153.21973,-28.00338],[153.2209,-27.99969],[153.22053,-27.99437],[153.21067,-27.99296],[153.21124,-27.98983],[153.20793,-27.98577],[153.20162,-27.98264],[153.20077,-27.98054],[153.20353,-27.97836],[153.21677,-27.98026],[153.22512,-27.98164],[153.22593,-27.97717],[153.22016,-27.97624],[153.22177,-27.96812],[153.22405,-27.96285],[153.22275,-27.96229],[153.22321,-27.9579],[153.2252,-27.95611],[153.21983,-27.94763],[153.21913,-27.95123],[153.2066,-27.94923],[153.20824,-27.94113],[153.21059,-27.94147],[153.21375,-27.92585],[153.21479,-27.92601],[153.21571,-27.92197],[153.21358,-27.91805],[153.21257,-27.91789],[153.21544,-27.90273],[153.21169,-27.90217],[153.2121,-27.90011],[153.19499,-27.89745],[153.19505,-27.89716],[153.18069,-27.89507],[153.18335,-27.89135],[153.1847,-27.88766],[153.18469,-27.88494],[153.18627,-27.88123],[153.18574,-27.87801],[153.18637,-27.87519],[153.18542,-27.87375],[153.18895,-27.85509],[153.18108,-27.85392],[153.18202,-27.84854],[153.18063,-27.84832],[153.1815,-27.84398],[153.17969,-27.84027],[153.1757,-27.83942],[153.17573,-27.83684],[153.17291,-27.8344]]]},"properties":{"LGA Code":"6510","Abbreviated Name":"Scenic Rim","LGA Name":"Scenic Rim Regional","Area Sq Km":4242.95511,"LDMG Name":"Scenic Rim","Police Region Name":"South Eastern Region","Police Region Code":"SER","Police Region Short Name":"South East"}}]}