{"type":"Topology","arcs":[[[23602,25725],[-259,-216],[-322,-266],[-335,314],[-435,276],[-37,15],[-3,-9],[-109,-104],[-195,-178],[-15,-4],[-21,-27],[-196,-169],[-211,-189],[-937,-738],[-87,-69],[-81,-63],[-222,-175],[-240,-267],[-358,-384],[17,-125],[49,-418],[49,-411],[-1670,155],[-371,37],[-589,55],[-874,93],[-59,-597],[81,-8],[-20,-241],[-385,-335],[-181,-111],[-35,-19],[0,-14],[23,-35],[-10,-22],[3,-34],[-23,-9],[2,-32],[18,-10],[20,-23],[35,-31],[14,-37],[5,-41],[-5,-25],[-2,-53],[22,-32],[22,-6],[21,-14],[38,-11],[15,-18],[4,-34],[22,-45],[3,-62],[14,-21],[-712,31],[-1397,123],[-16,-7],[-1151,66],[-284,14],[100,1369],[-1502,99],[363,328],[-1366,1492],[-435,-383],[-386,412],[-1473,-1288],[181,-257],[-391,-332],[-356,-296],[-653,-488],[-138,-111],[-565,660],[-212,260],[-425,435],[-1063,-842],[-313,24],[-3565,287]],[[33,22534],[-1,602],[0,661],[0,661],[-1,661],[0,661],[0,529],[-1,397],[0,581],[-1,609],[0,529],[-1,794],[0,528],[0,660],[0,661],[-1,661],[0,529],[0,661],[-1,822],[0,633],[0,661],[-1,662],[0,661],[-1,842],[0,613],[-1,661],[0,529],[0,662],[-1,661],[0,661],[-1,662],[0,661],[0,662],[-1,735]],[[20,43707],[719,-47],[639,-41],[49,609],[94,1265],[901,-2],[473,-1],[-223,-206],[529,-596],[337,-389],[-461,-432],[1049,-1241],[332,-17],[227,260],[822,981],[240,288],[491,214],[607,574],[597,564],[764,704],[84,75],[-31,37],[453,403],[732,-871],[2229,-69],[32,277],[-41,406],[371,-34],[289,-26],[496,-9],[157,-6]],[[12977,46377],[-3,-179],[0,-999],[-96,-1199],[-48,-1035],[-286,7],[-1033,25],[-4,-847],[-4,-267],[-1169,-964],[91,-64],[-78,-83],[-12,-28],[51,-189],[-84,-843],[340,-388],[386,-440],[-356,-1018],[-71,-327],[705,-784],[-291,-257],[1473,-1440],[-876,-812],[861,-75],[-21,-359],[92,-4],[1014,-79],[41,639],[324,-24],[695,-50],[63,599],[289,-31],[408,-46],[355,-618],[-2,-34],[1313,-95],[172,-12],[-18,-286],[-159,-371],[347,-21],[1371,-84],[96,-7],[6,-78],[-1,-48],[-7,-142],[556,-38],[312,-12],[33,0],[27,763],[367,514],[977,896],[279,-316],[452,-358],[270,-324],[-113,-92],[574,-727],[44,29],[38,34],[31,12],[27,19],[87,31],[53,45],[38,48],[-1,20],[14,17],[7,39],[13,15],[1,26],[56,45],[-5,29],[18,11],[20,-1],[30,57],[1,52],[24,29],[13,60],[14,14],[36,4],[12,36],[-15,24],[0,15],[28,47],[47,27],[37,9],[28,36],[10,26],[45,52],[12,31],[27,35],[22,17],[15,51],[9,56],[14,23],[16,4],[14,16],[22,47],[29,29],[34,25],[-2,40],[18,30],[7,24],[18,14],[10,19],[2,41],[14,18],[13,38],[32,22],[29,40],[6,36],[18,12],[53,7],[49,-16],[26,4],[29,-3],[17,-8],[73,-18],[52,8],[46,-5],[23,9],[29,-18],[46,-18],[35,-9],[13,-26],[48,-36],[33,-1],[26,-29],[25,-16],[40,-11],[52,6],[-30,-484],[1103,-109],[162,-15],[617,-51],[257,-18],[5,61]],[[26544,34105],[381,-442],[210,-215],[-67,-126],[-556,-474],[-213,-183],[-613,-528],[423,-507],[570,-693],[-444,-326],[-87,106],[-11,4],[-291,27],[-67,0],[-10,-90],[19,-83],[25,-42],[65,-438],[10,-16],[111,-99],[46,-424],[-20,-27],[-50,-203],[65,-273],[-1025,-854],[-6,7],[-88,10],[-14,20],[-9,-18],[4,-13],[36,-21],[-5,-41],[16,-18],[-22,-11],[-4,-41],[9,-9],[280,-92],[196,-222],[-559,-474],[-455,-406],[131,-142],[56,-71],[-1039,-853],[60,-79]],[[77873,50965],[-30,1],[-326,39],[-732,81],[4,23],[-43,17],[-9,14],[-17,4],[-21,21],[-24,-11],[-13,13],[-18,1],[-9,19],[-33,6],[6,36],[-14,7],[9,56],[43,11],[12,11],[-69,78],[-7,73],[-13,20],[-75,55],[7,44],[-29,51],[12,28],[-48,97],[-128,109],[-13,-4],[-49,111],[-57,20],[-15,55],[-53,37],[-62,9],[-13,9],[2,24],[-13,20],[-13,1],[-45,28],[-20,-10],[-26,-5],[-30,4],[-4,26],[9,39],[-17,11],[-4,25],[36,23],[-5,14],[9,39],[15,15],[4,43],[-19,45],[-19,-2],[-38,13],[-4,32],[19,5],[1,18],[-20,38],[-21,9],[-11,20],[14,24],[3,15],[19,4],[-2,25],[9,22],[-6,23],[-40,40],[-29,22],[-28,2],[-6,-12],[-54,8],[-11,21],[-15,1],[-21,39],[-29,33],[-40,20],[-29,-5],[-13,13],[-18,4],[-14,43],[-24,11],[-7,21],[-30,-2],[-18,-8],[-10,15],[-21,5],[-14,49],[-28,11],[-10,-14],[6,-15],[-14,-24],[-44,-19],[-11,-22],[-49,-49],[-20,-4],[-25,8],[-26,-3],[-10,38],[-22,33],[-14,-20],[-14,-52],[-29,-15],[-2,-16],[-13,-27],[-35,-3],[-4,-7],[-35,-12],[-13,41],[-45,17],[2,23],[39,11],[22,19],[-3,24],[11,16],[-19,35],[3,34],[15,28],[-19,16],[0,11],[25,19],[18,24],[13,-3],[28,12],[24,26],[6,27],[12,24],[-13,32],[-2,41],[-5,4],[-24,16],[-23,7],[-35,-9],[-53,22],[-22,57],[-7,7],[-52,-20],[-37,49],[-83,47],[-5,52],[-38,75],[1,27],[-7,18],[-35,37],[7,23],[-8,39],[-25,20],[-14,21],[-21,14],[-73,7],[-23,19],[-17,3],[-27,-7],[-44,16],[1,27],[20,37],[-18,20],[-9,22],[-26,15],[-23,-18],[-17,19],[-22,5],[-18,-22],[-53,13],[-35,-5],[-38,34],[-24,-6],[-11,7],[0,49],[6,36],[17,25],[-5,23],[-19,37],[-27,24],[-8,17],[-23,2],[-12,24],[-24,2],[-31,33],[-32,-11],[-3,21],[12,27],[19,17],[12,32],[-10,45],[23,40],[5,31],[24,18],[55,14],[50,-26],[22,5],[22,32],[7,28],[31,69],[45,23],[8,10],[-18,25],[0,26],[11,9],[14,35],[-10,29],[29,34],[28,-3],[16,-11],[0,30],[6,18],[13,6],[-11,22],[-29,-16],[-15,14],[-1,24],[-12,32],[-20,22],[-11,-7],[-21,18],[-16,40],[-23,23],[-8,38],[8,19],[0,31],[12,12],[-9,21],[-47,14],[-4,23],[-22,6],[-12,17],[12,10],[-3,23],[6,19],[-17,26],[-30,32],[-22,42],[-27,5],[2,21],[-43,33],[24,22],[-9,41],[-50,18],[-24,37],[21,42],[269,-31],[8,72],[9,12],[17,70],[69,127],[-49,70],[38,275],[-5,181],[11,119],[18,115]],[[74397,56550],[42,-16],[35,2],[73,52],[65,26],[11,9],[21,66],[15,19],[25,20],[30,12],[74,7],[35,-5],[45,4],[36,12],[25,22],[26,79],[8,45],[14,41],[20,38],[54,39],[17,29],[8,35],[23,57],[20,14],[28,7],[2,12],[82,813],[-28,18],[-68,-14],[-4,1],[9,123],[-84,65],[-10,31],[-40,36],[23,41],[29,13],[13,14],[12,37],[23,23],[48,35],[9,-8],[3,60],[17,21],[31,113],[19,53],[16,149],[12,16],[-17,18],[-8,65],[-1,40],[-24,23],[4,16],[-32,108],[-24,14],[-10,23],[-19,27],[-51,-18],[-12,70],[16,154],[112,-13],[5,48],[82,-9],[5,52],[-14,2],[11,102],[34,22],[20,209],[-7,24],[-29,3],[3,33],[-56,6],[14,142],[58,-8],[73,-42],[35,-187],[15,-2],[4,37],[28,-3],[10,-28],[-11,-20],[30,-40],[24,1],[23,-29],[-5,-16],[17,-9],[21,9],[13,-12],[11,18],[-2,17],[-31,11],[-18,15],[4,13],[23,1],[19,12],[37,0],[33,-16],[15,7],[13,-13],[-16,-23],[9,-41],[9,-6],[20,10],[-2,25],[38,9],[9,15],[23,0],[4,-28],[16,-37],[30,-1],[-10,22],[17,6],[4,-26],[9,-8],[40,30],[0,8],[-28,25],[-1,25],[36,-2],[6,12],[-4,46],[26,11],[12,11],[11,50],[19,39],[-13,17],[7,21],[0,32],[275,701],[127,325],[1965,-3],[192,0],[4781,3],[11028,0]],[[94341,60961],[794,-321],[1844,-1129],[80,-34],[1744,-1332],[42,-67],[39,-11],[67,-64],[590,-225],[278,-331],[180,-118],[-8360,-8],[-2090,1],[-2082,0],[-2081,0],[-2082,0],[-1343,-1],[-822,1],[-185,0],[-51,-115],[-336,-743],[-54,-141],[-12,-26],[-463,98],[-47,8],[-181,-28],[-32,-3],[-80,-57],[-27,2],[-17,-9],[-75,-10],[-5,-8],[-37,4],[-16,-5],[-3,-17],[-38,6],[-20,-22],[-17,-7],[12,-34],[-18,-2],[-10,-25],[15,-16],[5,-21],[-1,-33],[6,-22],[-21,-24],[-16,13],[-29,-14],[-27,-34],[-39,-13],[-30,-38],[-16,-2],[-4,-14],[-48,-23],[-12,-12],[6,-31],[-15,-13],[-2,-17],[33,-4],[-8,-83],[3,-17],[-4,-42],[-154,19],[-49,-475],[18,-2],[-7,-64],[-13,0],[-7,-18],[-45,-444],[8,-1],[-81,-786],[-26,-253],[-629,70],[-46,9],[32,53],[15,41],[0,32],[-9,23],[-14,14],[-22,10],[-58,13],[-100,54],[-41,15],[-35,4],[-40,-15],[-47,-8],[-24,5],[-59,29],[-80,17],[-57,25],[-14,12],[-18,32],[-22,61],[-20,26],[-57,33],[-25,18],[-25,42],[-2,49],[28,39],[9,22],[-12,15],[-15,-2],[-42,-23],[-76,-27],[-61,-52],[-47,-22],[45,-78],[34,-47],[21,-36],[71,-169],[7,-39],[-3,-21],[-14,-38],[-69,-124],[-29,-78],[-47,-155],[-9,-60],[5,-41],[35,-82],[54,-94],[54,-95],[15,-34],[19,-61],[14,-62],[24,-88],[11,-92],[16,-71],[18,-52],[13,-50],[14,-92],[3,-57],[5,-146],[9,-165],[0,-40],[-6,-70],[-19,-108],[-31,-84],[-37,-90],[-8,-49],[-1,-34],[13,-67],[14,-30],[31,-77],[38,-150],[17,-55],[15,-40],[23,-48],[30,-53],[26,-34],[33,-27],[31,-35],[62,-35],[35,-29],[33,-43],[4,-28]],[[8,71119],[0,301],[-1,662],[0,661],[0,662],[-1,661],[0,662],[0,661],[-1,517],[-1,1856],[-1,2172],[0,748],[-1,662],[0,661],[0,662],[-1,662],[0,662],[0,662],[-1,661],[0,763],[44,-50],[35,-30],[36,-24],[73,-45],[34,-28],[57,-54],[10,-20],[-8,-19],[8,-11],[28,-8],[53,-23],[41,-29],[54,-64],[56,-107],[12,-18],[11,-33],[21,-2],[42,-40],[58,-45],[37,-25],[19,-25],[-10,-28],[9,-16],[24,7],[13,-5],[84,-92],[111,-106],[50,-59],[-3,-21],[8,-9],[30,12],[75,-48],[85,-63],[39,-23],[81,-38],[35,-33],[-13,-21],[5,-42],[16,-12],[18,27],[16,-1],[64,-51],[81,-52],[71,-41],[61,-31],[85,-39],[77,-30],[84,-31],[121,-36],[107,-28],[128,-30],[48,-18],[78,-80],[45,-38],[74,-44],[49,-12],[30,-17],[42,-6],[24,-11],[42,-35],[39,7],[48,19],[5,38],[-14,26],[32,2],[6,-24],[29,-3],[15,22],[35,-27],[26,-5],[23,7],[24,-3],[81,-2],[45,-13],[168,-81],[119,-68],[52,-46],[46,-37],[74,-47],[26,-11],[45,0],[46,18],[38,0],[45,5],[35,-2],[28,-5],[44,-48],[46,-3],[42,-15],[64,-33],[34,-9],[27,3],[18,33],[37,8],[94,-12],[68,-7],[77,-4],[76,1],[31,-5],[38,-16],[12,26],[15,14],[54,6],[96,7],[70,0],[61,8],[66,-13],[13,12],[83,13],[60,17],[56,-3],[15,10],[50,6],[8,-4],[23,14],[35,2],[25,6],[23,20],[17,-2],[23,-25],[32,-2],[109,-34],[35,-30],[34,-49],[44,-57],[48,-39],[93,-51],[78,-37],[80,-32],[101,-36],[130,-41],[22,-16],[5,-16],[44,-5],[53,-20],[82,-41],[17,-35],[15,-21],[15,8],[129,-66],[47,-19],[60,-21],[74,-23],[101,-27],[103,-24],[42,-19],[29,-28],[8,-26],[28,-8],[29,-33],[37,-20],[51,-23],[96,-26],[108,-23],[31,-10]],[[7332,83003],[-40,-568],[147,-116],[1598,-1264],[50,720],[187,-15]],[[9274,81760],[57,-34],[24,-2],[84,-33],[99,-30],[61,-12],[49,-22],[23,-22],[-26,-83],[-5,-27],[-52,-95],[-22,-71],[-13,-62],[-3,-28],[-13,-57],[-4,-103],[7,-60],[19,-62],[12,-57],[-5,-31],[15,-1],[6,-54],[7,-5],[11,-40],[3,-31],[-25,-27],[25,2],[19,-52],[21,-126],[12,-165],[8,-45],[32,-77],[2,-45],[18,-27],[36,-87],[8,-36],[-2,-22],[17,-10],[39,-110],[-7,-10],[30,-40],[49,-94],[23,-73],[22,-56],[69,-126],[24,-52],[0,-16],[20,-39],[11,-90],[9,-30],[29,-28],[33,-56],[44,-89],[21,1],[14,-28],[36,-33],[50,-58],[52,-51],[36,-20],[44,-35],[62,-42],[123,-78],[40,-24],[71,-47],[18,-30],[32,-2],[29,-13],[39,-22],[66,-44],[9,-11],[-2,-32],[23,23],[14,1],[78,-22],[73,-27],[48,-22],[32,-22],[8,-13],[27,4],[66,1],[93,-6],[106,4],[119,16],[72,-1],[89,1],[47,-7],[24,-9],[53,-34],[68,-40],[94,-50],[47,-36],[18,-20],[45,-8],[73,-21],[60,-24],[52,-30],[49,-38],[63,-45],[17,-20],[25,-14],[41,-52],[55,-55],[0,-11],[28,-4],[46,-28],[97,-45],[33,-19],[67,-68],[37,-48],[45,-47],[20,-28],[-5,-10],[-59,-2],[-35,-17],[12,-23],[25,-3],[47,-30],[23,-10],[67,-17],[21,-7],[21,-32],[33,8],[29,-12],[13,-20],[27,12],[17,-1],[42,-18],[24,-16],[28,-26],[11,-20],[24,-83],[25,-52],[33,-27],[7,-11],[-3,-36],[27,-5],[17,13],[23,-49],[29,-34],[28,-24],[26,-7],[61,-27],[42,-24],[41,-48],[32,-21],[32,-32],[15,-4],[55,-3],[31,-10],[35,-16],[72,-23],[48,-4],[9,6],[102,-26],[49,-9],[14,-12],[46,6],[33,-4],[8,-11],[-4,-31],[-17,-34],[32,-1],[5,34],[36,-20],[-5,18],[14,17],[35,7],[29,-22],[15,5],[29,-23],[20,-1],[16,-18],[14,-31],[30,-12],[39,-46],[23,6],[17,-11],[21,24],[16,-1],[16,-39],[-16,-55],[34,-6],[19,17],[56,8],[60,13],[80,-6],[25,-5],[31,-17],[23,-25],[19,3]],[[14980,76606],[-10,-31],[-25,-109],[4,-42],[16,-26],[22,-21],[39,-19],[37,-14],[69,-44],[25,-29],[19,-33],[10,-33],[6,-44],[-1,-40],[-5,-40],[-11,-31],[-22,-33],[-24,-16],[-22,-3],[-16,6],[-33,31],[-24,17],[-23,3],[-22,-6],[-47,-24],[-57,0],[-50,-14],[-9,-14],[2,-37],[18,-26],[22,-19],[22,-6],[52,0],[24,-28],[-4,-17],[-18,-17],[-19,-29],[-10,-28],[4,-23],[24,-26],[25,-18],[28,-10],[70,-1],[58,-26],[31,-23],[16,-28],[6,-31],[-5,-75],[-13,-23],[-22,-20],[-26,-7],[-27,3],[-17,11],[-33,39],[-18,39],[-21,19],[-30,11],[-34,7],[-43,-9],[-17,-14],[-12,-26],[-13,-72],[-11,-48],[-2,-26],[9,-22],[17,-15],[25,-9],[19,2],[37,27],[38,-1],[19,-11],[19,-24],[9,-30],[2,-22],[-7,-18],[-15,-13],[-90,-10],[-20,-13],[-55,-78],[-22,-53],[-13,-65],[2,-23],[11,-19],[64,-49],[22,-25],[-1,-31],[-8,-35],[-16,-33],[-38,-57],[-15,-53],[-13,-23],[-23,-17],[-66,-21],[-27,-19],[-23,-25],[-44,-64],[3,-30],[13,-11],[33,-14],[28,-23],[12,-24],[7,-28],[-1,-56],[-12,-32],[-25,-27],[-47,-19],[-27,-15],[-21,-21],[-14,-22],[-9,-30],[3,-28],[12,-29],[25,-27],[30,-24],[24,-13],[51,-7],[44,-17],[33,-36],[13,-31],[4,-24],[-1,-36],[-9,-30],[-39,-62],[-89,-110],[-34,-81],[-15,-79],[15,-39],[19,-23],[32,-23],[25,-5],[26,5],[15,13],[52,69],[41,28],[22,5],[26,-2],[41,-14],[42,-22],[61,-40],[13,-14],[32,-48],[48,-35],[34,-34],[10,-18],[-1,-42],[-21,-46],[-24,-28],[-40,-14],[-78,-7],[-32,12],[-11,12],[-26,49],[-16,12],[-26,8],[-29,-9],[-22,-20],[-30,-67],[-2,-26],[8,-15],[22,-11],[56,-5],[15,-4],[62,-47],[103,-85],[66,-62],[13,-40],[-21,-79],[3,-41],[35,-84],[8,-44],[4,-46],[-2,-147],[-15,-95],[-19,-69],[-4,-57],[4,-29],[19,-48],[50,-89],[24,-32],[45,-44],[44,-34],[75,-42],[6,-30],[-7,-72],[-3,-82],[3,-45],[6,-21],[24,-34],[31,-33],[87,-80],[87,-64],[45,-53],[26,-39],[32,-53],[3,-43],[-45,-88],[-6,-40],[15,-40],[26,-38],[32,-25],[31,-43],[8,-49],[-4,-29],[-19,-65],[-28,-73],[-30,-28],[-23,-1],[-31,-9],[-10,-25],[3,-33],[24,-23],[-2,-60],[5,-33],[30,-58],[10,-28],[-2,-23],[-13,-47],[-20,-37],[-37,-52],[-8,-43],[2,-38],[8,-34],[20,-31],[10,-38],[-34,-72],[-3,-27],[6,-27],[17,-41],[0,-23],[-26,-54],[-25,-34],[-17,-12],[-18,-29],[-3,-17],[5,-91],[20,-21],[42,-21],[12,-27],[-6,-60],[1,-14],[27,-56],[2,-19],[-10,-40],[-29,-61],[-15,-56],[-5,-56],[28,-43],[6,-17],[-2,-56],[-11,-54],[-1,-58],[9,-62],[9,-29],[1,-55],[-14,-83],[-10,-41],[-5,-51],[7,-52],[0,-20],[-10,-43],[6,-42],[-18,-17],[-82,-1],[-19,-18],[-12,-25],[3,-29],[12,-22],[31,-34],[17,-33],[3,-21],[-5,-36],[9,-75],[0,-38],[-20,-64],[-25,-30],[-8,-2],[-30,-41],[-2,-18],[-33,-24],[1,-18],[-9,-19],[-39,-45],[26,-28],[4,-38],[-6,-7],[-4,-39],[-16,-45],[-33,-40],[-8,-28],[-3,-84],[6,-31],[16,-19],[6,-18],[-2,-42],[-8,-39],[-28,-57],[-15,-47],[-41,-80],[-67,-63],[-41,-43],[-26,-23],[-31,-37],[-78,-104],[-11,-41],[14,-67],[-11,-43],[-29,-21],[-40,-22],[-33,-30],[-46,-96],[-25,-23],[-45,-34],[-28,-29],[-3,-15],[-2,-57],[-25,-75],[-19,-17],[-37,-20],[-22,-30],[0,-28],[14,-32],[22,-21],[19,-11],[102,-84],[27,-46],[-2,-40],[-9,-36],[-12,-31],[-20,-34],[-8,-50],[12,-70],[-8,-23],[-19,-18],[-42,-13],[-26,-16],[-30,-31],[-8,-16],[1,-29],[7,-15],[30,-22],[51,-25],[35,-38],[11,-18],[4,-29],[-20,-73],[-5,-23],[6,-92],[6,-26],[16,-31],[17,-18],[32,-15],[45,-18],[9,-13],[-5,-33],[-28,-38],[-34,-30],[-10,-38],[5,-20],[15,-15],[39,-10],[81,21],[31,-14],[3,-33],[-14,-22],[-19,-12],[-27,-26],[-4,-41],[10,-13],[27,-18],[42,-7],[27,-14],[44,-44],[35,-46],[26,-67],[6,-31],[0,-42],[-6,-32],[-20,-35],[-33,-14],[-67,18],[-21,-2],[-15,-21],[0,-37],[13,-42],[37,-59],[47,-71],[30,-28],[41,-29],[6,-17],[-2,-41],[-6,-25],[-1,-38],[19,-53],[29,-16],[61,-6],[23,-6],[49,-29],[31,-28],[17,-21],[55,-112],[3,-53],[10,-38],[23,-24],[60,-35],[32,-11],[29,-2],[13,10],[21,34],[33,34],[24,5],[17,-11],[9,-76],[-2,-33],[-19,-50],[-15,-27],[-42,-50],[-4,-17],[7,-23],[16,-20],[69,-47],[56,-50],[42,-54],[54,-48],[14,-35]],[[15960,63437],[-3,-57],[5,-22],[25,-18],[21,-2],[18,9],[26,30],[43,15],[31,-5],[25,-31],[23,-59],[7,-35],[28,-88],[4,-33],[-4,-68],[-26,-85],[3,-33],[13,-24],[13,-42],[-3,-25],[-13,-21],[-16,-7],[-69,-16],[-20,-15],[-23,-43],[-3,-33],[7,-15],[24,-31],[25,-42],[2,-57],[-14,-69],[-4,-54],[14,-70],[25,-58],[20,-21],[31,-41],[21,0],[76,-36],[49,-32],[25,-40],[6,-45],[-8,-42],[-17,-64],[-6,-35],[-3,-60],[17,-60],[55,-124],[38,-60],[26,-20],[38,-44],[18,-29],[66,-68],[36,-34],[36,-56],[1,-26],[20,-58],[32,-39],[50,-37],[33,-20],[26,-43],[4,-25],[-5,-16],[-84,-65],[-16,-24],[-6,-29],[10,-36],[3,-49],[7,-27],[-9,-20],[-3,-44],[2,-64],[11,-46],[-12,-41],[9,-33],[43,-62],[32,-19],[60,-14],[43,-25],[16,-14],[21,-45],[-5,-22],[-39,-41],[-7,-25],[13,-38],[21,-20],[20,-7],[54,6],[22,-4],[10,-21],[1,-46],[-9,-17],[-45,-22],[-25,-21],[-20,-30],[-1,-16],[21,-31],[42,-25],[18,-30],[-10,-22],[-58,-51],[-13,-21],[2,-48],[13,-29],[20,-23],[15,-50],[-2,-35],[34,-31],[16,-50],[15,-22],[11,-33],[-3,-18],[-15,-33],[-1,-22],[-11,-44],[4,-43],[8,-11],[18,-56],[50,-57],[3,-27],[-17,-39],[-17,-22],[-8,-34],[9,-19],[23,-22],[11,-30],[47,-5],[26,-27],[10,-32],[22,-50],[35,-64],[5,-31],[35,-69],[7,-23],[-8,-54],[-28,-40],[-19,-19],[-2,-12],[8,-43],[-14,-60],[7,-24],[-19,-30],[-3,-42],[16,-58],[-189,15],[-864,69],[-439,35],[-14,-279],[-900,58],[31,529],[35,577],[-633,47],[-640,47],[-983,73]],[[12653,59687],[8,765],[6,568],[211,-15],[78,1155],[-1713,147],[-1167,101],[30,484],[1,17],[-173,19],[-89,70],[8,107],[-94,134],[-74,67],[317,526],[-101,66],[333,553],[-555,362],[-903,-813],[-513,524],[-21,23],[45,9],[20,10],[51,42],[54,29],[31,26],[18,21],[32,22],[45,24],[60,15],[43,2],[22,13],[68,32],[41,23],[72,31],[96,34],[44,7],[27,0],[-654,774],[-96,113],[-588,-552],[-971,-910],[-359,-336],[-1064,1155],[-198,212],[-182,-170],[-188,-178],[-113,-107],[-160,-146],[-436,530],[-1363,73],[20,307],[-1035,65],[113,2027],[19,486],[34,971],[18,589],[213,1152],[-2013,177]],[[4916,73745],[60,-14],[27,-12],[27,-19],[24,-7],[55,4],[63,16],[139,7],[23,-3],[20,-11],[49,-4],[17,7],[81,-17],[59,-7],[40,-14],[31,0],[25,-7],[9,-24],[52,-27],[14,13],[28,-27],[50,-27],[74,-57],[45,-22],[28,-31],[34,-14],[12,-20],[24,4],[73,-5],[71,3],[40,-13],[29,-20],[48,-10],[26,1],[70,9],[23,1],[54,-11],[36,-2],[88,10],[95,-6],[26,-5],[61,-30],[85,-44],[27,-11],[39,-9],[32,-13],[32,-28],[51,-23],[57,-29],[8,-14],[38,-31],[18,-70],[21,-35],[10,-25],[6,-54],[-8,-30],[-19,-16],[-2,-19],[-22,-41],[-19,-62],[0,-16],[10,-35],[54,-71],[21,-18],[35,-21],[83,-27],[30,-4],[75,1619],[131,2832],[-558,33],[-708,315],[-113,125],[-195,1],[-944,51],[-76,-2572],[-27,-675],[-15,-423],[-18,0],[-57,-67],[51,-51],[19,-1],[-2,-50]],[[14980,76606],[18,3],[30,44],[15,16],[18,5],[32,-15],[19,-2],[76,39],[13,1],[50,-37],[14,-42],[31,-37],[6,-17],[17,4],[37,-40],[2,-38],[-43,-41],[-5,-19],[-3,-42],[5,-19],[97,3],[-13,31],[-17,1],[15,36],[1,16],[32,-3],[140,-69],[145,-66],[177,-59],[36,-5],[69,-31],[16,2],[28,-12],[120,-65],[32,-23],[25,-26],[26,-38],[-8,-15],[-78,-43],[22,-8],[8,-13],[-8,-54],[4,-47],[18,-51],[37,-70],[67,-85],[41,-49],[51,-49],[75,-66],[81,-59],[84,-52],[118,-39],[117,-31],[80,-16],[119,-9],[80,-1],[81,-3],[215,-4],[148,21],[54,7],[47,9],[33,2],[50,18],[103,26],[107,19],[24,-3],[15,-13],[18,20],[99,27],[78,4],[51,21],[76,17],[52,9],[45,-5],[26,-21],[30,-17],[38,22],[63,22],[39,5],[30,13],[98,25],[56,8],[34,-1],[25,-10],[14,12],[34,9],[75,10],[49,-5],[7,12],[34,3],[149,33],[41,14],[105,9],[51,-1],[106,11],[41,12],[26,0],[29,13],[42,10],[61,26],[67,14],[49,17],[67,14],[68,38],[97,45],[23,18],[49,21],[79,42],[67,66],[24,15],[74,20],[25,14],[21,21],[20,6],[21,-12],[10,-22],[26,-5],[79,13],[52,7],[21,-2],[68,12],[77,28],[84,26],[156,59],[72,41],[19,18],[48,31],[20,9],[49,50],[77,72],[52,28],[52,5],[51,16],[43,19],[51,-1],[50,36],[20,18],[23,3],[20,9],[42,37],[89,55],[140,101],[44,36],[59,62],[21,16],[23,27],[23,17],[12,21],[28,25],[28,46],[89,76],[21,20],[19,43],[43,18],[63,50],[71,16],[23,11],[21,16],[37,49],[21,4],[43,-27],[42,-14],[47,3],[15,-22],[19,-3],[33,14],[12,-8],[13,45],[33,80],[83,81],[44,47],[52,34],[36,18],[-16,18],[16,17],[113,35],[54,12],[44,17],[54,28],[63,28],[40,3],[109,60],[24,41],[26,29],[10,19],[76,78],[21,25],[13,48],[32,77],[29,34],[56,89],[12,31],[51,77],[27,37],[19,10],[59,89],[14,9],[6,29],[-6,11],[4,24],[16,39],[19,23],[0,24],[9,47],[34,98],[1,58],[34,118],[15,59],[-4,32],[4,26],[-2,28],[5,37],[-1,23],[6,28],[-3,27],[13,-1],[9,39],[17,-3],[2,57],[16,25],[-2,17],[-17,4],[3,60],[22,16],[-5,25],[12,11],[0,34],[12,97],[-3,38],[6,46],[14,16],[-4,41],[4,40],[10,32],[5,36],[28,66],[53,89],[17,48],[-17,21],[-3,30],[9,29],[33,60],[28,40],[33,22],[32,11],[3,43],[-7,40],[4,27],[31,77],[34,95],[9,0],[16,34],[2,15],[-11,17],[-2,33],[6,51],[25,150],[11,92],[11,70],[1,38],[-21,6],[1,24],[18,37],[7,26],[-11,18],[3,52],[-11,75],[-30,106],[9,50],[-4,20],[7,41],[-16,19],[-14,1],[-10,21],[-4,36],[27,151],[27,102],[25,74],[17,34],[9,37],[45,66],[24,44],[32,75],[26,46],[22,18],[62,72],[85,72],[54,50],[76,80],[82,97],[91,119],[97,131],[50,80],[35,53],[74,124],[57,105],[44,107],[25,87],[8,126],[3,75],[36,115],[20,10],[55,-26],[45,9],[4,48],[-55,-2],[-5,35],[10,29],[18,-10],[-3,-26],[29,-4],[38,12],[80,44],[78,63],[75,69],[118,117],[32,38],[57,63],[50,59],[112,138],[64,85],[105,165],[24,47],[31,53],[33,30],[13,36],[38,69],[63,126],[45,133],[10,72],[21,173],[18,63],[17,91],[27,93],[10,102],[23,59],[45,46],[0,26],[28,71],[23,49],[30,37],[52,22],[30,1],[20,-7],[17,-16],[3,-22],[-5,-14],[19,-10],[36,68],[3,86],[45,100],[22,42],[24,63],[33,68],[29,80],[49,99],[46,86],[22,97],[6,77],[-8,96],[-10,49],[-13,36],[-20,39],[-13,34],[-75,89],[-26,53],[-4,65],[6,57],[16,40],[4,27],[14,18],[60,49],[12,94],[45,78],[55,125],[45,77],[23,61],[18,74],[29,89],[-2,32],[35,112],[10,47],[39,124],[2,35],[34,84],[13,41],[31,169],[19,128],[-19,28],[-3,38],[19,87],[49,115],[232,381],[73,133],[82,124],[76,148],[117,249],[58,148],[19,98],[-20,100],[-93,162],[-26,81],[-26,58],[-21,38],[-59,237],[-77,265],[-7,47],[-48,170],[-64,180],[-6,55],[42,39],[53,28],[33,77],[0,23],[55,107],[37,95],[24,69],[34,148],[28,218],[19,231],[13,116],[4,89],[26,399],[15,180],[10,71],[34,153],[42,244],[5,65],[42,148],[53,241],[16,78],[19,77],[37,176],[58,239],[42,170],[40,141],[55,149],[43,56],[15,-8],[26,12],[15,17],[-1,32],[9,40],[36,35],[24,-3],[23,-55],[40,-7],[17,-13],[-18,-23],[-24,2],[-41,-54],[-49,-39],[-10,-16],[3,-67],[7,-9],[22,-1],[3,25],[-3,32],[13,17],[40,24],[22,-15],[18,-39],[-2,-26],[-36,-16],[3,-27],[28,-23],[28,-3],[19,22],[22,-3],[11,-25],[22,-1],[9,-28],[17,-9],[31,4],[22,-4],[0,44],[-38,-6],[-12,13],[2,44],[-6,32],[5,20],[13,2],[28,-25],[19,-7],[20,3],[1,19],[-8,26],[22,20],[15,-4],[9,-20],[-13,-10],[3,-24],[12,1],[14,18],[38,-15],[52,15],[22,-19],[-5,-14],[4,-30],[66,7],[9,-16],[-14,-19],[-15,2],[-4,-25],[9,-27],[-4,-21],[-27,-17],[-12,-23],[4,-28],[25,-19],[19,10],[-3,12],[-23,2],[7,42],[9,13],[17,-13],[1,-22],[17,-14],[13,1],[19,39],[19,-4],[31,29],[-18,21],[21,46],[10,7],[28,-15],[-22,-22],[4,-22],[43,0],[7,6],[-2,32],[14,24],[46,-22],[48,9],[8,-22],[20,-19],[16,0],[5,-37],[17,-24],[28,-32],[23,-2],[24,20],[10,-21],[32,-18],[20,12],[29,-20],[22,1],[23,-18],[16,-31],[45,20],[34,-3],[12,8],[42,-5],[19,8],[23,-11],[1122,-104],[128,-11],[1443,-132],[190,1053],[-10,26],[-20,27],[-66,49],[-11,39],[-21,26],[-74,76],[-17,43],[-38,28],[-45,6],[-15,12],[-10,30],[-1,24],[-21,33],[-21,14],[-49,10],[-20,22],[-20,43],[-5,29],[5,34],[11,20],[20,22],[40,14],[8,11],[34,15],[22,14],[10,18],[17,54],[20,29],[8,32],[22,32],[22,58],[61,-19],[53,-29],[17,-14],[97,-21],[45,-30],[93,-45],[15,-12],[16,-30],[24,-17],[47,6],[571,1716],[829,-1432],[394,-687],[2456,-246],[958,-94],[14,159],[130,1198],[1431,-112],[1108,-86],[-53,-667],[-53,-664],[-470,43],[-106,-1319],[-921,59],[-51,-799],[-30,-469],[-531,43],[-87,-1355],[-544,-527],[-71,-568],[31,-6],[43,-28],[47,-66],[39,-92],[63,-110],[61,-69],[35,-29],[96,-51],[69,-27],[69,-9],[51,2],[34,-2],[62,-33],[41,-48],[35,-28],[61,-61],[101,-122],[64,-64],[-1,-23],[-360,-556],[-514,371],[-342,-530],[-102,-827],[-37,-297],[-273,-2217],[0,-7],[-197,-2302],[-125,-1463],[-721,-1049],[23,-12],[28,-32],[10,-34],[28,-19],[15,-1],[17,-24],[35,-3],[42,-35],[51,-7],[38,-23],[25,-70],[29,-20],[3,-12],[-9,-25],[17,-22],[25,-13],[5,-26],[25,-31],[27,-18],[6,-19],[29,-23],[32,-17],[36,-13],[9,-32],[19,-16],[36,-12],[26,-22],[21,-31],[25,-14],[25,-39],[26,-15],[15,-32],[13,-17],[10,-26],[28,-11],[28,0],[19,-33],[55,-9],[55,-5],[33,4],[13,8],[-330,-466],[-828,-1170],[-508,628],[-1378,-1330],[77,-50],[75,-24],[105,-17],[59,5],[35,0],[68,-34],[33,-42],[2,-14],[75,-52],[51,-4],[55,-45],[9,-27],[55,-50],[28,-59],[5,-26],[41,-61],[-1,-40],[-745,-678],[-1004,1201],[-379,-336],[-804,1078],[-149,200],[-57,-52],[-879,-782],[428,-547],[-925,118],[26,333],[-1269,114],[-30,-346],[-1253,133],[-71,-828],[-59,-684],[-204,18],[-33,-625],[500,-29],[-44,-633],[-66,-49],[-26,-9],[-35,-30],[-36,-23],[-47,-15],[-30,-1],[-27,22],[-19,37],[-43,33],[-45,13],[-42,4],[-39,-13],[-32,6],[-72,-24],[-31,-7],[-23,10],[2,72],[-3,15],[-15,7],[-54,8],[-24,0],[-77,-11],[-53,57],[-20,42],[-14,3],[-95,-31],[-104,-1477],[1193,-92],[171,-13],[-18,-259],[-607,38],[-9,-120],[-32,-534],[11,-2],[35,14],[11,11],[43,1],[-42,-484],[-945,95],[17,214],[-698,71],[-65,-891],[-377,26],[-53,-20],[1,-18],[-22,-26],[-13,-44],[-19,-27],[0,-35],[15,-26],[-12,-21],[3,-31],[34,-66],[4,-42],[31,-69],[-7,-34],[15,-36],[-6,-43],[-25,-41],[-21,-52],[-7,-54],[0,-29],[15,-22],[48,-39],[4,15],[19,9],[39,-17],[24,-1],[21,-10],[17,-31],[10,-28],[17,-19],[32,8],[19,-7],[10,-24],[36,-13],[30,-23],[18,-7],[12,-21],[-4,-15],[30,-41],[-1,-19],[19,-21],[-8,-18],[6,-30],[25,-21],[8,-24],[1,-33],[-16,-35],[5,-36],[36,-66],[35,1],[30,6],[26,-24],[3,-38],[14,-23],[23,-6],[16,-68],[-4,-41],[14,-18],[5,-24],[-20,-28],[18,-21],[-3,-32],[50,-38],[11,-23],[-12,-23],[17,-19],[-1,-20],[-17,-1],[13,-40],[1,-30],[-6,-22],[-15,-22],[27,-19],[11,-27],[-1,-30],[12,-16],[-4,-35],[20,-5],[12,-20],[29,-10],[13,-28],[27,6],[29,-19],[13,-62],[16,-25],[32,-22],[21,-5],[5,-2],[34,-96],[-6,-15],[18,-21],[29,-9],[32,-2],[36,-32],[6,-58],[5,-25],[13,-17],[4,-21],[26,-43],[19,-18],[24,-13],[31,-9],[11,-45],[9,-19],[-11,-63],[11,-27],[0,-14],[-27,-58],[3,-14],[19,0],[25,-23],[26,-13],[25,-33],[69,-12],[16,-28],[-9,-37],[-2,-35],[6,-25],[23,-69],[-33,-23],[-3,-33],[5,-17],[-41,-25],[-10,-29],[13,-15],[-14,-15],[-8,-23],[24,-26],[16,-47],[-22,-24],[-15,-1],[-11,-15],[12,-32],[-12,-14],[16,-20],[9,-24],[29,-28],[-3,-32],[-11,-29],[-39,0],[-21,-5],[-2,-20],[-20,-4],[-26,-23],[7,-87],[6,-18],[-22,-17],[21,-38],[-5,-27],[6,-20],[-6,-17],[13,-71],[9,-31],[-1,-48],[10,-12],[25,-7],[13,-26],[17,-8],[13,-33],[10,-5],[1,-35],[13,-28],[-18,-40],[-12,17],[-42,-6],[-4,-29],[17,-5],[3,-45],[-12,-24],[11,-26],[9,-41],[13,-19],[20,-3],[11,-10],[2,-40],[17,-18],[-4,-64],[10,-30],[-31,-39],[-4,-15],[28,-4],[29,-20],[1,-10],[42,-19],[36,-29],[458,-46],[-50,-509],[1616,-177],[535,-61],[580,-55],[-88,-1026],[-111,-1305],[-266,24],[-32,-330],[-101,-1012],[-94,10],[9,-71],[27,-27],[1,-16],[-17,-37],[13,-20],[-13,-15],[12,-35],[33,-7],[-11,-39],[22,-9],[28,-20],[-6,-20],[21,-4],[5,-18],[39,0],[23,-11],[13,-18],[26,-17],[31,9],[35,-23],[19,-5],[39,-1],[62,6],[29,-23],[9,9],[51,-4],[81,33],[18,0],[44,-16],[35,10],[11,-2],[21,-25],[20,-4],[12,-25],[10,-7],[28,-55],[13,-14],[40,-19],[18,-32],[37,-25],[70,-2],[22,-4],[20,6],[26,-30],[20,-15],[38,-10],[18,-16],[27,-45],[14,-8],[59,-5],[31,14],[15,-9],[28,8],[74,1034],[1333,-105],[44,521],[42,491],[1542,-136],[21,218],[395,-24],[-114,-1226],[-29,-320],[630,-69],[11,123],[964,-104],[13,227],[390,-36],[-146,-1683],[-73,-810]],[[36465,60033],[-238,24],[-1492,147],[-62,-668],[-1039,112],[18,189],[-1097,104],[27,353],[-813,27],[-474,592],[-156,-142],[-173,-167],[-182,-178],[-18,52],[-5,51],[-7,18],[0,26],[-18,15],[-16,3],[-13,17],[-32,19],[-12,57],[-18,3],[-37,20],[-44,17],[-19,29],[-27,31],[-19,6],[-52,-4],[-21,4],[-23,-5],[-20,28],[-33,35],[9,21],[-17,13],[-253,-221],[-209,19],[-1438,144],[56,635],[-490,33],[-411,125],[-314,43],[-653,90],[-811,107],[23,224],[54,119],[12,132],[-1540,114]],[[24368,62446],[-6,16],[-8,69],[6,47],[-7,25],[-15,16],[-20,0],[-9,-23],[7,-16],[-18,-16],[-18,8],[-10,28],[-25,15],[-103,-85],[-640,-557],[-728,904],[-156,195],[-344,-290],[-303,381],[-488,36],[-497,37],[-41,-217],[-5,-266],[9,-5],[-827,61],[-1,5],[-906,67],[28,385],[-2472,190],[-85,6],[-6,-82],[-720,57]],[[34271,99999],[21,-10],[-11,-58],[16,-33],[-10,-18],[-20,-9],[-29,-30],[-27,-34],[-35,-33],[5,-13],[-9,-42],[-72,-54],[-31,-16],[-16,-32],[-48,-66],[-12,-8],[-24,8],[-33,-21],[-54,-77],[-56,-20],[-12,-29],[-27,-29],[-37,6],[-41,-13],[-20,3],[-13,-7],[-34,5],[-38,-27],[-38,-12],[-12,6],[-53,-49],[-31,-6],[-13,-11],[-6,-21],[-23,-9],[-73,-15],[-44,14],[-20,18],[-19,33],[-9,6],[-32,-22],[-21,-7],[-49,-43],[-56,-20],[-35,-29],[-45,-16],[-42,-33],[-16,2],[-26,-11],[-45,-8],[-41,2],[-32,-50],[-22,-18],[-50,-7],[-25,32],[-42,7],[-53,-15],[-9,-33],[-23,6],[-14,-7],[-42,-4],[-17,12],[-13,-12],[-23,12],[-42,-12],[-29,-23],[-17,1],[-22,-24],[-29,13],[-46,-22],[-27,-35],[-44,15],[-31,-11],[-18,-14],[-19,8],[-27,-2],[-25,5],[-29,-12],[-13,6],[-4,6],[-22,-5],[-57,-36],[-18,1],[-19,-9],[-9,-14],[-21,-6],[-45,-25],[-14,5],[-24,30],[-12,2],[-14,-18],[-34,-2],[-24,-22],[-30,-8],[3,-28],[-20,-13],[-15,4],[-34,-10],[-16,-12],[-30,3],[-14,-25],[-28,7],[-13,32],[-19,16],[-42,7],[-22,-19],[-16,14],[-39,-20],[-22,3],[-12,17],[-20,-6],[-30,13],[-4,-24],[-21,-1],[-15,-22],[-14,-6],[-14,11],[-7,29],[-12,9],[-16,-18],[10,-29],[-5,-33],[-14,-11],[-30,3],[-25,38],[-60,4],[-4,27],[-61,23],[-15,33],[0,27],[-9,27],[-25,28],[28,23],[-10,29],[-28,-1],[-19,-6],[-32,15],[-10,18],[4,28],[17,24],[47,0],[11,5],[-13,21],[-24,-2],[-34,-20],[-13,6],[-15,36],[-18,-16],[-23,1],[-11,21],[4,28],[-16,22],[-15,10],[-33,-2],[-25,-12],[-13,-19],[-3,-36],[-17,-20],[-17,-4],[-52,-2],[-29,-8],[-13,8],[-19,24],[-31,54],[-39,38],[-26,30],[-33,26],[-46,19],[-21,20],[0,10],[-19,27],[-10,44],[6,15],[10,62],[45,13],[2,-36],[-3,-51],[6,-27],[33,-46],[67,-83],[47,-52],[14,-20],[27,-58],[15,-3],[29,8],[46,-2],[19,15],[-2,37],[5,14],[25,22],[27,11],[23,1],[34,-16],[14,-21],[-2,-43],[35,16],[23,-10],[1,-29],[10,0],[30,25],[25,2],[15,-7],[19,-23],[2,-33],[-14,-16],[-38,13],[-20,-1],[-14,-14],[-5,-21],[11,-17],[28,-7],[21,26],[20,11],[28,1],[17,-28],[-3,-27],[-25,-38],[9,-56],[2,-29],[9,-26],[35,2],[16,-7],[15,-19],[25,11],[31,-2],[29,18],[16,-15],[20,15],[26,-12],[1,-25],[17,-6],[19,25],[-6,28],[22,15],[34,-15],[23,8],[17,-12],[5,-24],[20,-6],[25,17],[31,-14],[19,13],[18,3],[40,-11],[11,-11],[8,-26],[14,-15],[14,1],[12,23],[33,-1],[13,10],[42,15],[17,-6],[10,15],[-8,12],[6,17],[30,3],[27,19],[29,5],[13,17],[18,1],[27,-29],[11,-5],[43,22],[23,4],[4,14],[26,11],[16,0],[50,30],[4,11],[14,-5],[13,3],[4,-9],[22,-2],[24,10],[22,-5],[25,4],[19,-11],[15,17],[34,8],[40,-11],[15,24],[22,15],[13,0],[19,16],[38,-11],[16,20],[18,2],[31,23],[46,15],[11,-14],[25,11],[19,-14],[37,6],[18,8],[16,-2],[1,19],[15,16],[41,8],[53,-9],[33,-30],[36,6],[26,24],[22,41],[45,48],[13,26],[27,16],[21,4],[4,17],[17,-7],[27,24],[39,-7],[29,19],[21,-5],[27,14],[17,17],[19,1],[37,-11],[32,6],[40,31],[28,8],[22,-24],[25,-6],[42,-2],[47,26],[20,27],[31,16],[24,18],[39,5],[68,45],[51,20],[29,-26],[21,-2],[31,28],[18,-1],[23,11],[22,-1],[41,16],[6,19],[-5,31],[18,21],[32,0],[12,14],[31,18],[20,17],[13,1],[22,25],[35,13],[42,46],[-2,18],[15,18],[18,38],[20,14],[3,39],[27,36],[20,13],[21,31],[3,26],[23,9],[14,32],[12,12],[28,45]],[[24439,81297],[31,40],[27,12],[49,-17],[-7,-15],[-16,-3],[-26,12],[-23,-21],[-35,-8]],[[62763,39485],[57,761],[-723,76],[36,349],[63,605],[-313,25],[-574,45],[-17,-125],[-175,19],[-26,-8],[-21,-17],[-23,1],[-25,32],[-514,55],[0,8],[109,104],[41,56],[72,108],[15,19],[0,106],[-6,55],[-84,126],[-100,272],[-44,126],[1,17],[-43,82],[-4,19],[-60,208],[52,313],[-46,34],[-59,-4],[11,76],[19,125],[18,141],[60,593],[-293,25],[-28,456],[-305,277],[-68,268],[389,-30],[62,788],[-537,46],[57,693],[44,555],[37,451],[40,499],[-20,-5],[-9,32],[21,5],[53,862],[-147,10],[-619,45],[8,30],[-7,45],[-116,101],[-48,55],[-119,119],[-126,76],[-49,59],[-55,50],[-60,81],[-22,56],[-45,33],[-87,123],[-30,59],[-5,66],[16,44],[11,16],[-5,24],[-26,24],[-13,37],[-1,55],[-6,27],[-14,29],[-26,29],[-44,32],[-26,-1],[-38,28],[-10,19],[-31,21],[-21,7],[-35,23],[-1,47],[-7,25],[-12,13],[-27,-2],[-49,10],[-11,-7],[-23,-30],[-48,27],[-37,4],[-2,16],[-17,24],[-35,13],[-38,29],[-46,4],[-54,-22],[-20,-13],[-27,49],[-4,26],[0,48],[-9,23],[-39,8],[-24,25],[-5,42],[8,17],[13,46],[31,73],[28,24],[23,31],[36,23],[27,4],[26,-3],[1,18],[-8,28],[-218,19],[28,315],[-736,366],[0,35],[24,42],[22,65],[-1,18],[10,50],[11,26],[7,47],[22,53],[4,21],[0,60],[-10,29],[0,35],[-6,26],[-51,76],[-32,56],[5,29],[-4,35],[4,34],[-2,54],[33,113],[18,15],[23,33],[98,121],[-12,85],[-223,330],[-344,363],[18,216],[-15,11],[28,342],[-932,75],[27,272],[-373,538],[-14,-206],[-239,4],[-98,35],[-177,315],[-559,-4],[-45,-84],[-51,5],[-10,-113],[-129,12],[-28,19],[-59,-16],[-13,-27],[-170,-3],[-9,6],[-27,52],[-5,45],[-21,45],[-26,39],[-16,44],[-68,40],[-1,43],[-74,23],[-33,36],[-11,6],[46,606],[36,428],[50,583],[63,733],[13,106],[11,113],[-2,31],[30,346],[-587,260],[-1,-18],[-197,60],[-94,14],[-94,1],[-124,-24],[-35,33],[-37,16]],[[52375,58460],[62,39],[25,23],[31,326],[26,303],[353,-38],[57,706],[148,-56],[149,-6],[528,-95],[164,-61],[57,701],[945,-120],[58,592],[163,-17],[13,135],[29,80],[60,80],[467,457],[536,523],[175,-217],[501,408],[-62,27],[-50,8],[-61,1],[-52,-13],[-71,-41],[-11,-4],[-168,130],[-336,815],[-155,378],[-130,106],[-14,84],[79,546],[116,134],[573,457],[-374,482],[525,441],[-10,11],[3,36],[-24,25],[0,16],[17,24],[-7,45],[-5,8],[-30,5],[-9,29],[16,19],[0,12],[-31,43],[-20,18],[-36,40],[-25,3],[-19,-10],[-28,-29],[-49,-32],[-11,5],[-31,32],[-35,52],[-24,22],[-36,3],[-26,-3],[-12,8],[-7,22],[-19,6],[-20,-5],[-49,30],[-6,25],[2,21],[-6,39],[22,30],[3,15],[-43,44],[378,377],[-191,208],[-236,27],[-701,81],[69,527],[40,391],[95,931],[3,245],[10,778],[528,-59],[14,-23],[3,-17],[26,-44],[8,-35],[109,-235],[90,-10],[24,-12],[51,8],[163,-12],[19,-16],[75,-59],[21,-3],[30,-36],[44,24],[29,-4],[41,7],[31,0],[45,-21],[29,-6],[24,4],[27,16],[47,0],[-30,-277],[-58,-73],[-59,-291],[31,-113],[-38,-371],[364,-38],[-19,-187],[382,-44],[-29,36],[-6,20],[3,34],[8,20],[10,51],[-5,34],[245,-26],[-3,23],[-14,5],[-19,31],[3,23],[34,53],[16,66],[-15,43],[12,21],[16,-2],[14,-47],[-3,-14],[37,-38],[19,6],[14,36],[-12,28],[-1,48],[44,33],[27,-25],[-4,-26],[14,-21],[8,-54],[17,-34],[-7,-17],[15,-29],[38,-13],[8,-45],[-5,-35],[3,-17],[-8,-25],[547,-57],[36,-38],[2,-38],[-8,-15],[2,-49],[18,-17],[1,-17],[-8,-34],[7,-15],[20,-18],[-2,-23],[-14,-21],[2,-38],[36,-6],[6,-18],[42,-29],[42,9],[62,-9],[8,-39],[24,-16],[50,7],[17,-14],[22,-43],[10,-6],[19,12],[36,-14],[23,2],[27,23],[26,4],[70,58],[16,0],[18,15],[33,-17],[31,1],[15,-12],[-3,-12],[17,-10],[19,-27],[1,-44],[-23,-36],[15,-44],[14,3],[10,26],[20,4],[23,14],[-4,41],[2,24],[41,73],[28,42],[31,32],[15,9],[21,27],[6,22],[-1,43],[19,32],[48,56],[32,50],[22,21],[6,36],[16,25],[25,26],[19,12],[23,-6],[14,144],[-87,9],[5,25],[-19,25],[50,80],[63,-6],[-30,70],[2,212],[-19,24],[27,139],[-22,26],[-20,9],[-6,22],[-45,16],[-5,21],[-14,3],[-26,33],[-21,19],[-13,38],[-7,39],[7,32],[-13,23],[2,19],[20,24],[-17,22],[-2,22],[-55,-18],[-23,9],[-3,-14],[-17,-4],[-53,28],[-25,-2],[-14,7],[-4,20],[-30,25],[-10,22],[-3,43],[19,19],[-24,41],[4,34],[10,15],[3,38],[27,-5],[6,37],[15,5],[24,-24],[10,-1],[34,-35],[19,-6],[16,10],[27,-4],[17,14],[-5,44],[5,21],[16,14],[-7,17],[35,25],[30,27],[231,-26],[7,16],[605,-66],[-67,-658],[221,-24],[-60,-87],[188,-142],[-36,-75],[-6,-6],[504,-652],[218,-314],[55,47],[380,-46],[490,-58],[56,1043],[494,-67],[526,-71],[770,-104],[-7,35],[-10,8],[1,31],[-53,86],[29,23],[30,0],[54,9],[29,-9],[1,19],[24,3],[23,16],[13,22],[-10,16],[-16,59],[21,-5],[36,-30],[14,41]],[[64469,68657],[28,-80],[31,-3],[-4,-43],[288,-230],[-161,-211],[102,-82],[158,213],[189,-274],[10,-45],[-18,-31],[-13,-42],[18,-26],[8,-45],[38,-24],[6,-27],[24,-6],[10,-19],[14,-6],[5,-23],[25,-11],[12,-19],[27,-11],[-7,-29],[7,-17],[2,-37],[23,-5],[-3,-19],[18,-19],[3,-21],[45,-79],[-9,-25],[-11,-7],[-26,2],[-21,-14],[-27,-1],[-4,-11],[-188,116],[7,65],[-125,14],[-28,-267],[82,-9],[5,-19],[26,-21],[-13,-31],[11,-24],[88,-10],[-25,-256],[-95,-929],[-11,-18],[-38,3],[0,-36],[-18,-13],[0,-14],[-12,-26],[30,-32],[29,-4],[1,-12],[19,-22],[9,-21],[-10,-22],[5,-20],[-5,-29],[-57,-9],[-16,6],[-18,-188],[11,-20],[-8,-20],[-40,-16],[-7,-13],[-18,4],[-29,-6],[-21,8],[-11,-14],[7,-16],[-12,-68],[30,-32],[32,-5],[22,6],[6,-19],[19,-7],[24,-21],[5,-16],[19,-25],[29,-11],[-8,-105],[154,-13],[28,-6],[10,26],[50,-24],[21,-19],[12,-22],[30,13],[25,-34],[12,-38],[2,-49],[40,-8],[42,-18],[5,-13],[39,-28],[27,31],[51,6],[17,19],[11,-1],[-9,-121],[176,-20],[413,-44],[20,204],[29,9],[14,-18],[38,-18],[17,2],[25,-14],[30,-3],[8,-14],[21,-8],[-7,-38],[6,-17],[20,-11],[30,-44],[46,13],[23,-6],[26,9],[56,-28],[29,-1],[30,-17],[32,15],[19,27],[20,3],[43,-45],[27,-21],[-4,-34],[-8,-22],[6,-21],[-14,-54],[-14,3],[-15,-41],[24,-12],[21,1],[26,-13],[34,-44],[0,-19],[12,-15],[40,-32],[20,-7],[20,7],[13,16],[-8,24],[2,16],[19,14],[16,-8],[23,-25],[34,-11],[18,-20],[25,-11],[35,25],[50,-3],[7,9],[14,40],[21,-3],[31,20],[13,38],[33,-5],[29,-18],[17,-21],[16,-32],[33,-10],[19,-37],[-12,-22],[15,-18],[11,17],[21,-9],[5,-14],[27,-2],[15,19],[21,3],[16,-26],[25,-26],[11,-2],[34,-29],[32,-7],[35,-15],[21,20],[2,13],[58,40],[42,14],[41,-1],[9,12],[27,-13],[24,-2],[17,5],[20,-29],[32,-1],[11,-11],[17,6],[10,23],[24,17],[27,-34],[5,-20],[15,0],[60,-37],[1,-24]],[[68044,64264],[-78,-5],[-91,-43],[-8,-26],[-2,-46],[-9,-15],[27,-70],[-3,-7],[227,-493],[47,-7],[17,3],[17,35],[9,4],[22,-16],[44,23],[51,-19],[-3,-35],[143,4],[3,30],[30,0],[18,-13],[31,7],[26,-7],[15,-16],[63,5],[14,20],[21,4],[6,-13],[-11,-18],[-29,-20],[-2,-30],[11,-14],[25,-15],[40,-16],[-4,-19],[-20,3],[-22,-14],[-10,-22],[24,-43],[0,-12],[-25,-31],[-36,-21],[0,-26],[14,-10],[26,4],[49,16],[44,-11],[50,-2],[42,-5],[27,-10],[19,7],[24,-12],[32,-44],[7,-27],[25,-52],[93,-70],[44,-13],[27,13],[8,-31],[-13,-33],[5,-12],[25,-25],[15,-25],[19,-17],[21,-38],[-1,-21],[19,-19],[11,-26],[7,-67],[-26,-27],[4,-25],[24,-19],[43,-16],[29,-54],[19,-51],[12,-8],[53,15],[33,57],[26,-5],[7,-41],[17,-2],[38,27],[28,-8],[21,1],[19,24],[23,7],[17,-15],[60,-13],[40,2],[15,-7],[12,-33],[21,-6],[8,-11],[6,-43],[16,-39],[18,-16],[26,-33],[10,-45],[16,-19],[21,-4],[25,-18],[15,-22],[-8,-32],[-33,-8],[-25,-30],[-39,-17],[1,-21],[44,-32],[24,-31],[17,-49],[-5,-75],[4,-17],[37,2],[26,-14],[9,-42],[50,-10],[35,-24],[11,-30],[9,-57],[11,-26],[35,-22],[9,-31],[-10,-16],[-1,-43],[-28,-19],[-21,-27],[-22,-3],[-35,-31],[-35,-5],[-11,-19],[-11,-47],[13,-22],[24,-17],[8,-23],[-7,-18],[-29,-26],[-8,-28],[3,-12],[34,-34],[31,-21],[15,-24],[14,-4],[16,-51],[15,-12],[30,-5],[47,-37],[1,-14],[-29,-16],[-13,-13],[-91,-32],[-11,-25],[-35,-53],[6,-6],[72,-14],[17,6],[10,37],[37,8],[26,-18],[-7,-41],[2,-40],[9,-14],[44,7],[52,-3],[35,-14],[15,7],[22,-9],[-15,-21],[-1,-60],[17,-24],[39,-4],[28,-21],[9,-20],[39,-12],[29,4],[17,-11],[-15,-14],[-34,0],[-27,-5],[-60,-54],[-37,-17],[-4,-42],[6,-13],[35,-5],[43,-18],[28,-32],[21,9],[15,-15],[1,-65],[-7,-26],[-28,-11],[13,-14],[30,-4],[20,-27],[0,-40],[13,-29],[-11,-11],[26,-20],[13,-37],[87,-7],[35,-33],[37,36],[25,2],[22,-23],[41,-2],[21,-17],[-1,-22],[7,-23],[17,-8],[-2,-30],[64,-12],[20,-11],[9,-20],[8,-89],[41,16],[28,-21],[23,12],[4,21],[-14,10],[5,26],[10,10],[37,-4],[15,-9],[33,-44],[12,-30],[-3,-21],[33,-6],[17,-44],[21,-1],[13,-34],[24,-5],[18,26],[17,-19],[13,-5],[-4,46],[-24,22],[-2,45],[17,17],[19,-3],[26,9],[12,-26],[-1,-21],[-16,-31],[33,-53],[-37,-8],[-9,-22],[10,-23],[-4,-16],[15,-23],[4,-25],[14,-17],[16,-82],[-49,-45],[-2,-13],[18,-33],[101,-97],[19,-36],[5,-50],[20,-53],[-7,-143],[7,-35],[-8,-54],[9,-35],[45,-48],[-41,-39],[-32,10],[-26,-6],[-14,-28],[-24,-18],[-24,-36],[-40,-16],[-15,-16],[-14,-37],[24,-40],[-4,-15],[-25,-36],[-26,-14],[-10,-14],[-3,-27],[-25,0],[-24,-26],[-29,-21],[-22,-44],[2,-41],[-2,-64],[3,-22],[37,-5],[15,-18],[-14,-23],[-4,-27],[-31,-19],[-8,-15],[-20,-15],[29,-44],[14,-39],[-20,-27],[3,-18],[18,-25],[41,-17],[13,-16],[14,-44],[32,-51],[5,-31],[-19,-41],[-2,-28],[7,-24],[19,-40],[2,-19],[-7,-33],[-14,-40],[-6,-35],[3,-32],[7,-13],[35,-15],[-2,-21],[-11,-15],[-16,-47],[-31,-48],[-1,-35],[45,-67],[-4,-21],[-12,-8],[-80,-16],[-26,-20],[-25,-13],[736,-96],[785,-103],[240,-27],[379,-40],[-1,-3],[291,-34],[93,-10],[-7,-30],[-24,-53],[-42,-140],[-4,-25],[4,-44],[-7,-46],[43,0],[37,8],[17,9],[38,6],[72,-22],[28,-1],[26,-11],[43,-26],[56,-15],[28,-12],[40,-28],[56,4],[28,-1],[45,-21],[45,-13],[42,-28],[32,-37],[55,-38],[78,-1]],[[77873,50965],[0,-34],[-22,-116],[-22,-79],[-12,-25],[-18,-20],[-31,-20],[-36,-15],[-37,-7],[-54,-17],[-94,-45],[-41,-29],[-26,-24],[-22,-29],[-16,-41],[-12,-42],[-23,-109],[-10,-39],[1,-33],[9,-34],[77,-156],[3,-27],[-2,-33],[-15,-38],[-67,-63],[-23,-26],[-31,-62],[-1,-24],[-12,-83],[-28,-69],[-2,-77],[-8,-20],[-34,-24],[-63,-6],[-24,-17],[-51,-66],[-29,-24],[-26,-29],[-57,-81],[-26,-24],[-27,-3],[-30,6],[-55,24],[-45,45],[-25,11],[-22,0],[-19,-13],[-13,-23],[-15,-51],[-14,-21],[-22,-16],[-28,-14],[-37,-11],[-24,-19],[-20,-49],[-23,-24],[-42,-20],[-16,16],[-25,-12],[-20,-27],[-3,-23],[1,-47],[-4,-40],[-10,-13],[-31,-19],[-17,-20],[-36,-59],[-17,-40],[-5,-41],[-8,-31],[-13,-31],[-17,-25],[-28,-23],[-37,-6],[-25,5],[-48,32],[-10,17],[-72,49],[-74,31],[-55,13],[-48,4],[-51,-9],[-37,-19],[-34,-29],[-37,-46],[-53,-46],[-48,-10],[-41,18],[-20,22],[-37,91],[-4,23],[-17,37],[-34,47],[-34,13],[-36,-5],[-15,-8],[-31,-30],[-46,-5],[-53,15],[-46,28],[-39,32],[-15,17],[-17,38],[-9,66],[-9,12],[-31,14],[-38,5],[-23,-6],[-57,-24],[-122,-55],[-68,-24],[-29,-15],[-21,-21],[-7,-15],[-4,-52],[9,-49],[32,-88],[3,-15],[18,-29],[32,-39],[20,-44],[1,-37],[-3,-23],[-24,-40],[-18,-17],[-39,-22],[-25,-7],[-52,-6],[-15,-9],[-16,-35],[-13,-41],[-4,-39],[13,-63],[18,-61],[9,-111],[-6,-62],[-22,-72],[-2,-83],[-16,-32],[-134,-93],[-41,-18],[-45,-2],[-52,-9],[-58,-19],[-29,-38],[-6,-29],[-7,-91],[-15,-55],[-15,-34],[-16,-20],[-45,-26],[-27,-7],[-84,-2],[-25,-7],[-50,-44],[-20,-23],[-29,-23],[-41,-5],[-25,16],[-20,28],[-16,7],[-20,-3],[-18,-18],[-27,-46],[-33,-71],[-4,-25],[14,-62],[26,-54],[12,-35],[3,-55],[26,-60],[11,-37],[-4,-67],[-11,-48],[-40,-71],[1,-31],[61,-98],[19,-37],[-8,-36],[-23,-46],[10,-37],[-3,-28],[-49,-54],[-25,-36],[-5,-18],[-1,-47],[25,-68],[38,-65],[21,-43],[20,-73],[0,-27],[8,-52],[19,-51],[34,-78],[26,-78],[-4,-32],[4,-47],[13,-38],[11,-19],[37,-43],[-4,-47],[-8,-27],[-40,-56],[-16,-13],[-53,-68],[-45,-40],[-16,-25],[-13,-29],[-4,-30],[0,-58],[6,-22],[17,-26],[4,-16],[-2,-45],[-15,-56],[5,-30],[-4,-17],[-26,-35],[-29,-15],[-7,-26],[15,-46],[-10,-32],[5,-32],[-16,-36],[-7,-55],[-28,-58],[3,-17],[34,-49],[52,-61],[19,-36],[3,-44],[-2,-88],[6,-40],[19,-35],[60,-85],[5,-26],[-1,-38],[13,-32],[71,-80],[-4,-28],[-77,-58],[-41,-34],[-17,-43],[0,-27],[9,-25],[57,-89],[44,-62],[54,-66],[44,-37],[47,-19],[22,-3],[65,0],[67,-24],[74,-33],[22,-15],[30,-43],[15,-14],[47,-8],[81,5],[20,-8],[61,-66],[18,-25],[10,-23],[2,-49],[-8,-46],[22,-43],[27,-69],[4,-35],[-11,-102],[-13,-44],[-15,-29],[-18,-22],[-22,-15],[-50,-16],[-33,-7],[-28,-21],[-38,-46],[-38,-31],[-24,-39],[-22,-19],[-34,-7],[-28,-24],[-28,-3],[-24,-27],[-9,-30],[-25,-28],[-3,-30],[-10,-25],[-30,-40],[-9,-47],[-39,-39],[-21,-7],[-17,-16],[-46,-15],[-20,-17],[-39,-13],[-20,-33],[-2,-21],[-11,-26],[20,-9],[9,-12],[-55,-85],[3,-15],[-6,-81],[24,-62],[-3,-11],[17,-50],[19,-41],[20,-15],[19,-39],[36,-42],[39,-28],[4,-30],[18,-61],[28,-13],[26,-1],[40,-44],[4,-53],[10,-26],[3,-37],[-11,-32],[-13,-17],[-2,-37],[-11,-24],[-29,-30],[-22,-12],[-17,-24],[-23,-10],[-1,-18],[-15,-23],[-21,-18],[-44,-46],[-22,-18],[-38,-54],[-20,-17],[-30,-47],[-11,-35],[-19,-11],[-6,-24],[-21,-18],[-3,-30],[23,-51],[-2,-22],[13,-40],[-26,-21],[-7,-22],[-22,-6],[-22,-15],[-17,-24],[-22,-45],[-28,-38],[-11,-1],[-21,-29],[2,-51],[-19,-64],[-17,-26],[-27,-27],[-54,-62],[-3,-54],[16,-34],[13,-14],[3,-25],[-15,-17],[-3,-26],[-10,-13],[-6,-35],[-13,-22],[-4,-48],[19,-82],[-8,-34],[21,-46],[-10,-24],[3,-13],[-9,-45],[6,-23],[13,-14],[-21,-59],[-17,-6],[-582,60],[-75,7],[-841,286],[-12,69],[-31,10],[76,119],[-1368,143],[-19,-180],[24,-19],[-12,-147],[-10,-138],[-15,-247],[-9,-26],[-29,-277],[-310,113],[-409,44],[-470,847],[48,474],[-1634,165],[-151,-127],[-324,37],[-69,-805],[-6,-107],[-66,-946],[-60,-862],[478,-41],[-134,-737],[129,-4],[190,-18],[530,-36],[-16,-129],[-69,-784],[-7,-61],[-652,58],[-426,35],[-43,-265],[-228,29],[-72,-736],[-202,30],[-326,46],[-727,101],[3,41],[-322,43],[-604,83],[5,173],[-913,69],[-357,27],[84,1024],[812,-126],[84,100],[-409,104],[90,367],[97,-10],[169,544],[-690,176],[145,714],[88,-2],[17,223],[22,242],[-567,42],[-645,48]],[[12977,46377],[241,-8],[1175,-36],[61,1151],[52,-2],[29,559],[25,469],[459,-36],[16,353],[507,-12],[276,-16],[27,33],[27,15],[11,32],[40,1],[17,25],[0,56],[5,15],[-12,38],[12,12],[-2,19],[15,32],[-16,41],[-3,24],[-13,34],[12,26],[-29,26],[-3,21],[-20,24],[-22,-16],[-20,20],[5,19],[-10,32],[-35,17],[-37,48],[4,31],[-16,21],[-29,8],[6,35],[-3,21],[12,11],[-5,28],[18,22],[7,46],[-12,32],[-15,19],[-1,15],[-40,60],[-29,16],[-20,22],[-32,20],[-13,46],[2,76],[5,32],[-11,48],[-7,18],[-30,19],[32,30],[14,20],[-14,16],[-2,17],[9,26],[20,1],[33,15],[14,17],[-4,34],[16,13],[19,42],[4,24],[12,9],[-9,42],[14,25],[-12,20],[1,38],[-7,11],[2,56],[9,21],[-22,48],[-4,45],[77,-22],[122,-10],[17,-57],[16,-40],[9,-6],[15,-44],[31,3],[52,-24],[21,-35],[37,-10],[62,2],[27,20],[43,-13],[15,-11],[15,-27],[36,-3],[6,-12],[0,-53],[20,-7],[18,-17],[71,-110],[36,-62],[23,-47],[19,-23],[61,-48],[72,-48],[17,-36],[59,-63],[32,-17],[4,-36],[66,-31],[11,-1],[122,-41],[11,-10],[44,35],[-15,43],[-40,41],[-14,21],[-49,134],[-17,15],[20,186],[5,181],[15,139],[2,88],[12,52],[-84,140],[-85,35],[-5,7],[-46,19],[-14,9],[-173,78],[-75,12],[-138,16],[-43,55],[0,47],[33,49],[31,28],[23,4],[3,32],[-15,21],[1,24],[-81,102],[16,51],[9,44],[-17,18],[-13,29],[13,22],[19,16],[3,49],[-13,25],[4,39],[-7,43],[16,17],[4,48],[6,12],[-8,36],[-10,9],[-6,30],[-7,9],[0,46],[6,30],[25,-5],[11,15],[9,43],[26,-8],[22,40],[-2,37],[20,20],[37,-17],[30,3],[18,-5],[14,16],[-12,58],[7,7],[45,7],[17,52],[41,45],[-2,10],[-39,63],[4,16],[-11,30],[8,23],[-3,19],[17,20],[-4,21],[-14,17],[6,12],[48,30],[6,30],[-51,58],[-6,17],[-32,17],[1,15],[-12,11],[2,36],[-9,29],[-37,15],[-67,15],[-75,5],[-94,-30],[-97,9],[-341,-134],[-164,-15],[-64,-41],[-79,34],[-110,-3],[-227,23],[-69,12],[-540,-113],[-13,40],[-4,24],[4,100],[-4,44],[22,40],[51,65],[0,38],[-7,24],[-42,37],[-17,3],[-27,31],[11,33],[42,-3],[362,-30],[40,621],[25,404],[22,410],[4,21],[20,501],[87,-3],[12,806],[5,703],[-87,9],[7,95],[-564,28],[-23,-495],[-517,63],[-602,78],[-645,82],[155,899],[-522,48],[32,617],[37,698],[28,531],[37,727],[235,-17]],[[24368,62446],[21,-12],[28,-4],[33,-21],[74,-71],[25,-37],[6,-69],[-7,-16],[-31,-32],[-8,-43],[10,-11],[-3,-25],[14,-7],[18,3],[6,-51],[24,-18],[48,0],[25,-39],[2,-18],[-21,-39],[1,-13],[18,-22],[12,-34],[12,-12],[38,-24],[36,-13],[9,-18],[-17,-14],[0,-28],[12,-14],[54,-18],[17,-13],[3,-15],[-11,-20],[2,-35],[5,-17],[23,-32],[38,-37],[8,-26],[15,-27],[26,-28],[11,-49],[-8,-45],[9,-13],[21,-10],[34,-33],[-8,-32],[-18,-7],[-55,-4],[-36,-9],[-34,-16],[-25,-26],[-11,-55],[-31,-62],[1,-26],[10,-32],[24,-23],[23,-29],[6,-27],[-7,-24],[15,-35],[29,-29],[6,-36],[-12,-65],[-30,-36],[12,-38],[-21,-8],[-21,-18],[0,-25],[27,-22],[-2,-29],[4,-17],[14,-3],[17,17],[14,-2],[7,-31],[-12,-27],[-14,-20],[-5,-38],[8,-20],[21,-26],[25,-62],[8,-36],[6,-59],[6,-24],[15,-27],[1,-15],[21,-21],[20,2],[21,-36],[24,-13],[-4,-26],[31,-24],[5,-21],[-24,0],[-18,-16],[-5,-16],[6,-67],[-2,-29],[10,-22],[49,-39],[0,-16],[17,-51],[35,-30],[30,-10],[10,-67],[20,-5],[11,23],[21,11],[31,-3],[12,-20],[-7,-24],[-60,-51],[-20,-31],[2,-24],[19,-26],[-13,-15],[-23,6],[5,-28],[27,1],[13,-19],[5,-27],[-21,-3],[-13,-16],[15,-42],[1,-17],[26,-38],[28,-34],[-1,-36],[12,-43],[26,-30],[30,-12],[27,-31],[-2,-11],[-268,-292],[13,-28],[-3,-13],[11,-22],[7,-45],[-17,-12],[29,-43],[-2,-21],[9,-14],[-11,-41],[14,-27],[17,-12],[-572,-228],[-36,-528],[-650,46],[-44,-47],[-917,109],[1,-19],[16,-29],[14,-13],[-2,-17],[-20,-7],[-10,12],[-29,-7],[-20,-25],[19,-4],[11,-20],[-20,-19],[10,-13],[31,6],[6,-14],[-18,-24],[5,-36],[-9,-9],[25,-22],[-5,-23],[-15,-3],[-18,20],[-14,-18],[25,-29],[-23,-13],[-20,14],[-15,-14],[-6,-24],[684,-382],[-29,-443],[2,-17],[550,-40],[16,-1],[-39,-619],[-26,-391],[-31,-486],[198,-14],[6,-20],[-964,-832],[683,-906],[99,53],[110,39],[77,17],[11,-15],[798,-1009],[-378,-322],[-297,-252],[-56,-52],[-7,-62],[272,-13],[280,-33],[431,-51],[48,17],[142,-19],[266,-35],[-16,-6],[-24,-54],[-18,-13],[-62,-77],[-21,-33],[-15,-42],[-29,-64],[-16,-51],[-4,-53],[21,-19],[-1,-26],[-7,-10],[9,-27],[-3,-18],[-38,-10],[-30,-32],[-43,-18],[-36,-9],[-16,-16],[-31,-12],[-10,3],[-41,-11],[-43,-19],[-2,-12],[-36,-12],[-17,-23],[-34,-389],[88,-494],[101,-229],[14,-33],[-1,-45],[9,-48],[9,-187],[349,-426],[-37,-500],[-597,82],[-327,45],[-11,-11],[-43,-22],[-3,-55],[-5,-27],[-29,-30],[3,-24],[15,-19],[17,-52],[21,-11],[0,-24],[-34,-11],[-21,-39],[-13,-40],[-9,-48],[5,-36],[19,-23],[4,-15],[-3,-32],[-15,-36],[-27,-45],[-1,-25],[14,-23],[-2,-34],[9,-34],[-4,-42],[-15,-62],[14,-64],[-10,-32],[6,-35],[-22,-43],[-1,-23],[-22,-17],[-16,-20],[-7,-22],[-35,-18],[-51,-4],[-33,-15],[-38,-44],[-8,-70],[-18,-29],[-8,-26],[-29,-52],[-24,-34],[-12,-77],[-5,-15],[-45,-70],[-11,-31],[-18,-24],[-16,-65],[-19,-33],[-26,-20],[-31,3],[-30,-13],[-32,-50],[-31,-6],[-36,11],[-22,-2],[-75,-55],[-30,-63],[-24,-26],[-63,-38],[-11,-12],[8,-46],[-3,-22],[-33,-32],[-10,-16],[-31,-23],[-7,-26],[-36,-48],[-46,-40],[-5,-37],[4,-23],[19,-29],[6,-39],[-4,-39],[15,-10],[-3,-34],[24,-27],[10,-20],[-7,-45],[-48,-32],[-24,-23],[0,-28],[18,-15],[23,-72],[3,-22],[28,-40],[3,-25],[16,-24],[29,-23],[3,-29],[39,-44],[-5,-53],[6,-20],[-5,-17],[-19,-15],[-40,-25],[-28,4],[-18,-17],[-6,-46],[4,-18],[-8,-20],[-5,-35],[-24,-16],[-19,-91],[372,-26],[-67,-975],[-257,19],[-9,-132],[-234,-759],[27,-234],[611,-44],[-54,-889],[-140,10],[-24,-339],[-406,42],[-62,-592],[206,-66],[62,10],[29,-6],[39,3],[17,-7],[29,-42],[30,-56],[12,-40],[40,-84],[13,-55],[16,-13],[47,-193],[45,-76],[26,-58],[31,-41],[35,-55],[96,-188],[95,-72],[17,-32],[30,-29],[31,-38],[69,-62],[32,-43],[57,-110],[38,-55],[32,-57],[42,-94],[5,-17],[42,-76],[10,-86],[33,-88],[15,-25],[3,-17],[-71,5],[-238,-668],[-10,-139],[47,-166],[-26,-381],[-279,-351],[-206,17],[-38,-540],[172,-13],[-1,-16],[-205,-377],[-13,-189],[480,-34],[-26,-274],[-222,-731],[25,6],[72,2],[127,13],[31,-10],[227,-20],[57,8],[22,-14],[256,-24],[71,997],[37,451],[581,-78],[-5,-239],[2054,-100]],[[27601,36924],[-41,-90],[-121,-259],[-16,-54],[-31,-45],[-3,-192],[55,-127],[-19,-21],[35,-43],[-12,-13],[-1,-90],[-8,-25],[18,-46],[-1,-17],[12,-19],[5,-71],[-797,61],[-132,-1768]],[[23602,25725],[955,-1101],[258,-309],[201,-227],[5,-17],[17,-9],[246,-281],[20,-3],[111,83],[899,766],[718,-861],[166,-172],[295,-339],[30,-52],[47,-38],[437,-510],[155,-182],[59,10],[70,-32],[-37,-31],[563,-650],[627,-771],[606,-73],[629,-73],[8,133],[1236,-8],[1324,-132],[12,127],[138,-14],[1159,-63],[-18,-156],[-65,-646],[-68,-653],[-46,-445],[-79,-773],[-95,-916],[-398,-348],[-240,-312],[-871,1004],[-724,-680],[-220,-207],[339,-365],[706,-761],[278,-294],[-355,-295],[66,-85],[-554,-460],[824,-983],[67,-80],[-29,-26],[-19,-48],[-18,-19],[-55,-36],[-42,-10],[-22,-10],[-61,-9],[-39,-10],[-48,8],[-22,-6],[-12,-18],[-20,-14],[-71,-31],[-60,-39],[-8,-16],[-16,-10],[-11,-19],[-23,-15],[-34,-5],[-35,-14],[-28,1],[-35,-13],[-57,-5],[-34,-23],[-12,-14],[-14,-39],[-17,-15],[-13,-28],[-46,-34],[-15,-21],[-19,-57],[-32,-26],[-24,-12],[-34,-25],[-37,-19],[-28,-37],[-24,-5],[-32,-34],[-28,-9],[-18,-20],[-1,-13],[-39,-44],[-26,-25],[-32,-22],[-34,-18],[-121,-15],[-22,-19],[-33,11],[-15,-1],[-79,-21],[-21,4],[-27,-11],[-8,-23],[-19,-19],[-40,-25],[-18,-8],[-25,11],[-32,-6],[-27,10],[-30,-2],[-28,7],[-96,-23],[-29,-29],[-189,53],[-1542,431],[1,39],[-44,15],[-732,857],[-454,5],[-120,-1330],[-1018,-874],[30,356],[-1315,108],[-1023,5],[-1023,43],[-17,-234],[386,-33],[-91,-1337],[-509,40],[-49,-977],[-23,-347],[638,-58],[-74,-860],[-47,-544],[-62,-722],[-1184,113],[-113,34],[-124,-1533],[-70,-802],[808,-70],[419,-461],[21,28],[7,30],[47,90],[11,42],[27,53],[-14,31],[25,23],[21,27],[15,11],[128,44],[25,15],[33,37],[5,14],[61,26],[5,25],[34,15],[13,11],[22,-43],[231,-476],[-31,-366],[-90,-1038],[215,-15],[-15,-310],[140,-13],[-102,-1110],[-115,-1252],[-18,-190],[-590,0],[-670,0],[-669,0],[-670,0],[-669,-1],[-670,0],[-669,0],[-695,0],[-644,0],[-669,0],[-669,0],[-670,0],[-669,0],[-669,0],[-670,0],[-669,0],[-669,-1],[-670,0],[-669,0],[-669,0],[-669,0],[-186,0],[-483,0],[-669,0],[-670,-1],[-669,0],[-669,0],[-669,0],[-669,0],[-669,0],[-669,0],[-668,0],[-669,-1],[-669,0],[-669,0],[-669,0],[-889,0],[-1,661],[0,661],[0,661],[0,661],[-1,661],[0,662],[0,661],[0,660],[0,661],[0,661],[0,661],[0,661],[0,661],[0,661],[0,661],[0,661],[0,661],[0,661],[0,661],[0,661],[0,661],[0,660],[0,662],[0,661],[0,661],[0,661],[0,661],[0,661],[-1,661],[0,661],[0,647],[-1,675],[0,662],[0,720]],[[7332,83003],[55,-15],[59,-8],[42,0],[47,6],[84,6],[28,-6],[26,-13],[52,-13],[56,-25],[37,-9],[54,-7],[22,-11],[50,-1],[117,-15],[93,-9],[19,1],[14,-18],[12,11],[19,2],[16,-23],[40,-8],[36,-14],[50,-57],[13,2],[6,30],[18,10],[49,-17],[53,-35],[79,-58],[46,-24],[61,-17],[13,-15],[-7,-41],[-29,-22],[-16,-36],[-16,-24],[18,-18],[7,-66],[37,-93],[56,-76],[35,-32],[73,-49],[8,-2],[23,-28],[63,-40],[27,-40],[33,-18],[-26,-13],[9,-13],[16,-45],[18,-36],[42,-57],[56,-63],[13,-24],[29,1],[16,-6],[40,-29],[18,-3],[33,-20]],[[62763,39485],[-30,-396],[-784,89],[-69,-701],[-69,-702],[-400,52],[-377,46],[-17,1],[-185,23],[-323,39],[-64,316],[-87,10],[-648,70],[-17,-172],[172,-149],[-35,-280],[96,-184],[2,-55],[-51,-78],[-6,-42],[-25,-11],[12,-54],[-9,-29],[24,-27],[-277,29],[2,17],[-647,68],[-9,-76],[86,-97],[-17,-295],[-1049,112],[-12,-154],[-36,-395],[-34,-334],[7,-14],[-10,-16],[-25,-259],[-906,95],[-277,30],[-38,-483],[-362,38],[-5,-5],[-50,-485],[5,-3],[-59,-576],[-136,88],[-52,-16],[-274,34],[-161,20],[-230,22],[-473,35],[-220,16],[-150,15],[-296,23],[10,187],[-866,74],[42,398],[92,136],[-5,1],[33,332],[-1238,126],[13,139],[-55,321],[-692,71],[24,315],[23,375],[16,-1],[5,49],[-16,3],[-19,-47],[-607,63],[3,41],[-161,26],[-200,10],[-92,-4],[-154,33],[48,586],[-356,30],[-563,45],[-40,19],[-411,27],[-816,54],[-2,-27],[-607,78],[-459,52],[-19,12],[-37,-6],[-135,15],[96,840],[57,582],[-71,8],[-255,24],[-142,14],[-522,54],[-268,26],[-401,40],[-14,-15],[-624,65],[-128,13],[-2,17],[-232,24],[-6,26],[14,191],[8,99],[66,641],[84,853],[81,825],[-1023,99]],[[43645,42644],[71,726],[4,31],[36,383],[53,-5],[37,387],[311,-30],[3,15],[116,1066],[105,954],[110,939],[57,-4],[176,-17],[418,-38],[152,-15],[9,133],[31,101],[29,91],[15,21],[14,29],[9,89],[428,-45],[247,426],[57,574],[41,503],[-60,60],[-468,41],[23,33],[9,41],[4,64],[7,21],[21,28],[53,46],[44,27],[37,44],[7,16],[-16,58],[6,31],[29,39],[51,42],[11,43],[25,39],[47,34],[33,30],[51,17],[31,19],[31,28],[63,43],[72,13],[52,33],[30,35],[41,38],[32,24],[28,30],[12,18],[35,40],[59,28],[41,-6],[31,-20],[22,-6],[20,6],[42,3],[43,20],[14,13],[24,55],[25,27],[38,27],[98,31],[48,3],[30,13],[44,-5],[24,-21],[4,-12],[37,-16],[49,-9],[24,17],[52,25],[54,6],[76,-15],[55,-9],[47,-2],[38,15],[26,37],[41,21],[44,47],[31,24],[43,28],[64,77],[24,24],[94,30],[33,27],[15,29],[-2,68],[4,18],[17,22],[41,4],[37,-10],[31,9],[21,24],[0,21],[-22,50],[4,19],[23,12],[52,-27],[19,1],[24,28],[-1,38],[-24,50],[-48,60],[-561,688],[669,561],[-417,520],[-243,-211],[-709,741],[-239,22],[104,1090],[265,-26],[35,423],[67,798],[46,558],[193,2148]],[[47355,58244],[274,106],[158,-42],[149,-58],[197,-86],[177,-107],[229,-117],[228,-60],[210,17],[157,12],[169,21],[74,7],[63,15],[44,17],[44,28],[35,20],[68,22],[39,0],[58,-9],[38,-15],[39,-7],[52,8],[45,3],[101,-4],[30,8],[46,27],[40,31],[60,82],[62,73],[35,36],[97,94],[29,39],[18,39],[32,41],[16,4],[37,-7],[95,-34],[23,-6],[51,-7],[19,-9],[48,-11],[56,-2],[66,-11],[76,32],[37,40],[57,-1],[64,31],[63,26],[64,-1],[83,-17],[70,-48],[57,-33],[6,-61],[15,-48],[44,-54],[58,-27],[84,-22],[79,-36],[48,-58],[59,-44],[59,-35],[42,26],[61,67],[77,131],[58,78],[56,24],[33,29],[62,35],[52,-1],[38,14],[10,11]],[[87345,63691],[-9016,-1],[-3241,1],[-2598,0],[0,759],[-1164,-1],[-1889,1],[-90,-122],[-29,-7],[-22,6],[-21,15],[-50,2],[-21,-19],[3,-45],[-9,-10],[-34,-10],[-14,-13],[-21,0],[-35,29],[-18,-3],[-10,-15],[2,-25],[9,-17],[-1,-29],[-25,-37],[-4,-40],[-37,12],[-18,19],[-37,-30],[-33,13],[-61,6],[-26,-14],[-36,64],[-23,12],[-70,10],[-173,84],[-35,21],[-90,73],[-12,29],[-27,-2],[-5,-13],[-37,-19],[-28,-38],[19,-19],[4,-14],[-31,-35],[5,-26],[-11,-34],[11,-23],[-43,8],[-43,29],[-17,0],[-19,17],[-10,-9],[-29,13],[-24,0],[-23,-9],[-10,15],[-20,2],[-14,12]],[[64469,68657],[15,25],[21,-10],[17,6],[24,46],[34,25],[9,19],[23,20],[8,25],[-12,42],[27,15],[-3,28],[22,22],[-9,30],[-32,57],[4,14],[-3,34],[5,9],[111,-12],[-58,37],[-21,20],[-11,31],[4,24],[-11,12],[19,16],[21,1],[31,-34],[25,-16],[37,11],[19,-7],[34,18],[23,25],[13,-25],[18,-20],[13,-29],[17,-8],[21,-1],[24,20],[2,13],[-15,20],[6,13],[-9,27],[12,11],[-8,18],[45,1],[5,19],[32,4],[26,12],[-16,48],[15,24],[16,4],[22,-6],[19,-18],[18,-30],[0,-17],[30,-13],[-9,-58],[0,-17],[-19,-25],[17,-25],[6,-23],[57,-35],[28,2],[4,24],[28,18],[50,-37],[74,14],[18,-10],[57,1],[32,5],[16,8],[24,0],[2,18],[45,-2],[3,18],[18,5],[17,-9],[17,-20],[-5,-19],[22,-20],[27,23],[30,3],[33,29],[6,14],[30,18],[28,9],[5,13],[24,22],[23,9],[35,38],[1,24],[37,35],[13,21],[15,10],[20,-2],[49,36],[18,29],[20,13],[34,-7],[116,56],[120,-274],[50,-10],[53,-4],[9,-8],[43,13],[27,-16],[26,4],[25,10],[18,16],[40,-2],[35,4],[20,16],[24,7],[22,-1],[14,21],[35,-7],[48,2],[20,8],[6,-15],[24,-15],[54,22],[9,12],[22,0],[27,-30],[28,-16],[7,-23],[19,-9],[8,24],[15,13],[28,-22],[42,-14],[24,-18],[30,-5],[43,-28],[41,-11],[51,19],[39,4],[19,-38],[25,-28],[19,-32],[64,-33],[4,-12],[-23,-40],[3,-49],[27,-58],[-35,-33],[-8,-20],[-24,-15],[-8,-51],[-10,-19],[20,-31],[61,-1],[27,-19],[12,-42],[10,-17],[3,-29],[15,-17],[9,-32],[32,-36],[32,-2],[-6,-16],[-20,-17],[-5,-15],[36,-18],[13,-27],[16,-14],[-11,-26],[-33,-19],[5,-17],[-16,-36],[14,-13],[0,-42],[20,-39],[19,-21],[37,-1],[20,-21],[31,-11],[48,-9],[21,-18],[56,-24],[16,1],[55,-16],[76,12],[20,16],[16,-27],[46,-24],[24,-24],[15,-7],[1,-27],[7,-19],[24,-24],[15,4],[10,18],[38,15],[4,14],[-6,29],[39,22],[33,-6],[63,49],[13,45],[16,30],[51,61],[30,28],[33,40],[48,41],[66,-20],[31,-6],[80,0],[89,-19],[126,-27],[168,-9],[836,-2],[727,-1],[740,0],[506,0],[852,0],[2200,3],[0,-759],[2333,-2],[2649,2],[53,-134],[48,-57],[30,-59],[479,-214],[328,-146],[105,-52],[1077,-315],[132,-52],[490,-427],[88,-34],[88,-57],[40,-120],[244,-271],[390,-175],[296,-215],[425,23],[386,-144],[1510,-702],[271,-194],[22,-8],[9,-25],[306,-175],[15,4],[52,-15],[35,-32],[24,-35],[433,-161]],[[72067,65719],[1,0],[62,25],[33,16],[37,28],[26,35],[42,20],[9,-2],[22,-32],[30,6],[14,15],[6,39],[21,-1],[10,24],[16,4],[12,-20],[-7,-26],[22,-6],[12,23],[-10,26],[-19,25],[-32,12],[1,15],[14,21],[4,25],[-7,9],[7,27],[-17,26],[-26,12],[-17,-1],[-11,-15],[-36,-5],[-19,-11],[-13,-21],[-39,-15],[-15,-14],[-56,-14],[-25,2],[-41,-17],[-49,-9],[-34,8],[-32,38],[-14,22],[-13,32],[5,52],[1,0],[4,8],[-8,45],[-17,29],[-16,16],[-1,0],[-28,48],[-1,1],[-24,20],[-24,30],[-19,48],[-14,1],[-10,25],[-28,9],[-21,0],[-1,0],[-32,15],[-19,17],[-24,-2],[-31,18],[-30,40],[-11,35],[16,31],[12,11],[1,22],[-22,12],[-34,-29],[-50,-4],[-51,45],[0,22],[-28,12],[-9,-4],[-8,-29],[3,-23],[60,-66],[5,-65],[30,-61],[21,-36],[12,-9],[14,-31],[-18,-35],[-20,-11],[-19,-23],[-11,-30],[-24,-26],[-4,-56],[-17,-73],[-8,-11],[15,-58],[7,-12],[-33,-35],[-16,-2],[-12,15],[-25,12],[-2,-17],[17,-18],[11,-22],[0,-15],[-16,-10],[-2,-28],[19,-23],[56,-33],[29,-28],[15,-2],[-14,34],[-13,17],[22,32],[22,13],[21,24],[31,15],[26,-4],[55,-28],[37,-9],[15,23],[34,7],[48,-62],[4,20],[12,11],[38,8],[48,-7],[34,-10],[28,-38],[1,-16],[25,-17],[15,-25],[29,-31],[48,5]],[[71381,66682],[0,0],[-26,7],[-11,21],[-41,56],[-15,15],[-78,59],[-39,-12],[-30,-30],[-7,-19],[50,-9],[15,-38],[11,-10],[18,-43],[28,-39],[-8,-69],[24,-14],[8,-39],[24,8],[1,18],[13,33],[4,28],[8,22],[33,23],[18,32]],[[71219,65780],[22,-26],[23,-14],[1,20],[-46,20]],[[71083,65174],[18,-24],[12,-6],[19,-25],[33,-22],[17,-2],[23,-30],[21,-10],[15,43],[-22,52],[-37,2],[-17,13],[-39,39],[-14,-1],[-29,-29]],[[71108,65690],[24,-16],[0,-10],[32,-60],[33,-6],[14,12],[-50,44],[-15,30],[-28,18],[-10,-12]],[[71056,65816],[19,-39],[34,-32],[15,6],[-23,37],[-27,23],[-18,5]],[[71009,66325],[0,1],[-9,31],[19,27],[-5,28],[10,30],[0,32],[-6,33],[-13,20],[10,23],[20,23],[-2,22],[-12,17],[14,15],[5,30],[-20,62],[-17,27],[-31,25],[-23,-1],[-41,-17],[-20,8],[-15,-7],[1,0],[53,-39],[-12,-35],[6,-37],[19,-27],[12,-30],[19,-29],[-10,-37],[-13,-7],[-11,-29],[-11,-6],[-18,-40],[-22,-2],[0,-29],[9,-25],[31,-47],[33,-19],[6,-31],[14,-13],[15,4],[15,49]],[[70944,65792],[5,-26],[28,-28],[23,20],[-14,39],[-29,18],[-13,-23]],[[36465,60033],[175,-17],[11,126],[1369,-107],[364,-27],[-14,-171],[-92,-1134],[146,-11],[-61,-658]],[[38363,58034],[-115,11],[-1776,173],[-101,-1143],[-115,-1217],[251,-23],[-31,-368],[-56,-667],[-67,-793],[-58,-688],[-58,-667],[-43,-501],[-50,-581],[374,-33],[-64,-730],[-19,-230],[25,-2],[-45,-528],[-56,-644],[-36,-6],[-84,-22],[-23,3],[-17,-132],[-11,-133],[32,-3],[-49,-591],[-36,4],[-207,-451],[446,-47],[-71,-697],[-199,22],[-84,-838],[-158,17],[-52,-622],[-17,-224],[-13,-130],[-1,-31],[-740,67],[-33,-212],[322,-30],[-44,-512],[-7,3],[-77,-886],[274,-21],[-45,-605],[-518,9],[-250,4],[-833,166],[-86,-70],[328,-394],[424,-509],[-613,-514],[231,-24],[-95,-963],[-350,-288],[295,-30],[-14,-158]],[[33948,40555],[-7,-204],[-2,-1],[-7,-209],[2,-9],[-8,-160],[-39,4],[-1,-37],[38,-18],[-13,-393],[-12,-402],[-73,-520],[-76,-555],[-908,78],[-1655,145],[-12,-144],[-1079,95],[-251,22],[28,329],[-621,55],[-206,-1775],[-234,11],[-1211,57]],[[15490,84814],[4,33],[-47,78],[-17,7],[25,25],[14,6],[65,-1],[36,11],[32,21],[7,19],[-12,64],[15,20],[41,11],[8,-6],[10,-32],[20,-14],[56,-17],[-22,-18],[-45,-28],[-11,-30],[-15,-17],[-20,-9],[-27,7],[-15,-3],[-59,-39],[-13,-40],[-30,-48]],[[15262,84573],[-18,5],[34,30],[8,15],[26,9],[44,-9],[5,-17],[-19,-11],[-43,-16],[-37,-6]],[[15089,86451],[2,29],[-38,40],[13,22],[44,-31],[35,-8],[-36,-24],[-20,-28]],[[14453,86414],[-3,14],[-19,20],[-10,19],[-3,24],[-39,22],[-29,-1],[-26,-11],[-37,6],[-15,15],[-12,28],[-29,40],[-17,39],[-5,28],[45,14],[13,11],[32,52],[4,32],[-4,30],[5,15],[43,65],[27,-8],[35,1],[14,-5],[25,-22],[5,-16],[-13,-51],[3,-50],[8,-46],[12,-25],[29,-28],[-17,-58],[7,-26],[-1,-51],[-6,-35],[3,-16],[-8,-21],[-17,-5]],[[10764,84288],[-24,14],[-30,9],[-19,-8],[-38,-2],[-22,11],[-28,7],[-17,34],[-16,21],[-30,7],[-81,1],[-63,-13],[-42,-21],[-46,-30],[-29,-6],[-12,14],[-11,31],[-1,39],[-11,42],[-14,34],[-18,28],[-26,19],[-29,8],[-27,1],[-16,8],[11,47],[2,28],[28,31],[30,12],[30,5],[5,23],[-38,-13],[-14,15],[3,11],[37,28],[-18,17],[-25,-18],[-17,-26],[-49,-51],[-9,-57],[-13,-43],[-27,2],[-23,-6],[-2,27],[-11,13],[-3,46],[-12,18],[-3,20],[4,48],[15,21],[-8,34],[3,32],[-12,45],[-20,43],[-26,22],[-16,4],[-18,-10],[-41,-3],[-4,-5],[-39,4],[-21,14],[-34,-6],[-22,-8],[-33,17],[-16,26],[-16,46],[2,34],[-5,51],[-17,28],[-18,62],[-34,42],[27,45],[51,54],[16,29],[4,29],[-13,56],[2,11],[66,62],[56,38],[48,55],[27,23],[32,22],[25,25],[77,51],[62,52],[19,23],[21,36],[9,23],[24,41],[4,37],[-28,23],[-5,28],[15,24],[37,44],[13,30],[-12,42],[90,54],[57,46],[35,47],[7,23],[-2,15],[12,54],[-17,33],[59,28],[14,19],[21,6],[24,20],[27,6],[41,18],[47,28],[80,57],[21,10],[76,48],[37,45],[27,49],[32,33],[29,19],[34,14],[37,5],[14,-4],[81,-36],[26,-6],[38,-2],[41,7],[80,25],[70,41],[9,-27],[23,-27],[29,-13],[14,-32],[9,21],[21,-3],[13,-16],[38,12],[-22,26],[-98,35],[-12,13],[18,41],[17,15],[88,9],[49,1],[60,-4],[34,9],[31,15],[49,15],[47,6],[68,3],[40,10],[29,-3],[28,-12],[34,-8],[57,-5],[67,0],[94,6],[37,8],[54,17],[62,32],[1,28],[36,14],[31,17],[27,27],[-2,18],[100,45],[7,9],[43,13],[18,9],[101,39],[75,35],[68,42],[10,11],[14,35],[1,20],[-10,30],[45,14],[15,18],[20,14],[6,23],[18,-3],[57,-39],[20,-8],[46,-8],[41,-14],[79,-10],[90,-7],[96,-18],[26,-11],[21,-28],[20,-37],[25,-35],[25,-26],[8,-29],[43,-36],[29,-12],[72,-64],[12,-14],[26,-46],[29,-37],[14,-14],[72,-44],[42,-11],[38,-2],[94,7],[23,-5],[25,-15],[21,-30],[2,-16],[-21,-59],[11,-13],[6,-34],[48,20],[35,-7],[9,-27],[1,-23],[12,-28],[17,-14],[24,-4],[30,-93],[-25,-71],[6,-72],[-4,-45],[4,-12],[-15,-36],[1,-36],[26,9],[28,-8],[40,-25],[10,-22],[-7,-31],[20,-35],[-6,-14],[-48,-16],[-27,-3],[-17,8],[-54,-8],[-48,-2],[-8,16],[1,38],[-5,31],[-17,34],[-24,21],[-40,11],[-52,3],[-28,-8],[-56,0],[-27,-4],[-24,-24],[-17,-26],[-24,-11],[-51,-5],[-30,-27],[-3,-19],[-27,-4],[-19,9],[-51,-19],[-4,-11],[-32,-26],[-33,-11],[-34,-18],[-93,-68],[-49,-44],[-27,-15],[-24,33],[6,47],[-20,28],[-20,11],[0,47],[7,14],[-5,27],[-14,16],[-24,11],[-36,9],[-10,18],[2,46],[-21,39],[-2,16],[12,21],[23,16],[5,29],[-21,42],[-24,25],[-25,14],[-50,15],[-28,13],[-29,30],[-10,3],[4,26],[-5,24],[35,25],[-7,15],[11,13],[3,32],[-7,42],[-9,28],[-23,23],[-13,-18],[26,-31],[9,-34],[-5,-38],[-23,-12],[-25,-5],[-43,-21],[-25,-19],[-33,-9],[-10,-20],[-3,-43],[15,-9],[-38,-31],[-10,-25],[-44,-32],[-19,-32],[9,-20],[18,-10],[-2,-17],[-16,-29],[-31,7],[-49,0],[-16,6],[-51,-8],[-15,8],[-17,29],[-12,5],[-27,-3],[-39,-26],[-56,-74],[-29,-6],[-31,7],[-39,-9],[-1,30],[-18,-2],[-20,8],[-33,-28],[8,-25],[-25,0],[-3,-18],[-21,-8],[-9,-24],[28,3],[25,-7],[7,-12],[35,-33],[19,-27],[10,-35],[18,-15],[63,-15],[38,16],[24,-7],[12,8],[35,10],[40,5],[31,-6],[13,-16],[11,-92],[-13,-31],[2,-16],[-30,-22],[-33,-42],[-7,-24],[6,-49],[-11,-12],[-37,17],[-12,41],[-32,35],[-6,44],[-20,22],[-31,16],[-29,1],[-45,-9],[-69,-30],[-52,-38],[-20,-25],[-23,-21],[-20,-5],[-12,-38],[-14,-27],[1,-12],[82,-12],[27,-12],[20,-15],[10,-19],[1,-22],[-28,-92],[-15,-14],[2,-43],[20,-24],[13,-31],[13,-11],[1,-37],[-12,-28],[-43,-76],[-41,-9],[-22,3],[-20,13],[-66,-1],[-41,-8],[-20,-17],[-24,2],[0,-21],[-8,-18],[27,-9],[15,-23],[1,-26],[25,-16],[17,-21],[29,-56],[-11,-46],[9,-11],[-11,-29],[1,-55],[-40,-18],[-30,-5],[-17,-23],[0,-15],[-39,30],[-72,6],[-47,-1],[-33,-10],[-11,13],[5,20],[15,22],[-1,21],[-29,33],[-11,0],[-3,24],[-15,23],[0,26],[-25,54],[-27,13],[3,25],[-15,22],[-18,12],[-49,13],[-22,40],[-32,1],[-17,14],[23,10],[-28,43],[-23,-1],[-3,20],[-28,5],[24,34],[16,9],[49,4],[16,16],[1,23],[-33,-17],[-49,15],[-49,41],[-11,18],[-31,18],[-26,5],[-25,-11],[-5,-17],[11,-26],[34,-21],[46,-46],[3,-33],[-44,-4],[4,-37],[19,-31],[-3,-17],[5,-43],[-1,-78],[7,-39],[31,-37],[16,-8],[24,-33],[-2,-28],[-26,-34],[-74,-72],[-28,-62],[19,-58],[23,-16],[27,-12],[-25,-14],[-23,4],[-24,16],[-1,22],[-24,9],[-37,32],[-6,15],[-40,19],[-27,-4],[-16,7],[-9,-26],[44,-48],[3,-19],[-9,-35],[-47,-52],[-28,-20],[-41,-41],[-14,-6],[-20,-26],[-37,-38],[-28,-5],[-22,-47],[-29,-42],[-15,-30],[3,-16],[-10,-22],[-18,-25],[-21,-3],[-40,45],[-15,9],[-31,-8],[-64,-43],[-49,-46]],[[13486,80608],[-19,17],[-20,5],[-33,-7],[-15,25],[-20,17],[-34,0],[-3,16],[12,22],[-7,54],[5,13],[-11,44],[1,29],[-9,17],[30,-3],[52,10],[31,14],[27,18],[19,22],[2,29],[-9,10],[12,17],[-17,57],[46,51],[8,26],[12,13],[-1,20],[30,22],[7,47],[-5,40],[-12,18],[19,45],[26,-6],[12,-17],[29,-14],[16,-24],[6,-22],[17,-18],[9,-36],[-3,-9],[-23,-2],[-19,-29],[-8,-41],[-19,-17],[-15,-23],[-39,-73],[-41,-87],[-34,-56],[-16,-33],[-12,-41],[2,-29],[13,-21],[-2,-55],[12,-8],[-1,-35],[-8,-12]],[[11889,80733],[-18,1],[-13,12],[-20,-11],[-22,5],[-24,27],[-2,62],[-6,17],[-28,24],[-6,14],[-29,18],[-12,13],[3,35],[-6,29],[-13,8],[0,16],[-21,33],[-8,21],[1,29],[-15,28],[2,17],[31,-3],[59,-17],[42,-1],[30,8],[33,21],[52,21],[18,16],[24,32],[5,14],[28,32],[13,22],[46,20],[56,36],[44,38],[14,18],[9,29],[8,55],[5,11],[-9,34],[23,60],[-6,16],[13,10],[51,3],[49,-9],[1,-13],[25,6],[19,29],[48,11],[14,8],[57,59],[34,53],[-6,42],[16,66],[13,9],[-26,23],[-8,22],[14,48],[-13,26],[-2,32],[-15,33],[4,15],[26,-8],[22,-27],[30,-15],[15,-1],[17,-16],[11,-51],[26,-43],[45,-57],[64,-69],[75,-62],[59,-63],[40,-61],[44,-32],[41,-4],[26,8],[-2,-20],[-13,-28],[-12,-1],[-15,-48],[-13,-10],[1,-32],[13,-61],[31,-72],[17,-49],[25,-40],[61,-62],[26,-15],[23,-50],[39,-51],[-17,-1],[-16,17],[-52,-13],[-8,9],[-63,-23],[-31,-18],[-32,-25],[-20,9],[-62,-2],[-45,-7],[-69,-18],[-36,-17],[-25,-5],[-25,-17],[-18,-21],[-11,-31],[6,-23],[-27,4],[-18,-22],[31,-25],[-30,-2],[-17,-11],[-46,29],[-34,-1],[-29,20],[-43,-1],[-30,-12],[-17,-21],[-16,23],[-19,-14],[-12,38],[-17,4],[-13,54],[10,22],[9,41],[-11,27],[-17,13],[6,26],[-58,-18],[-55,-3],[-56,-18],[-28,-3],[-38,-18],[-33,-5],[-39,-12],[-23,0],[-16,7],[-11,-20],[-16,4],[-15,-8],[7,-23],[-20,-8],[-3,-41],[-34,-55],[-7,-38],[34,-35],[-23,-5]],[[12985,80685],[-34,13],[-1,43],[31,49],[-9,45],[9,9],[17,-22],[14,-1],[31,12],[-17,-42],[-8,-4],[-32,-41],[4,-55],[-5,-6]],[[12134,84537],[-10,8],[-23,-2],[-36,8],[-28,20],[4,54],[-21,13],[3,21],[13,17],[17,42],[11,15],[2,37],[35,18],[39,50],[38,19],[18,-1],[30,16],[22,23],[12,1],[16,-22],[19,10],[14,-32],[20,-25],[5,-38],[-34,-24],[-32,-66],[-18,-29],[-10,-60],[-11,-12],[-45,-21],[-50,-40]],[[12172,84897],[-20,9],[-10,29],[28,-7],[11,-27],[-9,-4]],[[11569,81192],[-29,2],[-65,16],[-34,2],[-28,14],[-1,27],[69,3],[55,-27],[52,-18],[6,-15],[-25,-4]],[[11524,85082],[-11,27],[15,12],[-7,29],[21,42],[12,9],[-1,-39],[8,-19],[-14,-25],[0,-16],[-23,-20]],[[11494,81808],[-11,2],[-16,20],[8,8],[25,-20],[-6,-10]],[[11394,82266],[-17,9],[0,22],[13,1],[11,-14],[-7,-18]],[[10822,84127],[-9,3],[-16,31],[-25,15],[0,33],[18,-23],[42,-29],[0,-25],[-10,-5]],[[10621,81867],[-15,27],[-57,-2],[9,34],[-5,19],[-15,14],[17,21],[18,2],[27,-10],[8,6],[36,-24],[25,6],[28,-33],[-37,14],[-10,-33],[-22,-18],[-7,-23]],[[10647,88468],[1,20],[-18,50],[29,-1],[26,8],[-3,-19],[-35,-58]],[[10576,81341],[-30,2],[-17,31],[-40,-11],[-30,6],[2,47],[-15,31],[-30,14],[-50,-4],[-31,-14],[-42,28],[-27,39],[-11,43],[-19,36],[-43,3],[-31,-21],[-10,19],[4,35],[-16,53],[-24,31],[-19,9],[3,13],[-21,49],[6,40],[53,4],[10,-9],[39,-62],[19,-15],[36,-18],[34,-53],[62,-37],[27,-27],[17,-7],[28,-64],[18,-16],[21,-33],[25,-27],[24,-14],[48,-43],[20,-9],[10,-49]],[[9534,84108],[-3,41],[23,50],[17,76],[14,31],[4,23],[-6,45],[-22,62],[-23,28],[-4,60],[11,30],[11,11],[14,32],[9,63],[28,44],[24,28],[75,59],[68,66],[18,9],[52,-7],[24,-14],[14,3],[16,-10],[33,-40],[0,-24],[-21,-99],[-30,-49],[-2,-30],[10,-41],[9,-12],[1,-24],[13,-25],[1,-37],[8,-22],[-34,-37],[-8,-25],[-25,-20],[-24,-5],[-15,7],[-17,-5],[-49,-35],[-40,-51],[-7,-34],[16,-67],[-30,5],[-23,-4],[-22,6],[-30,-3],[-22,-10],[-56,-49]],[[9191,83279],[-29,24],[-2,27],[-10,27],[-15,24],[-2,38],[6,17],[-12,17],[32,70],[4,20],[-15,7],[16,30],[34,4],[67,29],[80,29],[77,34],[38,31],[30,-23],[18,-59],[11,-26],[24,-23],[32,-11],[12,-11],[4,-26],[22,-16],[3,-17],[-17,-8],[-29,-34],[-13,0],[-29,15],[-47,-1],[-19,17],[-17,-1],[-28,-21],[-9,30],[-20,-39],[-23,15],[-16,-17],[-21,-34],[-17,4],[-75,-33],[-35,-37],[-12,-19],[2,-53]],[[9569,84032],[-32,6],[-4,31],[10,22],[19,3],[26,-33],[-2,-25],[-17,-4]],[[8951,82753],[-25,25],[-17,27],[-40,4],[-24,16],[2,20],[-26,15],[-3,22],[-12,10],[45,32],[17,-31],[33,-27],[22,-1],[19,-17],[7,-28],[20,-50],[-18,-17]],[[8863,83006],[-3,24],[-13,31],[26,31],[23,19],[17,-7],[0,-38],[8,-24],[-29,-21],[-29,-15]],[[20,43707],[0,587],[0,662],[-1,661],[0,662],[0,661],[-1,753],[0,570],[-1,662],[0,661],[0,662],[-1,661],[0,662],[0,661],[-1,662],[0,662],[0,662],[-1,662],[0,661],[0,662],[-1,662],[0,662],[0,662],[-1,662],[0,661],[0,662],[-1,662],[0,662],[1,753],[1,878],[-1,650],[0,365],[0,661],[-1,662],[0,661],[0,662],[-2,369],[0,291],[0,926],[0,794],[-1,1721],[0,228]],[[38363,58034],[-13,-140],[207,-20],[1399,-129],[1506,-137],[462,-39],[228,-21],[1168,-109],[433,-40],[45,52],[14,21],[21,4],[19,-10],[34,-38],[37,-69],[17,-16],[24,-4],[39,21],[48,42],[14,21],[11,27],[3,108],[6,24],[74,122],[38,105],[24,49],[40,56],[54,44],[61,34],[71,33],[30,40],[22,64],[22,37],[35,17],[44,-6],[136,-76],[43,-10],[85,11],[47,69],[46,75],[4,96],[-6,30],[-1,58],[10,14],[24,-2],[24,21],[17,25],[85,53],[32,-25],[72,18],[18,18],[18,0],[34,-19],[24,1],[58,-8],[12,38],[17,28],[14,11],[39,15],[30,58],[6,26],[32,16],[21,20],[16,25],[94,37],[102,46],[28,23],[68,36],[40,39],[27,37],[19,46],[12,51],[-4,57],[-13,69],[-29,69],[51,36],[80,37],[101,37],[117,-43],[87,-53],[44,-29],[120,-103],[29,-42],[61,-52],[49,-86],[34,-46],[41,-78],[99,-244],[14,-26],[230,-217],[62,-33],[195,-88],[40,1]],[[43645,42644],[-2,-17],[-403,40],[-487,-413],[-370,-314],[-406,-345],[-240,-201],[-4,-47],[-42,-34],[-30,15],[-377,-346],[-89,109],[-16,-15],[-653,-561],[-210,256],[-178,221],[-500,-430],[-512,-436],[204,-247],[-557,-480],[42,521],[-212,19],[-340,32],[-209,19],[-18,-6],[-561,49],[-37,-420],[-313,17],[-625,34],[-383,21],[10,147],[8,41],[6,77],[-428,48],[-464,51],[30,413],[-570,70],[-637,19],[-124,4]],[[87345,63691],[627,-232],[27,-10],[15,-21],[1126,-402],[1790,-319],[61,-77],[332,-587],[28,-30],[438,-87],[53,-27],[43,-47],[558,-123],[1898,-768]]],"transform":{"scale":[0.00012010640106401049,0.00010987989879898798],"translate":[137.99465,-25.99685]},"objects":{"qld_northern_ldmg_boundaries_gda2020_simp20":{"type":"GeometryCollection","geometries":[{"arcs":[[0,1,2,3,4]],"type":"Polygon","properties":{"LGA Code":"900","Abbreviated Name":"Boulia","LGA Name":"Boulia Shire","Area Sq Km":60946.43985,"LDMG Name":"Boulia","Police Region Name":"Northern Region","Police Region Code":"NR","Police Region Short Name":"Northern"}},{"arcs":[[5,6,7]],"type":"Polygon","properties":{"LGA Code":"1900","Abbreviated Name":"Burdekin","LGA Name":"Burdekin Shire","Area Sq Km":15646.50249,"LDMG Name":"Burdekin","Police Region Name":"Northern Region","Police Region Code":"NR","Police Region Short Name":"Northern"}},{"arcs":[[8,9,10,11,12,13],[14]],"type":"Polygon","properties":{"LGA Code":"1950","Abbreviated Name":"Burke","LGA Name":"Burke Shire","Area Sq Km":40167.14113,"LDMG Name":"Burke","Police Region Name":"Northern Region","Police Region Code":"NR","Police Region Short Name":"Northern"}},{"arcs":[[[-12,15,16,17]],[[18]],[[19]]],"type":"MultiPolygon","properties":{"LGA Code":"2250","Abbreviated Name":"Carpentaria","LGA Name":"Carpentaria Shire","Area Sq Km":64182.80075,"LDMG Name":"Carpentaria","Police Region Name":"Northern Region","Police Region Code":"NR","Police Region Short Name":"Northern"}},{"arcs":[[20,21,22,23,-6,24]],"type":"Polygon","properties":{"LGA Code":"2310","Abbreviated Name":"Charters Towers","LGA Name":"Charters Towers Regional","Area Sq Km":68329.4967,"LDMG Name":"Charters Towers","Police Region Name":"Northern Region","Police Region Code":"NR","Police Region Short Name":"Northern"}},{"arcs":[[-4,25,-13,-18,26,27]],"type":"Polygon","properties":{"LGA Code":"2450","Abbreviated Name":"Cloncurry","LGA Name":"Cloncurry Shire","Area Sq Km":48000.46473,"LDMG Name":"Cloncurry","Police Region Name":"Northern Region","Police Region Code":"NR","Police Region Short Name":"Northern"}},{"arcs":[[-1,28]],"type":"Polygon","properties":{"LGA Code":"2750","Abbreviated Name":"Diamantina","LGA Name":"Diamantina Shire","Area Sq Km":94665.36485,"LDMG Name":"Diamantina","Police Region Name":"Northern Region","Police Region Code":"NR","Police Region Short Name":"Northern"}},{"arcs":[[[-10,29]],[[-15]]],"type":"MultiPolygon","properties":{"LGA Code":"2770","Abbreviated Name":"Doomadgee Aboriginal","LGA Name":"Doomadgee Aboriginal Shire","Area Sq Km":1803.36842,"LDMG Name":"Doomadgee","Police Region Name":"Northern Region","Police Region Code":"NR","Police Region Short Name":"Northern"}},{"arcs":[[30,31,32,-21]],"type":"Polygon","properties":{"LGA Code":"3200","Abbreviated Name":"Flinders","LGA Name":"Flinders Shire","Area Sq Km":41226.82747,"LDMG Name":"Flinders","Police Region Name":"Northern Region","Police Region Code":"NR","Police Region Short Name":"Northern"}},{"arcs":[[33,-23,34],[35],[36],[37],[38],[39],[40],[41],[42]],"type":"Polygon","properties":{"LGA Code":"3800","Abbreviated Name":"Hinchinbrook","LGA Name":"Hinchinbrook Shire","Area Sq Km":11385.08266,"LDMG Name":"Hinchinbrook","Police Region Name":"Northern Region","Police Region Code":"NR","Police Region Short Name":"Northern"}},{"arcs":[[-17,43,44,45,-27]],"type":"Polygon","properties":{"LGA Code":"4800","Abbreviated Name":"McKinlay","LGA Name":"McKinlay Shire","Area Sq Km":40732.91399,"LDMG Name":"McKinlay","Police Region Name":"Northern Region","Police Region Code":"NR","Police Region Short Name":"Northern"}},{"arcs":[[[46]],[[47]],[[48]],[[49]],[[50]],[[51]],[[52]],[[53]],[[54]],[[55]],[[56]],[[57]],[[58]],[[59]],[[60]],[[61]],[[62]],[[63]],[[64]],[[65]],[[66]],[[67]],[[68]]],"type":"MultiPolygon","properties":{"LGA Code":"5250","Abbreviated Name":"Mornington","LGA Name":"Mornington Shire","Area Sq Km":1212.20294,"LDMG Name":"Mornington","Police Region Name":"Northern Region","Police Region Code":"NR","Police Region Short Name":"Northern"}},{"arcs":[[-3,69,-14,-26]],"type":"Polygon","properties":{"LGA Code":"5300","Abbreviated Name":"Mount Isa","LGA Name":"Mount Isa City","Area Sq Km":43209.77211,"LDMG Name":"Mount Isa","Police Region Name":"Northern Region","Police Region Code":"NR","Police Region Short Name":"Northern"}},{"arcs":[[[-36]],[[-37]],[[-38]],[[-39]],[[-40]],[[-41]],[[-42]],[[-43]]],"type":"MultiPolygon","properties":{"LGA Code":"5790","Abbreviated Name":"Palm Island Aboriginal","LGA Name":"Palm Island Aboriginal Shire","Area Sq Km":69.29859,"LDMG Name":"Palm Island","Police Region Name":"Northern Region","Police Region Code":"NR","Police Region Short Name":"Northern"}},{"arcs":[[70,-32,71,-45]],"type":"Polygon","properties":{"LGA Code":"6300","Abbreviated Name":"Richmond","LGA Name":"Richmond Shire","Area Sq Km":26584.37452,"LDMG Name":"Richmond","Police Region Name":"Northern Region","Police Region Code":"NR","Police Region Short Name":"Northern"}},{"arcs":[[-24,-34,72,-7]],"type":"Polygon","properties":{"LGA Code":"7010","Abbreviated Name":"Townsville","LGA Name":"Townsville City","Area Sq Km":12107.9537,"LDMG Name":"Townsville","Police Region Name":"Northern Region","Police Region Code":"NR","Police Region Short Name":"Northern"}}]}}}