{"type":"Topology","arcs":[[[30213,34525],[-94,51],[-143,35],[-196,0],[-158,9],[-159,28],[-221,54],[-220,102],[-146,116],[-89,96],[-108,70],[-171,35],[164,596],[1251,553],[201,1421],[1222,-45],[186,1330],[2119,-62],[243,1383],[1083,-44],[244,1396],[-2550,90],[-3293,117],[-300,-1257],[-32,-167],[-2203,100],[-5652,257],[-908,721],[-1908,1502],[-1314,-1800],[-107,-7],[-128,63],[-212,47],[-104,31],[-223,22],[-161,45],[-142,21],[-100,-95],[-127,-140],[-240,-57],[-70,-43],[-1,-67],[92,-67],[114,-11],[96,-49],[26,-57],[137,-19],[87,-29],[41,-45],[217,-108],[26,-40],[151,-52],[69,-56],[-436,-1104],[-3321,139],[-3070,129],[-209,-26],[-37,32],[-170,39],[-251,9],[-103,59],[-13,39],[-100,43],[-111,-10],[-106,24],[-43,-65],[-99,0],[-169,-42],[-44,-41],[-131,36],[12,73],[56,61],[-153,-8],[3,51],[-50,15],[-120,-15],[-88,16],[-57,36],[-86,-16],[17,-48],[-196,8],[9,-80],[114,-8],[2,-45],[-122,0],[-61,38],[-125,30],[-44,-22],[-129,27],[-9,28],[84,17],[-37,68],[-51,16],[-122,-43],[0,-61],[-67,12],[-7,69],[137,58],[153,93],[-93,7],[-53,57],[-129,-25],[-28,-84],[-130,-22],[22,59],[122,77],[132,116],[187,266],[116,150],[159,176],[29,45],[203,258],[16,45],[101,110],[125,78],[-10,52],[33,33],[-5,55],[-105,20],[152,121],[168,114],[124,104],[97,176],[95,239],[69,267],[9,131],[-12,42],[33,62],[232,75],[87,91],[216,103],[188,81],[137,78],[169,112],[34,45],[64,151],[-15,62],[-88,110],[-59,24],[2,39],[117,45],[27,26],[-55,68],[161,187],[-38,-81],[22,-46],[92,-60],[107,-20],[225,-98],[145,-90],[226,14],[47,58],[86,34],[76,1],[72,-33],[16,-51],[95,15],[65,-44],[3,-77],[74,-16],[108,7],[23,-30],[-64,-24],[58,-30],[54,-91],[141,-24],[10,-28],[137,-4],[57,-40],[102,8],[-11,65],[145,-26],[92,49],[113,-7],[79,-21],[90,21],[38,-15],[49,20],[98,-7],[73,-51],[166,16],[195,33],[-7,29],[126,32],[136,19],[88,-38],[257,56],[132,38],[89,-7],[67,12],[163,-11],[115,25],[100,-15],[63,37],[104,23],[68,-14],[157,49],[97,12],[51,-13],[253,6],[19,34],[122,16],[97,-8],[57,-33],[116,7],[124,72],[95,-2],[198,17],[97,35],[106,17],[79,30],[130,22],[111,45],[123,30],[109,-60],[102,-14],[222,25],[43,33],[72,7],[122,51],[115,6],[88,29],[76,-6],[171,18],[87,-6],[87,60],[130,22],[125,80],[76,23],[83,-1],[147,104],[236,73],[9,58],[278,130],[-36,34],[25,61],[-47,10],[-124,-93],[-217,-120],[-7,-41],[-121,-74],[4,-19],[-97,-48],[-421,-114],[-2,-52],[-239,-27],[-73,-29],[-115,29],[-118,-21],[-155,-48],[-90,-4],[-280,-91],[-154,8],[-52,25],[-156,-41],[-202,4],[-102,-32],[-114,-15],[-90,7],[-63,-25],[-158,-32],[-245,-146],[-82,-5],[-77,31],[-122,10],[-94,-9],[-36,-37],[-165,-12],[-124,18],[-106,-16],[-152,-48],[-86,13],[-124,-33],[-35,-26],[-92,12],[-155,-14],[-109,1],[-55,-11],[-122,14],[-124,-44],[-97,-11],[-162,-42],[-88,36],[-269,-48],[4,-30],[-355,-44],[-45,39],[-91,11],[-85,-16],[-72,14],[-103,-11],[-51,37],[-132,8],[-35,-46],[-228,19],[-196,-27],[-72,27],[-79,-3],[-48,116],[66,69],[-105,29],[-93,-39],[-91,25],[45,36],[134,-12],[26,52],[-45,24],[-91,4],[-68,-26],[-78,41],[-187,67],[-116,-12],[-69,-38],[-38,-54],[-207,-4],[-62,61],[-142,75],[-228,136],[-13,120],[54,64],[89,6],[113,232],[80,40],[-27,21],[20,189],[-26,85],[-83,147],[-111,100],[-301,168],[-128,99],[14,42],[-63,48],[-49,-28],[-88,91],[-52,82],[1,61],[-78,14],[-189,185],[-249,289],[-79,112],[19,53],[-39,15],[-28,138],[-63,211],[-183,338],[-28,88],[-31,7],[-98,240],[0,199],[-21,119],[-86,274],[-141,298],[-11,44],[29,323],[-27,153],[-44,95],[-118,180],[-109,286],[-43,35],[-46,123],[-58,104],[-118,184],[0,36],[114,325],[171,297],[192,366],[256,365],[80,97],[204,222],[85,65],[196,252],[97,158],[78,237],[-62,360],[-53,76],[-44,110],[21,22],[-34,170],[103,204],[15,104],[-12,69],[-90,138],[-134,183],[-96,98],[-188,148],[-251,149],[-535,260],[-378,190],[-317,195],[-257,198],[-106,71],[-42,49],[-98,194],[-8,147],[-36,109],[-2,213],[12,68],[93,271],[143,299],[97,148],[98,169],[16,101],[51,98],[74,245],[44,115],[34,186],[18,205],[22,134],[27,48],[42,140],[84,205],[58,110],[42,45],[34,93],[97,176],[149,183],[49,43],[86,129],[140,143],[100,124],[88,68],[103,54],[126,49],[436,236],[177,153],[106,116],[71,101],[162,259],[124,155],[69,55],[61,84],[83,36],[383,236],[-5,19],[535,328],[146,136],[71,91],[51,138],[-56,168],[-46,98],[-82,34],[-48,76],[-78,73],[-108,49],[-88,-7],[-76,31],[-39,43],[-113,11],[-38,73],[-104,70],[-4,70],[-42,72],[-135,99],[-95,35],[-124,8],[11,56],[-37,134],[-95,74],[0,72],[-28,124],[-96,99],[-53,85],[56,69],[44,126],[0,90],[-35,56],[28,97],[-19,59],[-80,97],[-174,89],[-170,48],[-102,-30],[-44,139],[-93,69],[150,151],[50,84],[87,93],[61,98],[91,17],[147,87],[154,115],[132,125],[93,29],[55,40],[53,-37],[-1,-37],[104,-25],[97,9],[182,57],[120,76],[87,94],[131,23],[173,82],[183,4],[164,30],[117,9],[62,29],[136,110],[71,12],[71,44],[150,11],[156,91],[29,53],[85,70],[167,99],[78,77],[105,136],[77,170],[103,87],[170,242],[175,199],[74,147],[58,87],[20,147],[47,107],[277,60],[63,-12],[82,-48],[215,-92],[147,-19],[126,33],[73,-11],[116,-58],[281,211],[-63,-17],[-119,19],[-56,35],[-182,59],[-110,-29],[-196,-22],[-140,61],[-85,68],[-15,44],[95,63],[57,-28],[113,10],[84,50],[296,20],[100,86],[101,-5],[78,40],[23,44],[90,-9],[146,59],[76,79],[13,116],[-49,36],[-229,56],[-115,-59],[-66,6],[-143,-16],[-246,-45],[-66,20],[-139,-2],[-79,11],[-143,-28],[-91,-55],[-123,39],[-2,68],[-48,39],[-160,47],[-122,-15],[-99,6],[-46,51],[-123,25],[-99,1],[-104,28],[-109,53],[-41,56],[45,26],[8,46],[-81,-4],[-62,30],[43,34],[-15,40],[-156,53],[-190,-8],[-92,18],[-125,66],[-172,21],[-292,68],[-142,-6],[-120,-136],[48,-62],[-3,-45],[-118,-80],[-9,-32],[-89,-43],[-359,5],[-137,-7],[-192,-39],[-156,-83],[9,-32],[-183,7],[-182,-51],[-83,46],[-226,55],[-142,-2],[-43,34],[-134,40],[45,102],[134,123],[114,140],[44,104],[159,192],[191,174],[79,95],[335,341],[147,173],[323,413],[280,392],[140,245],[54,71],[60,114],[-1,52],[37,125],[66,64],[124,184],[60,50],[177,41],[126,57],[138,122],[201,224],[73,68],[417,488],[83,79],[196,228],[109,114],[204,260],[156,159],[119,91],[62,8],[42,45],[118,55],[60,44],[146,141],[145,155],[186,103],[147,66],[123,71],[110,46],[149,22],[134,-18],[222,6],[-43,-44],[-111,-45],[-109,-67],[-84,-83],[-34,-63],[91,-61],[9,-81],[138,-121],[103,-54],[77,3],[17,-67],[96,-70],[80,-122],[-47,-79],[2,-200],[41,-116],[39,-35],[85,-278],[100,-114],[212,-102],[75,-50],[-144,-52],[-181,-81],[-278,-32],[214,-35],[286,90],[129,58],[41,57],[-14,48],[-217,104],[-106,148],[-6,84],[-39,70],[17,152],[59,117],[270,135],[153,104],[68,33],[172,-1],[57,-15],[252,-104],[70,-5],[143,-40],[346,196],[-104,57],[-42,107],[-61,77],[-127,65],[-163,119],[-281,138],[-187,40],[-239,-49],[-115,32],[-33,40],[-12,128],[21,139],[61,136],[-2,48],[49,114],[39,188],[3,93],[39,148],[54,152],[136,312],[113,178],[183,240],[134,82],[267,80],[68,64],[-5,109],[26,103],[69,109],[107,202],[73,243],[155,47],[32,47],[-30,40],[10,72],[35,71],[183,279],[28,65],[108,157],[72,181],[84,169],[118,140],[188,147],[34,70],[222,266],[152,237],[40,20],[188,-5],[-1,91],[-60,-5],[1,87],[86,160],[70,103],[71,154],[76,110],[72,154],[58,49],[11,73],[-14,103],[82,226],[34,140],[6,301],[13,114],[-24,199],[-42,95],[-86,39],[8,67],[178,45],[41,61],[81,26],[82,96],[52,103],[61,162],[31,177],[14,171],[35,71],[152,87],[-57,33],[-9,75],[-124,112],[7,43],[100,3],[-27,99],[-50,55],[-76,133],[23,133],[-27,103],[-173,245],[-18,112],[-52,85],[-117,109],[33,18],[47,84],[-9,86],[70,47],[36,71],[160,76],[98,27],[149,58],[389,107],[324,60],[154,9],[81,-13],[205,-69],[194,6],[130,21],[287,95],[147,-12],[51,-37],[117,-4],[117,30],[193,-53],[68,-1],[160,37],[126,63],[59,-2],[134,56],[126,-2],[48,-38],[306,145],[54,-1],[97,41],[123,15],[128,58],[92,120],[14,55],[75,29],[17,95],[244,79],[110,67],[90,25],[85,74],[49,75],[40,111],[116,45],[112,102],[36,72],[-5,73],[41,90],[85,95],[87,48],[72,85],[-12,59],[-45,61],[101,28],[-16,30],[124,63],[70,49],[79,-24],[44,-50],[55,-21],[226,-21],[195,1],[331,27],[107,27],[111,-11],[236,73],[-25,35],[355,93],[61,68],[182,-94],[-67,-40],[32,-44],[100,-54],[149,-9],[74,-75],[0,-38],[57,-30],[101,17],[44,38],[81,-25],[-7,-58],[110,-15],[105,71],[41,-86],[95,8],[80,-29],[0,-44],[156,-32],[105,-36],[-171,-102],[10,-83],[-122,-21],[-108,-80],[53,-32],[-123,-32],[-57,-43],[-7,-66],[-147,24],[-70,-14],[-70,-57],[-57,-119],[-46,-29],[-5,-52],[-57,2],[-109,-99],[-99,-16],[-75,-64],[-155,-30],[-103,13],[-182,-16],[24,-42],[-101,-116],[10,-139],[-17,-86],[50,-10],[48,-75],[-36,-159],[-74,-40],[-114,-9],[-99,-30],[99,-30],[-56,-94],[-116,-62],[45,-55],[-3,-125],[-104,-61],[-232,-88],[3,-64],[138,22],[179,75],[175,142],[9,57],[79,73],[64,35],[110,30],[160,98],[35,4],[224,136],[-9,84],[64,31],[0,39],[105,63],[93,37],[11,34],[111,1],[117,33],[10,24],[106,20],[30,-67],[86,-38],[212,-41],[-129,95],[-2,40],[74,25],[141,-41],[225,-100],[158,-89],[41,-136],[-31,-42],[35,-51],[-121,-81],[-63,-87],[105,-77],[158,-15],[114,15],[59,33],[114,12],[184,-29],[72,2],[316,-44],[140,-99],[-18,-27],[124,-131],[194,-41],[113,0],[148,25],[133,40],[47,67],[78,-14],[-8,-30],[52,-47],[121,-21],[2,-53],[61,-45],[70,-10],[75,-38],[68,-4],[89,-39],[16,-100],[102,-33],[-40,-82],[21,-20],[-37,-84],[113,-67],[19,-84],[107,-5],[92,-29],[46,-74],[-31,-28],[118,-69],[131,-21],[58,-60],[61,-14],[42,-118],[5,-194],[29,-81],[-26,-30],[-13,-94],[91,-35],[-27,-73],[76,-54],[-2,-53],[65,-25],[10,-94],[-60,-117],[-6,-113],[-35,-81],[-50,-52],[-51,-90],[-3,-48],[-101,-65],[76,-35],[5,-113],[111,-111],[28,-80],[-22,-73],[20,-63],[-29,-38],[92,-84],[88,-60],[174,-29],[107,32],[72,-20],[154,-202],[220,-48],[171,-162],[37,-2],[69,-59],[19,-91],[41,-29],[106,-31],[-32,-117],[53,-79],[78,-23],[-7,-27],[-271,-180],[-125,-93],[-199,-120],[-91,-90],[-15,-81],[-63,-111],[-7,-163],[-24,-65],[78,-40],[64,-63],[105,-27],[12,-124],[-69,-70],[-2,-146],[12,-52],[-40,-180],[8,-76],[86,-66],[103,-110],[80,-17],[58,-68],[-13,-212],[6,-99],[85,-80],[-5,-36],[59,-31],[2,-71],[-24,-54],[31,-17],[1,-117],[-16,-80],[41,-30],[-17,-353],[-46,-66],[24,-27],[20,-133],[43,-114],[-3,-37],[-93,-27],[38,-26],[17,-100],[-79,-97],[-66,-126],[-19,-140],[-29,-10],[79,-91],[-7,-67],[-29,-20],[28,-111],[44,-87],[132,-47],[157,-41],[31,-87],[58,-38],[75,-8],[34,-31],[85,-18],[132,-1],[133,20],[54,-24],[38,-67],[85,-84],[233,-79],[35,58],[105,-4],[328,-74],[154,-78],[27,-46],[109,-40],[-5,-34],[83,-19],[25,-40],[74,-34],[180,-24],[84,31],[78,-31],[176,-26],[226,-9],[154,5],[438,31],[228,43],[173,50],[75,1],[89,53],[221,54],[167,50],[122,60],[33,76],[155,-41],[3,-39],[65,-47],[97,21],[44,-24],[86,14],[200,-63],[73,15],[104,-81],[125,-8],[-2,-79],[18,-134],[45,-43],[151,-42],[65,-36],[-8,-38],[77,-95],[137,-64],[139,35],[97,9],[630,107],[24,47],[105,1],[95,-51],[51,-53],[169,-8],[80,-73],[-103,-41],[-100,-63],[-119,-22],[-23,-22],[-118,48],[-1,33],[-103,56],[-106,-5],[-471,-149],[-93,-110],[-48,-87],[-123,-85],[-51,-63],[-53,-30],[-26,-63],[-96,-93],[-85,-26],[-74,-43],[5,-28],[-173,-175],[-139,-95],[-26,-56],[-195,-110],[-90,-70],[-95,-96],[-48,-21],[-88,-91],[-6,-28],[-112,-108],[-158,-114],[-190,-30],[-83,14],[-11,-51],[110,-37],[20,-41],[163,-31],[4,-94],[-75,-52],[-43,-65],[22,-43],[94,-2],[-15,-69],[49,-29],[31,-59],[-102,-61],[-50,-90],[-47,-44],[-12,-81],[38,-34],[112,-13],[-21,-63],[-80,-73],[-22,-75],[-75,-64],[-42,-67],[-80,-230],[5,-173],[44,-93],[66,-62],[135,9],[35,34],[215,-13],[69,23],[123,10],[97,-39],[64,10],[59,-25],[194,-2],[130,15],[308,-22],[190,4],[222,39],[53,-67],[216,-5],[39,-26],[137,-38],[91,-39],[130,-8],[141,-104],[170,-86],[187,-13],[104,40],[52,-6],[34,-98],[130,-9],[191,-36],[-19,-53],[36,-34],[85,-8],[18,-147],[-45,-159],[99,-10],[51,-75],[-13,-65],[-99,-131],[60,-69],[5,-72],[29,-12],[-64,-105],[36,-31],[-21,-117],[77,-60],[105,-10],[100,-39],[3,-60],[71,-50],[97,10],[58,-139],[104,-67],[171,-42],[235,-4],[164,-86],[129,-12],[199,33],[119,-68],[309,-76],[155,-63],[71,-56],[106,-39],[255,-24],[120,41],[167,-119],[-83,-42],[27,-51],[149,26],[236,-2],[-35,-83],[-217,-106],[-215,-142],[-163,-83],[-94,-88],[1,-65],[49,-71],[301,23],[-11,-36],[-137,-47],[-70,-46],[-165,-63],[-81,-119],[-100,-42],[-62,-73],[-64,-115],[-10,-117],[-33,-49],[-200,-113],[-90,-111],[-69,-137],[-62,-57],[-44,-77],[-4,-129],[51,-178],[-50,-24],[19,-65],[-72,-61],[-22,-103],[24,-80],[-76,-174],[76,-41],[105,24],[136,-6],[65,-39],[104,-36],[118,51],[44,61],[120,24],[46,-17],[-21,-97],[90,-31],[100,-2],[23,29],[-89,88],[57,61],[14,76],[100,68],[146,4],[252,50],[35,37],[80,28],[300,51],[199,-105],[116,-28],[149,-18],[162,17],[139,2],[140,17],[249,65],[121,63],[15,28],[174,14],[108,-2],[88,21],[79,-4],[58,-38],[-156,-93],[-97,-99],[27,-54],[-371,-296],[-67,-145],[-145,-113],[-61,-222],[68,-59],[209,-23],[-33,-99],[-121,-129],[21,-48],[111,-34],[-22,-69],[89,-76],[-29,-46],[-25,-116],[-81,-62],[-18,-78],[116,-61],[-40,-74],[42,-63],[-66,-57],[-53,-82],[-48,-244],[-19,-37],[-16,-181],[58,-192],[-3,-34],[57,-69],[38,-6],[98,-89],[97,-58],[31,-73],[-56,-63],[-31,-123],[18,-72],[-30,-122],[1,-378],[60,-114],[51,-53],[3,-107],[-18,-40],[39,-82],[24,-185],[37,-79],[84,-50],[81,-86],[46,-80],[403,-165],[261,-52],[144,-10],[33,-18],[7,-66],[47,-16],[9,-117],[44,-80],[74,-58],[91,-23],[-11,-50],[34,-55],[-9,-169],[-217,-295],[-46,-119],[-58,-84],[-23,-140],[65,-39],[13,-113],[74,-58],[-12,-125],[-28,-33],[-167,-120],[-62,-31],[-225,-206],[-43,-53],[-42,-95],[-100,-162],[-37,-88],[5,-50],[-53,-105],[-8,-359],[-33,-153],[6,-53],[-57,-196],[-100,-95],[-78,-92],[-36,-94],[64,-124],[92,-62],[30,-57],[9,-97],[122,-150],[98,-82],[61,-20],[79,-67],[59,-3],[161,-64],[89,-70],[89,-136],[206,-90],[156,-232],[-10,-142],[30,-99],[138,-120],[89,-119],[56,-134],[102,-118],[200,-157],[101,-53],[300,-94],[212,-102],[219,-52],[67,-34],[70,-98],[11,-166],[40,-89],[76,-119],[72,-53],[15,-69],[4,-138],[-24,-30],[76,-78],[-20,-44],[28,-70],[111,-145],[-25,-59],[-11,-109],[30,-73],[-5,-76],[-59,-237],[29,-103],[118,-207],[190,-213],[173,-139],[103,-145],[13,-66],[84,-176],[96,-174],[26,-82],[56,-104],[105,-129],[278,-280],[149,-129],[213,-162],[291,-183],[132,-69],[212,-85],[183,-82],[103,-26],[390,-159],[170,-52],[395,-75],[254,-30],[161,-3],[110,12],[113,-4],[285,10],[147,-42],[60,-59],[169,-11],[60,41],[166,48],[273,-26],[169,1],[289,28],[373,46],[214,-24],[116,79],[294,64],[179,26],[363,102],[300,97],[208,93],[125,75],[290,214],[111,31],[118,-5],[43,-22],[112,42],[-13,29],[78,72],[143,45],[186,34],[-6,43],[47,46],[203,121],[261,197],[7,59],[66,94],[36,98],[12,155],[-75,35],[61,103],[4,56],[-82,21],[30,58],[-84,24],[38,36],[133,17],[71,-24],[85,11],[32,46],[81,19],[119,-45],[32,-38],[163,-57],[95,14],[50,48],[80,-17],[174,-81],[157,-139],[139,-81],[102,-17],[116,-39],[100,-17],[91,51],[46,0],[176,-54],[232,-45],[121,15],[103,-13],[132,12],[267,45],[211,63],[40,45],[268,0],[82,19],[230,116],[174,51],[297,28],[287,50],[303,120],[133,79],[99,44],[143,97],[87,105],[106,73],[109,109],[82,61],[63,117],[58,78],[4,44],[82,15],[226,-31],[167,10],[144,-31],[15,-65],[117,-71],[102,-39],[31,-38],[22,-84],[57,-22],[60,-62],[155,-54],[13,-41],[99,-92],[122,4],[102,-22],[77,-44],[58,2],[-53,-74],[46,-54],[91,13],[156,-75],[27,-38],[83,-6],[-14,-67],[-77,-70],[-12,-40],[-105,-117],[-91,-162],[40,-50],[50,-15],[-21,-119],[58,-26],[4,-117],[-35,-96],[19,-58],[52,-46],[116,-20],[99,3],[131,30],[33,29],[96,-3],[116,-27],[142,10],[80,30],[113,10],[82,31],[29,47],[81,-35],[70,-58],[6,-38],[-47,-76],[-160,-97],[-143,-166],[-134,-192],[-35,-21],[-89,-203],[45,-34],[8,-80],[-63,-107],[0,-69],[119,-140],[215,-57],[34,-33],[218,-58],[123,-19],[32,-38],[97,-46],[47,16],[66,-110],[60,-29],[42,-84],[104,-118],[97,-58],[171,-4],[18,-24],[400,-50],[-3,38],[349,6],[211,23],[98,2],[96,52],[164,-43],[113,18],[90,41],[74,-109],[2,-153],[20,-91],[60,-89],[251,-40],[29,-20],[200,-7],[33,12],[151,-89],[71,10],[196,-3],[55,-56],[109,-11],[598,28],[212,-18],[50,34],[185,0],[108,-15],[57,9],[162,-40],[64,-139],[53,-9],[115,-74],[24,-44],[-34,-45],[-4,-62],[40,-94],[66,-33],[168,1],[62,20],[84,-15],[129,-107],[32,-80],[-71,-118],[12,-109],[44,-93],[-10,-83],[52,-81],[93,-5],[220,-107],[432,-35],[73,-30],[133,29],[90,-35],[-13,-45],[-100,-3],[-5,-53],[46,-63],[68,-35],[111,-14],[146,-44],[-2,-55],[29,-52],[203,-25],[131,-2],[81,-30],[104,7],[158,-10],[234,21],[71,-10],[124,-56],[197,17],[129,-45],[138,-79],[30,-31],[118,-31],[53,-33],[134,-2],[165,-40],[85,-35],[146,21],[177,-8],[207,-34],[85,-35],[202,-29],[141,6],[62,40],[133,9],[156,-15],[364,18],[60,63],[91,-16],[-8,-29],[-156,-211],[-59,-112],[8,-72],[70,-77],[97,-58],[64,-9],[117,-74],[115,-29],[14,-65],[87,-57],[311,-115],[9,-31],[154,-73],[64,-57],[85,-104],[176,-66],[144,-17],[231,23],[23,54],[72,22],[136,-23],[127,-9],[94,12],[21,32],[118,62],[138,0],[82,-71],[-11,-120],[-37,-36],[91,-109],[-131,-38],[-338,-159],[-245,-121],[-60,-22],[-349,-186],[-126,-73],[-302,-230],[-194,-170],[-42,-71],[-231,-170],[-130,-139],[-80,-129],[-79,-3],[16,-40],[86,-43],[23,-46],[-26,-67],[-67,-82],[31,-86],[47,-29],[-15,-154],[36,-57],[122,-76],[73,-115],[87,-75],[15,-66],[115,-124],[166,-82],[496,-8],[282,-15],[230,51],[126,100],[-11,68],[70,87],[125,23],[65,-23],[42,-78],[-25,-100],[170,-100],[34,-132],[57,-26],[-57,-30],[-82,17],[-118,-14],[-45,26],[-194,-34],[-343,-114],[-448,-198],[-76,-52],[-58,-73],[18,-56],[53,-46],[209,-88],[-47,-62],[-71,-37],[-117,-84],[42,-66],[6,-56],[-117,-63],[-100,-11],[-157,-73],[-194,-103],[-199,-135],[-160,-209],[-20,-110],[45,-80],[-174,-22],[19,-34],[150,-21],[114,12],[38,54],[144,26],[126,-44],[10,-102],[76,10],[74,-19],[43,-131],[66,-83],[95,16],[30,-56],[-123,-76],[-52,-50],[-80,-155],[-9,-68],[46,-51],[173,-49],[9,-39],[88,-75],[74,-12],[161,19],[94,61],[71,-11],[71,-71],[133,-55],[60,-51],[-65,-26],[53,-146],[177,-66],[-57,-76],[-98,7],[-92,-37],[-39,-58],[64,-86],[25,-97],[-133,-94],[11,-45],[91,-60],[136,-32],[162,-59],[-18,-35],[39,-36],[-11,-49],[37,-60],[49,-13],[122,-96],[124,-42],[22,-53],[177,-160],[74,-149],[32,-128],[-21,-86],[55,-42],[-28,-82],[-48,-57],[-106,-68],[-57,-65],[-26,-84],[-44,-49],[78,-97],[3,-90],[29,-62],[83,-28],[199,3],[82,-59],[1,-40],[-79,-47],[-139,-141],[-100,-166],[-84,-111],[-12,-102],[41,-80],[89,-63],[153,-63],[130,-18],[76,26],[89,-69],[171,-89],[184,-1],[19,-29],[163,-72],[10,-55],[258,-154],[-14,-64],[37,-56],[103,-60],[-1,-61],[100,-21],[207,-82],[38,-128],[63,-79],[153,-52],[18,-150],[-15,-111],[137,-120],[114,-2],[-39,-44],[-91,-23],[-49,-42],[-15,-130],[-152,-103],[16,-137],[-119,-88],[-29,-54],[-71,-50],[-56,-91],[3,-111],[-63,-83],[3,-95],[49,-140],[81,-17],[119,12],[65,-41],[139,-18],[63,-31],[7,-63],[40,-30],[-31,-40],[5,-105],[208,-47],[14,-65],[-87,-125],[54,-19],[-25,-51],[74,-33],[-9,-38],[-100,2],[-329,-144],[-131,9],[-74,-15],[-67,-87],[-111,-96],[-114,-73],[-128,-64],[-175,-132],[-38,-67],[-9,-64],[18,-65],[-47,-57],[-40,-109],[108,-49],[40,-63],[-53,-84],[-88,-88],[-51,-89],[-47,-156],[-26,-15],[43,-67],[22,-149],[74,-98],[77,-35],[80,-6],[162,-49],[81,28],[173,-2],[146,-59],[204,2],[87,13],[66,-36],[11,-34],[-42,-113],[9,-111],[34,-59],[96,-56],[27,-50],[162,-109],[113,-46],[-14,-36],[155,-54],[67,-43],[82,-94],[124,-79],[2,-69],[47,-46],[129,-12],[23,-131],[81,-25],[71,-72],[254,-85],[95,-73],[143,-51],[51,-46],[80,-35],[62,-59],[75,-104],[14,-53],[113,-140],[95,-83],[156,-15],[134,-48],[150,-3],[67,-18],[240,-30],[96,-50],[51,-5],[82,-56],[55,-15],[134,-90],[191,-83],[54,3],[138,-54],[67,14],[108,-42],[-14,-87],[47,-117],[143,-128],[77,-43],[143,-13],[53,36],[69,-76],[81,-65],[34,4],[124,-83],[63,-22],[135,5],[104,-97],[82,-56],[97,-140],[148,-125],[221,-127],[135,-52],[119,-18],[109,-48],[38,-102],[-227,-67],[-49,-97],[48,-90],[222,-103],[65,-4],[25,-39],[-32,-91],[-30,-28],[23,-51],[111,-6],[-31,57],[53,108],[83,49],[23,55],[70,34],[153,-6],[158,28],[8,35],[98,12],[109,32],[45,83],[167,49],[113,64],[246,38],[14,-54],[86,-39],[103,-69],[25,-48],[-51,-22],[15,-51],[126,-25],[181,-10],[121,7],[92,65],[81,-1],[95,45],[148,-15],[36,79],[103,59],[100,92],[-62,77],[168,-15],[68,5],[119,-85],[164,-64],[67,-77],[69,-21],[91,2],[26,-133],[-104,-17],[-124,7],[-128,-66],[-126,-91],[-31,-52],[67,-44],[53,-81],[-50,-74],[-108,-11],[-191,-97],[-218,-126],[-103,-75],[-71,-135],[64,-86],[-73,-84],[-109,-158],[-34,-169],[7,-93],[49,-64],[81,-17],[69,-63],[160,-89],[151,-48],[49,-55],[47,-111],[153,-123],[119,-33],[243,-82],[40,-32],[36,-102],[2,-113],[65,-66],[142,-45],[36,-31],[-64,-80],[0,-111],[58,-122],[109,-74],[48,-137],[-36,-107],[51,-92],[122,-13],[97,-43],[67,-91],[142,-114],[40,-125],[52,-43],[0,-56],[159,-251],[45,-53],[184,-174],[88,-65],[119,-67],[79,9],[97,-105],[117,-92],[156,-61],[130,19],[100,-25],[112,-64],[-5,-90]],[[94620,21887],[-213,10],[20,-53],[-161,-76],[-183,-30],[50,-31],[-23,-102],[-145,27],[-63,-40],[107,-34],[-78,-110],[-96,-25],[-180,8],[8,36],[-554,26],[-4,-18],[-292,14],[-233,1],[-9,-45],[-122,13],[-72,28],[-36,-110],[-75,3],[-43,-215],[3,-74],[53,-43],[-193,-30],[-73,1],[-125,-83],[-159,27],[-66,44],[-88,103],[-146,46],[-42,36],[-177,-47],[-37,-84],[-120,-16],[-79,12],[-70,-73],[-73,-30],[-159,-33],[-163,-7],[-42,31],[-106,20],[-169,6],[-121,20]],[[90071,20990],[91,413],[-110,39],[-45,41],[6,78],[-111,93],[-52,66],[13,82],[-54,76],[-60,48],[56,52],[-66,50],[-115,48],[-197,128],[-185,51],[-205,110],[27,50],[-34,27],[113,115],[18,111],[-40,32],[98,53],[126,6],[-46,80],[98,18],[11,50],[-154,87],[-26,57],[-112,18],[7,91],[-58,64],[-61,4],[-3,71],[-83,32],[-44,47],[28,61],[-62,44],[-183,-23],[-96,-94],[-684,159],[-144,176],[-173,9],[7,361],[-658,27],[97,98],[-89,31],[-17,37],[-182,5],[-114,141],[32,36],[-25,86],[-37,18],[-201,19],[-54,46],[-53,82],[53,30],[-41,26],[-106,15],[-22,26],[-126,20],[-7,106],[75,19],[106,59],[-13,48],[-185,45],[-103,-14],[-17,57],[62,35],[-89,101],[125,44],[268,120],[78,97],[-93,32],[-54,51],[-30,80],[50,12],[13,45],[66,24],[50,99],[224,79],[57,57],[-60,19],[-26,121],[38,64],[-37,46],[144,143],[79,15],[37,80],[-50,33],[137,70],[108,148],[-84,42],[-114,82],[-238,10],[85,57],[206,49],[-1,26],[-139,27],[-65,41],[-121,15],[-33,59],[241,49],[46,-18],[135,26],[-182,69],[79,37],[27,46],[10,92],[-108,25],[-11,46],[-92,56],[-19,31],[36,120],[-73,67],[-5,102],[-61,40],[11,67],[-76,74],[-63,29],[110,83],[-160,50],[-110,8],[-52,49],[10,61],[-158,34],[-139,57],[-194,5],[-50,33],[-317,50],[-79,42],[-133,3],[-70,36],[-124,35],[-157,15],[-110,-3],[-144,52],[-98,86],[-188,32],[-47,31],[-79,-1],[-86,-33],[-80,99],[145,105],[-25,46],[72,23],[-51,118],[168,101],[-138,4],[-106,-68],[-46,4],[-140,-51],[-108,-53],[-126,-13],[-86,-29],[-63,32],[-186,-14],[-156,-25],[2,-31],[-209,2],[-74,42],[-148,8],[40,315],[-105,4],[-140,66],[231,-12],[10,49],[-139,7],[49,47],[-39,142],[48,42],[-106,45],[-143,8],[26,161],[-339,214],[-149,70],[56,22],[-125,73],[-359,18],[-21,-93],[-206,10],[-29,-132],[-87,-35],[-5,-29],[-82,-35],[-36,-60],[-123,-65],[-60,45],[-113,40],[-177,8],[-121,-47],[-82,-2],[10,95],[-125,9],[6,26],[-131,19],[-42,40],[-75,8],[-85,-61],[-86,-5],[-62,37],[42,30],[-135,12],[-68,66],[-142,46],[-11,36],[-90,16],[-38,80],[2,46],[-139,-6],[-8,64],[98,31],[-211,53],[20,53],[120,68],[36,58],[-158,-24],[-136,38],[-179,0],[26,65],[-75,114],[-87,-3],[-140,36],[-36,28],[-20,77],[-74,19],[-50,48],[-199,39],[-5,29],[86,25],[50,37],[-31,101],[-150,30],[-131,-13],[-74,33],[-97,6],[-240,110],[-113,97],[54,26],[-111,96],[-49,6],[-32,21],[-109,62],[-136,10],[-136,-15],[-88,40],[34,34],[4,61],[-32,40],[-74,30],[-9,93],[31,98],[-136,40],[16,100],[41,35],[-3,44],[-256,59],[-72,5],[-138,37],[-41,67],[-83,-5],[-125,46],[-182,14],[-143,-49],[-114,29],[-171,28],[-67,-18],[-110,45],[67,80],[58,18],[-148,58],[7,21],[-399,96],[-168,-6],[-75,47],[101,19],[-98,34],[-181,-39],[-129,-104],[-89,-52],[5,-45],[-62,-46],[-91,-21],[12,-39],[98,-17],[-64,-46],[-159,-25],[-156,-82],[-50,-45],[50,-54],[93,-11],[25,-79],[64,-60],[87,-25],[23,-109],[-54,-21],[-197,-35],[-102,-50],[-84,-8],[13,-48],[-125,-22],[-63,-37],[-142,20],[-192,-37],[-107,-56],[-213,47],[-141,70],[-117,9],[-64,-18],[-97,67],[-58,-13],[-20,-76],[-157,-41],[-47,-45],[-65,-6],[-64,40],[-81,158],[-74,56],[-120,-44],[-29,-37],[-158,-32],[-47,-76],[-67,-47],[29,-25],[-68,-49],[-131,-2],[-111,25],[-58,-53],[0,-72],[-133,37],[-77,-1],[-46,68],[-61,34],[17,39],[-72,56],[-164,7],[-19,39],[-119,110],[-316,187],[-258,83],[36,98],[-46,79],[-114,35],[-5,44],[-57,44],[-223,11],[-353,8],[-276,88],[-94,-16],[1,-69],[-37,-58],[-100,-13],[-146,19],[-50,-41],[5,-84],[-91,-124],[-11,-58],[51,-49],[16,-71],[-71,-129],[-111,-36],[-98,-48],[-124,15],[-333,54],[-37,24],[-158,28],[-39,27],[-160,-12],[-130,-31],[-141,26],[-92,58],[-183,46],[-103,7],[-59,23],[-106,9],[-192,50],[-89,85],[-121,-2],[-238,-39],[-17,-54],[-139,-11],[-87,-23],[-127,50],[-187,-2],[-158,-47],[-126,-55],[-10,-50],[-84,-24],[32,-46],[127,-15],[59,-101],[78,-31],[0,-32],[-120,-89],[-74,3],[-157,-50],[-59,13],[-71,-21],[-83,32],[-31,34],[-107,11],[-120,-10],[-147,47],[-70,65],[-90,-14],[-171,23],[-125,41],[-163,-76],[-80,-27],[-114,16],[-140,-62],[-184,-27],[-158,21],[-13,80],[-136,85],[-111,21],[-68,35],[-67,93],[-75,42],[-81,0],[-289,96],[-93,59],[-104,46],[-161,34],[-85,-42],[-92,-1],[-135,-81],[-87,-143],[-71,-30],[-124,-104],[-133,-15],[-98,-78],[-165,-1],[-101,30],[-212,106],[-164,-52],[-9,-53],[-85,-20],[-67,11],[-133,-63],[-103,-18],[-46,19],[-1,61],[-47,50],[-86,7],[-81,31],[-44,63],[-108,29],[-17,39],[62,32],[-41,181],[-108,-3],[-46,35],[94,46],[-198,98],[-17,41],[-94,33],[-141,0],[-50,17],[-187,-35],[-207,33],[4,68],[-155,12],[-76,43],[-73,17],[15,31],[-32,98],[-41,43],[-120,47],[-101,83],[-78,114],[-72,40],[-24,124],[-122,31],[-149,-6],[-32,15],[-42,174],[-47,146],[29,71],[-196,-13],[-134,37],[-47,54],[-99,-10],[-126,56],[-73,-19],[-149,-7],[-89,10],[-44,-49],[-113,-30],[-97,-46],[-121,19],[-45,-53],[-138,1],[-178,50],[-91,1],[-84,24],[-126,5],[-110,68],[-79,30],[-181,38],[-105,3],[-263,52],[-76,25],[-140,-31],[-12,29],[-113,43],[-184,32],[-24,-36],[-158,-21],[-118,-57],[-11,-59],[-91,-32],[-157,-26],[-115,-36],[-79,41],[-22,39],[-131,7],[-2,48],[-64,13],[-22,42],[-95,-18],[-52,24],[-195,47],[-9,44],[-113,2],[-51,-19],[-39,-82],[-93,-54],[-93,-15],[-118,-54],[10,-59],[-50,-13],[-145,4],[-231,41],[-185,-48],[-70,-65],[-92,-14],[-92,-81],[-115,-32],[-66,12],[-254,-21],[-137,17],[-62,-15],[-41,-59],[-134,16],[-38,19],[-125,-43],[-112,19],[-18,36],[-91,23],[-86,-7],[-174,37],[-139,0],[-157,88],[-98,109],[-167,-9],[-160,43],[-63,-8],[-180,59],[-50,-19],[-144,29],[-50,49],[-74,18],[-118,-31],[-99,58],[-43,66],[-142,35],[-55,72],[-61,25],[87,69],[-28,62],[-71,25],[-125,10],[-116,-21],[-79,3],[-76,45],[-67,-13],[-34,-40],[-219,28],[-118,-37],[-116,-5],[-87,23],[-217,-37],[-177,20],[-168,-19],[-150,-47],[-30,-27],[-111,3],[-124,-22],[-61,-32],[-176,29],[-63,21],[-313,21],[-128,58],[-107,-3],[-89,16],[-74,45],[-110,33],[-180,23],[2,50],[93,48],[-93,34],[-167,-13],[-200,13],[-125,40],[-50,44],[-121,12],[-69,-64],[-120,-31],[-171,-10],[-193,98],[-226,28],[-266,-6],[-202,-13],[-192,-32],[-288,-70],[-352,-109],[-365,-92],[-88,-66],[-162,-8],[-282,-79],[-148,-16],[-117,6],[-137,-9],[-114,-62],[-225,-41],[-264,-23],[-201,15],[-370,38],[-171,53],[-302,-49],[-389,-26],[-148,13],[-356,-18],[-171,-4],[-168,29],[-596,-57],[-237,-17],[-124,-34],[-223,5],[-421,201],[-101,-12],[-77,-33],[-142,15],[-347,112],[-580,64],[-288,7],[-305,-10],[-385,-75],[-150,5],[-430,-22],[-357,15],[-356,47],[-328,8],[-323,-1],[-210,-15],[-132,33],[-250,27],[-382,-35],[-130,-1],[-48,-39],[-75,-8],[-163,-59],[-202,68],[-174,28]],[[18525,83251],[153,67],[22,-45],[-63,-61],[-84,12],[-37,-37],[4,-50],[117,-34],[125,6],[59,-19],[-32,-45],[-136,-12],[-59,15],[-65,51],[-19,53],[15,99]],[[19159,89154],[22,-52],[55,-9],[11,-71],[60,-66],[-41,-61],[-59,-44],[-107,-10],[-88,39],[-16,117],[-46,19],[48,73],[1,64],[160,1]],[[17635,89135],[30,31],[105,4],[12,-64],[-92,-11],[-142,-43],[-27,41],[114,42]],[[18599,89765],[-112,-24],[44,69],[89,-14],[-21,-31]],[[18655,89879],[-61,-22],[-110,87],[105,-14],[66,-51]],[[17953,90012],[-55,30],[135,30],[69,-62],[-149,2]],[[19391,90613],[62,-23],[-26,-54],[-112,13],[-7,46],[83,18]],[[18587,91186],[-153,27],[-152,104],[70,51],[-18,44],[-112,59],[118,60],[65,91],[116,7],[93,65],[35,66],[76,-5],[59,57],[-5,87],[111,-31],[151,-10],[149,11],[177,44],[122,7],[206,26],[39,19],[115,-2],[151,26],[90,-8],[38,-73],[-4,-107],[42,-76],[53,-3],[70,-191],[-19,-73],[-39,-51],[-42,-134],[18,-122],[-29,-45],[-156,8],[-172,-87],[-64,-62],[22,-23],[-56,-101],[-64,-2],[-32,53],[-186,4],[-137,-36],[-112,18],[-72,-4],[-42,58],[-3,52],[-94,102],[-81,23],[-7,31],[-110,32],[-59,-3],[-76,-36],[-90,53]],[[30102,83466],[1,-41],[-141,1],[-120,-14],[3,118],[-22,40],[-70,40],[-116,28],[-121,7],[-114,-32],[-311,108],[-37,62],[42,48],[79,8],[160,-12],[83,13],[72,-25],[118,3],[90,-51],[176,-20],[181,-114],[-22,-123],[69,-44]],[[28795,83726],[-33,-21],[-127,22],[-114,2],[-37,55],[79,39],[176,4],[76,-19],[20,-40],[-40,-42]],[[23727,85243],[-53,43],[105,44],[29,-28],[-81,-59]],[[20809,85497],[72,21],[51,-76],[-116,12],[-7,43]],[[27834,85704],[-46,30],[208,15],[61,-57],[92,-54],[160,-18],[94,-49],[-20,-41],[28,-43],[112,-35],[-42,-33],[-63,-1],[-116,55],[-68,2],[-74,52],[-197,66],[-116,82],[-13,29]],[[24163,85756],[203,37],[88,-25],[-74,-104],[-145,-131],[-212,-112],[-87,26],[52,45],[59,15],[82,74],[-5,77],[-66,42],[105,56]],[[22080,85742],[55,22],[41,69],[54,22],[169,-63],[-4,-79],[38,-50],[-21,-46],[-197,-71],[-63,2],[-69,82],[-53,24],[-27,73],[77,15]],[[20608,86751],[-5,-67],[50,-34],[248,-86],[58,-34],[101,-93],[134,-52],[99,-10],[51,-61],[-26,-52],[57,-75],[119,-53],[134,-92],[80,-87],[125,-64],[3,-91],[-52,-85],[-57,7],[-23,-102],[-72,-4],[-36,55],[-92,31],[-62,46],[-137,-1],[13,-39],[-34,-47],[-79,-29],[-61,-45],[-13,-47],[-129,-45],[-64,29],[20,27],[-95,100],[-77,15],[-55,-19],[-177,-28],[-194,-120],[-30,-47],[-138,-21],[-57,-49],[-1,-47],[52,-27],[-39,-74],[-148,-39],[-53,20],[-208,20],[-51,39],[-94,11],[-52,-27],[-77,17],[-80,54],[-5,92],[-103,44],[-49,60],[-182,13],[-33,55],[-96,48],[-108,6],[-55,37],[46,51],[70,12],[-102,142],[-57,43],[-18,82],[80,9],[6,93],[-68,19],[6,84],[149,54],[72,81],[-51,38],[125,11],[72,44],[59,-7],[61,-39],[114,32],[94,61],[-18,45],[74,28],[46,41],[142,-24],[145,14],[144,63],[161,106],[48,64],[201,51],[158,-6],[-12,-42],[108,-83]],[[28837,86649],[74,1],[35,-51],[90,2],[208,-30],[129,-34],[-92,-114],[-77,-18],[7,-31],[-176,-73],[-105,-5],[-107,23],[13,48],[105,-13],[22,43],[66,21],[33,40],[-136,77],[-44,-19],[-162,68],[112,29],[5,36]],[[21455,87003],[215,51],[178,19],[151,-22],[190,6],[190,48],[92,0],[18,-81],[53,-38],[132,-48],[72,-47],[14,-63],[87,-125],[-125,-32],[-108,-81],[-64,-10],[-28,-46],[-262,-68],[-101,5],[-155,-12],[-285,-37],[-206,59],[-81,45],[-144,120],[-173,96],[58,30],[35,75],[92,45],[51,60],[104,51]],[[28276,86881],[222,39],[105,-97],[-122,19],[-197,7],[-8,32]],[[20017,86849],[-62,-42],[-92,-34],[-132,-3],[-160,11],[-128,71],[72,38],[189,10],[87,36],[46,-6],[124,45],[42,-36],[14,-90]],[[20631,87054],[115,13],[89,48],[163,-11],[64,-46],[-66,-51],[-126,-39],[-153,-7],[-114,-26],[-54,110],[82,9]],[[19460,87172],[51,24],[163,40],[193,33],[-37,-39],[-192,-111],[-110,15],[-68,38]],[[20777,87575],[125,-24],[106,-97],[-127,-54],[-65,-103],[-2,-95],[-109,-54],[-90,7],[-125,-48],[-86,3],[-24,-42],[-157,56],[-89,-1],[-4,38],[-85,34],[83,98],[67,1],[85,75],[128,-36],[69,8],[62,73],[-16,32],[55,63],[74,43],[125,23]],[[22604,87670],[106,-107],[32,-80],[-17,-62],[-83,-35],[-140,-14],[-178,9],[-44,38],[-246,95],[123,50],[214,4],[122,53],[47,104],[53,-5],[11,-50]],[[25755,90089],[-81,65],[63,33],[170,17],[29,-89],[-76,-50],[-105,24]],[[19895,90539],[-44,-22],[-21,-71],[72,-32],[-76,-39],[-74,22],[-25,37],[6,73],[77,53],[85,-21]],[[26385,90799],[87,-33],[38,-45],[-88,-32],[-37,110]],[[22394,90366],[-26,-61],[-209,-105],[-59,-14],[-61,-77],[-48,-31],[-151,12],[-132,99],[-81,39],[-416,89],[-199,20],[-83,17],[-103,-36],[-15,-37],[-82,1],[-32,34],[-3,57],[-103,55],[-221,98],[-75,80],[-75,35],[-70,74],[32,41],[103,20],[95,50],[31,50],[124,88],[111,260],[157,99],[168,56],[160,16],[198,-5],[119,-19],[163,15],[74,62],[92,-8],[169,-73],[175,-34],[142,-5],[83,25],[181,-111],[89,-17],[61,29],[129,15],[134,-88],[-26,-28],[33,-65],[-16,-55],[27,-26],[228,-72],[-7,-46],[-59,-86],[-96,-32],[-72,-115],[-40,0],[-153,-81],[-144,-58],[8,-57],[-140,-26],[-89,-68]],[[26447,91054],[7,-37],[-125,-22],[-96,67],[214,-8]],[[19933,92877],[-33,64],[-143,60],[8,31],[183,36],[13,20],[159,2],[110,-26],[108,-9],[72,13],[30,-59],[-111,-3],[-90,-31],[-91,-58],[-42,-86],[-67,-16],[-81,8],[-25,54]],[[19759,93056],[-71,-3],[-104,28],[33,37],[142,-62]],[[28775,94710],[-195,-6],[-70,33],[26,45],[81,49],[13,34],[140,-27],[125,9],[122,-27],[22,-72],[-20,-21],[-244,-17]],[[22428,96632],[-94,1],[-140,31],[-166,-5],[-323,50],[-86,30],[-81,62],[37,36],[166,21],[200,-2],[218,-20],[476,-88],[76,-70],[-100,-57],[-144,-4],[-39,15]],[[26842,98176],[100,-23],[70,-58],[144,-21],[-152,-33],[-73,-34],[-159,-27],[-52,47],[-18,126],[33,28],[107,-5]],[[29911,98663],[143,-25],[194,-4],[213,-34],[26,-29],[-125,-30],[-222,-36],[-187,-7],[-107,22],[-164,10],[-107,-7],[-153,13],[4,41],[120,59],[205,40],[160,-13]],[[19510,99656],[201,37],[222,29],[178,63],[151,30],[33,22],[167,7],[177,48],[110,1],[94,17],[103,-42],[89,-108],[238,-133],[100,26],[93,-10],[55,37],[149,24],[151,-6],[210,-38],[191,-44],[20,-26],[-48,-82],[-100,-53],[7,-28],[-68,-46],[-181,-47],[-147,-2],[-177,25],[-154,-29],[-150,-3],[-82,17],[-590,20],[-277,-2],[-236,20],[-282,35],[-88,-1],[-174,24],[-248,46],[-128,67],[6,37],[170,50],[215,18]],[[19715,99926],[25,35],[185,0],[107,-14],[44,-28],[120,-32],[-6,-23],[-135,-49],[-259,-42],[-118,-30],[-90,0],[-13,48],[74,55],[66,80]],[[21398,99912],[13,-38],[-54,-27],[-162,22],[-134,91],[48,39],[153,-27],[136,-60]],[[42961,64938],[-88,-21],[-88,46],[-122,13],[116,64],[74,5],[118,-17],[20,-21],[-30,-69]],[[43395,65095],[14,-37],[-47,-76],[70,-72],[-134,1],[48,61],[-45,119],[94,4]],[[43242,65043],[-171,-11],[-47,59],[134,3],[72,-18],[12,-33]],[[43387,65197],[45,-32],[-81,-63],[-134,16],[-7,85],[177,-6]],[[43089,65112],[-109,26],[29,41],[114,25],[56,-9],[8,-70],[-98,-13]],[[43356,66235],[86,12],[13,-81],[-56,-17],[-43,86]],[[44345,67599],[32,-61],[-102,-32],[1,47],[69,46]],[[43612,70762],[77,-8],[31,-60],[-85,-23],[-101,15],[-6,31],[84,45]],[[41554,73072],[-92,-22],[-46,27],[61,41],[69,-3],[8,-43]],[[40822,73615],[-42,84],[107,-7],[111,-87],[-42,-49],[-108,17],[-26,42]],[[45012,74207],[-141,21],[45,57],[102,-4],[-6,-74]],[[44674,74397],[96,39],[28,-28],[-19,-54],[-123,12],[18,31]],[[37574,75613],[-77,13],[-106,41],[100,31],[93,-32],[-10,-53]],[[32274,90568],[65,33],[101,9],[46,-36],[-66,-27],[-95,-10],[-51,31]],[[32549,92378],[50,-9],[225,9],[201,-19],[-13,-47],[151,-86],[54,-62],[-44,-27],[-135,-36],[-16,-55],[-122,27],[-238,118],[-207,59],[-40,44],[59,63],[75,21]],[[41191,92959],[179,99],[24,-33],[-42,-28],[-161,-38]],[[31567,93486],[24,-27],[-134,-23],[-141,23],[-44,79],[124,10],[201,-20],[-30,-42]],[[34127,94050],[148,-1],[136,-29],[20,-32],[98,-32],[123,-9],[70,13],[43,-28],[-83,-22],[-205,-24],[-210,-41],[-192,-21],[-163,14],[-99,78],[-21,36],[60,73],[57,-13],[218,38]],[[35227,94392],[-1,86],[51,2],[14,-85],[-64,-3]],[[43493,94950],[176,2],[163,-18],[-275,-52],[-130,-13],[-49,37],[115,44]],[[41701,96289],[-73,-52],[-72,-21],[-62,38],[138,31],[69,4]],[[30829,98596],[186,-14],[84,14],[153,-23],[622,-27],[61,-33],[0,-61],[-80,-56],[-131,-39],[-205,12],[-138,-23],[-340,-70],[-106,-64],[-33,-80],[-92,-41],[-293,-25],[-158,-31],[-74,5],[-143,-30],[-185,15],[-96,19],[-251,-10],[-72,9],[-133,-19],[-215,-17],[-115,6],[-143,39],[-349,23],[-214,51],[-103,14],[-222,68],[-20,47],[63,48],[-11,97],[166,65],[178,3],[94,41],[225,65],[142,18],[61,21],[114,4],[157,-17],[161,-74],[70,-15],[199,-6],[141,4],[184,-44],[179,-10],[209,69],[133,26],[151,8],[189,38]],[[78942,48101],[-71,19],[-4,44],[90,5],[54,-39],[-69,-29]],[[72645,48629],[114,-39],[74,-45],[-87,-13],[-111,53],[10,44]],[[71912,49039],[66,-23],[-34,-31],[-88,32],[56,22]],[[73451,49372],[211,5],[-40,-31],[-109,-4],[-62,30]],[[72377,49536],[70,32],[79,-20],[-30,-35],[-119,23]],[[69620,49519],[-91,36],[87,28],[4,-64]],[[73160,49595],[106,22],[262,18],[134,32],[148,-49],[70,-51],[1,-56],[-131,-26],[-80,-1],[-114,27],[-236,34],[-86,0],[-74,50]],[[70387,50282],[136,30],[53,-32],[-8,-53],[-100,-42],[-63,4],[-102,48],[84,45]],[[59942,52146],[-115,11],[-73,62],[-127,25],[135,31],[133,-47],[119,-7],[35,22],[172,27],[21,-96],[-53,-52],[-101,-31],[-66,8],[-80,47]],[[50569,52317],[88,-45],[-109,-7],[21,52]],[[59202,52413],[92,-7],[54,-47],[-19,-33],[-113,-40],[-135,20],[121,107]],[[59756,52824],[158,-6],[119,28],[114,11],[74,-78],[1,-109],[125,-162],[-118,-29],[-93,21],[-219,-5],[-89,29],[-316,18],[-173,71],[20,84],[254,13],[91,-29],[52,47],[0,96]],[[59542,53041],[99,-19],[108,-48],[169,30],[119,-48],[-392,-20],[-59,-20],[-98,-106],[-159,15],[-87,-59],[-98,16],[-11,-74],[-96,0],[-66,-88],[-49,-14],[30,115],[134,57],[216,127],[-64,37],[15,64],[83,103],[115,-7],[39,-54],[52,-7]],[[65061,53223],[-116,6],[34,75],[84,-28],[-2,-53]],[[61211,53490],[145,68],[62,-20],[19,-62],[-54,-62],[-68,-29],[-121,-2],[-62,55],[79,52]],[[60041,53884],[-11,-60],[-78,17],[-42,42],[131,1]],[[50268,55020],[42,-55],[-175,-1],[133,56]],[[49415,55661],[20,38],[91,21],[68,-37],[11,-46],[-52,-35],[-138,59]],[[48021,56523],[-83,17],[90,44],[52,-22],[-59,-39]],[[48991,57484],[-52,50],[117,-6],[-65,-44]],[[46817,62106],[-74,-11],[63,171],[50,-15],[4,-67],[-43,-78]],[[55404,93108],[119,-51],[-34,-20],[-116,19],[-42,45],[73,7]],[[55971,93286],[-166,-34],[-83,5],[-64,81],[46,43],[178,49],[114,12],[94,-18],[47,-44],[-90,-78],[-76,-16]],[[50613,96610],[63,29],[114,-59],[-204,-189],[-85,6],[-109,-20],[-83,21],[-78,74],[12,53],[56,37],[77,-8],[183,11],[54,45]],[[45082,96644],[175,98],[39,-6],[-214,-92]],[[46136,97238],[40,44],[98,-30],[-111,-30],[-27,16]],[[93497,24259],[6,-31],[-72,-27],[-97,47],[0,33],[93,6],[70,-28]],[[93287,26404],[-43,-57],[-160,-62],[-132,5],[-52,44],[18,33],[98,29],[33,52],[168,30],[107,-14],[-37,-60]],[[83678,32446],[-119,7],[-53,52],[147,-24],[25,-35]],[[81314,43954],[111,-6],[7,-33],[-90,-10],[-28,49]],[[84064,46496],[142,-18],[15,-38],[-100,-5],[-81,33],[24,28]],[[83828,47289],[126,-32],[-19,-36],[-144,28],[37,40]],[[82840,47660],[-108,-3],[23,41],[85,-38]],[[82577,47785],[81,9],[36,-56],[-104,-9],[-50,27],[37,29]],[[82669,48019],[111,39],[-69,50],[-14,62],[104,33],[211,-78],[30,-33],[121,-34],[-19,-28],[79,-53],[-47,-67],[-80,1],[-62,-41],[-102,-10],[-97,14],[-150,-9],[-50,55],[-77,42],[111,57]],[[94620,21887],[-58,-197],[-48,-63],[-45,-151],[4,-118],[49,-80],[120,-87],[81,-18],[-10,-194],[-20,-58],[-81,33],[-141,-62],[-139,5],[-30,-53],[7,-79],[-232,-7],[-190,-28],[192,-39],[98,40],[232,23],[-49,66],[41,46],[155,-9],[6,-106],[189,-79],[-3,-49],[182,-122],[40,-52],[4,-53],[126,-61],[164,-53],[91,-44],[90,-22],[137,-70],[99,-64],[17,-67],[-134,-12],[-126,-88],[160,-40],[54,39],[-6,83],[125,4],[62,-58],[29,-98],[-16,-47],[132,-71],[-57,-55],[56,-56],[108,-69],[-201,-74],[-136,-73],[-214,-151],[-132,-126],[-137,-241],[-33,-93],[4,-165],[64,-143],[87,-101],[-79,-58],[-248,-105],[-63,-55],[-7,-97],[103,-17],[47,-59],[68,-4],[51,-52],[-112,-125],[5,-41],[98,-73],[20,-89],[156,-50],[-137,-122],[-59,-98],[-78,-75],[-46,-83],[-14,-63],[3,-257],[-113,-177],[28,-152],[52,-29],[86,14],[13,-62],[-156,-18],[-123,-53],[-116,-78],[-188,-85],[-86,-63],[-138,-130],[-47,-94],[-242,-117],[-105,-109],[-75,-127],[-77,-182],[-72,-28],[16,-43],[-54,-20],[-315,-262],[-36,-125],[5,-68],[57,-191],[-27,-34],[-9,-81],[14,-101],[32,-48],[36,-163],[93,-201],[28,-85],[-34,-24],[-2,-67],[61,-78],[132,-89],[195,-86],[244,-49],[5,-55],[157,-83],[52,-62],[79,-44],[327,-119],[9,-72],[295,-157],[102,-94],[96,-45],[195,-54],[168,-27],[25,-43],[163,-17],[2,38],[86,-1],[80,-116],[105,-74],[-21,-48],[75,0],[107,-75],[34,-106],[85,-145],[43,-36],[-11,-37],[125,-38],[-14,-29],[-102,-71],[62,-25],[170,19],[101,-7],[151,18],[147,-72],[-20,-29],[-209,-45],[-20,-84],[37,-47],[272,-8],[102,23],[119,-1],[55,-53],[228,-111],[-110,-43],[-263,-135],[-67,-79],[-144,-51],[-77,6],[-89,-23],[4,-45],[-144,-39],[-56,25],[-18,49],[-90,32],[-190,37],[-174,-13],[-164,16],[-177,44],[-313,44],[-89,63],[-33,58],[25,55],[102,47],[-67,43],[-83,19],[-1,53],[-130,89],[-58,92],[-61,20],[-141,1],[-45,33],[41,73],[155,72],[-62,60],[-9,52],[45,54],[-147,35],[-146,103],[-208,-24],[-413,79],[-64,23],[-54,-39],[-187,82],[-194,-35],[-116,22],[-190,6],[-33,-22],[-151,-23],[-172,-2],[-161,-32],[-62,17],[-119,-6],[-236,15],[-278,287],[-266,-59],[-79,8],[-198,-81],[-46,2],[-151,-70],[-1,-25],[-202,-85],[-134,-30],[-88,-44],[-132,-27],[-38,40],[-79,31],[-49,-25],[-103,2],[-170,-32],[-173,10],[-169,-15],[-115,39],[-139,-46],[-131,37],[-53,49],[43,27],[21,79],[-154,82],[-87,1],[-36,-24],[39,-51],[-249,-38],[-4,-72],[32,-34],[-56,-21],[-88,9],[-102,78],[-131,-45],[-128,-5],[-128,52],[-93,-17]],[[88583,12415],[-212,12],[-1,65],[30,39],[-19,61],[-65,42],[-159,32],[-152,43],[-103,13],[-73,64],[1312,503],[170,-42],[135,27],[136,11],[-27,49],[140,58],[-7,74],[-66,40],[-53,61],[-114,40],[-48,66],[82,58],[-16,60],[61,44],[-52,62],[-46,15],[-185,105],[11,102],[-111,21],[-75,81],[-57,32],[-8,37],[48,49],[89,23],[5,53],[-54,51],[-185,48],[-136,48],[-115,55],[-76,6],[-118,75],[-150,-31],[-170,29],[-160,-104],[-215,1],[-177,-86],[-4,-22],[-185,36],[-56,39],[-154,25],[-37,35],[7,59],[95,36],[35,35],[154,7],[104,112],[-15,59],[-46,35],[69,16],[-10,65],[72,95],[-11,28],[-111,68],[-85,11],[-137,67],[-83,-10],[-118,-85],[-69,-8],[-83,29],[-66,-29],[-114,91],[-45,-9],[-224,76],[-111,47],[51,154],[51,35],[-10,34],[117,24],[-56,72],[-9,137],[87,21],[-82,37],[-262,-4],[-91,48],[-154,18],[-1,118],[43,80],[103,30],[142,19],[-12,126],[61,23],[97,72],[76,-16],[76,54],[-71,50],[35,53],[94,0],[62,85],[101,23],[71,-21],[96,4],[150,74],[-41,60],[84,35],[34,45],[-106,59],[10,115],[76,45],[-19,58],[-71,47],[-13,45],[-86,49],[-60,108],[-73,18],[-53,39],[-186,3],[-17,122],[-38,43],[8,61],[-26,34],[27,91],[78,6],[17,62],[-51,40],[-175,70],[-81,58],[-149,-35],[-42,42],[-95,11],[-98,30],[-81,-7],[-76,-30],[-69,46],[-146,25],[-222,-15],[-127,48],[-91,-7],[0,72],[-136,7],[86,402],[1427,133],[-82,48],[7,38],[-126,102],[46,52],[180,26],[140,92],[-66,22],[86,82],[-243,96],[-50,3],[-99,108],[268,-13],[-7,-43],[106,-43],[158,13],[99,-32],[13,-60],[128,-8],[4,46],[-43,41],[142,48],[112,-14],[72,27],[-27,43],[59,40],[192,907],[59,-13],[106,40],[123,-29],[158,-10],[178,70],[2,79],[-168,41],[-5,45],[-121,32],[-56,82],[39,76],[-71,35],[66,32],[-142,93],[2257,-111],[24,107]],[[96889,11687],[-34,30],[36,74],[164,34],[102,5],[63,-24],[12,-47],[-43,-65],[-125,-17],[-175,10]],[[96598,12016],[104,1],[136,22],[18,-28],[-63,-49],[-258,-31],[-19,32],[82,53]],[[96802,12051],[-138,-19],[-34,23],[92,69],[91,-40],[-11,-33]],[[96609,12066],[-100,37],[-11,48],[115,37],[80,-2],[7,-40],[-91,-80]],[[96441,12237],[6,61],[257,-28],[22,-25],[-140,-55],[-79,-3],[-66,50]],[[96712,12347],[-61,103],[4,32],[70,107],[121,-125],[97,-50],[-22,-124],[57,-90],[-4,-72],[-54,-34],[-68,8],[-114,48],[-59,58],[86,53],[-71,42],[18,44]],[[96623,12466],[-6,-31],[68,-61],[-31,-92],[-248,65],[-75,131],[-118,78],[-84,82],[-35,54],[-81,73],[58,15],[62,-33],[116,-29],[110,-47],[39,26],[109,6],[21,-43],[134,-85],[-39,-109]],[[97682,13555],[-36,39],[63,31],[9,34],[95,15],[-111,48],[-3,50],[-115,72],[49,79],[-39,32],[-127,59],[65,165],[-68,71],[34,56],[104,22],[57,-17],[-43,-42],[-13,-62],[43,-84],[43,-41],[145,-29],[118,-87],[78,-37],[249,-29],[211,3],[106,23],[68,-10],[165,25],[84,37],[98,-30],[6,-41],[66,-24],[-174,-70],[-200,-214],[-84,-106],[-103,-171],[-29,-103],[16,-57],[105,-36],[172,-41],[-7,-75],[62,-36],[159,-26],[5,-80],[86,-66],[150,-12],[99,22],[239,-78],[48,-65],[-41,-46],[105,-13],[45,-39],[-15,-46],[-118,-19],[-93,48],[-66,-70],[-20,-97],[57,-29],[64,20],[113,-15],[55,-46],[5,-41],[168,-55],[113,-3],[-160,-148],[-141,9],[-31,-28],[-20,-79],[-125,-57],[-40,-127],[66,-109],[-13,-89],[-47,-28],[-279,-43],[-132,-39],[-177,14],[-120,46],[-204,-17],[-336,4],[-95,15],[-121,-17],[-167,20],[-48,23],[-329,73],[-1,54],[-164,151],[-16,44],[-59,9],[-98,46],[-63,72],[0,56],[46,195],[77,65],[-7,63],[-52,43],[-50,100],[-105,54],[-5,25],[-88,74],[-139,66],[-141,53],[0,49],[-84,16],[-113,94],[-39,50],[-107,75],[9,23],[-97,43],[-48,44],[-127,44],[-209,21],[-159,32],[-115,35],[-159,90],[-216,55],[-247,160],[-143,49],[-48,49],[-131,91],[18,12],[235,27],[249,62],[211,31],[77,-26],[229,20],[63,-4],[75,-48],[132,-11],[7,-28],[102,-20],[97,8],[175,-109],[81,-8],[69,-41],[181,-28],[140,-5],[198,-66],[70,-57],[265,-33],[114,4],[156,-30],[141,-73],[91,-24],[204,-16],[-98,40],[-39,88],[-143,59]],[[97694,13420],[-61,27],[-58,96],[221,-55],[53,-91],[-155,23]],[[96291,14720],[14,20],[220,10],[29,-29],[159,-26],[36,-40],[95,-35],[3,-40],[-104,-57],[-66,-12],[-74,-46],[-111,27],[-116,-22],[-134,35],[16,50],[-9,101],[42,64]],[[98705,14814],[-166,54],[95,35],[57,-28],[14,-61]],[[96554,15837],[154,-3],[13,-38],[-91,-3],[-76,44]],[[96095,16107],[-155,49],[185,50],[0,-70],[-30,-29]],[[96210,16641],[-86,3],[-103,53],[-27,35],[-115,55],[95,37],[-20,37],[82,35],[97,-13],[63,-60],[79,-34],[79,-8],[74,-49],[120,-23],[38,-54],[-87,-91],[-140,70],[-149,7]],[[88583,12415],[41,-71],[183,-59],[-256,13],[-14,-60],[95,-92],[-43,-52],[-63,-16],[9,-70],[-153,-67],[-54,-49],[-88,5],[-66,-69],[-132,36],[60,-79],[-83,-40],[-249,-23],[-134,-24],[120,-89],[38,-78],[-1772,109],[-2348,144],[-129,-1093],[-2002,108],[-126,-49],[-502,329],[-1159,684],[95,85],[-432,149],[139,91],[-508,26],[152,690],[-1392,69],[-15,-16],[-533,26],[-148,-54],[-59,-116],[-144,1],[-156,62],[-49,-43],[-60,4],[-40,-90],[54,-43],[-42,-21],[28,-67],[80,-48],[89,-5],[105,-28],[241,27],[46,-47],[-48,-24],[9,-78],[48,-81],[151,-80],[103,-16],[110,-60],[-62,-146],[45,-25],[-6,-222],[71,-74],[-146,7],[-115,-85],[33,-51],[199,-10],[-32,-151],[-97,-7],[-93,-53],[-15,-37],[-235,-135],[-42,-33],[-12,-68],[-155,-71],[-158,-121],[5,-68],[-100,-19],[-90,16],[54,38],[-2,45],[-111,65],[-149,16],[-77,-15],[-160,-61],[-122,-28],[-203,6],[-91,60],[-114,-7],[-75,57],[-142,9],[-96,-8],[-194,55],[32,86],[-62,35],[16,53],[-41,18],[11,107],[-84,40],[-1259,60],[22,80],[-18,47],[-88,14],[-56,84],[-42,106],[-61,26],[-102,-35],[29,-79],[-74,-44],[-86,40],[-25,63],[-66,-19],[35,-46],[-35,-68],[-87,-81],[82,-62],[-563,28],[13,-36],[-43,-74],[8,-57],[66,-38],[-879,46],[43,197],[-838,40],[89,388],[-73,119],[136,305],[134,77],[68,291],[-107,-1],[-117,-21],[-170,28],[-233,-2],[-101,-25],[-333,119],[-376,12],[-117,-8],[-55,12],[-207,11],[-251,247],[-18,37],[-100,88],[-1214,62],[-31,-1074],[-310,-1386],[-160,-553],[2156,-113],[440,-218],[-870,-395],[99,-47],[-57,-47],[24,-89],[111,-31],[90,-2],[45,-31],[143,0],[136,-77],[96,-39],[176,64],[102,7],[200,-106],[-17,-63],[82,-13],[17,-48],[-41,-42],[56,-26],[17,-49],[-1208,-462],[860,-506],[-1320,-480],[-266,-140],[-183,-573],[34,-87],[298,-112],[1132,-1252],[384,-135],[191,47],[117,13],[256,-9],[145,-29],[-1155,-428],[-403,228],[-2307,-1027],[-138,-85],[-67,-84],[-30,-142],[-376,18],[-133,-621],[-2174,126],[-132,-735],[-378,64],[-1213,100],[-343,7],[-341,58],[-132,-740],[-811,39],[-60,-317],[-71,-342],[-59,-24],[-253,-68],[-119,1],[-218,-67],[-129,-24],[-135,-83],[-176,-137],[-140,-70],[-98,-27],[-271,83],[-111,60],[-182,38],[-192,23],[-135,28],[-101,57],[-47,114],[-294,85],[-189,18],[-148,1],[-292,-60],[-132,1],[-85,-42],[-175,-33],[-280,14],[-326,34],[-217,36],[-122,3],[-182,-124],[-304,-137],[-281,-163],[-198,-61],[-68,-8],[-234,4],[-223,-11],[-176,23],[-223,9],[-157,-23],[-181,-51],[-248,-33],[-557,-30],[-846,-30],[-525,63],[-526,123],[-408,113],[-454,90],[-342,60],[-364,44],[-630,-111],[-92,-1],[-449,92],[-141,35],[-531,228],[-31,27],[-229,256],[-93,81],[-192,139],[-140,54],[-66,45],[-278,107],[-301,87],[-269,45],[-233,-40],[-183,-38],[-117,-37],[65,-73],[40,-132],[-72,-102],[-153,-80],[-221,-62],[-452,-86],[-85,-48],[-72,-16],[-84,-89],[-122,-27],[-68,-69],[-187,7],[-79,20],[-248,-38],[-73,27],[-197,-56],[-94,-48],[-77,-13],[15,-93],[-9,-100],[-215,-150],[-196,-13],[-99,11],[-312,80],[-100,6],[-81,-18],[-101,-106],[-70,-42],[-303,-70],[-125,-46],[-93,-59],[-142,-161],[-169,-128],[-21,-139],[-58,-50],[-201,-66],[-94,21],[-85,73],[-78,40],[-92,6],[-135,-78],[-998,43],[-3211,136],[-1063,41],[-3466,144],[-3697,156],[30,147],[140,690],[-334,11],[242,1369],[-836,28],[-3150,113],[-27,-132],[-401,18],[167,849],[337,1765],[-897,37],[-30,-237],[-2220,109],[-26,-129],[-1449,72],[328,1621],[-909,25],[-46,-227],[-3549,142],[-198,-1061],[-3067,109],[-171,-1084],[-171,-13],[-167,13],[-103,64],[-88,10],[-106,48],[-258,-1],[-126,61],[-92,19],[-147,106],[-117,33],[-83,-10],[-141,17],[-186,-35],[-206,19],[-275,-1],[-82,24],[-72,-9],[-141,48],[-91,1],[-45,44],[-116,30],[27,41],[-76,7],[-29,74],[37,55],[-61,29],[-21,74],[215,-11],[308,1408],[612,-25],[254,1368],[202,1076],[-1333,58],[-1231,64],[-3719,186],[114,534],[-1054,48],[-303,101],[70,41],[-22,32],[10,67],[-44,61],[-101,34],[-47,70],[27,25],[-35,83],[95,6],[69,25],[-31,65],[-123,76],[-79,20],[2,50],[-52,107],[13,68],[-49,39],[37,37],[-16,91],[109,49],[140,6],[31,64],[-123,75],[-1,48],[110,43],[-92,75],[51,40],[-7,47],[94,27],[-5,52],[77,23],[-66,99],[25,76],[-36,29],[-161,13],[-58,34],[-167,53],[62,61],[-25,42],[25,67],[-45,66],[-128,24],[-103,63],[-38,41],[-26,87],[-83,33],[-140,12],[-87,99],[-3,30],[-150,39],[-67,92],[-297,79],[7,37],[-51,77],[-61,20],[48,46],[-33,73],[32,66],[-142,64],[-33,56],[45,29],[-44,45],[10,42],[-38,72],[-83,30],[-7,40],[-61,25],[-149,-7],[-82,69],[23,75],[-19,60],[-59,21],[6,51],[-112,85],[-18,38],[-193,45],[-66,33],[-75,-10],[-100,83],[-194,29],[-54,-25],[-143,64],[16,87],[104,97],[14,45],[-17,74],[-72,72],[-10,44],[-76,69],[18,55],[-34,64],[44,28],[79,92],[122,22],[866,-28],[150,934],[1608,-74],[-40,-224],[2174,-99],[97,507],[-99,-1],[-130,-24],[73,560],[20,125],[1397,-40],[42,273],[-3139,109],[238,1549],[219,33],[202,-107],[176,12],[180,-9],[42,-23],[-5,-75],[53,-11],[237,33],[162,7],[201,-18],[99,-34],[106,-62],[177,16],[164,56],[212,61],[101,664],[-1151,31],[76,654],[469,-18],[136,717],[164,869],[2883,-140],[70,363],[2919,-120],[-60,-349],[2129,-123],[-985,573],[2023,821],[131,54],[2194,-1341],[872,353],[2310,-1260],[1713,711],[2,43],[-93,64],[-77,89],[-125,52],[-20,28],[-129,47],[-117,5],[-172,55],[-79,58],[-158,35],[-216,-4],[-242,17],[-173,25],[-178,52],[3173,1396],[1169,-659],[1906,1227],[758,488],[-107,-12],[-252,15],[-44,34],[-127,12],[-90,79],[-58,16],[-225,111],[-126,29],[-20,33],[-224,56],[-133,72],[-10,26],[-98,37],[13,39],[-67,21],[-55,74],[-88,23],[-119,8],[-95,36],[-82,4],[-137,46],[-24,35],[-116,47],[1659,1101],[288,1534],[453,2421],[628,2326],[319,1178],[787,556],[1183,-389],[829,584],[2,23],[-148,68],[-233,127],[-220,93]]],"transform":{"scale":[0.000052193121931219224,0.0001047660476604766],"translate":[141.13406,-19.69644]},"objects":{"qld_far_north_ddmg_boundaries_gda2020_simp200m":{"type":"GeometryCollection","geometries":[{"arcs":[[[0,1,2]],[[3]],[[4]],[[5]],[[6]],[[7]],[[8]],[[9]],[[10]],[[11]],[[12]],[[13]],[[14]],[[15]],[[16]],[[17]],[[18]],[[19]],[[20]],[[21]],[[22]],[[23]],[[24]],[[25]],[[26]],[[27]],[[28]],[[29]],[[30]],[[31]],[[32]],[[33]],[[34]],[[35]],[[36]],[[37]],[[38]],[[39]],[[40]],[[41]],[[42]],[[43]],[[44]],[[45]],[[46]],[[47]],[[48]],[[49]],[[50]],[[51]],[[52]],[[53]],[[54]],[[55]],[[56]],[[57]],[[58]],[[59]],[[60]],[[61]],[[62]],[[63]],[[64]],[[65]],[[66]],[[67]],[[68]],[[69]],[[70]],[[71]],[[72]],[[73]],[[74]],[[75]],[[76]],[[77]],[[78]],[[79]],[[80]],[[81]],[[82]],[[83]],[[84]],[[85]],[[86]],[[87]],[[88]],[[89]],[[90]],[[91]],[[92]],[[93]],[[94]],[[95]],[[96]],[[97]]],"type":"MultiPolygon","properties":{"District Name":"Cairns","DDMG Name":"Cairns","Police Region Name":"Far Northern Region","Police Region Code":"FNR","Police Region Short Name":"Far North"}},{"arcs":[[[-2,98,99]],[[100]],[[101]],[[102]],[[103]],[[104]],[[105]],[[106]],[[107]],[[108]],[[109]],[[110]],[[111]],[[112]],[[113]]],"type":"MultiPolygon","properties":{"District Name":"Innisfail","DDMG Name":"Innisfail","Police Region Name":"Far Northern Region","Police Region Code":"FNR","Police Region Short Name":"Far North"}},{"arcs":[[-3,-100,114]],"type":"Polygon","properties":{"District Name":"Mareeba","DDMG Name":"Mareeba","Police Region Name":"Far Northern Region","Police Region Code":"FNR","Police Region Short Name":"Far North"}}]}}}