{"type":"FeatureCollection","name":"qld_south_east_ldmg_boundaries_gda2020_simp200m","crs":{"type":"name","properties":{"name":"urn:ogc:def:crs:EPSG::7844"}},"features":[{"type":"Feature","geometry":{"type":"MultiPolygon","coordinates":[[[[153.17291,-27.8344],[153.1757,-27.83942],[153.17969,-27.84027],[153.18202,-27.84854],[153.18108,-27.85392],[153.18895,-27.85509],[153.18542,-27.87375],[153.18627,-27.88123],[153.18335,-27.89135],[153.18069,-27.89507],[153.2121,-27.90011],[153.21544,-27.90273],[153.21257,-27.91789],[153.21571,-27.92197],[153.21375,-27.92585],[153.21059,-27.94147],[153.20824,-27.94113],[153.2066,-27.94923],[153.21913,-27.95123],[153.2252,-27.95611],[153.22016,-27.97624],[153.22593,-27.97717],[153.22512,-27.98164],[153.20353,-27.97836],[153.20162,-27.98264],[153.20793,-27.98577],[153.21124,-27.98983],[153.21067,-27.99296],[153.22053,-27.99437],[153.2209,-27.99969],[153.21765,-28.00819],[153.23888,-28.01116],[153.23628,-28.02595],[153.23258,-28.02566],[153.2301,-28.03964],[153.23076,-28.04434],[153.22876,-28.05511],[153.22513,-28.0612],[153.21898,-28.06129],[153.21619,-28.06567],[153.21336,-28.08033],[153.22949,-28.08279],[153.23244,-28.08531],[153.22961,-28.08957],[153.22753,-28.09725],[153.22989,-28.09997],[153.22279,-28.10294],[153.22131,-28.11122],[153.21566,-28.10859],[153.21408,-28.11742],[153.20604,-28.11629],[153.20247,-28.11711],[153.19732,-28.14717],[153.19454,-28.15744],[153.19852,-28.16276],[153.19291,-28.17308],[153.19106,-28.1791],[153.18766,-28.1801],[153.1843,-28.1929],[153.19345,-28.19159],[153.1927,-28.19651],[153.18858,-28.20328],[153.1907,-28.20974],[153.19487,-28.21429],[153.19511,-28.22027],[153.19862,-28.2267],[153.19764,-28.2313],[153.19997,-28.2395],[153.20712,-28.24659],[153.20738,-28.25295],[153.21885,-28.26337],[153.23284,-28.26506],[153.23561,-28.25664],[153.24393,-28.24729],[153.24974,-28.24748],[153.25479,-28.24531],[153.26401,-28.24347],[153.26906,-28.2386],[153.27424,-28.238],[153.2772,-28.2342],[153.28661,-28.23542],[153.29619,-28.23379],[153.30037,-28.23801],[153.30477,-28.23968],[153.31457,-28.23717],[153.31685,-28.23852],[153.32572,-28.23592],[153.32977,-28.23686],[153.3319,-28.24611],[153.33911,-28.25053],[153.34586,-28.24844],[153.35729,-28.24926],[153.36473,-28.24734],[153.37219,-28.24273],[153.38753,-28.23637],[153.39051,-28.23273],[153.39091,-28.22787],[153.39756,-28.21894],[153.40572,-28.21101],[153.41492,-28.20741],[153.41782,-28.20054],[153.42433,-28.19784],[153.43576,-28.18716],[153.45263,-28.18103],[153.45706,-28.18051],[153.45852,-28.17501],[153.46846,-28.16242],[153.47249,-28.16174],[153.47695,-28.15688],[153.48151,-28.15823],[153.48586,-28.15702],[153.53117,-28.17523],[153.53465,-28.17763],[153.54145,-28.16898],[153.53476,-28.16575],[153.52983,-28.16729],[153.52315,-28.16603],[153.51131,-28.15894],[153.50435,-28.15273],[153.49516,-28.14128],[153.48619,-28.12679],[153.48231,-28.12775],[153.47764,-28.12569],[153.47086,-28.11605],[153.45996,-28.0948],[153.45971,-28.09063],[153.45362,-28.08911],[153.44982,-28.08303],[153.44501,-28.06987],[153.43987,-28.0502],[153.4367,-28.03602],[153.43207,-28.00989],[153.43055,-27.99522],[153.42922,-27.97095],[153.43009,-27.96312],[153.4304,-27.939],[153.42911,-27.93652],[153.42274,-27.93859],[153.42438,-27.94423],[153.42418,-27.96351],[153.4214,-27.9741],[153.4185,-27.96613],[153.41242,-27.95564],[153.4103,-27.95496],[153.41053,-27.94277],[153.40818,-27.93997],[153.40598,-27.93061],[153.40828,-27.91184],[153.40702,-27.90576],[153.40308,-27.89667],[153.39664,-27.88695],[153.3963,-27.88406],[153.40036,-27.87479],[153.38889,-27.87765],[153.37997,-27.87382],[153.37908,-27.87894],[153.38369,-27.88267],[153.38371,-27.88769],[153.38151,-27.89168],[153.37094,-27.89643],[153.36776,-27.8968],[153.35845,-27.89334],[153.35645,-27.90048],[153.35831,-27.90684],[153.35713,-27.91321],[153.34785,-27.91638],[153.34318,-27.91007],[153.34699,-27.90306],[153.35216,-27.90207],[153.35676,-27.891],[153.37174,-27.89366],[153.38079,-27.88912],[153.38173,-27.88366],[153.37731,-27.87769],[153.38054,-27.87043],[153.38525,-27.87421],[153.39348,-27.87436],[153.39475,-27.86803],[153.40018,-27.86608],[153.40175,-27.86277],[153.39598,-27.8532],[153.39476,-27.84038],[153.39303,-27.83904],[153.38556,-27.84065],[153.38024,-27.83636],[153.38185,-27.83124],[153.38606,-27.82831],[153.38035,-27.8207],[153.37107,-27.81606],[153.37104,-27.80765],[153.36662,-27.7963],[153.37333,-27.79975],[153.38362,-27.79962],[153.39155,-27.79396],[153.38965,-27.79128],[153.38205,-27.78643],[153.38427,-27.78438],[153.40762,-27.78206],[153.40953,-27.78269],[153.42487,-27.77961],[153.42896,-27.77545],[153.43563,-27.76286],[153.43521,-27.75318],[153.43624,-27.74433],[153.43894,-27.73596],[153.43695,-27.73718],[153.43375,-27.73902],[153.42525,-27.74265],[153.41563,-27.74375],[153.40827,-27.74084],[153.40508,-27.73384],[153.4046,-27.72852],[153.40139,-27.72161],[153.39312,-27.71506],[153.39079,-27.70719],[153.3854,-27.70986],[153.38054,-27.71115],[153.37153,-27.70826],[153.3698,-27.71042],[153.36966,-27.71076],[153.3632,-27.70992],[153.3565,-27.71169],[153.35337,-27.69979],[153.3481,-27.69512],[153.33874,-27.69827],[153.33219,-27.69624],[153.32651,-27.69836],[153.32412,-27.70593],[153.31999,-27.7111],[153.30366,-27.71447],[153.3008,-27.71299],[153.29259,-27.7005],[153.29253,-27.69203],[153.28658,-27.69327],[153.2829,-27.69501],[153.27246,-27.69678],[153.26708,-27.69246],[153.25334,-27.69169],[153.25356,-27.69624],[153.24324,-27.69738],[153.23461,-27.69396],[153.23338,-27.69599],[153.23607,-27.70408],[153.23258,-27.70537],[153.23333,-27.71116],[153.22696,-27.71537],[153.21364,-27.71433],[153.21546,-27.71816],[153.22162,-27.71864],[153.23059,-27.72158],[153.22047,-27.72669],[153.21623,-27.72739],[153.21983,-27.73474],[153.21834,-27.73691],[153.20942,-27.73967],[153.20125,-27.74001],[153.19754,-27.74659],[153.19727,-27.754],[153.19885,-27.75901],[153.19797,-27.7641],[153.19327,-27.76837],[153.19221,-27.77364],[153.18785,-27.77707],[153.19301,-27.77939],[153.18424,-27.78886],[153.18235,-27.79454],[153.17006,-27.7994],[153.16945,-27.80363],[153.17618,-27.80836],[153.17783,-27.81429],[153.18335,-27.82001],[153.17567,-27.82942],[153.17291,-27.8344]]],[[[153.44675,-27.73519],[153.44509,-27.73511],[153.44008,-27.74007],[153.44342,-27.74249],[153.44675,-27.73519]]],[[[153.44535,-27.75739],[153.44418,-27.75389],[153.43841,-27.75112],[153.43829,-27.75914],[153.43605,-27.7655],[153.43948,-27.77222],[153.43797,-27.77777],[153.43318,-27.78363],[153.4325,-27.79038],[153.42705,-27.80511],[153.42219,-27.81326],[153.41659,-27.81819],[153.41016,-27.82127],[153.40783,-27.82648],[153.40848,-27.83221],[153.40644,-27.83503],[153.40772,-27.84633],[153.41079,-27.84984],[153.40941,-27.85726],[153.41337,-27.85972],[153.41984,-27.86701],[153.42349,-27.87362],[153.42287,-27.88023],[153.41851,-27.88412],[153.42142,-27.89479],[153.42151,-27.90433],[153.41966,-27.91567],[153.41774,-27.91986],[153.42139,-27.92973],[153.42457,-27.93367],[153.4299,-27.93369],[153.42877,-27.92522],[153.42524,-27.91029],[153.42481,-27.89733],[153.42565,-27.88183],[153.43074,-27.83891],[153.43273,-27.82916],[153.43628,-27.80411],[153.44038,-27.78264],[153.44194,-27.77193],[153.44535,-27.75739]]],[[[153.41056,-27.86955],[153.40561,-27.86724],[153.40012,-27.86865],[153.40345,-27.87234],[153.40006,-27.88055],[153.40605,-27.88108],[153.40959,-27.87491],[153.41056,-27.86955]]],[[[153.39614,-27.83658],[153.39016,-27.83611],[153.38378,-27.8318],[153.38169,-27.8346],[153.38572,-27.84054],[153.39614,-27.83658]]],[[[153.39134,-27.81974],[153.38493,-27.82242],[153.38653,-27.82819],[153.39094,-27.82981],[153.397,-27.82865],[153.39756,-27.82282],[153.39134,-27.81974]]],[[[153.39118,-27.78498],[153.38375,-27.78658],[153.3925,-27.79294],[153.39084,-27.7958],[153.38773,-27.79742],[153.3781,-27.80463],[153.37328,-27.81069],[153.37585,-27.81703],[153.38401,-27.8204],[153.38921,-27.81843],[153.39455,-27.81878],[153.40289,-27.81166],[153.40745,-27.80465],[153.41163,-27.79094],[153.40645,-27.78297],[153.39118,-27.78498]]],[[[153.41746,-27.78745],[153.41754,-27.79302],[153.42431,-27.78694],[153.42204,-27.78448],[153.41746,-27.78745]]]]},"properties":{"LGA Code":"3430","Abbreviated Name":"Gold Coast","LGA Name":"Gold Coast City","Area Sq Km":1376.56555,"LDMG Name":"Gold Coast","Police Region Name":"South Eastern Region","Police Region Code":"SER","Police Region Short Name":"South East"}},{"type":"Feature","geometry":{"type":"Polygon","coordinates":[[[152.94089,-27.62865],[152.93856,-27.63997],[152.93616,-27.64488],[152.92456,-27.65781],[152.9314,-27.66637],[152.92331,-27.70816],[152.89066,-27.70358],[152.88279,-27.74735],[152.87466,-27.74627],[152.87333,-27.75344],[152.85795,-27.75111],[152.8568,-27.75726],[152.84345,-27.75529],[152.836,-27.75572],[152.83395,-27.75266],[152.83458,-27.74756],[152.82926,-27.74677],[152.82825,-27.75272],[152.82303,-27.75203],[152.82226,-27.75637],[152.8114,-27.75489],[152.80804,-27.75864],[152.80331,-27.78557],[152.81144,-27.7868],[152.81834,-27.78494],[152.82444,-27.79376],[152.82647,-27.8075],[152.82641,-27.81504],[152.81636,-27.81362],[152.81406,-27.8262],[152.80405,-27.82485],[152.80056,-27.83154],[152.80056,-27.84314],[152.80165,-27.84464],[152.81229,-27.8474],[152.81537,-27.85191],[152.81486,-27.85771],[152.81964,-27.85897],[152.82062,-27.86573],[152.82506,-27.86385],[152.83598,-27.86901],[152.83949,-27.86729],[152.84702,-27.86809],[152.85195,-27.86633],[152.85916,-27.85767],[152.87143,-27.8544],[152.87263,-27.85041],[152.87863,-27.85185],[152.88069,-27.8489],[152.89264,-27.85053],[152.89571,-27.85691],[152.90011,-27.85312],[152.91827,-27.84853],[152.92459,-27.84208],[152.93101,-27.83992],[152.93831,-27.84067],[152.9447,-27.8446],[152.94491,-27.84981],[152.95161,-27.85817],[152.94291,-27.86144],[152.94477,-27.86577],[152.94423,-27.8704],[152.94613,-27.87735],[152.95008,-27.88195],[152.95176,-27.89175],[152.94735,-27.89696],[152.95588,-27.91182],[152.95931,-27.91282],[152.96032,-27.92094],[152.98252,-27.92412],[152.98503,-27.91198],[152.99104,-27.91525],[152.99943,-27.91632],[153.005,-27.91948],[153.01261,-27.92057],[153.0133,-27.90937],[153.01521,-27.90101],[153.01703,-27.90038],[153.02999,-27.90205],[153.03213,-27.90405],[153.03098,-27.91572],[153.03711,-27.9177],[153.03989,-27.92279],[153.04857,-27.92395],[153.04748,-27.93566],[153.06975,-27.93859],[153.07528,-27.93429],[153.08071,-27.9326],[153.08475,-27.93344],[153.08871,-27.93042],[153.09047,-27.92573],[153.09518,-27.92407],[153.09402,-27.91822],[153.10047,-27.91811],[153.10172,-27.91436],[153.10632,-27.91143],[153.10118,-27.90647],[153.10257,-27.90268],[153.09828,-27.90101],[153.09789,-27.89544],[153.10313,-27.88553],[153.10396,-27.88124],[153.10188,-27.87772],[153.10751,-27.87008],[153.10414,-27.86844],[153.10979,-27.86353],[153.11605,-27.86094],[153.1223,-27.866],[153.12366,-27.86309],[153.13474,-27.86154],[153.13233,-27.85541],[153.13801,-27.85236],[153.14785,-27.85587],[153.15259,-27.85871],[153.15791,-27.85874],[153.15702,-27.85409],[153.1512,-27.85072],[153.15881,-27.84646],[153.16105,-27.84339],[153.16944,-27.84153],[153.16871,-27.8389],[153.17291,-27.8344],[153.17567,-27.82942],[153.18335,-27.82001],[153.17783,-27.81429],[153.17618,-27.80836],[153.16945,-27.80363],[153.17006,-27.7994],[153.18235,-27.79454],[153.18424,-27.78886],[153.19301,-27.77939],[153.18785,-27.77707],[153.19221,-27.77364],[153.19327,-27.76837],[153.19797,-27.7641],[153.19885,-27.75901],[153.19727,-27.754],[153.19754,-27.74659],[153.20125,-27.74001],[153.20942,-27.73967],[153.21834,-27.73691],[153.21983,-27.73474],[153.21623,-27.72739],[153.22047,-27.72669],[153.23059,-27.72158],[153.22162,-27.71864],[153.21546,-27.71816],[153.21364,-27.71433],[153.22696,-27.71537],[153.23333,-27.71116],[153.23258,-27.70537],[153.23607,-27.70408],[153.23338,-27.69599],[153.23461,-27.69396],[153.24324,-27.69738],[153.25356,-27.69624],[153.25334,-27.69169],[153.26708,-27.69246],[153.27246,-27.69678],[153.2829,-27.69501],[153.28658,-27.69327],[153.28857,-27.68694],[153.28234,-27.68697],[153.28098,-27.68316],[153.28265,-27.67418],[153.27991,-27.65841],[153.26286,-27.65606],[153.26246,-27.65397],[153.25453,-27.65279],[153.25493,-27.64957],[153.23889,-27.64734],[153.23879,-27.64921],[153.20872,-27.64507],[153.207,-27.64121],[153.19393,-27.63946],[153.18755,-27.64074],[153.18322,-27.63828],[153.1823,-27.63407],[153.17385,-27.63424],[153.17575,-27.62346],[153.18174,-27.6243],[153.18377,-27.61257],[153.17572,-27.6066],[153.15984,-27.59575],[153.15637,-27.59183],[153.12315,-27.58742],[153.12192,-27.59531],[153.11053,-27.59376],[153.10973,-27.59365],[153.10585,-27.59318],[153.10113,-27.61792],[153.09471,-27.61716],[153.09373,-27.6208],[153.09749,-27.62288],[153.09461,-27.63176],[153.09541,-27.64504],[153.0781,-27.65186],[153.06766,-27.65105],[153.05876,-27.65679],[153.04004,-27.65401],[153.03722,-27.66021],[153.01625,-27.65689],[153.01205,-27.65713],[152.99795,-27.65452],[152.98975,-27.65158],[152.97689,-27.64484],[152.97322,-27.63915],[152.96837,-27.63613],[152.95637,-27.63462],[152.94787,-27.63212],[152.94089,-27.62865]]]},"properties":{"LGA Code":"4590","Abbreviated Name":"Logan","LGA Name":"Logan City","Area Sq Km":957.87316,"LDMG Name":"Logan","Police Region Name":"South Eastern Region","Police Region Code":"SER","Police Region Short Name":"South East"}},{"type":"Feature","geometry":{"type":"Polygon","coordinates":[[[153.17291,-27.8344],[153.16871,-27.8389],[153.16944,-27.84153],[153.16105,-27.84339],[153.15881,-27.84646],[153.1512,-27.85072],[153.15702,-27.85409],[153.15791,-27.85874],[153.15259,-27.85871],[153.14785,-27.85587],[153.13801,-27.85236],[153.13233,-27.85541],[153.13474,-27.86154],[153.12366,-27.86309],[153.1223,-27.866],[153.11605,-27.86094],[153.10979,-27.86353],[153.10414,-27.86844],[153.10751,-27.87008],[153.10188,-27.87772],[153.10396,-27.88124],[153.10313,-27.88553],[153.09789,-27.89544],[153.09828,-27.90101],[153.10257,-27.90268],[153.10118,-27.90647],[153.10632,-27.91143],[153.10172,-27.91436],[153.10047,-27.91811],[153.09402,-27.91822],[153.09518,-27.92407],[153.09047,-27.92573],[153.08871,-27.93042],[153.08475,-27.93344],[153.08071,-27.9326],[153.07528,-27.93429],[153.06975,-27.93859],[153.04748,-27.93566],[153.04857,-27.92395],[153.03989,-27.92279],[153.03711,-27.9177],[153.03098,-27.91572],[153.03213,-27.90405],[153.02999,-27.90205],[153.01703,-27.90038],[153.01521,-27.90101],[153.0133,-27.90937],[153.01261,-27.92057],[153.005,-27.91948],[152.99943,-27.91632],[152.99104,-27.91525],[152.98503,-27.91198],[152.98252,-27.92412],[152.96032,-27.92094],[152.95931,-27.91282],[152.95588,-27.91182],[152.94735,-27.89696],[152.95176,-27.89175],[152.95008,-27.88195],[152.94613,-27.87735],[152.94423,-27.8704],[152.94477,-27.86577],[152.94291,-27.86144],[152.95161,-27.85817],[152.94491,-27.84981],[152.9447,-27.8446],[152.93831,-27.84067],[152.93101,-27.83992],[152.92459,-27.84208],[152.91827,-27.84853],[152.90011,-27.85312],[152.89571,-27.85691],[152.89264,-27.85053],[152.88069,-27.8489],[152.87863,-27.85185],[152.87263,-27.85041],[152.87143,-27.8544],[152.85916,-27.85767],[152.85195,-27.86633],[152.84702,-27.86809],[152.83949,-27.86729],[152.83598,-27.86901],[152.82506,-27.86385],[152.82062,-27.86573],[152.81964,-27.85897],[152.81486,-27.85771],[152.81537,-27.85191],[152.81229,-27.8474],[152.80165,-27.84464],[152.80056,-27.84314],[152.80056,-27.83154],[152.80405,-27.82485],[152.80559,-27.81697],[152.79981,-27.81452],[152.80248,-27.79836],[152.78564,-27.79621],[152.78655,-27.79088],[152.78215,-27.78818],[152.76073,-27.78529],[152.76271,-27.77293],[152.75801,-27.76741],[152.73775,-27.7644],[152.73751,-27.76347],[152.70756,-27.7583],[152.70442,-27.74963],[152.68639,-27.74685],[152.68429,-27.75247],[152.66754,-27.74996],[152.66864,-27.74332],[152.65537,-27.74135],[152.65598,-27.73829],[152.63913,-27.73654],[152.63822,-27.74159],[152.60765,-27.73709],[152.60866,-27.73163],[152.60462,-27.73134],[152.60577,-27.72497],[152.5982,-27.72625],[152.57984,-27.72359],[152.58066,-27.71912],[152.56201,-27.71646],[152.56179,-27.72101],[152.54213,-27.71826],[152.52946,-27.71762],[152.52446,-27.72203],[152.52297,-27.72698],[152.52371,-27.73631],[152.51933,-27.76116],[152.49901,-27.75826],[152.4945,-27.78341],[152.4819,-27.78164],[152.48123,-27.78512],[152.46741,-27.78312],[152.46717,-27.78922],[152.46386,-27.79377],[152.46226,-27.80248],[152.45118,-27.80199],[152.4434,-27.84476],[152.43626,-27.84162],[152.42848,-27.84046],[152.42547,-27.85717],[152.42089,-27.85655],[152.41929,-27.86546],[152.40236,-27.86369],[152.40175,-27.86654],[152.40529,-27.87122],[152.40608,-27.87708],[152.41158,-27.88334],[152.41066,-27.90117],[152.40406,-27.90573],[152.40563,-27.91909],[152.41061,-27.92675],[152.4105,-27.93423],[152.41588,-27.94462],[152.40504,-27.95445],[152.40226,-27.95901],[152.40182,-27.97145],[152.39458,-27.97752],[152.38906,-27.9741],[152.38282,-27.97879],[152.38363,-27.98372],[152.37801,-27.99055],[152.378,-27.99925],[152.3749,-28.01232],[152.38285,-28.02444],[152.39032,-28.03085],[152.38848,-28.03628],[152.3943,-28.04376],[152.39504,-28.04898],[152.38996,-28.05908],[152.39943,-28.0627],[152.40236,-28.06532],[152.41065,-28.06874],[152.41632,-28.06974],[152.4148,-28.07886],[152.41846,-28.08847],[152.40941,-28.09576],[152.40855,-28.1001],[152.41172,-28.10571],[152.41144,-28.11262],[152.41394,-28.11631],[152.41901,-28.11869],[152.42153,-28.12443],[152.42615,-28.12909],[152.43405,-28.131],[152.43205,-28.14261],[152.43489,-28.1475],[152.43554,-28.1563],[152.43845,-28.16017],[152.44669,-28.16641],[152.44206,-28.176],[152.44731,-28.18663],[152.45584,-28.19562],[152.47086,-28.19495],[152.47087,-28.20053],[152.47324,-28.20435],[152.46561,-28.21674],[152.45825,-28.22099],[152.45896,-28.22657],[152.46992,-28.22886],[152.46943,-28.23195],[152.47544,-28.23355],[152.4763,-28.22822],[152.48236,-28.22949],[152.48799,-28.23468],[152.49241,-28.24374],[152.48853,-28.24633],[152.48768,-28.25344],[152.49281,-28.25406],[152.50099,-28.2524],[152.50931,-28.24917],[152.51582,-28.25179],[152.5217,-28.26072],[152.52895,-28.26171],[152.53649,-28.26588],[152.5329,-28.27231],[152.53281,-28.27957],[152.52889,-28.28663],[152.5293,-28.29793],[152.5256,-28.30178],[152.52592,-28.30596],[152.53355,-28.31071],[152.53888,-28.31134],[152.54405,-28.31893],[152.54906,-28.32126],[152.55495,-28.31896],[152.55391,-28.32444],[152.56404,-28.32352],[152.5723,-28.32674],[152.57463,-28.33408],[152.57951,-28.33919],[152.58524,-28.3284],[152.58918,-28.32599],[152.59678,-28.31355],[152.60182,-28.3073],[152.59918,-28.30025],[152.59733,-28.29129],[152.59962,-28.28368],[152.60328,-28.27923],[152.6161,-28.27183],[152.61753,-28.28256],[152.62093,-28.284],[152.62352,-28.28887],[152.62215,-28.29317],[152.62413,-28.29828],[152.62844,-28.30355],[152.63537,-28.30717],[152.63975,-28.31217],[152.64848,-28.31336],[152.65912,-28.30987],[152.66752,-28.31169],[152.67356,-28.31796],[152.67397,-28.32627],[152.6795,-28.33057],[152.68638,-28.32913],[152.6884,-28.33482],[152.69241,-28.33679],[152.69858,-28.33566],[152.70829,-28.34427],[152.71324,-28.34149],[152.72021,-28.34527],[152.72306,-28.34412],[152.73095,-28.3523],[152.73702,-28.35512],[152.74033,-28.35917],[152.74654,-28.36066],[152.75096,-28.36387],[152.75661,-28.36356],[152.76185,-28.35828],[152.75822,-28.35508],[152.7598,-28.35245],[152.77739,-28.34595],[152.78174,-28.34667],[152.79338,-28.35403],[152.80426,-28.35356],[152.80907,-28.35062],[152.80932,-28.34207],[152.81861,-28.33503],[152.82311,-28.33547],[152.82369,-28.32891],[152.83137,-28.31966],[152.83876,-28.32213],[152.84367,-28.31954],[152.84943,-28.31117],[152.85472,-28.31278],[152.8596,-28.31146],[152.86578,-28.31356],[152.8781,-28.31173],[152.88914,-28.31543],[152.90019,-28.32546],[152.90625,-28.32583],[152.91748,-28.33103],[152.92337,-28.33158],[152.93427,-28.33764],[152.93917,-28.33474],[152.94515,-28.33566],[152.95075,-28.33363],[152.95905,-28.33349],[152.97319,-28.33181],[152.97816,-28.33364],[152.9836,-28.33809],[152.98983,-28.33661],[152.9961,-28.33995],[153.00318,-28.33967],[153.01007,-28.34128],[153.02223,-28.33803],[153.03049,-28.3397],[153.03808,-28.34344],[153.04491,-28.339],[153.04908,-28.34201],[153.06531,-28.34423],[153.07066,-28.34783],[153.07418,-28.35219],[153.09379,-28.3555],[153.10766,-28.35848],[153.11114,-28.35641],[153.11547,-28.34767],[153.11674,-28.34149],[153.12051,-28.34199],[153.12677,-28.33622],[153.13024,-28.33027],[153.12483,-28.32393],[153.12584,-28.31728],[153.13297,-28.31752],[153.13576,-28.31211],[153.14329,-28.31219],[153.14329,-28.30463],[153.15292,-28.30191],[153.15515,-28.29611],[153.16438,-28.29788],[153.16917,-28.2931],[153.16511,-28.28773],[153.16649,-28.28511],[153.16115,-28.27976],[153.17517,-28.2742],[153.17459,-28.26854],[153.17163,-28.26365],[153.17148,-28.25919],[153.17667,-28.24959],[153.18817,-28.2475],[153.19948,-28.25654],[153.20738,-28.25295],[153.20712,-28.24659],[153.19997,-28.2395],[153.19764,-28.2313],[153.19862,-28.2267],[153.19511,-28.22027],[153.19487,-28.21429],[153.1907,-28.20974],[153.18858,-28.20328],[153.1927,-28.19651],[153.19345,-28.19159],[153.1843,-28.1929],[153.18766,-28.1801],[153.19106,-28.1791],[153.19291,-28.17308],[153.19852,-28.16276],[153.19454,-28.15744],[153.19732,-28.14717],[153.20247,-28.11711],[153.20604,-28.11629],[153.21408,-28.11742],[153.21566,-28.10859],[153.22131,-28.11122],[153.22279,-28.10294],[153.22989,-28.09997],[153.22753,-28.09725],[153.22961,-28.08957],[153.23244,-28.08531],[153.22949,-28.08279],[153.21336,-28.08033],[153.21619,-28.06567],[153.21898,-28.06129],[153.22513,-28.0612],[153.22876,-28.05511],[153.23076,-28.04434],[153.2301,-28.03964],[153.23258,-28.02566],[153.23628,-28.02595],[153.23888,-28.01116],[153.21765,-28.00819],[153.2209,-27.99969],[153.22053,-27.99437],[153.21067,-27.99296],[153.21124,-27.98983],[153.20793,-27.98577],[153.20162,-27.98264],[153.20353,-27.97836],[153.22512,-27.98164],[153.22593,-27.97717],[153.22016,-27.97624],[153.2252,-27.95611],[153.21913,-27.95123],[153.2066,-27.94923],[153.20824,-27.94113],[153.21059,-27.94147],[153.21375,-27.92585],[153.21571,-27.92197],[153.21257,-27.91789],[153.21544,-27.90273],[153.2121,-27.90011],[153.18069,-27.89507],[153.18335,-27.89135],[153.18627,-27.88123],[153.18542,-27.87375],[153.18895,-27.85509],[153.18108,-27.85392],[153.18202,-27.84854],[153.17969,-27.84027],[153.1757,-27.83942],[153.17291,-27.8344]]]},"properties":{"LGA Code":"6510","Abbreviated Name":"Scenic Rim","LGA Name":"Scenic Rim Regional","Area Sq Km":4242.95511,"LDMG Name":"Scenic Rim","Police Region Name":"South Eastern Region","Police Region Code":"SER","Police Region Short Name":"South East"}}]}