{"type":"Topology","arcs":[[[25975,34096],[-73,51],[-113,34],[-281,9],[-229,62],[-100,36],[-145,84],[-115,115],[-71,94],[-84,69],[-79,29],[-57,6],[130,588],[988,547],[159,1403],[966,-45],[147,1313],[1675,-61],[192,1366],[856,-43],[193,1378],[-4619,204],[-262,-1405],[-6208,352],[-2225,2196],[-1039,-1778],[-85,-7],[-101,62],[-249,78],[-177,21],[-127,45],[-132,18],[1,-30],[-161,-200],[-189,-56],[-55,-43],[-2,-65],[59,-62],[143,-30],[30,-24],[35,-71],[109,-16],[61,-27],[59,-64],[137,-79],[28,-48],[120,-50],[54,-56],[-345,-1090],[-4897,256],[-33,11],[-32,-8],[-172,0],[-92,-22],[-19,33],[-42,19],[-40,-1],[-52,20],[-48,-10],[-48,17],[-18,22],[-43,-21],[-42,2],[-81,58],[-18,45],[-27,-3],[-45,38],[-50,-15],[-18,13],[-13,-8],[-46,11],[-13,18],[-31,-5],[-38,-30],[18,-11],[-14,-23],[-78,0],[1,33],[37,4],[-56,24],[-18,-7],[-39,-48],[29,-28],[-29,-15],[-9,-18],[-50,13],[-34,-40],[-54,14],[-4,28],[-41,3],[-22,-42],[6,-10],[41,-2],[4,-13],[-34,-10],[-45,20],[-7,28],[22,25],[55,27],[-9,66],[28,-3],[25,21],[-25,16],[-83,-6],[-12,-9],[-19,23],[5,34],[-25,10],[-14,6],[-6,-1],[-89,-14],[-69,15],[-37,-24],[-17,30],[25,19],[-37,13],[-8,2],[-20,-13],[-21,-13],[-4,-2],[3,-4],[17,-15],[-10,-22],[-64,7],[-49,25],[-24,-2],[-2,-99],[22,-13],[61,10],[8,-50],[-96,0],[-31,9],[-17,29],[-40,2],[-37,30],[-57,-25],[-81,13],[-21,14],[-6,28],[66,17],[8,12],[-38,55],[-40,16],[-86,-32],[-1,-6],[-9,-64],[-42,8],[-15,46],[-1,16],[18,27],[90,39],[73,57],[44,-2],[23,14],[-23,5],[33,4],[-30,14],[-73,8],[-4,24],[-46,34],[-1,2],[-30,0],[-55,-25],[-3,-2],[-24,-31],[-3,-54],[-57,-25],[-8,-2],[-19,3],[-35,19],[211,199],[235,404],[322,496],[45,35],[43,-2],[2,11],[-14,-8],[-13,9],[-46,-16],[11,33],[79,108],[99,77],[-8,51],[-63,59],[26,45],[27,4],[16,-21],[-31,-52],[27,-1],[-8,-11],[16,-6],[18,28],[-5,42],[-29,26],[-22,1],[-33,-22],[-26,-59],[11,-18],[35,-6],[-58,-5],[25,-55],[-34,7],[-15,48],[63,103],[350,335],[81,184],[92,319],[33,171],[-2,170],[18,53],[40,28],[152,54],[15,40],[53,50],[320,182],[108,78],[16,26],[26,10],[10,-16],[35,-9],[-62,-43],[-11,-26],[81,63],[-3,18],[-39,17],[80,70],[27,44],[51,149],[-12,61],[-47,80],[-22,29],[-47,24],[2,38],[-30,-9],[-2,-34],[133,-176],[5,-29],[-149,210],[3,31],[42,18],[11,-11],[98,62],[-41,76],[121,183],[6,0],[-30,-78],[52,-84],[182,-68],[119,-70],[90,-81],[24,-8],[179,14],[31,21],[6,37],[23,20],[88,16],[44,-11],[30,-23],[-7,-30],[19,-21],[43,-1],[32,16],[27,-37],[25,-6],[61,20],[44,2],[24,-22],[-107,-4],[-31,-26],[-7,-28],[43,-30],[128,-2],[9,-25],[-57,-35],[21,4],[32,-22],[-11,-36],[26,8],[0,-28],[27,-34],[105,-19],[-1,-25],[15,-8],[109,-4],[45,-40],[56,-2],[28,17],[-4,69],[21,7],[20,-9],[14,-29],[41,-12],[23,24],[26,5],[10,-9],[0,10],[29,5],[-5,20],[37,14],[-1,-27],[40,5],[0,18],[36,-35],[40,-4],[56,23],[45,-16],[36,9],[3,10],[77,-6],[35,-17],[23,-34],[52,-6],[24,25],[45,-5],[100,25],[52,-1],[14,17],[-7,23],[55,8],[44,23],[61,2],[40,18],[51,-33],[33,-5],[112,32],[51,24],[57,5],[80,31],[4,13],[12,-11],[24,3],[7,-6],[23,-6],[53,12],[129,-11],[91,25],[79,-15],[50,37],[93,23],[43,-15],[39,25],[31,-1],[54,25],[68,12],[34,-15],[39,15],[44,-14],[89,13],[32,-9],[46,48],[153,-3],[44,-34],[81,6],[51,21],[59,52],[74,-2],[157,17],[77,34],[83,17],[63,30],[102,21],[88,44],[98,30],[86,-59],[80,-14],[201,23],[-15,24],[24,11],[57,6],[96,51],[21,-7],[70,13],[69,28],[61,-5],[135,17],[68,-6],[49,30],[21,30],[102,21],[99,80],[60,22],[43,-9],[22,8],[117,102],[186,72],[18,43],[-11,15],[220,128],[-28,34],[19,60],[-37,10],[-73,-58],[-16,-29],[-52,-14],[-4,-27],[-28,-25],[-96,-57],[-6,-41],[-37,-15],[-50,-46],[-10,-36],[-79,-46],[-56,-9],[-31,-24],[-33,-3],[-115,-51],[-57,0],[-34,-22],[-1,-43],[-10,-10],[-179,-24],[-57,-29],[-38,1],[-65,26],[-109,-34],[-23,2],[-73,-34],[-70,-5],[-222,-90],[-111,6],[-52,27],[-138,-43],[-144,6],[-81,-32],[-39,5],[-51,-19],[-72,7],[-41,-25],[-39,8],[-28,-28],[-18,5],[-48,-16],[-194,-144],[-65,-6],[-61,31],[-96,10],[-74,-9],[-26,-16],[-10,-26],[-31,9],[-92,-15],[-34,15],[-45,-12],[-29,14],[-163,-41],[-31,-21],[-37,10],[-31,2],[-81,-24],[-41,-34],[-76,12],[-62,-8],[-28,-18],[-33,12],[-86,1],[-60,-11],[-71,19],[-16,-17],[-55,-21],[-103,-19],[-18,-16],[-120,-28],[-69,35],[-33,-1],[-23,-17],[-53,-6],[-48,-19],[-61,-7],[0,-39],[-39,3],[-109,-28],[-52,4],[-21,-25],[-27,-1],[-39,44],[-55,18],[-70,1],[-35,-14],[-57,14],[-45,-17],[-36,7],[-26,34],[-70,-6],[-49,16],[-34,-11],[7,-34],[-50,-31],[-17,11],[-1,27],[-31,11],[-2,-1],[-52,-13],[-36,15],[-45,-19],[-55,2],[-41,-9],[-45,23],[-74,0],[-9,6],[-35,108],[52,51],[-11,36],[-21,11],[-51,-1],[-73,-39],[-25,-1],[-47,26],[9,21],[26,15],[92,-13],[29,7],[12,34],[-41,35],[-73,4],[-68,-27],[0,29],[-47,13],[-57,-26],[-11,63],[-54,25],[-48,4],[-69,-13],[-44,-23],[-7,-52],[-16,-12],[-181,-7],[-49,61],[-293,208],[-8,88],[4,45],[37,48],[70,6],[89,230],[47,18],[17,21],[-22,20],[16,187],[-21,84],[-66,145],[-46,59],[-84,72],[-195,134],[-97,106],[101,-69],[-144,150],[-17,-12],[54,-42],[-11,-6],[-49,36],[-16,-4],[78,-92],[-17,-4],[-154,228],[-24,73],[7,26],[-62,14],[-20,19],[-326,449],[-62,111],[22,50],[-28,2],[-10,15],[-72,344],[-144,334],[-22,88],[24,6],[-21,1],[-14,-10],[-326,18],[-8334,-6],[-84,26457],[84,9048],[22,5879],[7549,2841],[2309,932],[5263,1975],[5804,628],[9338,315],[1262,1099],[2486,0],[-136,121],[-67,137],[4,160],[75,134],[135,114],[204,92],[250,60],[268,20],[225,-23],[181,-53],[171,-93],[119,-120],[57,-137],[-10,-141],[-35,-84],[-47,-65],[-78,-73],[-75,-49],[59,0],[2523,1414],[4543,315],[6815,-1258],[55,-3281],[-61,-43],[-80,-36],[-187,3],[-160,-47],[-53,-52],[-216,-37],[-6,-43],[-28,-14],[-70,1],[-140,-21],[-9,-16],[-51,-5],[-172,-153],[5,-35],[23,-6],[-2,-19],[-60,-30],[9,-14],[-16,-14],[-181,-566],[-29,-21],[-46,-9],[-138,-8],[-6,-15],[-27,-7],[-850,-514],[-3,-33],[-40,-13],[-241,-310],[-653,-470],[37,-54],[-25,-51],[-37,-9],[8,-38],[37,-11],[2,-23],[-61,-15],[29,-35],[-34,-13],[-19,-80],[-113,-130],[5,-25],[-79,-61],[15,-12],[-9,-22],[-31,-7],[-68,-73],[-32,-7],[20,-25],[-2,-45],[-334,-105],[44,-43],[-115,-132],[9,-63],[-91,-72],[24,-20],[7,-55],[-28,-10],[31,-41],[35,1],[9,-9],[-41,-30],[25,-30],[-12,-36],[-94,-90],[6,-29],[-38,-17],[-46,12],[-49,-53],[48,-17],[3,-16],[-43,-48],[-44,-214],[21,-20],[-5,-21],[-8,-22],[-81,-55],[41,-87],[22,-15],[-7,-73],[-37,-22],[39,-43],[34,-5],[27,-38],[-7,-22],[-32,-19],[-26,15],[-76,-46],[18,-12],[-10,-171],[49,-17],[12,-25],[-65,-70],[27,-111],[-47,-8],[7,-50],[39,-7],[14,-18],[-21,-12],[15,-4],[23,-70],[-13,-24],[-29,-13],[44,-46],[-4,-49],[17,-50],[-55,-42],[-84,-14],[-63,2],[-114,-29],[2,-52],[31,-10],[82,-68],[1,-24],[-37,-24],[-149,-12],[-36,-74],[31,-9],[-13,-6],[3,-32],[57,-6],[17,-30],[-15,-44],[-120,-48],[15,-50],[46,-17],[2,-17],[46,-11],[36,-85],[-4,-65],[-48,-40],[-54,-12],[-2,-74],[10,-58],[112,9],[-39,-150],[73,-43],[-16,-25],[22,-52],[-11,-25],[11,-59],[35,-43],[-14,-34],[87,-70],[9,-20],[-3,-28],[-43,-19],[5,-40],[47,-11],[62,-38],[13,-58],[37,-43],[69,-33],[38,-42],[19,0],[-14,-39],[7,-42],[84,-77],[16,-49],[-14,-23],[53,-58],[18,-58],[67,-30],[98,-109],[30,-69],[9,-84],[29,-7],[28,-71],[-19,-23],[8,-29],[34,0],[16,-11],[42,-67],[-7,-19],[45,-48],[27,-72],[103,-140],[-2,-288],[49,-40],[-4,-37],[51,-32],[27,-63],[92,-46],[21,-57],[-10,-52],[26,-79],[75,-63],[-4,-101],[-51,-101],[-36,-29],[14,-58],[28,-18],[80,-118],[104,-174],[34,-87],[-36,-130],[52,-64],[44,-101],[-13,-37],[-37,-22],[18,-287],[55,-64],[-4,-85],[48,-107],[-76,-21],[-81,-4],[-87,13],[-213,-21],[-31,-10],[16,-81],[280,-94],[157,-143],[81,-150],[25,-165],[38,-18],[2,-39],[52,-24],[27,-84],[63,-50],[4,-116],[274,-192],[31,-68],[-44,-32],[-14,-27],[-143,-85],[-29,-48],[-5,-47],[-29,-13],[-4,-28],[-36,-28],[11,-53],[58,-88],[-15,-61],[54,-224],[48,-30],[65,-208],[-36,-88],[-6,-103],[-34,-104],[-41,-57],[-88,-77],[-30,-85],[-73,-48],[-53,-8],[-44,10],[-47,31],[-161,54],[-44,4],[-517,-58],[-419,-266],[-21,-49],[-60,-49],[-15,-171],[33,-162],[-19,-50],[776,-259],[18,10],[42,-6],[44,-24],[157,-150],[49,-30],[440,-206],[28,4],[37,-13],[168,-75],[-24,-61],[27,-40],[2,-66],[80,-179],[6,-158],[-18,-61],[-48,-48],[-54,-21],[-166,-13],[-45,5],[-232,-676],[92,-45],[0,-20],[-36,-18],[-43,-1],[-495,-597],[79,-65],[100,-135],[-12,-51],[-27,-32],[109,-68],[235,-44],[153,24],[109,-18],[97,3],[143,-54],[162,-16],[38,-15],[9,-30],[31,-28],[0,-280],[-53,34],[-144,26],[-127,0],[-31,-11],[-141,8],[-41,-19],[-66,-59],[28,-183],[166,-79],[19,-45],[138,-95],[-23,-76],[5,-53],[60,-32],[31,-38],[75,-50],[-37,-76],[-88,-40],[-77,-11],[-329,-17],[-103,-26],[-158,4],[-81,-36],[-118,8],[-263,-956],[118,-72],[10,-27],[-119,-86],[-112,-53],[-66,-9],[-249,-598],[21,-29],[-35,-33],[-65,-1],[-33,-13],[-32,-36],[52,-115],[24,-5],[36,-32],[0,-34],[-24,-64],[-163,-34],[-49,-26],[13,-48],[67,-81],[61,-41],[-43,-35],[-40,-7],[-333,-1030],[55,-18],[10,-13],[-50,-48],[-174,-20],[-63,-68],[-18,-86],[-39,-38],[21,-116],[27,-19],[131,-37],[-21,-53],[-473,-250],[-23,-36],[-6,-50],[-44,-8],[-82,18],[-110,1],[-40,-10],[-21,-27],[7,-23],[100,-74],[5,-37],[-15,-10],[-132,7],[-135,-39],[-14,-43],[20,-60],[90,-93],[-26,-42],[-45,-31],[-34,-11],[-75,11],[-43,65],[-185,56],[-31,39],[-227,-22],[-19,-53],[7,-26],[-16,-8],[-44,-15],[-50,-2],[-68,-39],[-184,-39],[-252,-91],[-67,-78],[-64,-30],[17,-111],[28,-10],[-25,-105],[-40,-5],[-246,-98],[5,-19],[-26,-30],[-77,2],[-151,-63],[0,-52],[168,-229],[60,-44],[111,-146],[-34,-32],[6,-46],[69,-55],[7,-20],[203,-141],[79,-128],[54,-49],[-7,-123],[-40,-187],[16,-53],[-31,-144],[64,-20],[3,-18],[55,-46],[40,5],[19,-52],[232,-138],[14,-96],[69,-54],[275,-143],[-45,-126],[42,-67],[56,-51],[17,-123],[150,-111],[-6,-55],[-141,-90],[-86,-9],[-68,11],[-257,-2],[-103,-43],[-69,-69],[20,-11],[17,-64],[-38,-69],[31,-28],[41,-8],[29,-37],[65,-39],[133,-57],[8,-18],[-8,-18],[-53,-25],[-197,-34],[-27,-17],[21,-83],[-94,-206],[64,-66],[94,-21],[226,-108],[55,-45],[89,-31],[85,-51],[62,-157],[12,-82],[-11,-27],[-150,-102],[-153,-33],[-64,0],[-35,-29],[17,-22],[-1,-49],[-30,-101],[-68,-110],[121,-191],[-18,-13],[26,-12],[3,-15],[-17,-54],[52,-86],[-41,-86],[8,-40],[-17,-11],[24,-31],[41,-19],[65,-58],[2,-30],[-29,-20],[-29,-49],[154,-53],[15,-23],[81,-56],[85,-39],[56,-46],[-13,-70],[29,-86],[47,-77],[162,-87],[24,-34],[20,-88],[25,-22],[314,-188],[35,-2],[22,-18],[561,-12],[68,32],[59,89],[51,40],[87,22],[42,-4],[46,-36],[8,-150],[-67,-106],[5,-34],[197,-92],[54,-13],[49,-87],[-4,-73],[-28,-33],[-175,-147],[-228,-164],[-37,-32],[-10,-31],[7,-61],[117,-108],[57,-141],[101,-90],[-38,-97],[50,-101],[117,-89],[38,-13],[20,-32],[-71,-130],[-176,-59],[-57,-10],[-34,-20],[-72,-9],[-31,-55],[53,-68],[-5,-37],[-51,-67],[89,-51],[144,-37],[76,-3],[109,-59],[87,-89],[1,-86],[46,-47],[91,-36],[14,-39],[-15,-33],[-150,-33],[-86,-66],[-43,-69],[-111,-53],[-17,-45],[37,-16],[16,-23],[17,-99],[176,-137],[4,-42],[118,-137],[18,-39],[-26,-60],[-58,-13],[-37,-31],[-11,-27],[32,-71],[-16,-69],[220,-170],[63,-6],[185,-120],[230,-18],[293,86],[35,20],[56,73],[98,10],[38,-6],[78,40],[25,-13],[10,-84],[-29,-51],[-116,-71],[-49,-45],[66,-121],[38,-32],[36,-7],[70,-57],[314,-24],[0,-56],[-65,-70],[-10,-51],[12,-63],[79,-111],[57,-19],[127,-3],[88,24],[35,-26],[-10,-91],[-122,-134],[36,-117],[-59,-186],[43,-129],[50,-43],[688,-224],[61,-29],[45,-178],[122,-81],[149,-63],[75,-85],[12,-31],[96,-20],[262,-141],[186,-49],[129,-72],[107,-18],[247,-122],[63,-85],[-11,-67],[52,-111],[171,-152],[-3,-69],[169,-108],[134,-32],[117,-97],[70,-153],[250,-131],[232,-157],[253,-209],[96,-193],[-3,-57],[43,-30],[13,-93],[327,-129],[114,32],[83,5],[99,-17],[228,-118],[78,-22],[30,-42],[290,-102],[136,-4],[264,-105],[414,38],[28,21],[30,5],[103,-12],[267,17],[146,-11],[24,-11],[454,98],[36,40],[27,-5],[213,235],[7,30],[121,30],[58,28],[13,68],[48,19],[157,-50],[548,-10],[233,-202],[44,-29],[57,-14],[24,-36],[-8,-39],[58,-76],[172,-78],[18,-35],[47,-41],[0,-91],[43,-17],[325,1],[23,10],[186,-23],[25,-21],[116,-44],[65,-11],[111,-56],[76,-12],[160,-4],[104,-18],[64,-19],[87,-46],[26,-27],[-3,-65],[-120,-106],[5,-22],[-20,-37],[23,-20],[-58,-54],[0,-26],[24,-13],[10,-63],[46,-40],[57,-114],[18,-92],[222,-166],[46,-74],[17,-61],[84,-44],[431,-132],[159,-96],[79,-97],[100,-44],[17,-19],[61,-110],[4,-41],[248,-75],[102,-10],[151,8],[94,-21],[16,-28],[100,-27],[70,12],[131,48],[75,-11],[167,-61],[40,-67],[64,-35],[28,-64],[93,-50],[60,-17],[357,-42],[57,18],[68,-1],[88,14],[94,-15],[125,-4],[38,-21],[167,-14],[23,-10],[170,-7],[243,11],[222,-93],[85,-67],[60,-30],[95,-18],[135,-2],[269,-73],[49,1],[142,-76],[68,-23],[23,-33],[178,-23],[14,8],[162,7],[92,-10],[79,-24],[20,-18],[217,-35],[76,-21],[24,-18],[189,-36],[163,-8],[439,-60],[177,-74],[51,-77],[40,-30],[75,-45],[35,-8],[86,-52],[1,-17],[64,-32],[176,19],[73,-75],[41,-11],[150,1],[180,-26],[317,4],[193,-72],[123,-23],[213,-123],[79,-19],[96,3],[224,-77],[68,-53],[15,-77],[249,-259],[84,-41],[7,-22],[314,-44],[54,31],[237,6],[269,-39],[48,-21],[203,-118],[130,-101],[21,-51],[164,-95],[91,9],[75,-9],[69,-28],[130,-78],[79,-71],[141,-93],[5,-47],[199,-149],[52,0],[46,-14],[120,-71],[43,-38],[48,-80],[76,-16],[149,-101],[12,-103],[239,-142],[22,-92],[-33,-31],[42,-114],[81,-102],[56,-47],[147,-20],[71,-87],[29,-115],[179,-122],[35,-118],[70,-36],[47,13],[46,-20],[41,-121],[50,-9],[162,-81],[60,-65],[17,-121],[59,-56],[3,-137],[39,-44],[69,-12],[41,-207],[43,-82],[111,-345],[-7,-64],[49,-64],[-9,-76],[77,-171],[21,-134],[-5,-150],[-127,-278],[-120,-84],[-188,-302],[103,-153],[74,-27],[36,-114],[-29,-50],[21,-87],[-28,-107],[-34,-41],[48,-183],[57,-52],[127,-53],[5,-36],[-16,-42],[32,-68],[80,-77],[13,-112],[-118,-134],[-50,-197],[120,-208],[39,-38],[-43,-123],[25,-58],[96,-53],[17,-38],[-6,-33],[-39,-51],[-14,-72],[23,-70],[47,-39],[146,-47],[-4,-43],[-50,-95],[-4,-351],[66,-52],[24,-49],[6,-98],[25,-44],[-9,-68],[72,-118],[44,-16],[34,-40],[15,-77],[195,-192],[29,-52],[33,-162],[42,-95],[84,-325],[163,-179],[22,-75],[-9,-113],[-29,-53],[138,-239],[-12,-135],[10,-44],[-77,-184],[-82,-91],[84,-148],[-20,-92],[-88,-102],[21,-54],[-93,-155],[145,-179],[26,-141],[179,-226],[-41,-149],[20,-39],[-30,-53],[-118,-427],[18,-101],[-16,-101],[-50,-34],[-60,-17],[-38,-40],[2,-146],[264,-207],[41,-52],[93,-308],[77,-90],[6,-63],[-171,-252],[5,-103],[25,-55],[-14,-66],[93,-301],[122,-236],[-7,-136],[-46,-71],[-3,-96],[46,-36],[65,-22],[63,-58],[19,-100],[97,-167],[160,-91],[79,-63],[87,-156],[13,-102],[-59,-86],[-39,-12],[-14,-200],[104,-84],[15,-46],[-31,-86],[-54,-54],[353,-559],[175,-47],[48,-31],[63,-14],[65,-99],[-16,-198],[-54,-90],[-90,-126],[-46,-28],[-105,-34],[350,-672],[69,-22],[51,-58],[6,-89],[1915,-574],[28,2],[50,-54],[5,-25],[424,-197],[281,-575],[27,-11],[8,-22],[379,-330],[37,-5],[34,-22],[-7,-25],[472,-709],[23,2],[25,-14],[-6,-31],[1290,-709],[72,-25],[39,-55],[-7,-21],[16,-33],[167,-286],[111,-19],[52,-41],[-13,-28],[10,-385],[42,-17],[6,-15],[1081,-195],[32,-43],[5,-35],[28,-25],[-54,-158],[-17,-161],[32,-43],[-4,-20],[744,-121],[11,-21],[641,-521],[44,-11],[69,-100],[46,-112],[957,-372],[46,1],[48,-21],[-2,-15],[-36,-24],[-37,0],[-830,-341],[19,-15],[9,-63],[-29,-76],[680,-476],[488,-746],[67,-67],[30,-104],[-51,-90],[-75,-66],[-66,-419],[68,-18],[71,-96],[8,-55],[-23,-47],[131,-223],[-29,-31],[-59,-19],[-144,-84],[-111,-45],[122,-225],[2,-40],[245,-210],[62,-23],[2,-46],[-36,-79],[-8,-136]],[[84263,21633],[-7393,-18],[-159,10],[-12,-13],[-21,5],[10,-24],[29,3],[-8,-17],[18,-6],[-11,-10],[-7,11],[-17,0],[13,-21],[-36,-5],[9,20],[-16,5],[-3,-14],[-26,-3],[30,-31],[-21,-1],[-42,-26],[-148,-32],[43,-29],[-19,-101],[-44,4],[-36,38],[-72,-39],[-30,19],[18,-34],[48,-36],[48,-3],[12,-27],[-42,-8],[-43,-69],[-84,0],[8,-24],[-142,8],[6,35],[-438,26],[-3,-18],[-415,15],[-7,-44],[-30,2],[-5,9],[-61,1],[-57,28],[-28,-109],[-60,4],[-32,-287],[44,-2],[-2,-39],[-47,-17],[-33,7],[-73,-20],[-51,4],[-72,-61],[-22,-3],[-10,-22],[-26,-6],[-100,34],[-45,-9],[-1,2],[-5,15],[-32,97],[-39,40],[-115,45],[-34,36],[-62,-13],[-78,-34],[-18,-33],[27,-26],[-25,-20],[-1,-1],[-6,0],[-101,-18],[-28,16],[-34,-5],[-40,-60],[-73,-42],[-96,-20],[-29,-12],[-85,-11],[-44,4],[-1,1],[-33,29],[-83,20],[-134,7],[-52,18],[-44,2]],[[73284,20730],[25,139],[-33,59],[44,2],[36,207],[-42,11],[-20,46],[-24,-19],[-30,30],[-2,88],[-127,152],[15,77],[-43,48],[-3,32],[-50,52],[44,51],[-58,53],[-85,43],[-25,31],[-107,63],[-24,33],[-180,66],[-126,83],[5,45],[18,18],[-28,32],[87,105],[-4,55],[23,39],[-5,15],[-38,8],[-4,14],[88,62],[108,10],[-8,21],[-29,11],[-14,37],[89,28],[-10,23],[13,23],[-117,81],[-35,68],[-30,-4],[-49,14],[0,100],[-40,54],[-48,4],[3,63],[-84,52],[-7,4],[-7,13],[-3,6],[-5,9],[18,80],[-50,24],[-102,-24],[-37,2],[-76,-93],[-541,157],[-114,174],[-136,8],[6,357],[-521,27],[25,23],[19,2],[-4,28],[8,15],[25,4],[3,24],[-69,31],[5,17],[-19,20],[-128,0],[-36,27],[5,45],[-38,12],[-17,49],[-20,11],[25,35],[-18,10],[11,74],[-42,19],[-91,4],[-67,15],[-42,36],[3,43],[-29,7],[-17,40],[42,30],[-33,25],[-84,15],[-17,26],[-100,20],[10,55],[-33,12],[22,16],[-4,22],[60,18],[83,58],[-10,47],[-73,28],[-34,-9],[-40,26],[-60,-15],[-46,17],[25,29],[-13,12],[49,42],[-76,69],[5,23],[64,44],[67,10],[52,41],[54,17],[22,34],[52,16],[43,62],[-1,23],[22,8],[-44,14],[-39,28],[-35,43],[4,39],[-32,19],[4,20],[40,13],[18,56],[44,12],[39,98],[69,22],[56,43],[52,13],[12,21],[40,5],[-6,30],[-48,18],[-12,38],[12,26],[-21,53],[31,64],[-28,56],[101,94],[11,39],[62,15],[30,79],[-40,32],[46,41],[63,28],[85,147],[-6,19],[-60,22],[-54,51],[-26,0],[-10,30],[-57,-1],[-54,15],[-75,-9],[44,53],[105,25],[15,24],[64,8],[0,22],[-111,30],[-60,45],[-87,11],[-78,41],[125,36],[24,-4],[93,33],[37,-18],[95,8],[11,18],[-144,68],[62,37],[22,45],[-9,45],[17,46],[-85,25],[-9,45],[-73,55],[-15,31],[34,104],[-63,80],[-4,101],[-21,6],[-27,34],[8,66],[-60,73],[-50,29],[9,21],[37,10],[42,50],[-54,15],[-37,29],[-36,6],[-43,-6],[-14,14],[-30,0],[-41,48],[25,32],[-17,29],[-125,33],[-9,16],[-101,41],[-153,5],[-40,32],[-34,10],[-216,39],[-62,42],[-105,3],[-56,35],[-50,6],[-48,29],[-124,15],[-87,-3],[-114,51],[-92,95],[-46,-2],[-70,17],[-55,37],[-62,-1],[-68,-32],[-14,38],[-32,21],[5,26],[-24,2],[1,10],[51,42],[61,-5],[12,12],[-38,27],[29,28],[-20,46],[57,22],[4,12],[-44,105],[72,51],[68,26],[-8,23],[-108,3],[-84,-67],[-37,4],[-196,-102],[-100,-13],[-67,-29],[-50,31],[-24,1],[-202,-28],[-53,-18],[10,-23],[-85,-3],[-38,15],[-54,-11],[-46,42],[-118,8],[32,311],[-83,4],[0,11],[-57,30],[-33,-1],[-30,22],[192,-8],[9,48],[-111,6],[-5,25],[44,22],[-31,141],[38,3],[11,29],[-95,53],[-113,9],[21,158],[-268,211],[-32,-16],[-47,35],[18,9],[-57,41],[44,22],[-98,73],[-285,18],[-16,-93],[-162,10],[-23,-130],[-69,-35],[-5,-29],[-64,-33],[-15,-24],[13,-27],[-33,-13],[-20,-29],[-71,-31],[-41,10],[1,33],[-40,3],[-57,38],[-152,6],[-83,-45],[-64,-2],[7,94],[-99,9],[5,26],[-104,18],[-28,23],[3,12],[-34,13],[-33,-1],[-33,-16],[-5,-24],[-29,-19],[-60,-9],[-46,16],[-13,20],[36,16],[-1,17],[-106,12],[-58,70],[-30,11],[5,19],[-78,6],[13,30],[-99,27],[-19,20],[-10,58],[63,13],[5,21],[-67,12],[-119,-1],[-15,25],[18,33],[77,30],[-11,14],[-56,7],[-100,32],[-8,22],[25,30],[62,9],[-14,28],[46,30],[47,-5],[-9,10],[16,9],[7,37],[-32,7],[-125,-23],[-108,37],[-141,0],[-5,20],[24,5],[1,39],[-36,61],[-27,15],[4,36],[-69,-3],[-110,36],[-47,54],[12,12],[-6,34],[-12,12],[-50,11],[8,21],[-59,30],[-145,35],[-2,32],[66,21],[39,37],[5,33],[-30,66],[-119,30],[-52,-19],[-33,3],[-77,35],[-76,7],[-180,99],[-80,70],[-19,35],[37,16],[-1,29],[-81,75],[-39,7],[-113,92],[-80,-17],[-33,18],[-100,-17],[-70,40],[3,23],[22,5],[13,53],[-41,24],[8,28],[-29,7],[-47,46],[11,68],[20,12],[-19,27],[19,18],[13,51],[-42,1],[-29,22],[-62,15],[25,12],[-1,63],[39,52],[-4,41],[-121,38],[-43,-8],[-18,5],[-20,23],[-57,5],[-60,32],[-6,13],[-54,-6],[-16,16],[17,22],[-23,25],[-79,-2],[-15,24],[-70,19],[-144,14],[-113,-48],[-225,55],[-53,-17],[-20,19],[-67,26],[40,42],[13,36],[46,18],[-117,57],[5,21],[-315,95],[-133,-6],[-68,22],[9,24],[80,19],[-77,33],[-144,-38],[1,-14],[-74,-58],[-38,-50],[-51,-17],[-6,-60],[-33,-33],[-88,-33],[-6,-29],[93,-25],[-50,-46],[-126,-24],[-4,-26],[-52,-11],[-18,-23],[-73,-41],[-16,-25],[39,-54],[89,-20],[13,-33],[-8,-35],[50,-60],[69,-25],[20,-90],[-23,-31],[-177,-42],[-1,-35],[-40,9],[-40,-23],[-60,-5],[4,-50],[-59,-26],[-39,4],[-50,-37],[-80,13],[-16,-9],[-18,16],[-84,-14],[-75,8],[9,-30],[-48,-32],[6,-18],[-33,-7],[-103,26],[-24,18],[-51,4],[-19,25],[-44,10],[-49,34],[-43,-12],[-48,21],[-52,-18],[-33,37],[-54,29],[-38,-15],[12,-42],[-25,-13],[0,-17],[-125,-41],[-36,-45],[-51,-6],[-52,40],[-35,68],[-1,49],[-30,42],[-51,49],[-28,4],[-28,-10],[7,-22],[-67,-25],[-16,-29],[-59,-16],[-25,9],[-31,-19],[-7,-32],[-30,-8],[3,-39],[-59,-32],[15,-22],[29,-4],[-89,-67],[-25,3],[17,-22],[-29,-6],[-37,27],[-51,9],[-39,21],[-37,-10],[-3,-31],[-16,-8],[6,-64],[-24,-15],[-61,34],[-88,7],[-49,54],[13,12],[-48,34],[13,39],[-57,55],[-129,6],[-15,39],[-60,63],[3,13],[-227,184],[-264,116],[29,96],[-13,44],[-23,34],[-91,34],[-3,45],[-46,43],[-455,19],[-218,86],[-74,-15],[0,-68],[-29,-57],[-79,-13],[-115,18],[-40,-40],[4,-83],[-84,-153],[56,-108],[-12,-81],[-29,-35],[5,-23],[-20,-26],[-88,-35],[-77,-48],[-361,68],[-30,24],[-124,28],[-31,26],[-127,-12],[-103,-30],[-23,14],[-88,12],[-8,17],[-102,54],[-426,101],[-45,18],[-55,77],[-38,8],[-73,-3],[-104,-20],[-36,5],[-48,-23],[-13,-54],[-110,-11],[-69,-22],[-27,17],[-37,2],[-36,30],[-148,-2],[-125,-47],[-22,-24],[-34,-5],[-43,-25],[-8,-49],[-56,-5],[-10,-18],[25,-46],[62,-21],[52,3],[-8,-24],[41,-73],[53,-19],[8,-43],[-94,-88],[-91,-4],[-54,-34],[-38,-8],[-47,13],[-35,-22],[-21,1],[-66,31],[-24,34],[-84,11],[-38,-18],[-57,8],[-50,28],[-45,6],[-77,77],[-71,-15],[-135,24],[-40,24],[-59,15],[-96,-59],[-70,-19],[-26,-22],[-90,15],[-41,-19],[-16,-25],[-22,5],[-32,-23],[-52,-3],[-13,-15],[-80,-8],[-35,14],[-90,7],[-17,13],[14,48],[-47,63],[-68,38],[-88,21],[-53,35],[-53,92],[6,15],[-65,26],[-65,1],[-149,59],[-79,35],[-135,96],[-148,42],[-67,-42],[-73,-1],[-21,-9],[-86,-71],[-69,-141],[-55,-30],[-40,-37],[-9,-27],[25,-55],[-12,-12],[-38,6],[-38,27],[-55,-20],[-43,-3],[-29,-31],[-22,-4],[7,-16],[-27,-23],[-46,-8],[-84,7],[-102,41],[-146,94],[-55,-14],[-75,-37],[-15,-21],[9,-32],[-15,-9],[-70,-11],[-35,12],[-24,-24],[-82,-38],[-81,-19],[-36,19],[-3,42],[-16,5],[18,13],[-38,50],[-105,18],[-27,19],[-6,33],[-28,30],[-35,16],[-41,-9],[-10,21],[27,24],[-40,15],[49,31],[-29,127],[16,40],[-20,12],[-85,-3],[-36,35],[74,45],[-49,32],[-17,41],[-47,-9],[-43,33],[-13,41],[-75,32],[-112,0],[-61,20],[-126,-38],[-27,-44],[-6,49],[-21,14],[-50,-1],[-31,-25],[0,18],[-28,22],[-3,18],[18,14],[-12,35],[-112,3],[-9,39],[-24,-7],[-95,36],[10,47],[-37,101],[-19,22],[-39,15],[-24,31],[-32,1],[-34,51],[-46,30],[-70,148],[-49,5],[-11,10],[9,16],[-28,112],[-85,14],[-117,-6],[-26,16],[-14,54],[-21,7],[12,36],[-47,218],[23,70],[-33,16],[-23,-4],[-7,-22],[-45,-8],[-47,6],[-24,-16],[-47,46],[-35,6],[-37,53],[2,30],[-15,3],[-27,-33],[-39,-10],[-66,26],[-33,30],[-126,-26],[-120,10],[-35,-49],[-89,-29],[-51,-39],[-26,-6],[-76,22],[-19,-4],[-36,-52],[-71,-3],[-38,4],[-141,49],[-72,1],[-66,24],[-63,-4],[-37,9],[-86,67],[-63,30],[-143,37],[-83,4],[-32,19],[-38,-2],[-72,16],[-126,42],[-62,-27],[-49,-4],[-9,30],[-89,42],[-146,31],[-17,-12],[-1,-23],[-125,-21],[-94,-56],[-9,-59],[-71,-31],[-124,-26],[-46,-27],[-45,-8],[-63,40],[-18,39],[-103,7],[-1,47],[-51,13],[-17,41],[-105,-29],[-15,12],[4,23],[-154,47],[8,19],[-16,25],[-89,1],[-40,-19],[-31,-80],[-36,-30],[-38,-24],[-73,-14],[-93,-54],[8,-58],[-40,-13],[-114,3],[-19,16],[-164,25],[-100,-41],[-46,-6],[-56,-64],[-72,-15],[-73,-79],[-91,-32],[-82,12],[-55,-29],[-43,21],[-73,-12],[-108,16],[-49,-14],[4,-33],[-37,-26],[-106,16],[-29,19],[-31,-2],[-19,-20],[-49,-21],[-36,21],[-53,-2],[-14,35],[-73,23],[-67,-6],[-53,22],[-43,-3],[-42,17],[-110,0],[-51,19],[-9,27],[-63,41],[-2,27],[-37,25],[-7,39],[-32,16],[-132,-8],[-127,42],[-49,-8],[-39,28],[-36,-3],[-68,33],[-39,-18],[-114,29],[-39,48],[-59,17],[-93,-31],[-38,16],[-40,42],[-3,39],[-31,26],[-113,35],[-43,71],[-50,9],[71,84],[-23,61],[-56,24],[-98,10],[-93,-20],[-62,3],[-60,44],[-30,3],[-50,-55],[-45,14],[-44,-5],[-83,19],[-94,-37],[-92,-5],[-68,23],[-171,-37],[-140,20],[-63,-2],[-189,-63],[-23,-27],[-89,3],[-98,-22],[-48,-31],[-31,-2],[-157,51],[-248,20],[-101,58],[-84,-3],[-71,16],[-58,45],[-88,32],[-142,23],[1,50],[74,46],[-13,28],[-60,6],[-132,-13],[-159,13],[-98,40],[-40,43],[-95,12],[-50,-40],[-5,-23],[-95,-31],[-36,5],[-99,-15],[-152,97],[-179,28],[-370,-19],[-151,-32],[-228,-69],[-278,-108],[-289,-90],[-69,-65],[-128,-8],[-223,-79],[-117,-15],[-93,6],[-97,-7],[-101,-63],[-178,-41],[-209,-23],[-450,52],[-136,53],[-239,-48],[-307,-27],[-117,13],[-417,-21],[-132,29],[-659,-73],[-98,-34],[-176,5],[-333,198],[-80,-12],[-61,-32],[-112,15],[-274,110],[-458,63],[-228,7],[-241,-9],[-304,-74],[-119,5],[-339,-22],[-283,15],[-281,46],[-515,7],[-166,-15],[-104,32],[-198,28],[-301,-35],[-103,-1],[-38,-39],[-59,-8],[-57,-34],[-73,-24],[-159,67],[-138,28]],[[6371,92523],[-193,12],[-190,40],[-167,70],[-134,92],[-81,94],[-50,120],[-1,106],[45,138],[73,96],[105,84],[139,76],[187,66],[237,40],[195,15],[228,0],[166,-24],[154,-46],[113,-54],[95,-65],[74,-75],[58,-100],[25,-88],[-3,-89],[-40,-104],[-60,-81],[-84,-72],[-101,-61],[-154,-68],[-308,-90],[-163,-25],[-165,-7]],[[49173,96451],[-211,10],[-356,50],[-228,63],[-109,54],[-109,77],[-188,226],[-244,-34],[-230,10],[-292,51],[-171,52],[-132,58],[-108,71],[-89,86],[-62,95],[-29,102],[8,103],[33,84],[68,97],[100,88],[154,82],[182,54],[199,22],[245,-10],[177,-35],[207,-57],[118,-44],[138,-76],[119,-104],[155,46],[140,21],[253,6],[158,-13],[144,-30],[169,-53],[297,-161],[139,-110],[95,-138],[65,-198],[-6,-102],[-31,-85],[-102,-124],[-88,-69],[-106,-60],[-222,-76],[-109,-20],[-141,-9]],[[8525,94518],[-197,17],[-208,57],[-171,88],[-126,112],[-72,129],[-15,134],[43,133],[85,108],[-113,45],[-100,57],[-216,185],[-44,66],[-33,87],[-5,90],[22,88],[90,132],[230,193],[154,76],[154,44],[185,134],[186,83],[161,37],[170,15],[166,-7],[158,-27],[199,16],[199,-17],[159,-40],[142,-60],[116,-78],[85,-91],[60,-112],[22,-132],[-2,-113],[-35,-113],[-113,-171],[-106,-98],[-152,-97],[-182,-74],[112,-136],[34,-86],[7,-71],[-11,-87],[-31,-86],[-127,-157],[-168,-117],[-272,-99],[-186,-42],[-254,-15]],[[42988,98726],[-201,16],[-187,48],[-160,77],[-123,100],[-75,116],[-24,124],[31,124],[81,115],[107,85],[111,58],[153,51],[167,28],[69,85],[102,79],[150,75],[152,51],[207,34],[207,7],[257,-33],[174,-52],[131,-64],[94,-65],[102,-102],[56,-96],[21,-102],[-11,-105],[-38,-86],[-88,-111],[-148,-108],[-213,-88],[-214,-44],[-253,-3],[-133,-94],[-142,-62],[-161,-41],[-201,-17]],[[19389,97553],[-326,33],[-257,1],[-297,29],[-291,-18],[-279,20],[-202,-1],[-531,84],[-375,108],[-220,45],[-187,83],[-94,68],[-70,78],[-150,292],[736,453],[538,154],[442,-18],[656,94],[312,-31],[580,-364],[1071,-343],[-60,-304],[-60,-97],[-92,-87],[-99,-62],[-340,-157],[-186,-44],[-219,-16]],[[23260,96241],[-249,24],[-223,73],[-172,111],[-107,137],[-139,298],[-14,71],[7,89],[34,86],[74,97],[107,83],[136,69],[458,40],[501,-118],[509,178],[1573,168],[545,13],[1116,131],[194,-35],[172,-66],[139,-89],[99,-107],[70,-134],[21,-113],[-13,-121],[-59,-101],[-138,-170],[-150,-104],[-52,-135],[-96,-107],[-160,-99],[-159,-68],[-138,-45],[-231,-43],[-189,-7],[-195,15],[-301,61],[-228,-22],[-586,29],[-196,-19],[-135,1],[-545,69],[-467,114],[-195,-77],[-140,-78],[-131,-50],[-155,-35],[-192,-14]],[[20076,94893],[-313,27],[-776,118],[-318,83],[-158,64],[-221,66],[-183,-39],[-209,-10],[-199,20],[-183,49],[-135,62],[-94,65],[-73,73],[-58,97],[-22,84],[5,102],[38,102],[60,80],[194,152],[178,84],[129,34],[237,40],[215,18],[138,-8],[133,-22],[236,-81],[161,31],[165,12],[136,-5],[247,-31],[372,-53],[642,-120],[154,-44],[303,-152],[93,-68],[59,-61],[51,-83],[30,-103],[-3,-87],[-28,-85],[-65,-95],[-72,-70],[-120,-86],[-130,-65],[-143,-47],[-129,-27],[-193,-19],[-151,-2]],[[84263,21633],[-16,-45],[-85,-102],[13,-48],[73,-82],[12,-70],[1882,-1345],[365,-577],[154,-224],[35,-30],[11,-49],[-554,-792],[23,-44],[17,-171],[724,-651],[50,-16],[85,-119],[36,-123],[703,-408],[18,10],[32,1],[16,-9],[86,-143],[-16,-43],[14,-142],[-8,-53],[-21,-15],[503,-235],[39,5],[156,-33],[30,-18],[42,-70],[-30,0],[-1,-48],[-32,-29],[213,-99],[231,21],[28,-19],[-9,-32],[-104,-46],[-3,-20],[161,-84],[21,-20],[27,-74],[37,-18],[170,-27],[56,-34],[12,-28],[-21,-51],[1009,-540],[61,-1],[84,-35],[893,-522],[52,-10],[43,-32],[5141,-686],[159,23],[31,-4],[7,-20],[-16,-30],[40,-34],[986,-1316],[1031,-285],[327,-245],[71,-220],[643,-920],[-9060,0],[0,786],[-10660,0],[-305,9],[-392,48],[-202,6],[-119,21],[-87,-43],[-208,-133],[-53,-78],[-114,-50],[-50,15],[-81,-32],[3,-45],[-69,-16],[12,-31],[-30,13],[-37,0],[-39,28],[-9,40],[-162,61],[-23,24],[-47,-18],[-52,3],[-71,-13],[-143,16],[-138,45],[-113,15],[-59,24],[-68,2],[-26,17],[-44,45],[0,44],[-27,17],[30,34],[-10,17],[61,20],[20,27],[-53,42],[-66,19],[0,8],[46,25],[48,1],[-37,16],[-57,2],[-49,28],[-26,42],[-28,17],[-46,92],[-63,22],[-96,-2],[-33,27],[29,78],[33,10],[89,61],[-44,47],[-15,55],[46,49],[-7,13],[-116,34],[-103,91],[-3,8],[-5,-1],[-192,-17],[-129,38],[-54,4],[-171,56],[-42,-38],[-34,10],[-13,24],[-118,51],[-123,-40],[-58,16],[-21,18],[-60,-13],[-107,10],[-46,-26],[-53,1],[-55,-21],[-137,-2],[-33,-18],[-94,-14],[-57,17],[-69,-14],[-204,22],[-219,284],[-210,-58],[-53,9],[-45,-14],[-76,-51],[-111,-25],[-90,-58],[-1,-25],[-173,-91],[-92,-22],[-70,-45],[-55,-2],[-49,-24],[-40,21],[1,27],[-54,22],[-33,-5],[-6,-19],[-81,2],[-3,-19],[-131,-13],[-90,-2],[-47,12],[-134,-15],[-91,39],[-51,-19],[-7,-25],[-51,-2],[-94,30],[-52,55],[34,26],[17,79],[-54,9],[0,22],[-39,35],[-29,15],[-30,-6],[-10,11],[-29,-4],[-28,-24],[31,-50],[-107,-17],[-23,-23],[-67,2],[14,-19],[-22,-11],[16,-28],[-11,-13],[28,-21],[-3,-13],[-45,-21],[-69,10],[-80,76],[-17,2],[-23,-26],[-64,-20],[-48,6],[-41,-13],[-96,43],[-18,11],[-7,0],[-19,-1],[-13,0],[-34,-16],[1,-1],[-1,0]],[[72108,12260],[-82,10],[-72,-4],[-13,24],[-5,23],[29,91],[-52,62],[-4,5],[-14,4],[-72,23],[-172,53],[-81,13],[-58,63],[1038,497],[133,-42],[108,27],[50,-6],[57,17],[3,20],[-24,28],[69,30],[2,14],[41,3],[-7,83],[-52,10],[-1,30],[-59,73],[-126,54],[29,56],[51,39],[-12,59],[50,57],[-32,22],[-11,26],[-60,30],[-12,16],[15,19],[-38,-2],[-40,20],[-36,-7],[-8,59],[46,34],[-43,20],[2,30],[-20,15],[-68,6],[-60,80],[-45,31],[-15,48],[48,38],[70,23],[9,13],[-6,39],[-23,14],[-18,37],[-133,40],[-57,36],[-24,-23],[-27,12],[-13,29],[-22,3],[-22,27],[-47,24],[-61,7],[-93,74],[-119,-31],[-40,4],[-26,18],[-36,-4],[-32,10],[-24,-37],[-33,-5],[-70,-61],[-27,-1],[-19,14],[-29,-10],[-86,7],[-75,-51],[-23,-3],[-62,-62],[-52,21],[-85,16],[-45,38],[-45,14],[-14,-2],[-37,8],[-32,13],[-11,13],[-15,49],[19,31],[38,24],[27,3],[-9,16],[37,18],[39,-4],[82,12],[12,29],[34,19],[31,39],[5,24],[-23,21],[11,36],[-35,35],[54,16],[13,39],[-21,25],[6,21],[46,15],[-22,19],[25,50],[-56,57],[21,18],[-15,11],[-31,-4],[-81,13],[-58,36],[-38,1],[-19,30],[-58,-11],[-38,-23],[-49,-44],[-1,-25],[-60,0],[-66,29],[-52,-29],[-74,83],[-17,7],[-35,-9],[-52,12],[-38,30],[-130,43],[-11,10],[-12,19],[-21,8],[-1,26],[22,7],[9,25],[-11,10],[10,49],[-17,13],[25,5],[40,44],[-5,40],[93,24],[-27,33],[22,21],[-40,18],[13,25],[-9,63],[-29,24],[18,23],[69,20],[-8,20],[-49,18],[-215,-5],[-40,17],[-32,31],[-137,17],[21,25],[-9,37],[37,41],[-25,10],[-5,9],[31,41],[-1,32],[81,30],[49,5],[22,17],[42,-2],[10,34],[-14,11],[35,20],[-40,24],[-2,35],[20,23],[29,-1],[4,39],[21,-5],[47,22],[4,16],[61,-17],[17,18],[34,5],[-7,13],[26,23],[-66,38],[30,17],[-19,15],[23,11],[-6,16],[74,-1],[24,11],[6,15],[-16,14],[34,45],[32,-4],[2,17],[46,9],[71,-23],[62,6],[29,19],[23,-6],[22,9],[4,23],[40,29],[-27,25],[-6,34],[24,21],[43,13],[-17,23],[44,22],[-84,58],[10,48],[-6,14],[4,52],[60,44],[-15,25],[8,17],[-64,62],[-15,49],[-58,35],[5,16],[-42,30],[10,32],[-26,38],[-57,17],[-61,45],[-47,4],[-55,-11],[-27,4],[-9,15],[8,30],[-19,15],[16,23],[-24,24],[16,28],[-16,0],[-15,27],[7,61],[-21,34],[18,85],[65,10],[21,30],[-7,32],[-41,39],[-138,69],[-14,20],[-30,9],[-16,27],[-60,-15],[14,-23],[-16,-13],[-60,18],[-41,46],[-67,6],[-78,30],[-63,-7],[-61,-30],[-58,15],[2,38],[-20,12],[-50,-12],[-44,17],[-43,-9],[-36,9],[-96,-15],[-92,47],[-81,-6],[16,48],[-15,23],[-108,7],[68,397],[1128,131],[-2,17],[-63,31],[6,38],[-100,100],[29,23],[8,28],[78,10],[14,11],[35,-3],[72,58],[28,2],[26,39],[-55,31],[74,61],[-32,35],[-39,4],[-50,31],[-37,0],[-3,16],[-35,22],[-40,0],[-23,17],[15,13],[-70,77],[212,-12],[-5,-47],[80,-36],[13,-19],[115,29],[57,-14],[20,7],[18,-90],[49,-14],[41,16],[31,-28],[10,12],[-31,31],[-2,27],[-36,8],[5,38],[58,10],[52,31],[95,-14],[47,25],[-18,48],[24,6],[8,29],[14,2],[152,897],[46,-15],[78,39],[34,0],[69,-28],[32,7],[46,-18],[47,2],[41,11],[100,58],[9,42],[-8,35],[-34,17],[-69,6],[-30,18],[-3,45],[-96,31],[-4,38],[-40,43],[31,75],[-56,35],[55,37],[-116,86],[1784,-110],[19,107]],[[72108,12260],[2,0],[4,-3],[16,-40],[1,-19],[7,-3],[147,-63],[-202,13],[-10,-64],[74,-86],[-38,-18],[4,-33],[-49,-14],[22,-40],[-16,-32],[-120,-66],[-43,-47],[-31,-7],[-48,10],[-43,-67],[-65,30],[-39,6],[47,-78],[-50,-33],[-8,-4],[-51,-5],[-1,-20],[-76,10],[-76,-11],[-38,5],[-68,-28],[95,-89],[-1,-32],[24,-16],[7,-28],[-3257,250],[-102,-1080],[-1582,107],[-100,-49],[-396,325],[-916,676],[75,84],[-342,147],[110,90],[-401,25],[120,682],[-1100,68],[-12,-16],[-421,26],[-41,-30],[-25,11],[-17,-21],[-35,-8],[17,-17],[-33,-21],[-9,-21],[12,-43],[-36,-19],[-43,7],[-49,-12],[-146,70],[-35,-20],[22,-8],[-4,-9],[-21,-8],[-45,5],[-33,-80],[49,-65],[-36,-5],[-3,-17],[22,-51],[57,-27],[22,-27],[54,2],[14,-12],[85,-18],[29,3],[9,16],[38,-10],[101,19],[5,-24],[31,-17],[-44,-43],[27,-30],[-13,-38],[37,-75],[74,-49],[39,-9],[6,-21],[82,-16],[11,-23],[37,-9],[48,-33],[-14,-5],[-44,-134],[36,-24],[-5,-219],[56,-73],[-115,6],[-91,-83],[36,-29],[-10,-22],[157,-10],[-25,-148],[-53,3],[-84,-50],[-25,-50],[-219,-165],[-10,-67],[-123,-71],[-122,-115],[2,-71],[-26,-1],[0,-12],[-48,-3],[-22,-30],[-24,-4],[-31,50],[43,34],[2,37],[-40,45],[-30,1],[7,14],[-28,12],[-49,-2],[-72,18],[-28,-15],[-30,0],[-126,-60],[-48,-5],[-49,-23],[-43,-3],[-49,16],[-51,-14],[-81,65],[-98,-6],[-31,9],[-35,50],[-105,7],[-74,-9],[-81,31],[-11,18],[-62,4],[-17,64],[24,-8],[17,31],[-49,34],[12,52],[-37,24],[18,93],[-70,47],[-996,59],[18,79],[-15,46],[-69,15],[-21,17],[7,30],[-71,113],[7,27],[-48,25],[-80,-34],[1,-49],[21,-30],[-24,-37],[-34,-6],[-42,28],[-16,-3],[-30,77],[-30,3],[-22,-22],[28,-45],[-7,-23],[-21,-45],[-63,-55],[-5,-24],[33,-31],[27,-5],[5,-25],[-446,27],[8,-51],[-36,-93],[63,-58],[-694,45],[33,194],[-662,40],[71,384],[-58,117],[107,302],[106,75],[54,287],[-85,0],[-92,-21],[-135,28],[-184,-2],[-80,-26],[-54,38],[-38,2],[-171,79],[-297,11],[-92,-8],[-44,13],[-164,10],[-291,367],[-960,61],[-24,-1060],[-245,-1369],[-126,-546],[1703,-112],[348,-215],[-688,-390],[79,-46],[-45,-47],[19,-88],[88,-30],[70,-2],[13,-22],[23,-9],[113,0],[183,-115],[140,64],[34,9],[46,-2],[158,-105],[1,-13],[-30,-19],[1,-18],[15,-12],[65,-13],[13,-47],[-32,-25],[-1,-17],[45,-26],[-5,-37],[18,-11],[-955,-457],[680,-499],[-1043,-474],[-210,-138],[-144,-566],[20,-75],[6,-11],[235,-111],[895,-1236],[304,-134],[151,47],[92,13],[202,-9],[115,-29],[-913,-422],[-318,225],[-1823,-1015],[-110,-83],[-53,-83],[-24,-140],[-296,18],[-106,-614],[-1718,125],[-104,-726],[-299,63],[-959,99],[-271,6],[-270,58],[-104,-731],[-640,39],[-104,-652],[-177,-76],[-69,-14],[-94,1],[-173,-66],[-102,-25],[-107,-81],[-138,-136],[-112,-69],[-77,-26],[-214,81],[-88,60],[-402,88],[-80,56],[-37,113],[-232,84],[-150,17],[-117,2],[-230,-60],[-105,1],[-67,-41],[-138,-33],[-222,13],[-363,57],[-92,14],[-40,6],[-15,-5],[-26,-9],[-9,-3],[-124,-110],[-240,-135],[-222,-161],[-157,-60],[-415,-15],[-139,23],[-176,9],[-125,-23],[-142,-50],[-196,-33],[-1110,-59],[-414,62],[-416,122],[-322,111],[-629,149],[-288,43],[-498,-110],[-73,-1],[-466,126],[-419,225],[-206,279],[-225,217],[-111,54],[-52,44],[-220,106],[-238,86],[-213,44],[-329,-77],[-92,-37],[52,-72],[31,-130],[-57,-100],[-121,-79],[-175,-62],[-356,-85],[-68,-47],[-57,-16],[-66,-88],[-97,-26],[-53,-69],[-148,7],[-95,21],[-32,-19],[-131,-19],[-58,26],[-156,-55],[-74,-47],[-44,1],[-17,-14],[5,-190],[-170,-149],[-155,-13],[-78,11],[-247,79],[-79,6],[-64,-18],[-41,-37],[-38,-67],[-56,-42],[-240,-69],[-98,-45],[-74,-59],[-112,-159],[-134,-126],[-16,-137],[-20,-28],[-114,-66],[-71,-21],[-43,4],[-31,17],[-93,91],[-70,29],[-39,-3],[-106,-76],[-9829,512],[24,146],[111,682],[-264,10],[192,1352],[-3151,140],[-21,-131],[-317,18],[398,2581],[-709,37],[-24,-234],[-1754,108],[-21,-127],[-1145,70],[260,1602],[-719,24],[-36,-225],[-2806,141],[-156,-1048],[-2424,108],[-135,-1071],[-52,-8],[-26,10],[-57,-15],[-106,5],[-108,71],[-69,11],[-84,46],[-204,0],[-67,26],[-32,34],[-73,19],[-94,78],[-9,23],[-49,8],[-38,25],[-84,-7],[-112,16],[-147,-34],[-69,7],[-40,-12],[-53,24],[-184,-6],[-99,29],[-57,-9],[-41,9],[-29,27],[-33,-1],[-31,17],[-49,-4],[-1,17],[-37,5],[-2,25],[-47,17],[-14,-10],[-26,20],[22,21],[-1,19],[-60,6],[-22,25],[23,28],[-22,35],[29,24],[-2,16],[-58,40],[-7,62],[170,-11],[244,1390],[483,-24],[361,2414],[-1054,56],[-3912,247],[90,528],[-833,47],[-141,50],[-29,24],[-76,11],[35,38],[26,8],[-17,41],[8,66],[-30,19],[-10,49],[-51,6],[-23,20],[-38,69],[22,25],[-5,47],[-31,5],[-6,11],[14,19],[27,6],[49,0],[1,-16],[20,-2],[33,42],[-24,28],[0,37],[-20,6],[-23,33],[-31,9],[-24,26],[-62,21],[2,49],[-42,105],[11,67],[-39,40],[40,17],[-17,45],[18,25],[-22,8],[-2,30],[47,25],[36,4],[3,20],[111,6],[19,29],[5,34],[-53,29],[-44,45],[23,10],[-25,38],[88,42],[-28,48],[-45,27],[41,39],[-24,16],[1,19],[91,37],[-3,52],[60,23],[-52,98],[19,74],[-8,18],[-20,11],[-127,13],[-46,34],[-92,38],[-34,0],[-6,14],[50,75],[-21,27],[20,65],[-35,67],[-102,23],[-33,18],[-78,85],[-20,85],[-66,33],[-111,12],[-33,21],[11,16],[-47,61],[-2,30],[-119,38],[-28,27],[-33,72],[-44,12],[-49,-6],[-30,32],[-50,8],[-11,17],[-39,-4],[2,47],[-46,22],[26,26],[-20,29],[-48,19],[40,56],[-31,59],[44,13],[-39,35],[22,28],[-115,59],[12,28],[-34,25],[35,35],[-37,42],[10,36],[-12,56],[-17,15],[-56,12],[-23,63],[-51,21],[-108,-10],[-54,55],[-21,47],[28,41],[-4,47],[-57,34],[-11,32],[17,15],[-33,19],[-2,25],[-52,32],[1,34],[-92,40],[-78,18],[-32,32],[-80,-8],[-79,81],[-153,29],[-35,-10],[-8,-15],[-87,40],[-26,23],[13,86],[94,127],[-28,51],[13,35],[-56,72],[-8,43],[-61,68],[-5,32],[22,18],[-28,31],[-1,37],[34,27],[25,47],[40,25],[-2,19],[96,22],[685,-28],[119,923],[1270,-73],[-31,-222],[1718,-98],[76,501],[-78,-1],[-47,-19],[-55,-5],[73,677],[1105,-39],[32,269],[-2480,108],[188,1530],[173,32],[26,-3],[37,-43],[96,-60],[184,12],[124,-16],[3,-90],[42,-10],[187,32],[59,-6],[70,13],[76,-4],[82,-13],[79,-35],[34,-38],[49,-23],[140,17],[297,116],[80,655],[-909,30],[60,646],[370,-18],[237,1566],[2278,-137],[56,358],[2307,-118],[-47,-345],[1682,-122],[-778,566],[1702,864],[1734,-1324],[689,348],[1826,-1244],[1354,702],[2,43],[-74,63],[-60,88],[-100,51],[-16,28],[-101,47],[-93,4],[-136,54],[-63,58],[-124,35],[-171,-5],[-191,18],[-137,24],[-140,52],[2507,1378],[924,-651],[2106,1694],[-85,-12],[-199,15],[-35,34],[-101,11],[-70,78],[-46,16],[-47,40],[-45,15],[-60,44],[-91,23],[-34,17],[-16,33],[-123,31],[-142,78],[-26,43],[-45,13],[-32,23],[10,38],[-52,21],[-44,73],[-70,23],[-93,8],[-76,36],[-65,3],[-30,25],[-78,21],[-19,35],[-92,46],[1312,1086],[585,3903],[749,3464],[622,549],[935,-384],[655,577],[1,23],[-339,217],[-136,67]]],"transform":{"scale":[0.00006603820000000013,0.00010608406084060839],"translate":[140.99558,-19.69645]},"objects":{"qld_far_north_ddmg_boundaries_gda2020_simp20":{"type":"GeometryCollection","geometries":[{"arcs":[[[0,1,2]],[[3]],[[4]],[[5]],[[6]],[[7]],[[8]],[[9]]],"type":"MultiPolygon","properties":{"District Name":"Cairns","DDMG Name":"Cairns","Police Region Name":"Far Northern Region","Police Region Code":"FNR","Police Region Short Name":"Far North"}},{"arcs":[[-2,10,11]],"type":"Polygon","properties":{"District Name":"Innisfail","DDMG Name":"Innisfail","Police Region Name":"Far Northern Region","Police Region Code":"FNR","Police Region Short Name":"Far North"}},{"arcs":[[-3,-12,12]],"type":"Polygon","properties":{"District Name":"Mareeba","DDMG Name":"Mareeba","Police Region Name":"Far Northern Region","Police Region Code":"FNR","Police Region Short Name":"Far North"}}]}}}