{"type":"FeatureCollection","name":"qld_north_coast_ddmg_boundaries_gda2020_simp200m","crs":{"type":"name","properties":{"name":"urn:ogc:def:crs:EPSG::7844"}},"features":[{"type":"Feature","geometry":{"type":"MultiPolygon","coordinates":[[[[153.26482,-24.70028],[153.26248,-24.69774],[153.25306,-24.697],[153.24961,-24.69767],[153.24686,-24.69948],[153.25108,-24.69757],[153.25722,-24.69793],[153.26482,-24.70028]]],[[[153.18891,-24.73335],[153.20787,-24.71929],[153.21542,-24.71459],[153.22836,-24.70795],[153.21212,-24.71594],[153.18891,-24.73335]]],[[[153.13023,-24.7951],[153.14003,-24.7861],[153.15207,-24.77426],[153.15718,-24.76852],[153.15942,-24.76553],[153.1567,-24.76899],[153.13907,-24.78677],[153.13023,-24.7951]]],[[[153.12068,-24.80906],[153.12736,-24.79847],[153.12358,-24.80285],[153.12068,-24.80906]]],[[[153.18681,-24.85134],[153.18311,-24.84634],[153.1782,-24.84064],[153.17354,-24.83597],[153.16986,-24.83262],[153.16402,-24.8279],[153.17671,-24.83918],[153.18062,-24.84347],[153.18681,-24.85134]]],[[[153.16495,-25.0785],[153.17763,-25.06165],[153.20032,-25.03245],[153.21409,-25.01028],[153.21251,-25.01157],[153.19722,-25.03597],[153.17971,-25.05834],[153.16495,-25.0785]]],[[[153.11228,-25.12566],[153.12903,-25.11346],[153.13705,-25.1052],[153.14421,-25.09924],[153.16289,-25.08102],[153.14386,-25.09912],[153.13105,-25.10998],[153.12921,-25.1128],[153.11394,-25.1238],[153.11228,-25.12566]]],[[[153.02405,-25.18195],[153.03134,-25.17685],[153.05169,-25.16828],[153.06278,-25.16267],[153.08195,-25.14972],[153.09423,-25.13967],[153.11203,-25.12593],[153.10184,-25.13291],[153.0858,-25.146],[153.07038,-25.15725],[153.05968,-25.16377],[153.04588,-25.17045],[153.03072,-25.17552],[153.02405,-25.18195]]],[[[151.99775,-25.77101],[151.99649,-25.75084],[151.99765,-25.74668],[151.99531,-25.73713],[151.98023,-25.7334],[151.98235,-25.729],[151.9821,-25.71531],[151.98829,-25.71469],[151.99667,-25.71149],[152.00305,-25.71779],[152.00984,-25.71369],[152.01408,-25.7087],[152.0164,-25.68978],[152.01529,-25.68603],[152.01757,-25.68023],[152.01098,-25.67399],[152.01252,-25.66507],[152.01873,-25.65726],[152.02707,-25.65042],[152.02986,-25.64215],[152.03827,-25.64264],[152.0415,-25.61956],[152.04592,-25.61305],[152.05274,-25.61593],[152.05591,-25.62755],[152.06466,-25.62148],[152.07618,-25.62538],[152.08279,-25.63274],[152.09075,-25.63644],[152.09265,-25.63239],[152.10426,-25.62902],[152.10875,-25.62599],[152.11206,-25.62681],[152.11542,-25.62315],[152.11592,-25.61539],[152.1122,-25.61097],[152.10998,-25.60351],[152.11151,-25.59844],[152.12424,-25.59586],[152.12505,-25.59219],[152.13009,-25.59104],[152.12961,-25.58761],[152.13982,-25.58702],[152.14593,-25.5843],[152.1543,-25.58307],[152.16465,-25.57434],[152.16309,-25.55968],[152.16579,-25.54728],[152.16886,-25.54194],[152.17566,-25.53568],[152.17936,-25.52914],[152.17945,-25.52302],[152.19362,-25.51915],[152.20121,-25.51967],[152.20704,-25.51862],[152.20999,-25.52096],[152.21573,-25.52007],[152.21498,-25.51296],[152.22727,-25.51453],[152.23026,-25.5193],[152.23321,-25.51502],[152.23934,-25.51521],[152.25232,-25.52134],[152.26349,-25.52162],[152.26898,-25.52267],[152.2693,-25.51537],[152.27206,-25.51265],[152.27268,-25.50632],[152.26859,-25.5035],[152.27071,-25.48984],[152.27444,-25.4877],[152.2734,-25.48312],[152.26847,-25.48173],[152.26195,-25.47647],[152.26361,-25.47036],[152.26017,-25.46186],[152.26205,-25.459],[152.27252,-25.43222],[152.29862,-25.41022],[152.29909,-25.40813],[152.30799,-25.40641],[152.32,-25.40748],[152.32397,-25.40162],[152.32696,-25.40165],[152.3357,-25.39219],[152.33411,-25.38936],[152.33671,-25.38592],[152.33456,-25.38254],[152.347,-25.37508],[152.35451,-25.3661],[152.35901,-25.36647],[152.36439,-25.36348],[152.37303,-25.36297],[152.37236,-25.35301],[152.38468,-25.35619],[152.40615,-25.33453],[152.40949,-25.31269],[152.41577,-25.29006],[152.44101,-25.24857],[152.44899,-25.23341],[152.45065,-25.22831],[152.45926,-25.22382],[152.46879,-25.21507],[152.47383,-25.21678],[152.48336,-25.21694],[152.49402,-25.20972],[152.50105,-25.21084],[152.5039,-25.20891],[152.51006,-25.20924],[152.51217,-25.21294],[152.51197,-25.21878],[152.51699,-25.22131],[152.52464,-25.21487],[152.52552,-25.21078],[152.53349,-25.2127],[152.54716,-25.20676],[152.54802,-25.20488],[152.54504,-25.19868],[152.54039,-25.19337],[152.54282,-25.18535],[152.54954,-25.179],[152.55383,-25.17657],[152.55545,-25.17167],[152.55864,-25.17235],[152.56672,-25.16814],[152.57796,-25.16688],[152.58836,-25.17146],[152.6009,-25.16959],[152.60946,-25.17341],[152.6151,-25.17366],[152.62402,-25.17009],[152.63304,-25.1546],[152.63303,-25.15178],[152.62605,-25.14689],[152.6153,-25.14088],[152.60335,-25.1357],[152.58606,-25.12587],[152.57144,-25.11373],[152.56061,-25.10177],[152.55375,-25.09065],[152.55036,-25.08042],[152.54683,-25.07444],[152.53538,-25.08051],[152.54017,-25.07086],[152.54732,-25.06771],[152.54057,-25.06067],[152.52746,-25.04147],[152.51434,-25.02306],[152.49958,-24.9981],[152.49166,-24.98066],[152.49009,-24.97276],[152.48652,-24.96668],[152.48877,-24.9655],[152.48706,-24.9582],[152.48571,-24.9458],[152.48735,-24.93356],[152.48678,-24.93045],[152.49424,-24.91536],[152.49217,-24.91165],[152.49046,-24.899],[152.48775,-24.89229],[152.48829,-24.88251],[152.48321,-24.87115],[152.48346,-24.85842],[152.48107,-24.85179],[152.47743,-24.84646],[152.47881,-24.84032],[152.47374,-24.837],[152.46662,-24.82614],[152.46659,-24.81957],[152.4684,-24.81725],[152.46326,-24.81304],[152.45589,-24.80263],[152.4443,-24.79921],[152.43977,-24.79344],[152.43732,-24.78751],[152.42961,-24.77986],[152.42291,-24.7767],[152.41871,-24.77127],[152.41791,-24.76711],[152.41328,-24.75801],[152.40789,-24.75697],[152.39818,-24.75768],[152.3897,-24.75974],[152.38399,-24.76332],[152.38146,-24.77071],[152.38275,-24.77458],[152.38681,-24.77792],[152.38622,-24.78571],[152.38169,-24.79591],[152.38126,-24.78142],[152.378,-24.77107],[152.37916,-24.76525],[152.38308,-24.75768],[152.39065,-24.75167],[152.39672,-24.75063],[152.39557,-24.74692],[152.37737,-24.73113],[152.36636,-24.73054],[152.36349,-24.73224],[152.36504,-24.73668],[152.35323,-24.741],[152.34553,-24.73968],[152.3417,-24.73734],[152.31925,-24.73143],[152.29927,-24.72465],[152.28004,-24.71538],[152.26501,-24.70609],[152.24989,-24.69505],[152.242,-24.68754],[152.22884,-24.67271],[152.21467,-24.66365],[152.20626,-24.65721],[152.19987,-24.65364],[152.19133,-24.6531],[152.18626,-24.65148],[152.16695,-24.6404],[152.15446,-24.63172],[152.1416,-24.62016],[152.13633,-24.61437],[152.11933,-24.59354],[152.11101,-24.58402],[152.1083,-24.58285],[152.09826,-24.57326],[152.09079,-24.56418],[152.07623,-24.54271],[152.06615,-24.52356],[152.06001,-24.51822],[152.05685,-24.5214],[152.04611,-24.52675],[152.03156,-24.52998],[152.02502,-24.52631],[152.01683,-24.51591],[152.01071,-24.51375],[151.9987,-24.51558],[151.99315,-24.5218],[151.99054,-24.52727],[151.99657,-24.53463],[151.99531,-24.53636],[151.98659,-24.53628],[151.98911,-24.54025],[151.9871,-24.54934],[151.98405,-24.55358],[151.97681,-24.55699],[151.97424,-24.56351],[151.96912,-24.56874],[151.97014,-24.57468],[151.96884,-24.58009],[151.96321,-24.5856],[151.95926,-24.58763],[151.9887,-24.5913],[151.9857,-24.61133],[151.96005,-24.60844],[151.96135,-24.61664],[151.96582,-24.62472],[151.96454,-24.63294],[151.96054,-24.63092],[151.95911,-24.64016],[151.9626,-24.64185],[151.97135,-24.64066],[151.98376,-24.6446],[151.98785,-24.64349],[151.99615,-24.64425],[151.99538,-24.64931],[151.9875,-24.64829],[151.98638,-24.65548],[151.99426,-24.6565],[151.99083,-24.68087],[151.97788,-24.67865],[151.9606,-24.67648],[151.95977,-24.68932],[151.9625,-24.70096],[151.96107,-24.70333],[151.95346,-24.702],[151.94239,-24.70763],[151.93193,-24.70801],[151.92791,-24.71176],[151.92319,-24.71887],[151.9194,-24.72842],[151.91911,-24.73263],[151.92323,-24.73866],[151.91247,-24.74038],[151.90739,-24.74246],[151.89698,-24.74425],[151.89258,-24.74255],[151.8903,-24.74605],[151.89392,-24.75375],[151.88821,-24.75842],[151.88419,-24.76873],[151.87538,-24.77616],[151.86689,-24.77765],[151.86524,-24.78399],[151.86103,-24.78658],[151.8492,-24.78652],[151.8461,-24.79076],[151.83967,-24.79009],[151.84187,-24.78193],[151.83846,-24.77662],[151.83138,-24.7733],[151.82536,-24.7686],[151.8143,-24.76607],[151.81147,-24.75921],[151.80607,-24.75577],[151.80395,-24.7499],[151.79846,-24.74461],[151.78784,-24.74052],[151.75079,-24.73584],[151.74514,-24.76982],[151.74328,-24.76572],[151.72834,-24.75541],[151.72209,-24.74508],[151.72065,-24.73621],[151.71198,-24.73041],[151.70944,-24.7262],[151.70232,-24.71918],[151.69865,-24.71361],[151.68775,-24.71058],[151.68443,-24.70774],[151.68248,-24.70151],[151.67709,-24.69539],[151.67157,-24.69797],[151.66844,-24.70295],[151.66077,-24.70732],[151.65391,-24.70707],[151.6449,-24.71455],[151.65227,-24.71774],[151.6525,-24.72309],[151.64504,-24.72928],[151.63902,-24.73039],[151.63452,-24.72513],[151.62661,-24.72212],[151.61716,-24.7108],[151.61141,-24.70885],[151.60125,-24.70176],[151.59331,-24.69991],[151.58015,-24.7043],[151.57618,-24.70196],[151.56923,-24.71018],[151.56533,-24.71048],[151.56165,-24.70411],[151.55267,-24.69829],[151.54359,-24.70058],[151.533,-24.6957],[151.53119,-24.69624],[151.5252,-24.68847],[151.5241,-24.68446],[151.52057,-24.68128],[151.51973,-24.67588],[151.51457,-24.66976],[151.51841,-24.66444],[151.52439,-24.66579],[151.52774,-24.6612],[151.53244,-24.66044],[151.53852,-24.64805],[151.54161,-24.6456],[151.53834,-24.64079],[151.54215,-24.62826],[151.54032,-24.62411],[151.5423,-24.61744],[151.53704,-24.61407],[151.53372,-24.60743],[151.52381,-24.59987],[151.51173,-24.59805],[151.50484,-24.59357],[151.50919,-24.58634],[151.50824,-24.58165],[151.50496,-24.57823],[151.49707,-24.57486],[151.49823,-24.57117],[151.49026,-24.56588],[151.48831,-24.55745],[151.48511,-24.55223],[151.48906,-24.548],[151.48671,-24.54112],[151.47755,-24.53598],[151.47061,-24.53658],[151.46669,-24.53936],[151.46852,-24.54331],[151.46368,-24.55999],[151.45847,-24.56588],[151.45699,-24.57058],[151.45276,-24.57044],[151.43879,-24.56295],[151.43345,-24.56346],[151.43564,-24.57107],[151.44234,-24.57688],[151.43316,-24.59158],[151.42448,-24.59579],[151.41571,-24.59504],[151.41068,-24.5966],[151.40976,-24.6071],[151.40685,-24.61538],[151.39795,-24.61713],[151.39095,-24.61468],[151.38463,-24.60833],[151.38143,-24.61218],[151.37596,-24.61293],[151.37399,-24.60975],[151.36704,-24.61217],[151.3613,-24.62346],[151.35846,-24.62522],[151.35784,-24.63059],[151.35138,-24.63536],[151.3418,-24.64931],[151.33607,-24.64539],[151.32697,-24.64548],[151.32279,-24.6442],[151.31766,-24.6481],[151.31534,-24.64724],[151.3093,-24.65244],[151.31031,-24.65655],[151.30691,-24.65789],[151.30653,-24.66654],[151.30229,-24.66827],[151.29731,-24.66768],[151.29176,-24.65754],[151.28347,-24.65507],[151.27475,-24.6538],[151.27213,-24.65617],[151.26695,-24.6538],[151.26415,-24.65992],[151.25567,-24.66246],[151.25364,-24.66598],[151.24745,-24.65652],[151.23736,-24.65327],[151.23026,-24.64302],[151.23024,-24.63899],[151.2243,-24.63862],[151.22014,-24.63385],[151.20698,-24.63769],[151.20645,-24.64031],[151.19924,-24.64393],[151.19474,-24.64253],[151.19373,-24.63492],[151.19832,-24.6298],[151.20444,-24.62785],[151.20773,-24.62459],[151.21604,-24.62452],[151.22353,-24.62774],[151.23019,-24.62791],[151.21867,-24.58608],[151.22066,-24.57955],[151.21847,-24.57548],[151.22358,-24.57173],[151.2259,-24.56699],[151.22438,-24.56417],[151.22838,-24.53723],[151.22797,-24.5327],[151.22135,-24.52958],[151.20917,-24.53273],[151.20207,-24.53127],[151.19952,-24.53981],[151.18374,-24.54206],[151.17353,-24.54544],[151.16896,-24.54971],[151.16214,-24.55026],[151.15748,-24.547],[151.15684,-24.54125],[151.15291,-24.53773],[151.15427,-24.53213],[151.15227,-24.52693],[151.15588,-24.52168],[151.15406,-24.51274],[151.15544,-24.50758],[151.16144,-24.49886],[151.16162,-24.49326],[151.1643,-24.48676],[151.16886,-24.48454],[151.16916,-24.47903],[151.1542,-24.46545],[151.15338,-24.46061],[151.14364,-24.45906],[151.13787,-24.45562],[151.13414,-24.46376],[151.12248,-24.46834],[151.11814,-24.46706],[151.11487,-24.47461],[151.10698,-24.47022],[151.10609,-24.46249],[151.09977,-24.45845],[151.09806,-24.45028],[151.08987,-24.441],[151.07198,-24.43791],[151.06971,-24.43257],[151.061,-24.42614],[151.05745,-24.42755],[151.05486,-24.42023],[151.05243,-24.42017],[151.04532,-24.41286],[151.04512,-24.40485],[151.04782,-24.40178],[151.04442,-24.39431],[151.0296,-24.39214],[151.02832,-24.3941],[151.02176,-24.39378],[151.01684,-24.39698],[151.00502,-24.39455],[151.00065,-24.3989],[150.99945,-24.40599],[150.99312,-24.40964],[150.99193,-24.41651],[150.99418,-24.42421],[150.99321,-24.4427],[150.9881,-24.44693],[150.98873,-24.45618],[150.9863,-24.46326],[150.9856,-24.4698],[150.98286,-24.47214],[150.9829,-24.47868],[150.97952,-24.48304],[150.97954,-24.49139],[150.97431,-24.49539],[150.97072,-24.49592],[150.96896,-24.50402],[150.96376,-24.50846],[150.96379,-24.51465],[150.96597,-24.52063],[150.96788,-24.53342],[150.97271,-24.53675],[150.98143,-24.54918],[150.97472,-24.54894],[150.96983,-24.55229],[150.96905,-24.56113],[150.96981,-24.56966],[150.97278,-24.57635],[150.96904,-24.57858],[150.944,-24.56974],[150.93222,-24.5672],[150.88075,-24.552],[150.87911,-24.55661],[150.8712,-24.55557],[150.86744,-24.55987],[150.85569,-24.5583],[150.85269,-24.55159],[150.84915,-24.55116],[150.84834,-24.55691],[150.84475,-24.56196],[150.83783,-24.558],[150.82993,-24.56001],[150.82609,-24.55549],[150.81878,-24.60347],[150.82297,-24.60465],[150.83871,-24.61811],[150.84905,-24.61993],[150.85561,-24.62282],[150.85749,-24.62556],[150.86761,-24.63102],[150.88276,-24.62516],[150.88973,-24.63181],[150.89764,-24.63052],[150.89822,-24.63686],[150.90079,-24.64235],[150.91113,-24.6504],[150.90764,-24.65329],[150.90196,-24.66161],[150.8942,-24.6688],[150.89031,-24.6759],[150.8843,-24.67741],[150.88158,-24.68805],[150.87802,-24.68915],[150.8749,-24.69626],[150.87903,-24.70071],[150.87637,-24.71596],[150.873,-24.72179],[150.86517,-24.72439],[150.85844,-24.72253],[150.8546,-24.7238],[150.82869,-24.71803],[150.79059,-24.71193],[150.78166,-24.71565],[150.77609,-24.71545],[150.76688,-24.70744],[150.75973,-24.70379],[150.74682,-24.70244],[150.73689,-24.69828],[150.73108,-24.69791],[150.7247,-24.70156],[150.70914,-24.70369],[150.69945,-24.70213],[150.68945,-24.70245],[150.67975,-24.69901],[150.66681,-24.70374],[150.66314,-24.70275],[150.65572,-24.69325],[150.64184,-24.69592],[150.63833,-24.70015],[150.63691,-24.70935],[150.62212,-24.70921],[150.61137,-24.71162],[150.58701,-24.73055],[150.58653,-24.73146],[150.60183,-24.78963],[150.60598,-24.79851],[150.6035,-24.80109],[150.59819,-24.83568],[150.59472,-24.83826],[150.59178,-24.84527],[150.58086,-24.84738],[150.55862,-24.8996],[150.55658,-24.91466],[150.55823,-24.92352],[150.54241,-24.95892],[150.53959,-24.96068],[150.54635,-24.97736],[150.55326,-24.98623],[150.54829,-25.00576],[150.54789,-25.01569],[150.54919,-25.02095],[150.54971,-25.04481],[150.54832,-25.0514],[150.54862,-25.05992],[150.55424,-25.07256],[150.55578,-25.0795],[150.55811,-25.08332],[150.55648,-25.09408],[150.55909,-25.09717],[150.56599,-25.10123],[150.57881,-25.11241],[150.57012,-25.11533],[150.56533,-25.12391],[150.56062,-25.12696],[150.55663,-25.13377],[150.55904,-25.14192],[150.56203,-25.14556],[150.56196,-25.15204],[150.55759,-25.156],[150.55748,-25.16162],[150.55139,-25.16472],[150.53104,-25.16485],[150.51853,-25.17049],[150.50824,-25.17356],[150.49806,-25.18657],[150.50226,-25.19264],[150.48641,-25.19496],[150.47781,-25.19076],[150.47136,-25.1905],[150.47217,-25.19582],[150.47006,-25.19877],[150.47206,-25.2026],[150.47641,-25.22161],[150.47455,-25.23279],[150.47152,-25.23425],[150.46466,-25.24182],[150.46506,-25.24806],[150.46167,-25.25678],[150.45433,-25.2575],[150.45221,-25.26357],[150.45856,-25.27799],[150.45431,-25.28101],[150.44356,-25.28189],[150.44222,-25.2885],[150.44638,-25.29242],[150.44613,-25.29841],[150.44846,-25.30304],[150.44177,-25.31663],[150.4426,-25.32059],[150.43752,-25.32541],[150.42664,-25.32396],[150.41653,-25.33082],[150.41846,-25.33597],[150.41795,-25.34697],[150.4194,-25.34973],[150.41547,-25.35642],[150.40648,-25.36204],[150.40731,-25.36522],[150.41794,-25.36991],[150.41398,-25.37211],[150.41183,-25.37682],[150.40692,-25.37852],[150.39552,-25.39041],[150.40445,-25.39762],[150.39911,-25.40277],[150.40189,-25.41396],[150.39366,-25.4162],[150.39086,-25.41879],[150.39965,-25.42799],[150.40477,-25.43138],[150.39784,-25.44733],[150.3756,-25.46134],[150.37473,-25.47183],[150.36913,-25.47623],[150.37009,-25.48068],[150.37599,-25.48277],[150.37463,-25.48937],[150.37672,-25.49044],[150.3854,-25.48796],[150.38775,-25.4948],[150.38531,-25.5021],[150.38915,-25.50312],[150.39771,-25.50058],[150.40166,-25.50336],[150.40274,-25.50772],[150.39181,-25.52001],[150.39425,-25.5268],[150.39212,-25.5315],[150.4043,-25.53719],[150.40259,-25.54148],[150.40326,-25.55176],[150.41016,-25.56139],[150.41248,-25.56757],[150.40799,-25.58023],[150.40383,-25.58372],[150.40101,-25.59361],[150.40205,-25.59862],[150.40701,-25.59641],[150.41421,-25.59712],[150.41521,-25.60129],[150.42649,-25.60275],[150.43705,-25.60643],[150.44096,-25.60155],[150.44615,-25.5989],[150.48203,-25.60537],[150.48399,-25.60622],[150.49553,-25.62838],[150.50381,-25.63598],[150.51717,-25.64071],[150.52419,-25.64537],[150.53775,-25.64174],[150.54584,-25.64035],[150.55297,-25.64159],[150.56124,-25.63937],[150.57029,-25.63819],[150.58533,-25.64346],[150.59124,-25.65268],[150.612,-25.65434],[150.65417,-25.65977],[150.6556,-25.67202],[150.65884,-25.67868],[150.66381,-25.68116],[150.66357,-25.68426],[150.65654,-25.69222],[150.65629,-25.69744],[150.65181,-25.69868],[150.64651,-25.70522],[150.64316,-25.71565],[150.64961,-25.72618],[150.66428,-25.73273],[150.6629,-25.74491],[150.66367,-25.75764],[150.66646,-25.76374],[150.65983,-25.77333],[150.65022,-25.77424],[150.64645,-25.77875],[150.64413,-25.78619],[150.65689,-25.80096],[150.64924,-25.8033],[150.65771,-25.81369],[150.67041,-25.82046],[150.67177,-25.827],[150.67875,-25.83036],[150.69513,-25.85022],[150.69865,-25.85674],[150.69476,-25.86448],[150.69307,-25.8721],[150.68717,-25.87905],[150.68003,-25.88274],[150.67838,-25.88902],[150.67979,-25.89803],[150.68506,-25.90517],[150.685,-25.91386],[150.68064,-25.92249],[150.67951,-25.92849],[150.66889,-25.94265],[150.6693,-25.94921],[150.67312,-25.95722],[150.67454,-25.96323],[150.67276,-25.96957],[150.68176,-25.9702],[150.69066,-25.97244],[150.70206,-25.97392],[150.71442,-25.98484],[150.71966,-25.98515],[150.72563,-25.98101],[150.72982,-25.98016],[150.73898,-25.98109],[150.75695,-25.98073],[150.76364,-25.98159],[150.76696,-25.99109],[150.77363,-25.99832],[150.77746,-26.0086],[150.77582,-26.01222],[150.78316,-26.01561],[150.78599,-26.01864],[150.78541,-26.02238],[150.78092,-26.02848],[150.79003,-26.04895],[150.84957,-26.05639],[150.90393,-26.01938],[150.90636,-26.0127],[150.90597,-26.00831],[150.91406,-26.00409],[150.92042,-26.00502],[150.92683,-26.0118],[150.93254,-26.0131],[150.94981,-26.01003],[150.96217,-26.01386],[150.98399,-26.00779],[150.98342,-26.01148],[150.98919,-26.01523],[150.9939,-26.0312],[151.00302,-26.04328],[151.00205,-26.04959],[151.0085,-26.05958],[151.01037,-26.07115],[151.01588,-26.0771],[151.0325,-26.08507],[151.04011,-26.08759],[151.04838,-26.08866],[151.05917,-26.08822],[151.06736,-26.08521],[151.07382,-26.09519],[151.07876,-26.09666],[151.11436,-26.09078],[151.11276,-26.08878],[151.11522,-26.08269],[151.11456,-26.0772],[151.10654,-26.07932],[151.09992,-26.07525],[151.10091,-26.07055],[151.10813,-26.06246],[151.11014,-26.04817],[151.10999,-26.04281],[151.13422,-26.04692],[151.1417,-26.05022],[151.15115,-26.05076],[151.24799,-26.06332],[151.27414,-26.06696],[151.27899,-26.06963],[151.2876,-26.06852],[151.29856,-26.07346],[151.30843,-26.06596],[151.31273,-26.05871],[151.32641,-26.04358],[151.32951,-26.0417],[151.33065,-26.03537],[151.32491,-26.02993],[151.32395,-26.02568],[151.34001,-26.01179],[151.34836,-26.01209],[151.35504,-26.00596],[151.38206,-26.00958],[151.46854,-26.0034],[151.47342,-26.00173],[151.47259,-25.99215],[151.47353,-25.98925],[151.47942,-25.9904],[151.48275,-25.98746],[151.48373,-25.97673],[151.48934,-25.97453],[151.48769,-25.96616],[151.49603,-25.9602],[151.50205,-25.95167],[151.49909,-25.94291],[151.50498,-25.92525],[151.50395,-25.92098],[151.49661,-25.91816],[151.48935,-25.9205],[151.48701,-25.91828],[151.49107,-25.91299],[151.49021,-25.90768],[151.48211,-25.90318],[151.4826,-25.90001],[151.48717,-25.89435],[151.49118,-25.89494],[151.49477,-25.90046],[151.49444,-25.90547],[151.49929,-25.9104],[151.50836,-25.90987],[151.51727,-25.85729],[151.52431,-25.85508],[151.52819,-25.85637],[151.53606,-25.85418],[151.53877,-25.85652],[151.54616,-25.85466],[151.55371,-25.85911],[151.55973,-25.85698],[151.58027,-25.86003],[151.58443,-25.86448],[151.58904,-25.86518],[151.60037,-25.86051],[151.6041,-25.85542],[151.6127,-25.85488],[151.61959,-25.8596],[151.62788,-25.86093],[151.63184,-25.86859],[151.63503,-25.87121],[151.64132,-25.86921],[151.64471,-25.8728],[151.65324,-25.87304],[151.65005,-25.88156],[151.65966,-25.88886],[151.65754,-25.89317],[151.66158,-25.89695],[151.65705,-25.91216],[151.66507,-25.9126],[151.69147,-25.91791],[151.70273,-25.92579],[151.71562,-25.93241],[151.72556,-25.93368],[151.73641,-25.93877],[151.74376,-25.9336],[151.74886,-25.9343],[151.75689,-25.93813],[151.76278,-25.9364],[151.76397,-25.93161],[151.76989,-25.9291],[151.77717,-25.92272],[151.77805,-25.91501],[151.77633,-25.9126],[151.77634,-25.90478],[151.7793,-25.90039],[151.78047,-25.89425],[151.77564,-25.88862],[151.77412,-25.88445],[151.77569,-25.87819],[151.77563,-25.87129],[151.77282,-25.86201],[151.76936,-25.85983],[151.76734,-25.85324],[151.7701,-25.84938],[151.76982,-25.84327],[151.76636,-25.83946],[151.76682,-25.8328],[151.76475,-25.8271],[151.76689,-25.82317],[151.77168,-25.8215],[151.77473,-25.81435],[151.77297,-25.81182],[151.76497,-25.81042],[151.7645,-25.80676],[151.75769,-25.80488],[151.7578,-25.8013],[151.76238,-25.79917],[151.7676,-25.78743],[151.77579,-25.78975],[151.78079,-25.78942],[151.78076,-25.7861],[151.77541,-25.7793],[151.77954,-25.77354],[151.78872,-25.7721],[151.79103,-25.76705],[151.78992,-25.75853],[151.80035,-25.75694],[151.80576,-25.75934],[151.81055,-25.76339],[151.80829,-25.76667],[151.81132,-25.77088],[151.81358,-25.78007],[151.81295,-25.78499],[151.8183,-25.78693],[151.82637,-25.78286],[151.82874,-25.78478],[151.82898,-25.79449],[151.84026,-25.79826],[151.84578,-25.80391],[151.86264,-25.80678],[151.87449,-25.81513],[151.87232,-25.82028],[151.87625,-25.82755],[151.87706,-25.83307],[151.88054,-25.8347],[151.88214,-25.84203],[151.88904,-25.84232],[151.89241,-25.84894],[151.89104,-25.85196],[151.89197,-25.85892],[151.89571,-25.8652],[151.90319,-25.8703],[151.91273,-25.87248],[151.92126,-25.86785],[151.92845,-25.86746],[151.93044,-25.8629],[151.93455,-25.86269],[151.93765,-25.85597],[151.94428,-25.85076],[151.94816,-25.85069],[151.95081,-25.84543],[151.9552,-25.84248],[151.9593,-25.83303],[151.96293,-25.83391],[151.97018,-25.83045],[151.96873,-25.82288],[151.97198,-25.81643],[151.97321,-25.8107],[151.97881,-25.81351],[151.98614,-25.80107],[151.98467,-25.79368],[151.98548,-25.78876],[151.98898,-25.78318],[151.98649,-25.77851],[151.9903,-25.77368],[151.995,-25.77367],[151.99775,-25.77101]]]]},"properties":{"District Name":"Bundaberg","DDMG Name":"Bundaberg","Police Region Name":"North Coast Region","Police Region Code":"NCR","Police Region Short Name":"North Coast"}},{"type":"Feature","geometry":{"type":"MultiPolygon","coordinates":[[[[151.07876,-26.09666],[151.08466,-26.10009],[151.08812,-26.10517],[151.09296,-26.10626],[151.09783,-26.11074],[151.10216,-26.11038],[151.11117,-26.11266],[151.11543,-26.1187],[151.12057,-26.11772],[151.12629,-26.1145],[151.13445,-26.10528],[151.13739,-26.1077],[151.14291,-26.10397],[151.14988,-26.10541],[151.15173,-26.11109],[151.15954,-26.12079],[151.15655,-26.13372],[151.1573,-26.13837],[151.1607,-26.14198],[151.16201,-26.14951],[151.15879,-26.15452],[151.15005,-26.15964],[151.14702,-26.15786],[151.13929,-26.15917],[151.1257,-26.15143],[151.12059,-26.14296],[151.11587,-26.14085],[151.09871,-26.14987],[151.09983,-26.16027],[151.09289,-26.15934],[151.07641,-26.16177],[151.07324,-26.17257],[151.02274,-26.19543],[151.01824,-26.19249],[151.01327,-26.19205],[151.01672,-26.25621],[151.06652,-26.25472],[151.13639,-26.26305],[151.13409,-26.27223],[151.12134,-26.34519],[151.11517,-26.37965],[151.07715,-26.46218],[151.07734,-26.46253],[151.18186,-26.47538],[151.20773,-26.47875],[151.20842,-26.48066],[151.20364,-26.48575],[151.2034,-26.4889],[151.20805,-26.49454],[151.20417,-26.50093],[151.21225,-26.51395],[151.21871,-26.51747],[151.22188,-26.52133],[151.22969,-26.52711],[151.23786,-26.52265],[151.24312,-26.52769],[151.24778,-26.5279],[151.24713,-26.5367],[151.2519,-26.54251],[151.25823,-26.54784],[151.26598,-26.54988],[151.27156,-26.54888],[151.27932,-26.54368],[151.28754,-26.54488],[151.28682,-26.55382],[151.2877,-26.55733],[151.2949,-26.56648],[151.30139,-26.57053],[151.30488,-26.57966],[151.31192,-26.58658],[151.3138,-26.591],[151.31818,-26.59041],[151.3228,-26.58579],[151.32584,-26.59208],[151.33036,-26.59313],[151.33369,-26.59834],[151.33277,-26.6007],[151.34199,-26.60696],[151.34912,-26.60768],[151.3519,-26.61719],[151.35783,-26.6187],[151.36343,-26.6236],[151.36869,-26.62425],[151.37213,-26.6321],[151.37863,-26.62958],[151.38478,-26.63648],[151.39467,-26.64135],[151.40804,-26.65659],[151.40924,-26.66063],[151.40719,-26.67394],[151.3919,-26.6842],[151.39434,-26.68496],[151.39764,-26.69127],[151.40526,-26.69511],[151.417,-26.69795],[151.41803,-26.70249],[151.41387,-26.71037],[151.41719,-26.71717],[151.41325,-26.7252],[151.41817,-26.72886],[151.41898,-26.74038],[151.42079,-26.74594],[151.42359,-26.74611],[151.4344,-26.75215],[151.44055,-26.75657],[151.45033,-26.75791],[151.4645,-26.7618],[151.4738,-26.76034],[151.47602,-26.757],[151.48263,-26.75428],[151.48868,-26.75635],[151.49296,-26.76247],[151.5044,-26.76297],[151.50641,-26.76669],[151.51484,-26.76556],[151.51981,-26.76655],[151.51782,-26.77237],[151.51823,-26.77985],[151.51652,-26.78256],[151.51744,-26.78806],[151.52164,-26.79326],[151.51646,-26.79904],[151.51903,-26.80083],[151.52397,-26.81075],[151.52826,-26.81172],[151.53093,-26.81807],[151.53596,-26.82042],[151.53953,-26.81968],[151.54845,-26.82949],[151.54939,-26.83558],[151.55579,-26.83972],[151.55848,-26.84607],[151.56245,-26.8516],[151.56799,-26.85325],[151.56774,-26.85809],[151.57125,-26.86067],[151.57218,-26.8697],[151.57783,-26.88024],[151.58223,-26.87928],[151.58712,-26.88152],[151.58927,-26.88551],[151.59905,-26.88548],[151.60041,-26.88835],[151.60795,-26.89296],[151.61201,-26.89243],[151.62222,-26.90079],[151.6302,-26.89886],[151.63896,-26.90691],[151.64247,-26.9073],[151.64784,-26.91309],[151.65198,-26.91509],[151.65962,-26.91395],[151.66622,-26.91056],[151.67,-26.91674],[151.67818,-26.92212],[151.68164,-26.92182],[151.68951,-26.92661],[151.6919,-26.93171],[151.69484,-26.93237],[151.70007,-26.93858],[151.70498,-26.93845],[151.71364,-26.94436],[151.72352,-26.94799],[151.73082,-26.94469],[151.73784,-26.94699],[151.74561,-26.94552],[151.75133,-26.94754],[151.75871,-26.94736],[151.77129,-26.9441],[151.78486,-26.93864],[151.79288,-26.93061],[151.80184,-26.93519],[151.80865,-26.93091],[151.81185,-26.93202],[151.81938,-26.92816],[151.82503,-26.91949],[151.83392,-26.9128],[151.83801,-26.90683],[151.84278,-26.90293],[151.84319,-26.89766],[151.8865,-26.87935],[151.88734,-26.87385],[151.8924,-26.86828],[151.89678,-26.86621],[151.89865,-26.85529],[151.89696,-26.85111],[151.89809,-26.84622],[151.90212,-26.84158],[151.90193,-26.83711],[151.90652,-26.8319],[151.91589,-26.82734],[151.922,-26.82179],[151.92564,-26.81538],[151.92577,-26.81048],[151.93336,-26.80126],[151.93513,-26.80121],[151.97346,-26.8059],[151.97468,-26.79841],[151.97746,-26.79813],[151.9793,-26.78654],[151.98662,-26.78232],[151.99661,-26.78305],[151.99779,-26.77591],[152.0077,-26.76939],[152.0157,-26.77908],[152.02018,-26.78113],[152.03219,-26.78272],[152.03426,-26.77836],[152.03983,-26.77405],[152.0447,-26.77329],[152.04773,-26.76971],[152.05312,-26.76689],[152.05169,-26.7771],[152.06388,-26.77851],[152.06548,-26.78778],[152.06327,-26.79264],[152.06371,-26.80289],[152.06688,-26.80913],[152.07032,-26.80918],[152.07344,-26.81464],[152.07219,-26.82038],[152.06376,-26.8203],[152.05929,-26.82832],[152.06242,-26.83374],[152.05795,-26.83967],[152.0489,-26.84515],[152.04272,-26.84367],[152.04067,-26.84916],[152.03546,-26.84864],[152.03408,-26.85405],[152.03805,-26.85732],[152.04182,-26.85492],[152.0467,-26.85627],[152.05273,-26.85476],[152.05576,-26.8583],[152.07614,-26.86083],[152.06844,-26.86919],[152.06665,-26.87384],[152.06301,-26.87648],[152.06723,-26.88176],[152.06789,-26.8979],[152.06295,-26.9034],[152.05854,-26.90558],[152.05734,-26.90976],[152.05304,-26.91068],[152.05102,-26.91927],[152.05779,-26.92026],[152.06444,-26.92666],[152.07112,-26.92711],[152.08859,-26.91892],[152.09253,-26.91385],[152.10235,-26.91106],[152.10802,-26.90314],[152.11451,-26.90352],[152.1213,-26.89998],[152.12943,-26.9021],[152.13586,-26.90611],[152.13797,-26.90006],[152.14143,-26.88778],[152.14696,-26.87922],[152.15444,-26.87375],[152.15954,-26.87378],[152.17046,-26.86754],[152.16951,-26.87212],[152.17265,-26.87523],[152.18866,-26.87737],[152.18426,-26.87101],[152.18345,-26.85339],[152.18104,-26.84655],[152.18255,-26.83724],[152.18771,-26.83791],[152.19009,-26.82359],[152.17412,-26.82143],[152.17639,-26.80905],[152.17075,-26.79646],[152.17456,-26.79198],[152.17417,-26.7847],[152.17663,-26.77976],[152.17114,-26.77703],[152.16826,-26.77295],[152.16396,-26.77556],[152.15579,-26.7688],[152.15565,-26.75425],[152.15704,-26.75064],[152.16216,-26.74617],[152.16391,-26.7421],[152.15076,-26.74052],[152.15265,-26.728],[152.14271,-26.72727],[152.14127,-26.7314],[152.1453,-26.73359],[152.14304,-26.73852],[152.13289,-26.74119],[152.1297,-26.73424],[152.13406,-26.73046],[152.12961,-26.72766],[152.12808,-26.72294],[152.12377,-26.71731],[152.11923,-26.7142],[152.11242,-26.70616],[152.10432,-26.70952],[152.09932,-26.70588],[152.101,-26.70327],[152.08898,-26.69979],[152.08311,-26.69399],[152.0829,-26.68928],[152.07601,-26.68583],[152.07578,-26.67848],[152.0734,-26.6684],[152.07503,-26.6634],[152.08107,-26.65796],[152.09014,-26.6539],[152.09866,-26.65373],[152.10519,-26.6509],[152.1073,-26.64774],[152.11898,-26.64265],[152.11964,-26.63739],[152.12675,-26.63796],[152.13,-26.63165],[152.12832,-26.62711],[152.13586,-26.61431],[152.13043,-26.60046],[152.13785,-26.59656],[152.14268,-26.59167],[152.13865,-26.58951],[152.13726,-26.58276],[152.13178,-26.57904],[152.13089,-26.57499],[152.13581,-26.56636],[152.13506,-26.56074],[152.13268,-26.55686],[152.13199,-26.5501],[152.12996,-26.54848],[152.12832,-26.53849],[152.13046,-26.53702],[152.12633,-26.53157],[152.13014,-26.52715],[152.13169,-26.52194],[152.12743,-26.5186],[152.12773,-26.51098],[152.12575,-26.50657],[152.13377,-26.5004],[152.13629,-26.49386],[152.13238,-26.48776],[152.13559,-26.48022],[152.14431,-26.47971],[152.14951,-26.48286],[152.15383,-26.48037],[152.1546,-26.47572],[152.16024,-26.47779],[152.16636,-26.47466],[152.17421,-26.48167],[152.18458,-26.48619],[152.18759,-26.49013],[152.1948,-26.49557],[152.19748,-26.5002],[152.20457,-26.50701],[152.20743,-26.51171],[152.2153,-26.51222],[152.21898,-26.50525],[152.22165,-26.50382],[152.22951,-26.50805],[152.23261,-26.50408],[152.23208,-26.49525],[152.22927,-26.49265],[152.23506,-26.4888],[152.24387,-26.48792],[152.24559,-26.48557],[152.25325,-26.48442],[152.2562,-26.47849],[152.25926,-26.47646],[152.25974,-26.47138],[152.26221,-26.46886],[152.26797,-26.46889],[152.27305,-26.46426],[152.27381,-26.45349],[152.2844,-26.45235],[152.28909,-26.45664],[152.29419,-26.45874],[152.29727,-26.4622],[152.30526,-26.46679],[152.3045,-26.46881],[152.31137,-26.47239],[152.31551,-26.48076],[152.31965,-26.47698],[152.33039,-26.47526],[152.33925,-26.47158],[152.34402,-26.4679],[152.35011,-26.46929],[152.3561,-26.46517],[152.36063,-26.46625],[152.36441,-26.46313],[152.37077,-26.46243],[152.37313,-26.46824],[152.37706,-26.47223],[152.3868,-26.47217],[152.39038,-26.47593],[152.39938,-26.47079],[152.40323,-26.47387],[152.40773,-26.47106],[152.41258,-26.46419],[152.42125,-26.46717],[152.4251,-26.46415],[152.43521,-26.46282],[152.43679,-26.45974],[152.44345,-26.45999],[152.43935,-26.4858],[152.44558,-26.4866],[152.44824,-26.48398],[152.44495,-26.50468],[152.43896,-26.51133],[152.43967,-26.51725],[152.43549,-26.52379],[152.43517,-26.52855],[152.43874,-26.53512],[152.44263,-26.53329],[152.44348,-26.52772],[152.44959,-26.53076],[152.44032,-26.55706],[152.45083,-26.5584],[152.44905,-26.56977],[152.45855,-26.57098],[152.45696,-26.58092],[152.51993,-26.58847],[152.52237,-26.58645],[152.51519,-26.57766],[152.51155,-26.56746],[152.5541,-26.5725],[152.56041,-26.58183],[152.56497,-26.58368],[152.56947,-26.58246],[152.5752,-26.58399],[152.57929,-26.58087],[152.58795,-26.57973],[152.59219,-26.58435],[152.5955,-26.58409],[152.60252,-26.57792],[152.60588,-26.57969],[152.60632,-26.58428],[152.61223,-26.58296],[152.61867,-26.5843],[152.62564,-26.58197],[152.63576,-26.58511],[152.64367,-26.58624],[152.65265,-26.59023],[152.65359,-26.59282],[152.66027,-26.59709],[152.66997,-26.5961],[152.68049,-26.5977],[152.6829,-26.58927],[152.68101,-26.58393],[152.68603,-26.57701],[152.69497,-26.57555],[152.69494,-26.56787],[152.70076,-26.56519],[152.71056,-26.55657],[152.71245,-26.5462],[152.71468,-26.54634],[152.72845,-26.53696],[152.7334,-26.54299],[152.73765,-26.54024],[152.74514,-26.54961],[152.74983,-26.54724],[152.75274,-26.54975],[152.75822,-26.54393],[152.7585,-26.53637],[152.76342,-26.53872],[152.76716,-26.53733],[152.76952,-26.53121],[152.7674,-26.5273],[152.7597,-26.52498],[152.76209,-26.51064],[152.74371,-26.50816],[152.74482,-26.49935],[152.74928,-26.49779],[152.75243,-26.49143],[152.76163,-26.48372],[152.76561,-26.48202],[152.76539,-26.47577],[152.75766,-26.47538],[152.75762,-26.46843],[152.78862,-26.47303],[152.79531,-26.43255],[152.79116,-26.4318],[152.79351,-26.41794],[152.79639,-26.41911],[152.79345,-26.40689],[152.78934,-26.40352],[152.78153,-26.4045],[152.7779,-26.40244],[152.77912,-26.39531],[152.769,-26.39391],[152.76843,-26.38551],[152.77064,-26.37273],[152.7653,-26.37237],[152.76522,-26.36229],[152.76753,-26.36267],[152.77208,-26.34573],[152.78307,-26.34998],[152.79262,-26.35138],[152.79718,-26.32488],[152.79953,-26.31832],[152.80645,-26.30856],[152.80805,-26.29935],[152.82536,-26.24822],[152.82272,-26.24009],[152.82768,-26.23891],[152.82524,-26.22359],[152.83026,-26.2205],[152.83092,-26.21611],[152.85005,-26.21839],[152.85303,-26.19844],[152.87644,-26.20124],[152.88481,-26.2072],[152.89257,-26.21656],[152.89627,-26.21918],[152.89766,-26.21054],[152.90364,-26.21133],[152.90432,-26.20711],[152.92289,-26.20956],[152.9226,-26.19874],[152.93386,-26.19665],[152.94013,-26.19837],[152.94443,-26.19648],[152.94531,-26.19207],[152.95658,-26.18997],[152.96082,-26.18499],[152.96127,-26.18134],[152.96513,-26.18025],[152.96635,-26.17335],[152.97188,-26.16481],[152.97467,-26.14715],[152.97254,-26.14519],[152.97384,-26.13711],[153.09629,-26.15473],[153.11319,-26.10351],[153.12152,-26.0827],[153.12512,-26.07204],[153.1493,-26.01267],[153.16122,-25.98739],[153.17274,-25.96385],[153.1854,-25.93895],[153.19151,-25.93258],[153.18636,-25.92707],[153.18234,-25.92829],[153.18177,-25.93622],[153.17582,-25.94657],[153.17058,-25.94928],[153.16451,-25.95024],[153.15384,-25.9496],[153.14498,-25.9476],[153.13224,-25.94226],[153.11828,-25.93248],[153.10914,-25.92332],[153.10063,-25.91228],[153.09486,-25.90334],[153.09084,-25.89901],[153.0871,-25.89214],[153.08271,-25.88034],[153.0784,-25.8641],[153.07454,-25.83808],[153.07329,-25.82097],[153.07047,-25.81188],[153.06263,-25.80857],[153.0522,-25.80908],[153.05748,-25.81299],[153.06788,-25.81636],[153.07057,-25.81919],[153.07192,-25.82554],[153.06796,-25.82649],[153.06047,-25.82322],[153.05538,-25.82717],[153.05516,-25.83503],[153.05201,-25.84357],[153.04763,-25.84633],[153.04732,-25.86188],[153.0525,-25.8684],[153.06099,-25.87099],[153.0594,-25.87718],[153.06597,-25.88236],[153.06555,-25.88665],[153.05739,-25.88732],[153.05897,-25.89436],[153.0583,-25.90015],[153.05092,-25.90943],[153.04939,-25.90467],[153.04513,-25.90422],[153.03773,-25.9079],[153.03701,-25.91227],[153.02695,-25.90792],[153.02638,-25.91476],[153.03065,-25.92396],[153.03728,-25.92688],[153.04527,-25.92866],[153.04826,-25.93859],[153.04335,-25.94426],[153.03659,-25.93995],[153.03351,-25.94908],[153.0393,-25.95256],[153.03706,-25.96422],[153.03135,-25.96253],[153.02965,-25.95631],[153.02498,-25.96073],[153.02655,-25.97393],[153.01633,-25.97545],[153.02142,-25.98046],[153.02195,-25.98485],[153.01565,-25.98967],[153.01357,-25.98701],[153.01633,-25.98293],[153.00773,-25.97715],[153.00866,-25.9746],[153.00287,-25.95964],[153.00349,-25.95276],[153.0128,-25.94591],[153.02049,-25.94323],[153.02844,-25.93772],[153.02717,-25.93515],[153.02079,-25.93109],[153.0195,-25.93551],[153.01608,-25.93529],[153.01218,-25.93923],[153.0092,-25.93528],[153.01342,-25.92813],[153.01139,-25.92345],[153.00671,-25.91769],[153.00827,-25.91021],[153.01142,-25.90453],[153.00834,-25.90151],[153.01124,-25.89798],[153.01716,-25.89533],[153.02606,-25.89655],[153.02992,-25.889],[153.03182,-25.87853],[153.02656,-25.87568],[153.02167,-25.86634],[153.01271,-25.87341],[153.0122,-25.87966],[153.00649,-25.87936],[152.99797,-25.88135],[152.99446,-25.88014],[152.99115,-25.88184],[152.84065,-25.85878],[152.82754,-25.85656],[152.73523,-25.84236],[152.73604,-25.84736],[152.72893,-25.84418],[152.71808,-25.84151],[152.71288,-25.84138],[152.7122,-25.84563],[152.71947,-25.84546],[152.72352,-25.84728],[152.71869,-25.85266],[152.7292,-25.8678],[152.73346,-25.86722],[152.73444,-25.87277],[152.74445,-25.87456],[152.75051,-25.87753],[152.75197,-25.88667],[152.74415,-25.88822],[152.74336,-25.89292],[152.7385,-25.90189],[152.73873,-25.90881],[152.73515,-25.91187],[152.72908,-25.91304],[152.72015,-25.91242],[152.70768,-25.91678],[152.704,-25.92325],[152.70403,-25.92761],[152.69448,-25.93292],[152.69455,-25.93601],[152.6883,-25.94028],[152.67229,-25.93807],[152.66976,-25.9529],[152.67536,-25.95372],[152.67394,-25.96245],[152.66784,-25.96158],[152.66501,-25.97924],[152.65712,-25.98014],[152.65502,-25.98607],[152.62108,-25.98143],[152.62187,-25.97469],[152.61113,-25.97325],[152.61408,-25.95688],[152.60102,-25.95509],[152.60233,-25.94942],[152.60056,-25.94762],[152.5668,-25.94308],[152.568,-25.93372],[152.56366,-25.92844],[152.56815,-25.92201],[152.55964,-25.92109],[152.55787,-25.93249],[152.54867,-25.93007],[152.55061,-25.92167],[152.54544,-25.91288],[152.50585,-25.9078],[152.50035,-25.90585],[152.49689,-25.90832],[152.4749,-25.9054],[152.47274,-25.89886],[152.46481,-25.89858],[152.4635,-25.89371],[152.44889,-25.8916],[152.44603,-25.88647],[152.42072,-25.88296],[152.42259,-25.87194],[152.41087,-25.87036],[152.41159,-25.86594],[152.38976,-25.86306],[152.38666,-25.87261],[152.38092,-25.87492],[152.37751,-25.8739],[152.37496,-25.86702],[152.34557,-25.86331],[152.3408,-25.89361],[152.33339,-25.89211],[152.3307,-25.90752],[152.26342,-25.89779],[152.23163,-25.89367],[152.23128,-25.89465],[152.20571,-25.89138],[152.16946,-25.88743],[152.16938,-25.88193],[152.15964,-25.8787],[152.15261,-25.88403],[152.14619,-25.88373],[152.1433,-25.88039],[152.13727,-25.8773],[152.13338,-25.87348],[152.13017,-25.87775],[152.13013,-25.88569],[152.12305,-25.88593],[152.12187,-25.88193],[152.11677,-25.87656],[152.11469,-25.86941],[152.11717,-25.86212],[152.11329,-25.8572],[152.10639,-25.86235],[152.10205,-25.86216],[152.10024,-25.86781],[152.09012,-25.87283],[152.08501,-25.87141],[152.08067,-25.87499],[152.07289,-25.8774],[152.07105,-25.88358],[152.05899,-25.88639],[152.05753,-25.88294],[152.04743,-25.87853],[152.04321,-25.87505],[152.04715,-25.86784],[152.05073,-25.85571],[152.04918,-25.85183],[152.03842,-25.85128],[152.03318,-25.85222],[152.02866,-25.85005],[152.02945,-25.8452],[152.03229,-25.84323],[152.03156,-25.83689],[152.02895,-25.82937],[152.03193,-25.82183],[152.02933,-25.81951],[152.02908,-25.81018],[152.036,-25.80382],[152.03535,-25.79521],[152.03897,-25.79019],[152.02917,-25.78704],[152.02191,-25.78921],[152.01854,-25.78644],[152.00819,-25.78245],[152.00317,-25.77654],[152.00166,-25.77222],[151.99775,-25.77101],[151.995,-25.77367],[151.9903,-25.77368],[151.98649,-25.77851],[151.98898,-25.78318],[151.98548,-25.78876],[151.98467,-25.79368],[151.98614,-25.80107],[151.97881,-25.81351],[151.97321,-25.8107],[151.97198,-25.81643],[151.96873,-25.82288],[151.97018,-25.83045],[151.96293,-25.83391],[151.9593,-25.83303],[151.9552,-25.84248],[151.95081,-25.84543],[151.94816,-25.85069],[151.94428,-25.85076],[151.93765,-25.85597],[151.93455,-25.86269],[151.93044,-25.8629],[151.92845,-25.86746],[151.92126,-25.86785],[151.91273,-25.87248],[151.90319,-25.8703],[151.89571,-25.8652],[151.89197,-25.85892],[151.89104,-25.85196],[151.89241,-25.84894],[151.88904,-25.84232],[151.88214,-25.84203],[151.88054,-25.8347],[151.87706,-25.83307],[151.87625,-25.82755],[151.87232,-25.82028],[151.87449,-25.81513],[151.86264,-25.80678],[151.84578,-25.80391],[151.84026,-25.79826],[151.82898,-25.79449],[151.82874,-25.78478],[151.82637,-25.78286],[151.8183,-25.78693],[151.81295,-25.78499],[151.81358,-25.78007],[151.81132,-25.77088],[151.80829,-25.76667],[151.81055,-25.76339],[151.80576,-25.75934],[151.80035,-25.75694],[151.78992,-25.75853],[151.79103,-25.76705],[151.78872,-25.7721],[151.77954,-25.77354],[151.77541,-25.7793],[151.78076,-25.7861],[151.78079,-25.78942],[151.77579,-25.78975],[151.7676,-25.78743],[151.76238,-25.79917],[151.7578,-25.8013],[151.75769,-25.80488],[151.7645,-25.80676],[151.76497,-25.81042],[151.77297,-25.81182],[151.77473,-25.81435],[151.77168,-25.8215],[151.76689,-25.82317],[151.76475,-25.8271],[151.76682,-25.8328],[151.76636,-25.83946],[151.76982,-25.84327],[151.7701,-25.84938],[151.76734,-25.85324],[151.76936,-25.85983],[151.77282,-25.86201],[151.77563,-25.87129],[151.77569,-25.87819],[151.77412,-25.88445],[151.77564,-25.88862],[151.78047,-25.89425],[151.7793,-25.90039],[151.77634,-25.90478],[151.77633,-25.9126],[151.77805,-25.91501],[151.77717,-25.92272],[151.76989,-25.9291],[151.76397,-25.93161],[151.76278,-25.9364],[151.75689,-25.93813],[151.74886,-25.9343],[151.74376,-25.9336],[151.73641,-25.93877],[151.72556,-25.93368],[151.71562,-25.93241],[151.70273,-25.92579],[151.69147,-25.91791],[151.66507,-25.9126],[151.65705,-25.91216],[151.66158,-25.89695],[151.65754,-25.89317],[151.65966,-25.88886],[151.65005,-25.88156],[151.65324,-25.87304],[151.64471,-25.8728],[151.64132,-25.86921],[151.63503,-25.87121],[151.63184,-25.86859],[151.62788,-25.86093],[151.61959,-25.8596],[151.6127,-25.85488],[151.6041,-25.85542],[151.60037,-25.86051],[151.58904,-25.86518],[151.58443,-25.86448],[151.58027,-25.86003],[151.55973,-25.85698],[151.55371,-25.85911],[151.54616,-25.85466],[151.53877,-25.85652],[151.53606,-25.85418],[151.52819,-25.85637],[151.52431,-25.85508],[151.51727,-25.85729],[151.50836,-25.90987],[151.49929,-25.9104],[151.49444,-25.90547],[151.49477,-25.90046],[151.49118,-25.89494],[151.48717,-25.89435],[151.4826,-25.90001],[151.48211,-25.90318],[151.49021,-25.90768],[151.49107,-25.91299],[151.48701,-25.91828],[151.48935,-25.9205],[151.49661,-25.91816],[151.50395,-25.92098],[151.50498,-25.92525],[151.49909,-25.94291],[151.50205,-25.95167],[151.49603,-25.9602],[151.48769,-25.96616],[151.48934,-25.97453],[151.48373,-25.97673],[151.48275,-25.98746],[151.47942,-25.9904],[151.47353,-25.98925],[151.47259,-25.99215],[151.47342,-26.00173],[151.46854,-26.0034],[151.38206,-26.00958],[151.35504,-26.00596],[151.34836,-26.01209],[151.34001,-26.01179],[151.32395,-26.02568],[151.32491,-26.02993],[151.33065,-26.03537],[151.32951,-26.0417],[151.32641,-26.04358],[151.31273,-26.05871],[151.30843,-26.06596],[151.29856,-26.07346],[151.2876,-26.06852],[151.27899,-26.06963],[151.27414,-26.06696],[151.24799,-26.06332],[151.15115,-26.05076],[151.1417,-26.05022],[151.13422,-26.04692],[151.10999,-26.04281],[151.11014,-26.04817],[151.10813,-26.06246],[151.10091,-26.07055],[151.09992,-26.07525],[151.10654,-26.07932],[151.11456,-26.0772],[151.11522,-26.08269],[151.11276,-26.08878],[151.11436,-26.09078],[151.07876,-26.09666]]],[[[153.05092,-25.8367],[153.04905,-25.83535],[153.05133,-25.82598],[153.04857,-25.82553],[153.04632,-25.83095],[153.04366,-25.842],[153.04564,-25.84291],[153.05092,-25.8367]]]]},"properties":{"District Name":"Gympie","DDMG Name":"Gympie","Police Region Name":"North Coast Region","Police Region Code":"NCR","Police Region Short Name":"North Coast"}},{"type":"Feature","geometry":{"type":"MultiPolygon","coordinates":[[[[153.24686,-24.69948],[153.22908,-24.7076],[153.2286,-24.70784],[153.22836,-24.70795],[153.21542,-24.71459],[153.20787,-24.71929],[153.18891,-24.73335],[153.18744,-24.73451],[153.18682,-24.73503],[153.18671,-24.73511],[153.18658,-24.73521],[153.18546,-24.73608],[153.18527,-24.73623],[153.17752,-24.7428],[153.17626,-24.74395],[153.16752,-24.75358],[153.16673,-24.75448],[153.16651,-24.75476],[153.16557,-24.75597],[153.16542,-24.75618],[153.16427,-24.75799],[153.16075,-24.76365],[153.16043,-24.76412],[153.16034,-24.76424],[153.16015,-24.76451],[153.15942,-24.76553],[153.15718,-24.76852],[153.15207,-24.77426],[153.14003,-24.7861],[153.13023,-24.7951],[153.12736,-24.79847],[153.12068,-24.80906],[153.11931,-24.81732],[153.12446,-24.81654],[153.13178,-24.81429],[153.13449,-24.81444],[153.13498,-24.81449],[153.14413,-24.81675],[153.14416,-24.81676],[153.15331,-24.82094],[153.15433,-24.82151],[153.15441,-24.82156],[153.15671,-24.82291],[153.1633,-24.82736],[153.16402,-24.8279],[153.16986,-24.83262],[153.17354,-24.83597],[153.1782,-24.84064],[153.18311,-24.84634],[153.18681,-24.85134],[153.18742,-24.85217],[153.19424,-24.86183],[153.19505,-24.86304],[153.19839,-24.86817],[153.19957,-24.87014],[153.20018,-24.87118],[153.20045,-24.87166],[153.20134,-24.87316],[153.20316,-24.87621],[153.20446,-24.87855],[153.20468,-24.87886],[153.2048,-24.87906],[153.20519,-24.87978],[153.20525,-24.87988],[153.20552,-24.88036],[153.20625,-24.8817],[153.20633,-24.88185],[153.21047,-24.88857],[153.21078,-24.88913],[153.21135,-24.89007],[153.21172,-24.8907],[153.21188,-24.89093],[153.21193,-24.89099],[153.21834,-24.90026],[153.21936,-24.90175],[153.21982,-24.90237],[153.22017,-24.90284],[153.2205,-24.90331],[153.22722,-24.91387],[153.22814,-24.91557],[153.22973,-24.91883],[153.23076,-24.92127],[153.23104,-24.92211],[153.23117,-24.92246],[153.23165,-24.92391],[153.23269,-24.92737],[153.23289,-24.92818],[153.2331,-24.92913],[153.23408,-24.93738],[153.23401,-24.94205],[153.23386,-24.94404],[153.2338,-24.94475],[153.23346,-24.94747],[153.23304,-24.95059],[153.23284,-24.95182],[153.23226,-24.95522],[153.23221,-24.95544],[153.22667,-24.9759],[153.22921,-24.98095],[153.22712,-24.98295],[153.22658,-24.98376],[153.22549,-24.98611],[153.22321,-24.99284],[153.22235,-24.99501],[153.22229,-24.99514],[153.22199,-24.99588],[153.22008,-24.99969],[153.21737,-25.00457],[153.21622,-25.00652],[153.21582,-25.00721],[153.21409,-25.01028],[153.20032,-25.03245],[153.17763,-25.06165],[153.16495,-25.0785],[153.16289,-25.08102],[153.14421,-25.09924],[153.13705,-25.1052],[153.12903,-25.11346],[153.11228,-25.12566],[153.11203,-25.12593],[153.09423,-25.13967],[153.08195,-25.14972],[153.06278,-25.16267],[153.05169,-25.16828],[153.03134,-25.17685],[153.02405,-25.18195],[153.01757,-25.1884],[153.01212,-25.19627],[152.99952,-25.20849],[152.99369,-25.21772],[152.99182,-25.22805],[152.99665,-25.22639],[153.01006,-25.2308],[153.01633,-25.23038],[153.02135,-25.22785],[153.0262,-25.22283],[153.03394,-25.22588],[153.04045,-25.22464],[153.03993,-25.22985],[153.04453,-25.23787],[153.049,-25.23977],[153.05153,-25.24466],[153.04665,-25.24603],[153.0486,-25.25184],[153.04744,-25.25719],[153.0519,-25.25932],[153.04521,-25.26312],[153.04012,-25.27446],[153.04294,-25.28687],[153.04613,-25.29161],[153.04278,-25.29764],[153.0458,-25.30302],[153.04551,-25.30697],[153.04878,-25.31747],[153.04846,-25.32263],[153.05142,-25.34532],[153.04762,-25.34807],[153.04623,-25.3542],[153.04788,-25.3587],[153.03654,-25.37844],[153.03413,-25.38478],[153.02228,-25.39559],[153.00776,-25.41155],[153.0046,-25.42194],[152.99408,-25.43533],[152.98633,-25.4495],[152.98335,-25.46448],[152.98383,-25.46856],[152.98719,-25.47455],[152.99039,-25.48463],[152.98987,-25.49206],[152.98759,-25.50054],[152.98673,-25.51047],[152.97828,-25.51682],[152.9724,-25.52257],[152.9641,-25.54088],[152.95292,-25.5498],[152.95075,-25.55478],[152.95237,-25.55771],[152.94989,-25.56137],[152.94913,-25.57064],[152.9503,-25.57578],[152.94456,-25.58612],[152.9484,-25.59236],[152.95524,-25.595],[152.96516,-25.60359],[152.96245,-25.61402],[152.96833,-25.61697],[152.97389,-25.62265],[152.97516,-25.62846],[152.97038,-25.63508],[152.96993,-25.6403],[152.9725,-25.64823],[152.97999,-25.6628],[152.98033,-25.67069],[152.98432,-25.67308],[152.98262,-25.677],[152.99008,-25.68898],[152.99092,-25.69645],[152.98858,-25.70532],[152.99049,-25.71778],[152.99232,-25.72069],[152.99561,-25.73186],[153.0022,-25.7403],[153.00728,-25.74302],[153.01105,-25.75186],[153.01149,-25.76106],[153.01512,-25.7691],[153.02045,-25.77392],[153.02263,-25.77848],[153.0292,-25.78628],[153.03679,-25.79151],[153.04924,-25.79617],[153.06057,-25.7974],[153.07148,-25.79557],[153.07688,-25.79331],[153.07943,-25.78372],[153.0847,-25.76848],[153.0883,-25.76066],[153.08761,-25.74948],[153.0843,-25.73885],[153.08037,-25.72215],[153.07848,-25.70791],[153.07713,-25.69002],[153.07733,-25.67711],[153.08063,-25.65463],[153.08375,-25.63857],[153.08915,-25.61746],[153.09877,-25.58599],[153.10753,-25.56117],[153.11993,-25.53006],[153.12696,-25.51128],[153.13635,-25.49034],[153.14009,-25.48051],[153.15977,-25.43564],[153.16732,-25.41918],[153.17886,-25.39195],[153.1911,-25.36404],[153.20026,-25.3459],[153.20309,-25.33812],[153.2121,-25.31908],[153.22855,-25.28623],[153.24581,-25.25079],[153.26251,-25.21497],[153.26544,-25.21032],[153.28077,-25.17766],[153.296,-25.14367],[153.32504,-25.08073],[153.33888,-25.05302],[153.35054,-25.03174],[153.3548,-25.02167],[153.35789,-25.00892],[153.35273,-25.00144],[153.35097,-24.99133],[153.35002,-24.97949],[153.3507,-24.96797],[153.34924,-24.96484],[153.34237,-24.96629],[153.33469,-24.96594],[153.32139,-24.96231],[153.31101,-24.95532],[153.29662,-24.94279],[153.28833,-24.93217],[153.2794,-24.91454],[153.27344,-24.89942],[153.27025,-24.89347],[153.26529,-24.87719],[153.26112,-24.85125],[153.25974,-24.82948],[153.25964,-24.81133],[153.26187,-24.77072],[153.26369,-24.74988],[153.26424,-24.73709],[153.26673,-24.71204],[153.2669,-24.70436],[153.26482,-24.70028],[153.25722,-24.69793],[153.25108,-24.69757],[153.24686,-24.69948]]],[[[151.99775,-25.77101],[152.00166,-25.77222],[152.00317,-25.77654],[152.00819,-25.78245],[152.01854,-25.78644],[152.02191,-25.78921],[152.02917,-25.78704],[152.03897,-25.79019],[152.03535,-25.79521],[152.036,-25.80382],[152.02908,-25.81018],[152.02933,-25.81951],[152.03193,-25.82183],[152.02895,-25.82937],[152.03156,-25.83689],[152.03229,-25.84323],[152.02945,-25.8452],[152.02866,-25.85005],[152.03318,-25.85222],[152.03842,-25.85128],[152.04918,-25.85183],[152.05073,-25.85571],[152.04715,-25.86784],[152.04321,-25.87505],[152.04743,-25.87853],[152.05753,-25.88294],[152.05899,-25.88639],[152.07105,-25.88358],[152.07289,-25.8774],[152.08067,-25.87499],[152.08501,-25.87141],[152.09012,-25.87283],[152.10024,-25.86781],[152.10205,-25.86216],[152.10639,-25.86235],[152.11329,-25.8572],[152.11717,-25.86212],[152.11469,-25.86941],[152.11677,-25.87656],[152.12187,-25.88193],[152.12305,-25.88593],[152.13013,-25.88569],[152.13017,-25.87775],[152.13338,-25.87348],[152.13727,-25.8773],[152.1433,-25.88039],[152.14619,-25.88373],[152.15261,-25.88403],[152.15964,-25.8787],[152.16938,-25.88193],[152.16946,-25.88743],[152.20571,-25.89138],[152.23128,-25.89465],[152.23163,-25.89367],[152.26342,-25.89779],[152.3307,-25.90752],[152.33339,-25.89211],[152.3408,-25.89361],[152.34557,-25.86331],[152.37496,-25.86702],[152.37751,-25.8739],[152.38092,-25.87492],[152.38666,-25.87261],[152.38976,-25.86306],[152.41159,-25.86594],[152.41087,-25.87036],[152.42259,-25.87194],[152.42072,-25.88296],[152.44603,-25.88647],[152.44889,-25.8916],[152.4635,-25.89371],[152.46481,-25.89858],[152.47274,-25.89886],[152.4749,-25.9054],[152.49689,-25.90832],[152.50035,-25.90585],[152.50585,-25.9078],[152.54544,-25.91288],[152.55061,-25.92167],[152.54867,-25.93007],[152.55787,-25.93249],[152.55964,-25.92109],[152.56815,-25.92201],[152.56366,-25.92844],[152.568,-25.93372],[152.5668,-25.94308],[152.60056,-25.94762],[152.60233,-25.94942],[152.60102,-25.95509],[152.61408,-25.95688],[152.61113,-25.97325],[152.62187,-25.97469],[152.62108,-25.98143],[152.65502,-25.98607],[152.65712,-25.98014],[152.66501,-25.97924],[152.66784,-25.96158],[152.67394,-25.96245],[152.67536,-25.95372],[152.66976,-25.9529],[152.67229,-25.93807],[152.6883,-25.94028],[152.69455,-25.93601],[152.69448,-25.93292],[152.70403,-25.92761],[152.704,-25.92325],[152.70768,-25.91678],[152.72015,-25.91242],[152.72908,-25.91304],[152.73515,-25.91187],[152.73873,-25.90881],[152.7385,-25.90189],[152.74336,-25.89292],[152.74415,-25.88822],[152.75197,-25.88667],[152.75051,-25.87753],[152.74445,-25.87456],[152.73444,-25.87277],[152.73346,-25.86722],[152.7292,-25.8678],[152.71869,-25.85266],[152.72352,-25.84728],[152.71947,-25.84546],[152.7122,-25.84563],[152.71288,-25.84138],[152.71808,-25.84151],[152.72893,-25.84418],[152.73604,-25.84736],[152.73523,-25.84236],[152.82754,-25.85656],[152.84065,-25.85878],[152.99115,-25.88184],[152.99446,-25.88014],[152.99488,-25.87898],[152.9998,-25.87794],[153.00633,-25.87071],[153.01443,-25.86546],[153.01289,-25.85898],[153.01716,-25.85371],[153.02259,-25.85541],[153.02589,-25.85214],[153.02589,-25.84864],[153.02219,-25.84522],[153.02278,-25.83951],[153.0205,-25.82955],[153.01428,-25.82234],[153.00748,-25.81943],[153.00439,-25.81538],[153.00105,-25.81645],[152.9957,-25.81245],[152.98911,-25.80537],[152.9844,-25.80616],[152.98165,-25.81162],[152.98651,-25.81813],[152.98325,-25.82027],[152.97875,-25.81851],[152.9803,-25.81441],[152.97279,-25.80999],[152.96339,-25.81216],[152.94745,-25.81201],[152.94111,-25.81976],[152.93981,-25.81508],[152.94044,-25.80874],[152.9396,-25.79624],[152.9451,-25.79768],[152.94939,-25.80158],[152.95521,-25.79953],[152.96449,-25.80105],[152.97084,-25.79438],[152.97042,-25.78888],[152.97496,-25.7827],[152.97601,-25.77117],[152.96907,-25.76188],[152.95667,-25.75746],[152.94487,-25.75929],[152.94114,-25.76244],[152.94192,-25.76535],[152.93741,-25.76806],[152.9353,-25.75967],[152.93864,-25.74706],[152.9363,-25.74359],[152.93136,-25.74136],[152.92012,-25.74102],[152.91697,-25.73938],[152.91689,-25.73375],[152.9091,-25.72389],[152.91716,-25.71963],[152.92266,-25.71123],[152.92037,-25.70732],[152.91087,-25.70594],[152.90642,-25.69981],[152.89782,-25.69561],[152.89298,-25.68991],[152.88837,-25.68914],[152.87825,-25.68368],[152.87887,-25.67755],[152.88327,-25.67435],[152.89207,-25.67469],[152.89368,-25.67308],[152.90771,-25.67565],[152.90336,-25.66393],[152.89686,-25.65879],[152.896,-25.65553],[152.90116,-25.64686],[152.89905,-25.63868],[152.89668,-25.63464],[152.89702,-25.62906],[152.89162,-25.62396],[152.89211,-25.61797],[152.88611,-25.61782],[152.87736,-25.61409],[152.87852,-25.60185],[152.87742,-25.59507],[152.87898,-25.59186],[152.87901,-25.58386],[152.87703,-25.58089],[152.87851,-25.57568],[152.87515,-25.57262],[152.87363,-25.56962],[152.87383,-25.56807],[152.8778,-25.56242],[152.86831,-25.55349],[152.87108,-25.5517],[152.87605,-25.55614],[152.88238,-25.55131],[152.90236,-25.54182],[152.90399,-25.53874],[152.89745,-25.53655],[152.89726,-25.53385],[152.90856,-25.53394],[152.9093,-25.52603],[152.9048,-25.51679],[152.90312,-25.50086],[152.89578,-25.5048],[152.89503,-25.50231],[152.90025,-25.4955],[152.91257,-25.4868],[152.91852,-25.48099],[152.92637,-25.46969],[152.93575,-25.46809],[152.94658,-25.46125],[152.94273,-25.45216],[152.94905,-25.45093],[152.9543,-25.44331],[152.95341,-25.43795],[152.95606,-25.4333],[152.94891,-25.43238],[152.94271,-25.43487],[152.94075,-25.43052],[152.93447,-25.43173],[152.92998,-25.43774],[152.93031,-25.4412],[152.92623,-25.44871],[152.91963,-25.45321],[152.91005,-25.45447],[152.90285,-25.45397],[152.89602,-25.45605],[152.88576,-25.46163],[152.87811,-25.467],[152.86667,-25.48476],[152.86164,-25.49087],[152.84854,-25.49831],[152.83705,-25.4957],[152.82374,-25.494],[152.83661,-25.48614],[152.84076,-25.4852],[152.8489,-25.48597],[152.85117,-25.48416],[152.85458,-25.47188],[152.8605,-25.4634],[152.86587,-25.4605],[152.86885,-25.44705],[152.87401,-25.44247],[152.88169,-25.4432],[152.89316,-25.43669],[152.89639,-25.43378],[152.90825,-25.42934],[152.90723,-25.42531],[152.90094,-25.42654],[152.88973,-25.42494],[152.89786,-25.41827],[152.90944,-25.41882],[152.91912,-25.42776],[152.92169,-25.42534],[152.92058,-25.41912],[152.91474,-25.4057],[152.91634,-25.39959],[152.91005,-25.37719],[152.91305,-25.36872],[152.91799,-25.36328],[152.91445,-25.35831],[152.91501,-25.35411],[152.91187,-25.34776],[152.90791,-25.34368],[152.90888,-25.33804],[152.90585,-25.33443],[152.90557,-25.32232],[152.90194,-25.31458],[152.90485,-25.30686],[152.90869,-25.30288],[152.90998,-25.29877],[152.91449,-25.29334],[152.90857,-25.29032],[152.90855,-25.28784],[152.9036,-25.28265],[152.89963,-25.28088],[152.89063,-25.2805],[152.86938,-25.2836],[152.85324,-25.28301],[152.84482,-25.27936],[152.83362,-25.27569],[152.82694,-25.26326],[152.82525,-25.25334],[152.82785,-25.24781],[152.82368,-25.24728],[152.81388,-25.24349],[152.81151,-25.24613],[152.80456,-25.24824],[152.80866,-25.25261],[152.80572,-25.26306],[152.80233,-25.26202],[152.79766,-25.26602],[152.77954,-25.26881],[152.7688,-25.26901],[152.72763,-25.26703],[152.71114,-25.26258],[152.69382,-25.25612],[152.68104,-25.24778],[152.67459,-25.24487],[152.66797,-25.24582],[152.66354,-25.24402],[152.6623,-25.24049],[152.65102,-25.22999],[152.64924,-25.22655],[152.64148,-25.21857],[152.6295,-25.19874],[152.62121,-25.1886],[152.61497,-25.18328],[152.61076,-25.18335],[152.60289,-25.18608],[152.5952,-25.18737],[152.58268,-25.18638],[152.56937,-25.18167],[152.56343,-25.18111],[152.55653,-25.18227],[152.54833,-25.18825],[152.54732,-25.19693],[152.54802,-25.20488],[152.54716,-25.20676],[152.53349,-25.2127],[152.52552,-25.21078],[152.52464,-25.21487],[152.51699,-25.22131],[152.51197,-25.21878],[152.51217,-25.21294],[152.51006,-25.20924],[152.5039,-25.20891],[152.50105,-25.21084],[152.49402,-25.20972],[152.48336,-25.21694],[152.47383,-25.21678],[152.46879,-25.21507],[152.45926,-25.22382],[152.45065,-25.22831],[152.44899,-25.23341],[152.44101,-25.24857],[152.41577,-25.29006],[152.40949,-25.31269],[152.40615,-25.33453],[152.38468,-25.35619],[152.37236,-25.35301],[152.37303,-25.36297],[152.36439,-25.36348],[152.35901,-25.36647],[152.35451,-25.3661],[152.347,-25.37508],[152.33456,-25.38254],[152.33671,-25.38592],[152.33411,-25.38936],[152.3357,-25.39219],[152.32696,-25.40165],[152.32397,-25.40162],[152.32,-25.40748],[152.30799,-25.40641],[152.29909,-25.40813],[152.29862,-25.41022],[152.27252,-25.43222],[152.26205,-25.459],[152.26017,-25.46186],[152.26361,-25.47036],[152.26195,-25.47647],[152.26847,-25.48173],[152.2734,-25.48312],[152.27444,-25.4877],[152.27071,-25.48984],[152.26859,-25.5035],[152.27268,-25.50632],[152.27206,-25.51265],[152.2693,-25.51537],[152.26898,-25.52267],[152.26349,-25.52162],[152.25232,-25.52134],[152.23934,-25.51521],[152.23321,-25.51502],[152.23026,-25.5193],[152.22727,-25.51453],[152.21498,-25.51296],[152.21573,-25.52007],[152.20999,-25.52096],[152.20704,-25.51862],[152.20121,-25.51967],[152.19362,-25.51915],[152.17945,-25.52302],[152.17936,-25.52914],[152.17566,-25.53568],[152.16886,-25.54194],[152.16579,-25.54728],[152.16309,-25.55968],[152.16465,-25.57434],[152.1543,-25.58307],[152.14593,-25.5843],[152.13982,-25.58702],[152.12961,-25.58761],[152.13009,-25.59104],[152.12505,-25.59219],[152.12424,-25.59586],[152.11151,-25.59844],[152.10998,-25.60351],[152.1122,-25.61097],[152.11592,-25.61539],[152.11542,-25.62315],[152.11206,-25.62681],[152.10875,-25.62599],[152.10426,-25.62902],[152.09265,-25.63239],[152.09075,-25.63644],[152.08279,-25.63274],[152.07618,-25.62538],[152.06466,-25.62148],[152.05591,-25.62755],[152.05274,-25.61593],[152.04592,-25.61305],[152.0415,-25.61956],[152.03827,-25.64264],[152.02986,-25.64215],[152.02707,-25.65042],[152.01873,-25.65726],[152.01252,-25.66507],[152.01098,-25.67399],[152.01757,-25.68023],[152.01529,-25.68603],[152.0164,-25.68978],[152.01408,-25.7087],[152.00984,-25.71369],[152.00305,-25.71779],[151.99667,-25.71149],[151.98829,-25.71469],[151.9821,-25.71531],[151.98235,-25.729],[151.98023,-25.7334],[151.99531,-25.73713],[151.99765,-25.74668],[151.99649,-25.75084],[151.99775,-25.77101]]],[[[152.83717,-25.48762],[152.8439,-25.49095],[152.84712,-25.48726],[152.83717,-25.48762]]],[[[152.85718,-25.48239],[152.86218,-25.47993],[152.86278,-25.47068],[152.85789,-25.47678],[152.85718,-25.48239]]],[[[152.87188,-25.44449],[152.87031,-25.44933],[152.87289,-25.451],[152.88016,-25.44834],[152.87605,-25.44322],[152.87188,-25.44449]]],[[[152.57117,-25.17261],[152.56269,-25.17613],[152.5642,-25.17941],[152.57109,-25.1804],[152.58215,-25.18357],[152.58645,-25.17978],[152.58183,-25.1782],[152.57699,-25.17361],[152.57117,-25.17261]]],[[[152.9826,-25.79892],[152.97781,-25.80111],[152.97924,-25.80403],[152.98739,-25.80141],[152.9826,-25.79892]]],[[[152.95402,-25.62691],[152.95519,-25.6334],[152.9593,-25.63627],[152.96135,-25.62565],[152.96416,-25.62063],[152.96131,-25.6163],[152.95281,-25.61619],[152.95402,-25.62691]]],[[[152.92531,-25.61292],[152.92175,-25.6169],[152.92703,-25.62437],[152.93012,-25.61783],[152.92531,-25.61292]]],[[[152.95404,-25.60125],[152.9536,-25.61015],[152.9555,-25.61307],[152.96083,-25.61059],[152.96273,-25.60421],[152.95733,-25.59888],[152.95404,-25.60125]]],[[[152.93754,-25.6077],[152.93682,-25.60139],[152.93803,-25.59598],[152.93148,-25.58631],[152.92901,-25.59364],[152.93037,-25.60314],[152.93455,-25.60825],[152.93754,-25.6077]]],[[[152.88968,-25.57876],[152.88833,-25.58314],[152.8914,-25.59445],[152.89858,-25.59792],[152.90098,-25.59483],[152.89897,-25.57844],[152.89537,-25.57676],[152.88968,-25.57876]]],[[[152.92474,-25.59291],[152.92773,-25.58322],[152.92364,-25.5756],[152.91857,-25.57709],[152.91853,-25.58511],[152.92121,-25.59369],[152.92474,-25.59291]]],[[[152.945,-25.58223],[152.94733,-25.58111],[152.94953,-25.57521],[152.94857,-25.56959],[152.94926,-25.56375],[152.94211,-25.55943],[152.93796,-25.56279],[152.93963,-25.58068],[152.945,-25.58223]]],[[[152.88144,-25.56256],[152.87418,-25.568],[152.87425,-25.57074],[152.87582,-25.57267],[152.8795,-25.57531],[152.88346,-25.57536],[152.88467,-25.56927],[152.88144,-25.56256]]],[[[152.89172,-25.56687],[152.88915,-25.57098],[152.89158,-25.57388],[152.89885,-25.57433],[152.90341,-25.57219],[152.90179,-25.564],[152.89852,-25.56008],[152.89172,-25.56687]]],[[[152.88616,-25.56474],[152.8886,-25.56679],[152.89299,-25.56013],[152.88891,-25.55961],[152.88616,-25.56474]]],[[[152.92026,-25.56502],[152.92174,-25.55937],[152.91557,-25.5602],[152.91638,-25.5644],[152.92026,-25.56502]]],[[[152.91188,-25.54867],[152.9092,-25.54736],[152.90208,-25.55667],[152.90273,-25.55996],[152.90774,-25.56352],[152.91188,-25.54867]]],[[[152.94427,-25.55048],[152.94117,-25.55473],[152.94094,-25.5587],[152.94636,-25.55954],[152.94962,-25.54836],[152.94427,-25.55048]]],[[[152.88654,-25.55419],[152.88369,-25.55734],[152.89441,-25.55803],[152.89788,-25.55388],[152.8972,-25.54983],[152.88654,-25.55419]]],[[[152.95664,-25.50473],[152.95901,-25.51269],[152.96451,-25.49927],[152.95929,-25.50123],[152.95664,-25.50473]]],[[[152.91195,-25.52199],[152.91538,-25.52945],[152.92135,-25.52953],[152.92478,-25.5271],[152.93611,-25.52268],[152.93635,-25.51891],[152.94508,-25.51407],[152.95021,-25.50286],[152.95583,-25.49483],[152.95252,-25.4828],[152.94581,-25.47893],[152.93921,-25.47954],[152.93158,-25.48248],[152.92316,-25.49362],[152.91858,-25.49702],[152.91023,-25.49919],[152.90742,-25.50564],[152.90805,-25.51352],[152.91195,-25.52199]]],[[[152.96609,-25.49007],[152.96996,-25.48151],[152.96934,-25.47729],[152.96568,-25.47358],[152.96035,-25.47736],[152.95854,-25.48392],[152.9612,-25.49144],[152.96609,-25.49007]]],[[[152.98657,-25.31287],[152.98052,-25.30779],[152.97469,-25.29793],[152.96386,-25.29158],[152.96317,-25.28917],[152.95552,-25.28355],[152.95386,-25.27859],[152.94709,-25.27346],[152.94504,-25.27572],[152.94419,-25.28444],[152.94843,-25.28549],[152.95369,-25.29405],[152.95736,-25.2967],[152.95956,-25.30333],[152.96946,-25.30531],[152.97722,-25.30997],[152.98615,-25.32346],[152.98909,-25.3312],[152.9937,-25.33451],[152.9907,-25.32388],[152.98974,-25.31605],[152.98657,-25.31287]]]]},"properties":{"District Name":"Maryborough","DDMG Name":"Maryborough","Police Region Name":"North Coast Region","Police Region Code":"NCR","Police Region Short Name":"North Coast"}},{"type":"Feature","geometry":{"type":"MultiPolygon","coordinates":[[[[152.5752,-26.58399],[152.5761,-26.59109],[152.57402,-26.59546],[152.58415,-26.59668],[152.58148,-26.59967],[152.58202,-26.60433],[152.58537,-26.61202],[152.58779,-26.61398],[152.58321,-26.64537],[152.57147,-26.65796],[152.57229,-26.65924],[152.5522,-26.68084],[152.55574,-26.68049],[152.55561,-26.68741],[152.55768,-26.6914],[152.55171,-26.69703],[152.55111,-26.70309],[152.55294,-26.70602],[152.56218,-26.70799],[152.56508,-26.70721],[152.57293,-26.71138],[152.57937,-26.71619],[152.58203,-26.72023],[152.58049,-26.72276],[152.58552,-26.73324],[152.5823,-26.7358],[152.58331,-26.74042],[152.59083,-26.7472],[152.59615,-26.74813],[152.60011,-26.75179],[152.60246,-26.75787],[152.61725,-26.75946],[152.61947,-26.76204],[152.62689,-26.76236],[152.6325,-26.76438],[152.63909,-26.76176],[152.64123,-26.76749],[152.64569,-26.77365],[152.6532,-26.76866],[152.66147,-26.76913],[152.66732,-26.77299],[152.6689,-26.78974],[152.67241,-26.79427],[152.67896,-26.79674],[152.67922,-26.79986],[152.6988,-26.80297],[152.69645,-26.80912],[152.70914,-26.81112],[152.72099,-26.80855],[152.72663,-26.81146],[152.72908,-26.81662],[152.73297,-26.81494],[152.73918,-26.80801],[152.74949,-26.81628],[152.75308,-26.79734],[152.75919,-26.80304],[152.7611,-26.79235],[152.76692,-26.79331],[152.77103,-26.79594],[152.7795,-26.79712],[152.77726,-26.80939],[152.78861,-26.81296],[152.78674,-26.82225],[152.79209,-26.82708],[152.80102,-26.82631],[152.8049,-26.82415],[152.81144,-26.82838],[152.8184,-26.83745],[152.81815,-26.8402],[152.82448,-26.84937],[152.82905,-26.85021],[152.83237,-26.85611],[152.83858,-26.85502],[152.84805,-26.85815],[152.8532,-26.85621],[152.85171,-26.86518],[152.85834,-26.86607],[152.85748,-26.87122],[152.86948,-26.87286],[152.86679,-26.88891],[152.85549,-26.88737],[152.85428,-26.89456],[152.85534,-26.90189],[152.86118,-26.90274],[152.85947,-26.91129],[152.87545,-26.91351],[152.87254,-26.9302],[152.86829,-26.9336],[152.86136,-26.93627],[152.85806,-26.95619],[152.87401,-26.95831],[152.88552,-26.95594],[152.89117,-26.96074],[152.89844,-26.95802],[152.90372,-26.95388],[152.91329,-26.95396],[152.91973,-26.9555],[152.92352,-26.96008],[152.93259,-26.96331],[152.95161,-26.96602],[152.95337,-26.96844],[152.96134,-26.97255],[152.96664,-26.97879],[152.97502,-26.97437],[152.97814,-26.98025],[152.98514,-26.98471],[152.98843,-26.98312],[153.00297,-26.98477],[153.0116,-26.97898],[153.01686,-26.97905],[153.01846,-26.96634],[153.04278,-26.96946],[153.06321,-26.97799],[153.06586,-26.97497],[153.06668,-26.96597],[153.06312,-26.96293],[153.0592,-26.96278],[153.05393,-26.95916],[153.05241,-26.95576],[153.04314,-26.94623],[153.04575,-26.94024],[153.05346,-26.9327],[153.05979,-26.93294],[153.0619,-26.92859],[153.06027,-26.92414],[153.06246,-26.91575],[153.05885,-26.90959],[153.06217,-26.90719],[153.06074,-26.90387],[153.06281,-26.89968],[153.06676,-26.90452],[153.07271,-26.90821],[153.08198,-26.89573],[153.09202,-26.89541],[153.10887,-26.88683],[153.10653,-26.8785],[153.11259,-26.86778],[153.10945,-26.85797],[153.11048,-26.84713],[153.11488,-26.8417],[153.11943,-26.83329],[153.12185,-26.82609],[153.12119,-26.82008],[153.12304,-26.80991],[153.12487,-26.80626],[153.12877,-26.80564],[153.13397,-26.80931],[153.14204,-26.80337],[153.15072,-26.80211],[153.14846,-26.79714],[153.14852,-26.79132],[153.14124,-26.7886],[153.13701,-26.77291],[153.13729,-26.75859],[153.13497,-26.73949],[153.13445,-26.72998],[153.13547,-26.70581],[153.13746,-26.6821],[153.12994,-26.68377],[153.12174,-26.68098],[153.11541,-26.67492],[153.10857,-26.67019],[153.10411,-26.65718],[153.10334,-26.64773],[153.09869,-26.64259],[153.10098,-26.63961],[153.10114,-26.62304],[153.10204,-26.61653],[153.0985,-26.60535],[153.0976,-26.59738],[153.09769,-26.58014],[153.1003,-26.55565],[153.10263,-26.54667],[153.0957,-26.53822],[153.0927,-26.53184],[153.09262,-26.52703],[153.09451,-26.50419],[153.09706,-26.48998],[153.10128,-26.45844],[153.11522,-26.39601],[153.11836,-26.39085],[153.11491,-26.38698],[153.11685,-26.38014],[153.10825,-26.37721],[153.10556,-26.3797],[153.101,-26.37945],[153.09325,-26.38633],[153.08516,-26.38412],[153.08042,-26.38126],[153.07208,-26.3692],[153.06858,-26.36197],[153.06369,-26.34639],[153.06144,-26.32877],[153.06127,-26.3161],[153.06229,-26.30041],[153.06639,-26.27176],[153.07298,-26.24018],[153.07656,-26.22478],[153.08632,-26.18794],[153.09629,-26.15473],[152.97384,-26.13711],[152.97254,-26.14519],[152.97467,-26.14715],[152.97188,-26.16481],[152.96635,-26.17335],[152.96513,-26.18025],[152.96127,-26.18134],[152.96082,-26.18499],[152.95658,-26.18997],[152.94531,-26.19207],[152.94443,-26.19648],[152.94013,-26.19837],[152.93386,-26.19665],[152.9226,-26.19874],[152.92289,-26.20956],[152.90432,-26.20711],[152.90364,-26.21133],[152.89766,-26.21054],[152.89627,-26.21918],[152.89257,-26.21656],[152.88481,-26.2072],[152.87644,-26.20124],[152.85303,-26.19844],[152.85005,-26.21839],[152.83092,-26.21611],[152.83026,-26.2205],[152.82524,-26.22359],[152.82768,-26.23891],[152.82272,-26.24009],[152.82536,-26.24822],[152.80805,-26.29935],[152.80645,-26.30856],[152.79953,-26.31832],[152.79718,-26.32488],[152.79262,-26.35138],[152.78307,-26.34998],[152.77208,-26.34573],[152.76753,-26.36267],[152.76522,-26.36229],[152.7653,-26.37237],[152.77064,-26.37273],[152.76843,-26.38551],[152.769,-26.39391],[152.77912,-26.39531],[152.7779,-26.40244],[152.78153,-26.4045],[152.78934,-26.40352],[152.79345,-26.40689],[152.79639,-26.41911],[152.79351,-26.41794],[152.79116,-26.4318],[152.79531,-26.43255],[152.78862,-26.47303],[152.75762,-26.46843],[152.75766,-26.47538],[152.76539,-26.47577],[152.76561,-26.48202],[152.76163,-26.48372],[152.75243,-26.49143],[152.74928,-26.49779],[152.74482,-26.49935],[152.74371,-26.50816],[152.76209,-26.51064],[152.7597,-26.52498],[152.7674,-26.5273],[152.76952,-26.53121],[152.76716,-26.53733],[152.76342,-26.53872],[152.7585,-26.53637],[152.75822,-26.54393],[152.75274,-26.54975],[152.74983,-26.54724],[152.74514,-26.54961],[152.73765,-26.54024],[152.7334,-26.54299],[152.72845,-26.53696],[152.71468,-26.54634],[152.71245,-26.5462],[152.71056,-26.55657],[152.70076,-26.56519],[152.69494,-26.56787],[152.69497,-26.57555],[152.68603,-26.57701],[152.68101,-26.58393],[152.6829,-26.58927],[152.68049,-26.5977],[152.66997,-26.5961],[152.66027,-26.59709],[152.65359,-26.59282],[152.65265,-26.59023],[152.64367,-26.58624],[152.63576,-26.58511],[152.62564,-26.58197],[152.61867,-26.5843],[152.61223,-26.58296],[152.60632,-26.58428],[152.60588,-26.57969],[152.60252,-26.57792],[152.5955,-26.58409],[152.59219,-26.58435],[152.58795,-26.57973],[152.57929,-26.58087],[152.5752,-26.58399]]],[[[152.84621,-26.89183],[152.85204,-26.89202],[152.85066,-26.88675],[152.84695,-26.88745],[152.84621,-26.89183]]],[[[153.14696,-26.93732],[153.13865,-26.90825],[153.13235,-26.88359],[153.13038,-26.87116],[153.13005,-26.85903],[153.12864,-26.84288],[153.12928,-26.83707],[153.13358,-26.81474],[153.12981,-26.81544],[153.13157,-26.82284],[153.12903,-26.83118],[153.12806,-26.84181],[153.12486,-26.84639],[153.12704,-26.84982],[153.1289,-26.85815],[153.12713,-26.85943],[153.12733,-26.87167],[153.12995,-26.87391],[153.1247,-26.8772],[153.12355,-26.88112],[153.11789,-26.88273],[153.11366,-26.88773],[153.10075,-26.89586],[153.08819,-26.90119],[153.08368,-26.90228],[153.07771,-26.90696],[153.0752,-26.92027],[153.07864,-26.9253],[153.08292,-26.92796],[153.08528,-26.93408],[153.0833,-26.9369],[153.08606,-26.94149],[153.09046,-26.94328],[153.09052,-26.94727],[153.08697,-26.95197],[153.14696,-26.93732]]],[[[153.077,-26.95074],[153.07266,-26.95453],[153.07504,-26.95895],[153.07847,-26.95648],[153.077,-26.95074]]]]},"properties":{"District Name":"Sunshine Coast","DDMG Name":"Sunshine Coast","Police Region Name":"North Coast Region","Police Region Code":"NCR","Police Region Short Name":"North Coast"}}]}