{"type":"Topology","arcs":[[[47654,58034],[-2348,184],[-126,-1143],[-142,-1217],[311,-23],[-108,-1035],[-83,-793],[-73,-688],[-71,-667],[-115,-1082],[463,-33],[-103,-960],[32,-2],[-125,-1172],[-149,-28],[-29,3],[-21,-132],[-14,-133],[40,-3],[-61,-591],[-45,4],[-257,-451],[554,-47],[-88,-697],[-247,22],[-104,-838],[-197,17],[-65,-622],[-38,-385],[-919,67],[-42,-212],[400,-30],[-54,-512],[-9,3],[-95,-886],[340,-21],[-56,-605],[-954,13],[-1034,166],[-108,-70],[935,-903],[-762,-514],[287,-24],[-118,-963],[-435,-288],[366,-30],[-16,-158]],[[42171,40555],[-12,-205],[-16,-378],[-48,4],[-2,-37],[48,-18],[-17,-393],[-14,-402],[-91,-520],[-94,-555],[-1128,78],[-2057,145],[-15,-144],[-1652,117],[35,329],[-770,55],[-257,-1775],[-1795,68],[-201,-349],[-19,-54],[-40,-45],[-4,-192],[69,-127],[-23,-21],[29,-56],[-12,-115],[36,-82],[6,-71],[-990,61],[-164,-1768],[473,-442],[261,-215],[-82,-126],[-957,-657],[-760,-528],[525,-507],[707,-693],[-551,-326],[-121,110],[-362,27],[-83,0],[-13,-90],[24,-83],[31,-42],[81,-438],[13,-16],[137,-99],[58,-424],[-26,-27],[-61,-203],[80,-273],[-1274,-854],[-95,-15],[-19,-111],[12,-9],[347,-92],[244,-222],[-694,-474],[-565,-406],[162,-142],[70,-71],[-1291,-853],[74,-79],[1187,-1101],[320,-309],[278,-253],[305,-281],[24,-3],[139,83],[1116,766],[892,-861],[206,-172],[367,-339],[37,-52],[59,-38],[734,-692],[74,10],[87,-32],[-45,-31],[699,-650],[778,-771],[753,-73],[782,-73],[10,133],[1535,-8],[1645,-132],[14,127],[172,-14],[1440,-63],[-23,-156],[-81,-646],[-141,-1098],[-99,-773],[-117,-916],[-494,-348],[-299,-312],[-1082,1004],[-1173,-887],[421,-365],[878,-761],[345,-294],[-441,-295],[82,-85],[-688,-460],[1107,-1063],[-36,-26],[-24,-48],[-91,-55],[-78,-20],[-126,-19],[-59,8],[-67,-38],[-88,-31],[-75,-39],[-72,-60],[-86,-19],[-148,-17],[-58,-37],[-54,-82],[-76,-55],[-24,-57],[-39,-26],[-118,-56],[-36,-37],[-104,-48],[-72,-77],[-114,-65],[-151,-15],[-27,-19],[-59,10],[-158,-28],[-34,-42],[-72,-33],[-176,20],[-120,-23],[-35,-29],[-235,53],[-1916,431],[2,39],[-54,15],[-910,857],[-564,5],[-150,-1330],[-1263,-874],[37,356],[-1634,108],[-1271,5],[-1271,43],[-21,-234],[480,-33],[-113,-1337],[-633,40],[-61,-977],[-28,-347],[792,-58],[-91,-860],[-135,-1266],[-1472,113],[-140,34],[-154,-1533],[-87,-802],[1004,-70],[521,-461],[93,148],[47,95],[-18,31],[76,61],[159,44],[79,66],[75,26],[7,25],[58,26],[314,-519],[-150,-1404],[267,-15],[-19,-310],[174,-13],[-126,-1110],[-165,-1442],[-1566,0],[-1663,0],[-1663,-1],[-1663,0],[-1663,0],[-832,0],[-1663,0],[-831,0],[-1663,0],[-1014,-1],[-1298,0],[-1013,0],[-1062,0],[-1432,0],[-1662,-1],[-1662,0],[-1662,0],[-1662,0],[-1662,-1],[-1661,0],[-1105,0],[-1,661],[0,1322],[-1,1322],[0,662],[0,1321],[0,1322],[0,1322],[0,1322],[0,1322],[0,661],[-1,1322],[0,661],[0,1321],[0,662],[0,1322],[0,1322],[0,1322],[-1,1308],[-1,675],[0,1323],[-1,661],[-1,1322],[-1,1322],[0,926],[-1,581],[-1,1138],[-1,794],[0,1188],[0,661],[-1,1190],[-1,661],[0,822],[-1,1294],[-1,1323],[-1,842],[-1,1274],[-1,1191],[-1,1322],[-1,1323],[0,662],[-1,1322],[-1,1323],[-1,1323],[0,753],[-1,1232],[-1,1323],[-1,1323],[-1,1323],[-1,1324],[0,1323],[-1,1324],[-1,662],[-1,1324],[-1,1323],[-1,1324],[1,753],[2,878],[-1,1015],[-1,1323],[0,661],[-1,1048],[-3,3979],[-1,927],[-1,1323],[-1,1323],[0,661],[-1,926],[-1,1059],[0,661],[-1,1814],[-1,833],[-1,1323],[0,1324],[-1,1324],[-1,1424],[99,-80],[135,-69],[112,-82],[12,-50],[101,-31],[52,-29],[66,-64],[99,-158],[196,-112],[24,-25],[-1,-44],[46,2],[104,-92],[138,-106],[62,-59],[137,-66],[153,-86],[101,-38],[44,-33],[-10,-63],[62,14],[79,-51],[101,-52],[164,-72],[105,-39],[201,-61],[149,-36],[293,-58],[59,-18],[153,-118],[92,-44],[98,-29],[52,-6],[88,-45],[102,25],[21,44],[140,-23],[35,15],[130,-5],[55,-13],[210,-81],[147,-68],[147,-104],[98,-36],[56,-1],[59,18],[150,-5],[86,-45],[57,-3],[173,-57],[65,15],[43,29],[195,-19],[191,-3],[85,-21],[29,24],[169,28],[185,9],[82,-13],[16,12],[177,30],[88,7],[175,24],[30,20],[49,-27],[40,-2],[135,-34],[15,-30],[125,-106],[60,-39],[212,-88],[226,-68],[161,-41],[33,-32],[55,-5],[168,-61],[59,-48],[159,-66],[133,-40],[218,-50],[127,-24],[53,-19],[46,-54],[71,-41],[109,-43],[254,-49],[102,-24],[52,-41],[126,-12],[96,35],[24,20],[196,-56],[112,-16],[53,-29],[37,17],[145,-15],[196,-13],[19,-23],[95,-22],[62,-57],[46,42],[61,-17],[163,-93],[58,-24],[76,-17],[7,-56],[-36,-22],[-40,-60],[23,-18],[8,-66],[46,-93],[70,-76],[250,-151],[96,-165],[138,-144],[36,1],[108,-44],[96,-48],[257,-65],[75,-12],[91,-44],[-31,-49],[-19,-70],[-65,-98],[-52,-206],[-5,-103],[9,-60],[42,-149],[39,-101],[3,-56],[24,-52],[25,-126],[25,-210],[41,-77],[2,-45],[67,-114],[7,-58],[21,-10],[49,-110],[90,-144],[55,-129],[85,-126],[55,-107],[26,-120],[36,-28],[95,-145],[44,-27],[171,-142],[45,-20],[131,-77],[292,-149],[22,-30],[40,-2],[84,-35],[119,-64],[114,-21],[151,-49],[49,-35],[116,5],[116,-6],[132,4],[146,16],[201,0],[88,-16],[66,-34],[201,-90],[89,-65],[98,-10],[115,-34],[64,-30],[192,-117],[119,-107],[92,-43],[162,-64],[83,-68],[121,-115],[-117,-37],[133,-66],[108,-24],[27,-32],[41,8],[52,-32],[55,11],[52,-18],[64,-42],[44,-103],[31,-52],[50,-38],[-4,-36],[54,8],[29,-49],[71,-58],[160,-58],[51,-48],[80,-53],[86,-7],[172,-49],[71,2],[191,-38],[112,-7],[5,-42],[63,-3],[60,24],[116,-41],[38,-49],[38,-12],[47,-46],[51,-5],[45,23],[20,-39],[-20,-55],[42,-6],[169,38],[99,-6],[59,-17],[39,-30],[52,4],[28,31],[51,-22],[48,2],[26,35],[52,33],[55,0],[46,-29],[19,-43],[102,-79],[2,-56],[-41,-30],[-17,-52],[14,-28],[119,2],[-37,33],[31,54],[28,-5],[310,-123],[164,-48],[179,-40],[48,-23],[78,-14],[161,-76],[30,-52],[-65,-74],[37,-21],[-4,-101],[21,-51],[46,-70],[135,-134],[157,-115],[100,-59],[104,-52],[147,-39],[245,-47],[148,-9],[467,-8],[359,39],[180,44],[133,19],[49,-16],[22,20],[123,27],[98,4],[63,21],[158,26],[57,-5],[45,-47],[154,53],[34,2],[155,38],[79,9],[66,-5],[164,27],[65,-7],[47,17],[186,33],[50,14],[194,8],[215,23],[141,31],[144,21],[149,44],[218,98],[132,64],[83,66],[122,34],[57,36],[26,-37],[82,-24],[60,37],[115,-1],[286,76],[193,59],[199,99],[156,122],[65,28],[64,5],[117,35],[104,4],[59,50],[71,32],[251,128],[143,92],[89,85],[29,-1],[182,167],[18,27],[149,86],[133,61],[88,75],[60,-28],[173,-30],[40,14],[32,37],[40,80],[158,128],[110,52],[0,35],[208,47],[128,47],[98,26],[169,-4],[-11,63],[82,98],[105,88],[23,53],[75,93],[37,58],[78,89],[161,203],[61,11],[-36,58],[46,72],[12,67],[40,103],[3,57],[68,178],[-11,82],[12,91],[25,65],[44,78],[-25,22],[5,60],[30,11],[20,172],[4,84],[35,165],[36,66],[83,107],[-6,117],[75,95],[78,31],[10,18],[-11,92],[81,172],[31,34],[-11,59],[42,212],[22,157],[-15,42],[32,83],[-18,44],[6,70],[-18,119],[-31,54],[4,81],[-30,34],[-17,58],[7,50],[50,178],[67,155],[56,66],[102,165],[103,90],[123,82],[157,122],[167,174],[156,171],[122,151],[110,146],[89,158],[61,186],[-15,116],[45,115],[26,10],[68,-26],[55,9],[17,69],[128,57],[187,129],[150,120],[198,184],[228,234],[164,230],[43,31],[14,37],[125,193],[55,133],[39,245],[43,154],[35,93],[13,102],[27,59],[56,46],[6,34],[58,112],[98,57],[46,-3],[62,-63],[45,68],[3,86],[85,144],[70,129],[36,80],[117,185],[28,97],[7,77],[-22,145],[-58,109],[-93,89],[-31,53],[2,122],[32,82],[54,18],[31,34],[18,97],[52,75],[68,125],[57,77],[28,61],[58,163],[-1,32],[102,279],[4,39],[58,125],[38,169],[24,128],[-27,66],[23,87],[61,111],[128,166],[16,28],[201,266],[15,29],[120,150],[124,190],[97,161],[86,177],[30,118],[-25,100],[-31,71],[-29,21],[-68,102],[-58,120],[-21,25],[-45,145],[-24,111],[-44,110],[-26,116],[-23,52],[3,51],[-26,82],[-131,232],[-8,55],[52,39],[64,27],[24,-7],[50,32],[-12,86],[69,121],[64,142],[36,145],[31,160],[7,104],[36,302],[4,96],[33,392],[18,180],[13,71],[42,153],[52,244],[7,65],[52,148],[109,396],[45,176],[125,409],[50,141],[68,149],[53,56],[70,21],[15,79],[69,25],[29,-55],[50,-7],[-82,-88],[-74,-55],[4,-67],[36,-10],[0,57],[65,41],[28,-15],[20,-65],[-45,-16],[4,-27],[70,-26],[24,22],[67,-29],[33,-37],[66,0],[-1,44],[-62,7],[-4,76],[106,-7],[-10,45],[47,16],[31,-35],[47,-15],[65,15],[27,-15],[-2,-48],[83,7],[-30,-58],[-7,-69],[71,-35],[24,39],[91,40],[53,0],[23,62],[57,-22],[60,9],[54,-41],[8,-37],[55,-56],[136,-9],[91,-37],[20,-31],[113,25],[1657,-123],[1793,-132],[235,1053],[-37,53],[-81,49],[-15,39],[-116,102],[-23,43],[-47,28],[-74,18],[-14,54],[-51,47],[-62,10],[-50,65],[1,63],[38,42],[129,54],[69,133],[54,90],[76,-19],[87,-43],[121,-21],[56,-30],[115,-45],[69,-59],[57,6],[710,1716],[1029,-1432],[491,-687],[3051,-246],[1189,-94],[17,159],[162,1198],[1777,-112],[1377,-86],[-132,-1331],[-584,43],[-131,-1319],[-1144,59],[-101,-1268],[-659,43],[-109,-1355],[-675,-527],[-89,-568],[93,-34],[58,-66],[48,-92],[79,-110],[119,-98],[119,-51],[86,-27],[85,-9],[106,0],[77,-33],[51,-48],[119,-89],[125,-122],[80,-64],[-1,-23],[-447,-556],[-639,371],[-425,-530],[-172,-1124],[-339,-2217],[-245,-2309],[-155,-1463],[-896,-1049],[63,-44],[13,-34],[74,-44],[44,-3],[52,-35],[64,-7],[47,-23],[30,-70],[36,-20],[-7,-37],[53,-35],[5,-26],[72,-68],[121,-53],[11,-32],[68,-28],[121,-106],[32,-15],[48,-75],[69,-11],[24,-33],[136,-14],[58,12],[-410,-466],[-1029,-1170],[-631,628],[-1712,-1330],[96,-50],[93,-24],[131,-17],[116,5],[85,-34],[43,-56],[93,-52],[63,-4],[70,-45],[11,-27],[67,-50],[41,-85],[51,-61],[-1,-40],[-925,-678],[-1247,1201],[-471,-336],[-1184,1278],[-71,-52],[-1092,-782],[532,-547],[-1149,118],[32,333],[-1576,114],[-38,-346],[-1556,133],[-88,-828],[-74,-684],[-253,18],[-41,-625],[622,-29],[-55,-633],[-115,-58],[-88,-53],[-96,-16],[-57,59],[-53,33],[-109,17],[-87,-7],[-128,-31],[-29,10],[3,72],[-23,22],[-97,8],[-95,-11],[-109,102],[-118,-31],[-129,-1477],[1695,-105],[-23,-259],[-754,38],[-11,-120],[-39,-534],[70,23],[53,1],[-52,-484],[-1173,95],[21,214],[-868,71],[-81,-891],[-467,26],[-66,-20],[-43,-88],[-23,-27],[18,-61],[-10,-52],[41,-66],[6,-42],[39,-69],[9,-70],[-8,-43],[-56,-93],[-9,-83],[78,-61],[29,24],[104,-28],[55,-78],[40,8],[36,-31],[103,-43],[10,-36],[61,-81],[-3,-48],[32,-21],[10,-57],[-13,-71],[45,-66],[80,7],[33,-24],[3,-38],[46,-29],[20,-68],[-5,-41],[23,-42],[-24,-28],[18,-53],[76,-61],[-17,-63],[18,-70],[-26,-44],[33,-19],[27,-73],[-3,-35],[160,-76],[36,-87],[81,-38],[2,-29],[47,-94],[75,-11],[45,-32],[14,-83],[21,-38],[55,-61],[69,-22],[25,-64],[-14,-63],[14,-41],[-33,-58],[90,-50],[31,-33],[86,-12],[20,-28],[-14,-72],[36,-94],[-41,-23],[2,-50],[-51,-25],[5,-44],[-28,-38],[50,-73],[-60,-40],[1,-46],[66,-72],[-17,-61],[-75,-5],[-59,-47],[9,-87],[-20,-35],[26,-38],[-7,-64],[28,-102],[-1,-48],[43,-19],[66,-72],[17,-63],[-37,-23],[-52,-6],[19,-79],[-15,-24],[26,-67],[54,-32],[24,-58],[-5,-64],[12,-30],[-38,-39],[164,-97],[568,-46],[-61,-509],[2007,-177],[665,-61],[720,-55],[-110,-1026],[-137,-1305],[-330,24],[-166,-1342],[-116,10],[11,-71],[33,-27],[-20,-53],[16,-70],[41,-7],[-15,-39],[63,-29],[24,-42],[49,0],[76,-46],[39,9],[44,-23],[149,0],[111,-18],[101,33],[76,-16],[44,10],[64,-31],[79,-101],[50,-19],[67,-57],[140,0],[57,-45],[47,-10],[56,-61],[90,-13],[93,13],[92,1034],[1655,-105],[107,1012],[1916,-136],[25,218],[491,-24],[-178,-1546],[783,-69],[14,123],[1198,-104],[16,227],[485,-36],[-182,-1683],[-91,-810],[217,-17],[14,126],[1701,-107],[451,-27],[-130,-1305],[180,-11],[-76,-658]],[[37812,99453],[7,-114],[124,-129],[76,-72],[34,-58],[112,3],[20,52],[37,36],[63,12],[101,-64],[42,-39],[36,25],[50,-5],[24,-23],[-14,-49],[-72,12],[-24,-35],[48,-24],[51,37],[56,-27],[-35,-65],[25,-111],[43,2],[39,-26],[106,27],[123,-18],[19,43],[71,-7],[28,-36],[55,11],[39,-14],[46,16],[49,-11],[24,-37],[192,42],[-2,29],[145,45],[48,-34],[87,40],[53,11],[66,41],[66,-13],[30,10],[59,-1],[84,14],[49,-11],[19,24],[67,31],[47,-11],[81,45],[58,15],[67,-17],[89,12],[19,35],[51,8],[66,-9],[41,-30],[45,6],[132,139],[85,30],[34,24],[49,-7],[61,14],[55,31],[109,-4],[84,39],[29,-24],[83,-8],[151,87],[48,5],[84,45],[64,20],[62,-28],[39,28],[129,25],[1,50],[228,109],[52,46],[-2,18],[65,70],[4,39],[117,115],[67,89],[25,-10],[-13,-58],[20,-33],[-151,-124],[-5,-55],[-127,-70],[-79,-98],[-45,0],[-41,-21],[-68,-77],[-70,-20],[-47,-58],[-47,6],[-92,-17],[-41,5],[-48,-27],[-61,-6],[-67,-49],[-38,-6],[-23,-32],[-121,-24],[-54,14],[-59,57],[-67,-29],[-60,-43],[-70,-20],[-43,-29],[-57,-16],[-52,-33],[-107,-17],[-51,2],[-67,-68],[-63,-7],[-30,32],[-53,7],[-65,-15],[-11,-33],[-136,-5],[-28,12],[-52,-12],[-85,-46],[-37,13],[-56,-22],[-34,-35],[-54,15],[-62,-25],[-88,11],[-36,-12],[-48,7],[-72,-36],[-138,-53],[-48,35],[-73,-18],[-68,-30],[3,-28],[-105,-31],[-89,-15],[-40,48],[-53,7],[-26,-19],[-21,14],[-48,-20],[-43,20],[-61,7],[-50,-47],[-78,25],[6,-62],[-55,-8],[-31,38],[-74,4],[-5,27],[-76,23],[-29,87],[-31,28],[34,23],[-13,29],[-58,-7],[-40,15],[-2,74],[-35,42],[-51,-15],[-8,49],[-39,32],[-41,-2],[-47,-31],[-25,-56],[-122,-14],[-78,86],[-122,94],[-58,19],[-49,57],[-12,44],[21,77],[54,13]],[[19172,84940],[44,23],[81,-1],[88,33],[-4,75],[17,28],[46,10],[23,-38],[105,-37],[-80,-29],[-44,-54],[-79,-9],[-74,-39],[-15,-40],[-54,18],[-54,60]],[[18946,84584],[57,46],[73,-7],[-56,-37],[-74,-2]],[[18712,86543],[58,-32],[-24,-31],[-47,41],[13,22]],[[17659,86662],[48,9],[55,63],[7,77],[52,65],[95,-12],[38,-38],[-17,-51],[14,-96],[47,-51],[-16,-70],[7,-51],[-13,-83],[-19,-6],[-47,73],[-67,27],[-67,-15],[-44,20],[-71,102],[-2,37]],[[12110,85471],[99,59],[93,78],[167,97],[101,76],[67,100],[5,37],[-41,51],[80,98],[-29,33],[127,62],[71,47],[43,47],[21,92],[-21,33],[73,28],[73,45],[85,23],[157,86],[121,58],[79,94],[40,33],[78,33],[64,1],[101,-36],[79,-8],[150,32],[87,41],[41,-54],[106,-43],[20,38],[-121,35],[-16,13],[44,56],[170,10],[74,-4],[142,38],[229,17],[77,-20],[154,-5],[117,6],[113,25],[76,32],[2,28],[82,31],[31,45],[134,54],[201,61],[93,35],[85,42],[29,46],[-11,50],[56,14],[52,55],[92,-42],[134,-30],[209,-17],[152,-29],[123,-155],[89,-48],[90,-64],[101,-111],[88,-44],[101,-13],[115,7],[60,-20],[29,-46],[-26,-59],[21,-47],[60,20],[43,-7],[27,-78],[51,-18],[36,-81],[-30,-74],[8,-138],[-19,-36],[34,-27],[84,-33],[4,-53],[21,-37],[-71,-23],[-44,6],[-70,-14],[-67,6],[-8,77],[-50,55],[-85,14],[-113,0],[-57,-14],[-64,-50],[-83,-10],[-43,-53],[-50,8],[-63,-19],[-44,-37],[-113,-39],[-102,-59],[-79,-58],[-29,33],[7,47],[-49,39],[2,88],[-93,36],[-10,64],[-28,48],[51,50],[-5,47],[-36,43],[-117,41],[-75,34],[-2,50],[44,25],[-18,32],[-101,-24],[-92,-35],[-10,-49],[-41,-84],[-58,-35],[-19,-31],[34,-30],[-23,-46],[-31,13],[-154,-3],[-43,41],[-92,-33],[-69,-74],[-109,-1],[-62,29],[-63,-53],[-5,-47],[30,-7],[77,-72],[34,-50],[78,-15],[77,9],[59,18],[88,-1],[16,-16],[14,-92],[-27,-45],[-66,-66],[-1,-78],[-59,10],[-15,41],[-40,35],[4,68],[-123,40],[-100,-11],[-79,-39],[-87,-74],[-37,-106],[101,-12],[59,-27],[-19,-129],[-18,-61],[60,-76],[-18,-50],[-50,-74],[-53,-16],[-52,16],[-82,-1],[-123,-32],[41,-39],[19,-49],[53,-37],[35,-56],[-13,-46],[-4,-92],[-84,-26],[-21,-23],[-48,15],[-132,6],[-52,-11],[-14,25],[27,39],[-17,51],[-83,123],[-82,70],[-61,13],[-95,108],[-66,24],[90,69],[-61,15],[-74,59],[-71,23],[-31,-11],[7,-43],[100,-67],[4,-33],[-56,-4],[29,-68],[2,-138],[9,-39],[87,-78],[-34,-62],[-92,-70],[-36,-64],[40,-100],[-43,20],[-84,78],[-104,22],[-10,-26],[54,-48],[-6,-50],[-46,-43],[-136,-94],[-40,-40],[-39,-5],[-129,-192],[-56,48],[-62,0],[-78,-41],[-61,-51],[-75,21],[-71,-10],[-62,18],[-40,55],[-138,8],[-79,-13],[-109,-51],[-36,-6],[-29,45],[-1,39],[-31,76],[-55,47],[-89,22],[15,70],[70,58],[-15,26],[-89,-50],[-27,-100],[-54,-5],[-41,123],[13,88],[-1,65],[-40,72],[-33,22],[-145,-10],[-27,14],[-69,-14],[-42,17],[-39,72],[-4,85],[-43,90],[-43,42],[34,45],[62,54],[25,58],[-15,56],[54,52]],[[16617,80858],[119,41],[28,35],[3,39],[-20,57],[56,55],[29,55],[31,26],[8,47],[-19,56],[21,45],[78,-30],[61,-82],[-51,-59],[-11,-47],[-43,-37],[-96,-156],[-60,-83],[-18,-82],[14,-21],[11,-104],[-63,18],[-47,-11],[-59,83],[-12,134],[40,21]],[[14491,81131],[95,-20],[89,7],[106,42],[109,116],[127,56],[55,38],[28,47],[10,107],[24,77],[71,5],[95,-16],[22,29],[78,19],[71,59],[41,53],[-7,42],[20,66],[-25,45],[22,62],[-27,88],[105,-38],[66,-110],[115,-116],[52,-30],[120,-93],[66,-73],[54,-32],[74,-15],[-62,-78],[11,-89],[52,-122],[54,-64],[92,-64],[46,-87],[-75,-4],[-78,-23],[-78,-42],[-57,8],[-146,-13],[-143,-45],[-44,-69],[-40,-18],[-25,-52],[-46,26],[-130,26],[-117,-27],[-33,40],[-16,53],[23,64],[-28,64],[-139,-19],[-105,-21],[-47,-18],[-191,-34],[-19,-72],[-76,-120],[-49,-7],[-31,28],[-4,62],[-54,62],[-47,23],[2,55],[-55,84],[-1,78]],[[16115,80837],[64,-40],[-45,-37],[-28,-59],[-28,44],[47,45],[-10,47]],[[14997,84775],[35,13],[48,50],[107,34],[28,23],[58,-11],[42,-57],[6,-36],[-41,-26],[-62,-95],[-14,-60],[-55,-23],[-61,-46],[-80,10],[-46,25],[3,48],[-34,20],[53,79],[13,52]],[[14367,81219],[-11,-23],[-149,26],[-21,31],[89,-4],[92,-30]],[[13103,81972],[15,22],[59,-16],[64,-33],[-46,-63],[-22,22],[-66,-13],[15,51],[-19,30]],[[12535,81826],[59,-2],[60,-71],[68,-33],[43,-53],[132,-71],[35,-64],[79,-76],[120,-74],[-138,-10],[2,51],[-34,43],[-91,1],[-36,-15],[-70,43],[-49,94],[-53,3],[-44,-22],[-2,55],[-20,53],[-50,53],[-23,51],[12,44]],[[11903,84668],[60,64],[201,134],[64,-7],[68,-21],[41,-40],[-27,-123],[-37,-49],[-3,-30],[41,-102],[11,-59],[-82,-82],[-70,-3],[-61,-35],[-49,-51],[-9,-34],[19,-67],[-82,10],[-59,-9],[-70,-46],[-18,37],[37,62],[43,99],[-8,50],[-28,71],[-37,34],[-2,68],[42,58],[15,71]],[[11369,83560],[57,24],[278,92],[47,31],[38,-23],[36,-85],[84,-45],[33,-42],[-47,-52],[-103,6],[-38,18],[-93,-31],[-28,15],[-45,-51],[-22,4],[-93,-33],[-58,-56],[-34,-8],[-36,83],[-8,46],[44,77],[-12,30]],[[11864,84097],[53,-57],[-62,-4],[9,61]],[[10947,82896],[49,27],[20,-30],[91,-45],[34,-78],[-21,-17],[-50,53],[-45,3],[-78,87]],[[11022,83092],[50,12],[12,-52],[-73,-34],[-15,46],[26,28]],[[47654,58034],[-16,-140],[1996,-149],[1871,-137],[574,-39],[1733,-130],[539,-40],[72,73],[50,-6],[42,-38],[46,-69],[51,-20],[108,63],[32,48],[11,132],[91,122],[77,154],[50,56],[68,44],[163,67],[38,40],[55,101],[43,17],[54,-6],[169,-76],[53,-10],[106,11],[116,144],[5,96],[-8,88],[41,12],[51,46],[106,53],[40,-25],[134,36],[42,-19],[101,-7],[37,66],[66,26],[45,84],[39,16],[46,45],[244,83],[119,59],[83,76],[38,97],[-21,126],[-35,69],[63,36],[99,37],[126,37],[145,-43],[163,-82],[149,-103],[36,-42],[76,-52],[103,-132],[50,-78],[124,-244],[17,-26],[286,-217],[77,-33],[242,-88],[49,1],[341,106],[196,-42],[185,-58],[245,-86],[220,-107],[284,-117],[283,-60],[457,29],[301,28],[134,32],[97,48],[85,22],[121,-9],[95,-22],[120,11],[126,-4],[37,8],[107,58],[152,155],[164,130],[98,119],[66,-3],[117,-34],[176,-33],[151,-13],[94,32],[46,40],[72,-1],[157,57],[80,-1],[102,-17],[159,-81],[25,-109],[55,-54],[72,-27],[104,-22],[99,-36],[59,-58],[147,-79],[52,26],[76,67],[95,131],[73,78],[70,24],[118,64],[64,-1],[136,64],[32,23],[38,326],[33,303],[437,-38],[72,706],[184,-56],[185,-6],[655,-95],[204,-61],[71,701],[1174,-120],[72,592],[202,-17],[17,135],[36,80],[74,80],[1246,980],[217,-217],[623,408],[-78,27],[-138,9],[-63,-13],[-103,-45],[-208,130],[-611,1193],[-160,106],[-18,84],[98,546],[144,134],[712,457],[-464,482],[652,441],[-9,47],[-30,25],[22,40],[-9,45],[-44,13],[8,60],[-108,101],[-54,-7],[-96,-61],[-51,37],[-74,74],[-77,0],[-24,30],[-49,1],[-60,30],[-13,85],[31,45],[-53,44],[469,377],[-237,208],[-1164,108],[86,527],[168,1322],[16,1023],[656,-59],[53,-84],[11,-34],[135,-236],[112,-10],[29,-12],[63,8],[204,-12],[179,-114],[55,24],[126,3],[91,-27],[63,20],[58,0],[-36,-277],[-73,-73],[-73,-291],[39,-113],[-48,-371],[453,-38],[-23,-187],[474,-44],[-36,36],[-4,54],[23,71],[-7,34],[304,-26],[-44,59],[46,76],[20,66],[-19,43],[35,19],[14,-61],[46,-38],[40,42],[-15,76],[55,33],[32,-25],[23,-101],[31,-80],[47,-13],[10,-45],[-12,-77],[680,-57],[44,-38],[-5,-102],[22,-17],[-9,-51],[34,-33],[-17,-82],[104,-53],[52,9],[77,-9],[40,-55],[62,7],[49,-57],[109,-6],[66,27],[86,58],[42,15],[81,-16],[59,-61],[1,-44],[-28,-36],[48,-15],[54,18],[-3,65],[85,115],[84,68],[7,65],[23,32],[126,127],[9,36],[49,51],[53,6],[17,144],[-107,9],[-18,50],[62,80],[79,-6],[-38,70],[3,212],[-24,24],[33,139],[-59,57],[-56,16],[-82,76],[-25,77],[-5,74],[25,24],[-24,44],[-131,-25],[-56,26],[-48,5],[-43,45],[-16,65],[23,19],[-29,41],[22,87],[32,-5],[27,42],[84,-60],[77,0],[33,110],[80,52],[287,-26],[8,16],[752,-66],[-82,-658],[274,-24],[-75,-87],[233,-142],[-51,-81],[625,-652],[271,-314],[68,47],[1081,-104],[69,1043],[1268,-138],[957,-103],[-21,73],[-65,86],[73,23],[134,22],[45,38],[-33,75],[72,-35],[35,66],[48,-4],[29,46],[82,64],[-4,67],[34,15],[23,50],[-51,87],[7,57],[138,-12],[-99,57],[-22,67],[51,17],[69,-50],[69,4],[71,43],[55,-74],[47,-9],[30,20],[-17,33],[2,69],[135,36],[-21,48],[19,24],[47,-2],[83,-78],[-11,-75],[-24,-25],[29,-48],[71,-35],[75,44],[62,-37],[91,14],[94,-9],[91,31],[56,-2],[26,23],[43,-29],[21,-39],[71,26],[47,43],[73,27],[109,82],[1,24],[81,66],[25,-2],[107,78],[42,-7],[144,56],[150,-274],[127,-14],[65,5],[33,-16],[87,30],[93,2],[81,22],[18,21],[103,-5],[62,-22],[105,34],[101,-78],[29,37],[35,-22],[223,-76],[112,23],[78,-98],[80,-33],[-24,-52],[4,-49],[34,-57],[-84,-69],[-22,-70],[25,-31],[76,-1],[33,-19],[31,-88],[70,-85],[1,-50],[44,-18],[36,-41],[-55,-45],[-13,-53],[18,-55],[48,-60],[169,-42],[95,-42],[89,-15],[94,12],[102,-35],[49,-31],[10,-46],[30,-24],[78,37],[-3,43],[48,22],[42,-6],[78,49],[36,75],[142,129],[59,41],[120,-26],[100,-1],[111,-18],[143,-74],[96,-36],[102,-15],[79,-65],[63,-25],[51,-35],[66,24],[42,-30],[46,18],[95,-47],[-17,-66],[93,-192],[5,-47],[-57,-34],[26,-133],[-33,-87],[-18,-138],[15,-41],[-13,-48],[-156,-246],[-31,-20],[-3,-39],[53,-9],[73,53],[31,61],[27,100],[27,-10],[-27,-98],[-165,-251],[-15,-39],[-82,-140],[-102,-208],[-98,-273],[-36,-123],[-14,-104],[-24,-17],[-8,-104],[-65,-247],[-29,-216],[1,-166],[6,-109],[-10,-31],[36,-99],[35,-5],[20,-50],[-2,-52],[72,-114],[46,-25],[35,-59],[63,-38],[80,-88],[52,-14],[77,-117],[58,-75],[19,-92],[42,-68],[83,-29],[103,-4],[92,-65],[42,-104],[61,-107],[72,-67],[167,-8],[54,-71],[39,-12],[64,-101],[64,-56],[30,-58],[66,-64],[112,-153],[107,-119],[88,-63],[133,4],[36,-17],[93,-94],[95,-66],[104,-37],[48,11],[126,-27],[87,-54],[43,-50],[108,-45],[50,-48],[36,-62],[69,-83],[79,-51],[100,-22],[139,4],[113,-29],[197,-136],[126,-66],[108,-29],[131,-22],[19,-20],[113,-62],[152,-53],[98,-23],[106,13],[42,-12],[122,47],[53,7],[51,54],[38,-12],[86,23],[145,-7],[116,-35],[40,6],[81,-40],[21,-191],[41,-129],[55,-90],[50,-54],[72,-32],[34,37],[49,4],[110,-102],[49,-24],[34,30],[105,-14],[30,44],[39,-14],[63,-74],[-117,-121],[74,-35],[55,-6],[74,-54],[85,-98],[24,1],[70,-67],[126,-64],[128,-12],[103,17],[29,20],[137,0],[57,33],[46,-2],[99,25],[72,-10],[54,-36],[33,-5],[28,70],[55,41],[119,46],[40,70],[78,78],[40,69],[127,168],[-32,42],[40,46],[20,49],[90,48],[56,48],[13,75],[-47,37],[14,47],[-15,62],[-34,21],[18,31],[43,-25],[13,-48],[191,-129],[26,-132],[20,-28],[-22,-38],[24,-76],[53,-19],[34,-66],[61,-62],[-22,-72],[26,-99],[-20,-33],[-61,35],[-59,-17],[-17,-45],[-9,-79],[-37,-54],[10,-25],[68,-15],[77,-185],[125,-219],[107,-114],[92,-79],[152,-115],[73,-44],[57,-55],[-37,-43],[-2,-42],[44,-50],[32,-75],[48,-1],[16,-67],[24,-38],[44,5],[51,31],[13,56],[-18,48],[78,3],[71,-10],[125,19],[12,-38],[71,-32],[33,29],[127,-14],[116,-34],[63,-39],[92,-33],[49,2],[54,34],[142,8],[75,-91],[52,-35],[123,15],[48,48],[117,25],[48,27],[27,-12],[97,48],[9,24],[55,32],[65,19],[77,-29],[18,23],[48,-3],[70,-55],[39,5],[90,-19],[109,-14],[60,3],[72,-19],[294,17],[75,-16],[106,-49],[76,-13],[69,1],[117,20],[105,30],[111,135],[29,97],[-19,93],[-62,62],[-7,101],[-47,62],[-61,33],[-98,101],[-11,66],[-71,22],[-27,82],[53,46],[-78,48],[39,14],[157,-166],[75,-96],[71,-115],[21,-17],[36,-76],[34,-43],[47,-102],[28,-37],[55,-147],[10,-69],[23,-67],[30,-141],[28,-67],[49,-58],[-12,-29],[48,-82],[18,-58],[137,-141],[9,-37],[87,-4],[84,-55],[13,-69],[114,-137],[2,-23],[80,-92],[88,-3],[77,-114],[113,-210],[66,-170],[23,-128],[-23,-94],[54,-43],[16,-84],[32,-47],[-71,-40],[72,-56],[46,-89],[-1,-30],[135,33],[60,-49],[121,-220],[22,-66],[-29,-53],[-162,5],[23,-32],[-44,-100],[-19,-73],[-36,-35],[-57,-107],[69,-61],[39,-90],[6,-61],[37,-82],[76,-95],[136,-119],[89,-66],[182,-108],[130,-70],[28,-29],[-575,98],[-59,8],[-264,-31],[-100,-57],[-200,-21],[-23,-22],[-47,6],[-47,-29],[-20,-61],[20,-16],[12,-76],[-83,-25],[-32,-34],[-49,-13],[-62,-54],[-75,-35],[28,-65],[-12,-142],[-191,19],[-60,-475],[13,-66],[-25,-18],[-56,-444],[9,-1],[-132,-1039],[-781,70],[-57,9],[58,94],[-11,55],[-45,24],[-72,13],[-125,54],[-108,17],[-94,-21],[-103,34],[-99,17],[-71,25],[-39,44],[-53,87],[-102,51],[-31,42],[-2,49],[46,61],[-34,13],[-147,-50],[-75,-52],[-58,-22],[123,-161],[89,-169],[8,-39],[-20,-59],[-86,-124],[-37,-78],[-58,-155],[-4,-101],[43,-82],[134,-189],[42,-95],[48,-150],[13,-92],[59,-173],[16,-92],[22,-368],[-8,-110],[-24,-108],[-83,-174],[-12,-83],[16,-67],[56,-107],[47,-150],[40,-95],[67,-101],[111,-96],[77,-35],[85,-72],[4,-62],[-27,-116],[-27,-79],[-37,-45],[-83,-35],[-113,-24],[-117,-45],[-83,-53],[-28,-29],[-35,-83],[-41,-148],[12,-67],[96,-156],[1,-60],[-19,-38],[-111,-89],[-38,-62],[-17,-107],[-34,-69],[-4,-77],[-52,-44],[-77,-6],[-31,-17],[-63,-66],[-68,-53],[-103,-105],[-70,3],[-69,24],[-57,45],[-82,-2],[-51,-95],[-138,-60],[-26,-49],[-79,-44],[-21,16],[-55,-39],[-8,-110],[-72,-52],[-66,-99],[-16,-72],[-37,-56],[-35,-23],[-78,-1],[-160,98],[-92,31],[-129,17],[-62,-9],[-73,-36],[-30,-28],[-97,-76],[-61,-10],[-75,40],[-85,168],[-72,43],[-63,-13],[-39,-30],[-57,-5],[-66,15],[-57,28],[-66,49],[-21,38],[-12,66],[-49,26],[-48,5],[-100,-30],[-271,-94],[-34,-36],[-7,-52],[13,-49],[64,-132],[65,-83],[-2,-60],[-29,-40],[-72,-39],[-113,-22],[-37,-76],[-4,-39],[38,-124],[11,-111],[-8,-62],[-27,-72],[-2,-83],[-20,-32],[-167,-93],[-51,-18],[-120,-11],[-73,-19],[-35,-38],[-16,-120],[-19,-55],[-39,-54],[-89,-33],[-135,-9],[-124,-90],[-50,-5],[-56,44],[-45,4],[-56,-64],[-45,-85],[10,-57],[54,-105],[3,-55],[46,-97],[-18,-115],[-50,-71],[2,-31],[99,-135],[-39,-82],[9,-65],[-92,-90],[-7,-65],[30,-68],[74,-108],[25,-73],[10,-79],[66,-129],[32,-78],[-5,-55],[21,-62],[59,-62],[-14,-74],[-136,-137],[-55,-40],[-36,-54],[-5,-88],[33,-64],[-21,-101],[1,-47],[-77,-76],[19,-46],[-7,-64],[-28,-91],[-34,-58],[45,-66],[65,-61],[23,-36],[1,-132],[9,-40],[97,-120],[21,-96],[88,-80],[-4,-28],[-147,-92],[-22,-43],[12,-52],[71,-89],[122,-128],[54,-37],[58,-19],[109,-3],[82,-24],[120,-48],[56,-57],[183,-11],[76,-66],[36,-48],[-8,-95],[60,-112],[6,-35],[-30,-146],[-68,-66],[-103,-23],[-129,-98],[-58,-58],[-111,-34],[-72,-85],[-17,-55],[-37,-40],[-11,-47],[-96,-62],[-130,-45],[-41,-80],[35,-21],[-68,-85],[-3,-96],[71,-164],[93,-96],[49,-28],[26,-91],[67,-14],[50,-44],[21,-116],[-29,-49],[-16,-61],[-64,-42],[-51,-52],[-126,-105],[-73,-71],[-51,-82],[-57,-53],[-3,-30],[28,-51],[14,-62],[-41,-43],[-55,-21],[-48,-69],[-75,-68],[2,-51],[-23,-64],[-122,-115],[-4,-54],[37,-48],[-60,-186],[24,-82],[-10,-34],[25,-46],[-20,-82],[24,-37],[-26,-59],[-21,-6],[-816,67],[-1044,286],[-15,69],[-39,10],[95,119],[-1701,143],[-22,-180],[29,-19],[-27,-285],[-19,-247],[-11,-26],[-36,-277],[-385,113],[-509,44],[-583,847],[59,474],[-2029,165],[-188,-127],[-402,37],[-85,-805],[-9,-107],[-81,-946],[-75,-862],[595,-41],[-168,-737],[161,-4],[235,-18],[659,-36],[-19,-129],[-87,-784],[-8,-61],[-810,58],[-529,35],[-54,-265],[-283,29],[-90,-736],[-250,30],[-1308,147],[3,41],[-399,43],[-750,83],[5,173],[-1577,96],[104,1024],[1008,-126],[106,100],[-508,104],[112,367],[119,-10],[211,544],[-858,176],[180,714],[110,-2],[21,223],[27,242],[-1505,90],[-38,-396],[-974,89],[-171,-1403],[-496,52],[-1121,109],[-80,316],[-913,80],[-21,-172],[214,-149],[-43,-280],[119,-184],[1,-55],[-62,-78],[-8,-42],[-31,-11],[15,-54],[-12,-29],[31,-27],[-344,29],[2,17],[-804,68],[-10,-76],[107,-97],[-23,-295],[-1302,112],[-60,-549],[-77,-623],[-1470,125],[-47,-483],[-449,38],[-6,-5],[-63,-485],[6,-3],[-73,-576],[-168,88],[-65,-16],[-540,54],[-286,22],[-862,51],[-186,15],[-368,23],[13,187],[-1075,74],[52,398],[108,137],[41,332],[-1538,126],[16,139],[-69,321],[-859,71],[30,315],[28,375],[-17,4],[-754,63],[3,41],[-199,26],[-248,10],[-114,-4],[-193,33],[60,586],[-1142,75],[-49,19],[-1524,81],[-3,-27],[-753,78],[-808,73],[119,840],[71,582],[-405,32],[-825,68],[-831,66],[-18,-15],[-933,78],[-3,17],[-288,24],[-7,26],[27,290],[82,641],[104,853],[101,825],[-1271,99],[-2,-17],[-501,40],[-1065,-727],[-504,-345],[-298,-201],[-5,-46],[-52,-35],[-38,15],[-467,-346],[-111,109],[-831,-576],[-261,256],[-222,221],[-621,-430],[-635,-436],[253,-247],[-692,-480],[53,521],[-947,70],[-21,-6],[-698,49],[-45,-420],[-1165,51],[-476,21],[12,147],[18,118],[-1109,99],[38,413],[-708,70],[-945,23]],[[91739,62645],[-25,46],[33,47],[41,-38],[-5,-29],[46,-20],[100,11],[-34,-42],[-7,-42],[44,-59],[-76,-17],[-21,-48],[-3,-106],[-44,-15],[-97,-67],[-44,-67],[-52,21],[-58,-146],[-85,-49],[-56,29],[-87,73],[-82,29],[-113,53],[-46,86],[-36,24],[-39,95],[-20,20],[-84,23],[-36,45],[42,59],[41,6],[27,59],[57,14],[68,-9],[42,-30],[26,13],[74,-6],[117,31],[26,60],[58,20],[44,-32],[17,-48],[60,-29],[107,-8],[52,14],[28,29]],[[89004,63356],[-6,43],[35,9],[59,-15],[49,22],[80,-14],[-47,-59],[-90,17],[-40,-20],[-40,17]],[[89348,63473],[31,-23],[-19,-72],[-44,29],[33,27],[-1,39]],[[88481,65146],[15,-50],[-13,-43],[-55,37],[-56,20],[-71,60],[52,32],[52,-40],[76,-16]],[[88352,65699],[30,-15],[87,-85],[-69,6],[-44,67],[-4,27]],[[88142,65816],[56,-47],[-23,-35],[-41,30],[8,52]],[[88807,65783],[-53,8],[-84,50],[38,97],[58,24],[-26,72],[15,17],[22,128],[51,70],[43,17],[17,32],[-94,139],[-4,58],[-81,78],[20,49],[36,-7],[15,-41],[48,-30],[59,2],[49,29],[25,-12],[-27,-54],[5,-38],[39,-45],[66,-15],[75,-35],[54,-7],[52,-72],[64,-59],[73,-81],[9,-58],[-8,-59],[54,-71],[36,-21],[50,1],[79,23],[99,11],[76,35],[16,20],[96,31],[54,-37],[-1,-62],[-19,-36],[39,-14],[38,-68],[-109,9],[-41,-52],[-44,22],[-60,-5],[-31,-38],[-158,-70],[-50,-7],[-43,12],[-82,94],[-51,28],[-78,11],[-64,-36],[-69,59],[-63,-30],[-89,32],[-80,-6],[-23,-35],[-53,-27],[15,-30]],[[88117,66617],[-21,23],[-8,114],[48,18],[40,-7],[37,-38],[32,-68],[-9,-95],[-26,-25],[15,-72],[-5,-94],[-19,-14],[-5,-76],[-43,-4],[-10,34],[-39,17],[-54,78],[7,28],[76,96],[25,19],[-41,66]],[[88498,66659],[-84,112],[-54,17],[67,55],[37,-2],[91,-60],[112,-115],[-56,-42],[-38,-101],[-74,50],[14,63],[-15,23]],[[87899,67317],[2,47],[-39,23],[-51,-10],[-40,101],[49,53],[-26,65],[11,18],[83,-48],[50,-82],[2,-90],[68,-69],[-9,-56],[-30,-27],[0,-37],[61,-61],[18,-66],[-34,-15],[20,-100],[-35,-85],[10,-51],[-50,-60],[-110,-38],[11,54],[-10,44],[39,52],[17,47],[48,43],[14,43],[-21,37],[-38,21],[-111,116],[56,10],[22,28],[-21,77],[44,16]],[[87943,67655],[-29,2],[-70,42],[14,67],[-15,44],[34,71],[63,-1],[61,-56],[18,-102],[-43,-51],[-33,-16]]],"transform":{"scale":[0.00009668796687966881,0.00010987989879898798],"translate":[137.99465,-25.99685]},"objects":{"qld_northern_ddmg_boundaries_gda2020_simp200m":{"type":"GeometryCollection","geometries":[{"arcs":[[[0,1]],[[2]],[[3]],[[4]],[[5]],[[6]],[[7]],[[8]],[[9]],[[10]],[[11]],[[12]],[[13]],[[14]],[[15]],[[16]],[[17]],[[18]],[[19]]],"type":"MultiPolygon","properties":{"District Name":"Mount Isa","DDMG Name":"Mount Isa","Police Region Name":"Northern Region","Police Region Code":"NR","Police Region Short Name":"Northern"}},{"arcs":[[[-1,20]],[[21]],[[22]],[[23]],[[24]],[[25]],[[26]],[[27]],[[28]],[[29]],[[30]],[[31]]],"type":"MultiPolygon","properties":{"District Name":"Townsville","DDMG Name":"Townsville","Police Region Name":"Northern Region","Police Region Code":"NR","Police Region Short Name":"Northern"}}]}}}