{"type":"Topology","arcs":[[[3527667,1577268],[-8164,-36752],[35254,-9602],[-3475,-56509],[-3224,-50327],[-5652,-97676],[-921,-16997]],[[3541485,1309405],[-5109,-86639],[-6113,1656],[-4019,-66331],[-6532,-108933],[-33413,11036],[126,1656],[-57279,19094],[-209,-4305],[-18130,5077],[-921,-1214],[-28472,7836],[209,4194],[-14319,3642],[-16162,-52535],[-18214,-60923],[-3601,-70415],[-7495,-146237],[1089,-331],[-1968,-38519],[-628,111],[-2177,-42382],[4898,-1324],[-3391,-66441],[-1675,-1215],[-1717,-39511],[11850,-3311],[16497,-3974],[-1633,-32227],[-3434,-72732],[6700,-1877],[-3978,-66220],[14571,-46245],[11431,-33551],[1800,6842],[2554,-7725],[796,-7285]],[[3373417,308147],[963,-12140],[-1424,-993],[-1675,-6181],[-1298,552],[-335,-8830],[-1716,-1766],[1130,-6732],[-2345,-10706],[-1465,-1434],[-879,-10044],[-1382,-4856],[-1340,2980],[-4229,-4194],[-2805,2980],[-168,-4856],[-1884,220],[-1340,-9381],[-2638,-4967],[-1591,1325],[-8667,-7284],[-502,-7837],[-2429,-6401],[-1005,-5960],[-2009,-2869],[-42164,110],[-59121,-110],[-51919,0],[-70803,0],[-47942,0],[-33789,0],[-58619,0],[-38186,0],[-41451,0],[-42206,0],[-51877,-111],[-44174,111],[-62219,0],[-41452,0],[-69128,0],[-34585,0],[-53259,0]],[[2489490,198773],[-3894,8719],[1466,33772],[2428,45803],[1800,31786],[1424,31896],[-2219,663],[-35213,7173],[921,14790],[2722,29137],[3894,36311],[1465,15672],[3182,50769],[13734,-2979],[1172,24060],[4355,78692],[-4397,1324],[4187,77589],[8291,25495],[2386,33442],[-1130,61143],[-126,12803],[1968,27482],[-2135,1435],[3307,58163],[-21856,6733],[4438,79354],[2429,23730],[7118,-2539],[8206,143589],[168,552],[8834,157274],[168,331],[17920,-552],[14739,-883],[15241,-4304],[1465,23839],[4648,49666],[1926,33331]],[[2564522,1414034],[2596,1104],[31696,-11147],[1046,16003],[15911,-5298],[16581,-5849],[2093,38187],[32701,-11147],[5150,-1545],[15325,-5629],[8374,-2649],[2596,-221],[-503,16004],[838,22736],[1130,23398],[24578,-8388],[22652,-6954],[3978,67325],[5234,85866],[2721,1656],[19889,-5519],[4982,92599],[38521,-12361],[2680,9381],[3266,4856],[4396,10375],[3475,3532],[16330,-5298],[11933,-4084],[31235,-10043],[-293,25274],[1298,20197],[39903,-11588],[1674,-1656],[-418,-34655],[-2387,-10375],[126,-15782],[18841,34545],[16791,-50549],[21102,38739],[1801,1766],[13021,23509],[2010,-3974],[15032,-45140],[9755,17990],[15953,-47789],[31989,56729],[3140,1766],[17167,31234],[2429,4856],[3307,-8609],[4481,-4635],[1465,-2539],[7579,-7615],[2009,-4084],[10301,18321],[10802,-3200],[-42,-8388],[33873,-9602],[-2931,-55626],[55981,-16776],[9798,-2759],[1047,3642],[-2303,5629],[0,5077],[1005,7174],[-1717,11368],[-167,11920],[3349,16775],[-167,7837],[-3643,7946],[-2052,9271],[168,5960],[-670,7505],[-2680,1214],[1298,24281],[20307,-5960],[3643,15783],[23992,-7395],[-419,-12913],[-1424,-28696],[31613,-9271],[38269,-11147],[12268,57060],[4145,-1214],[6239,-7284],[-2345,-41278],[58200,-18431],[-2051,-36421],[14026,-3863],[33873,-8830],[42,-1876],[53553,-14569],[1423,-3531],[-2721,-1877],[-1215,-7063],[2764,-2207],[-586,-5077],[-2303,-1656],[42,-2980],[3517,-10485],[125,-2869],[-3391,-8168],[-545,-3200],[1675,-3422]],[[346059,2683817],[14697,-4414],[57111,-16114],[23740,1214],[43881,-12030],[39190,-10596],[3099,-6622],[14403,2870],[15534,-98117],[838,-30793],[24996,-4304],[10593,-27702],[48486,-63241],[-1172,-35760],[25667,-38297],[4187,67876],[17250,45913],[19931,-39291],[1381,-4966],[32199,-63352],[125,2318],[34962,-68759],[13650,-3532],[-84,-1986],[36302,-9382],[65024,-15782],[-1758,-40174],[17209,-4857],[-3685,-87963],[68668,-15120],[-587,-15010],[28012,-6953],[2805,13906],[51626,-13575],[-1047,-23288],[30022,-7615],[-2555,-62358],[58535,-20529],[-418,32780],[48737,-96241],[30021,-102091],[25499,-86638],[28346,-6181],[24536,-6512],[12352,-3200],[27593,-3753],[55185,-7836]],[[1391145,1685760],[-6155,-120411],[-4731,-91606],[8709,-2428],[-1173,-8057],[-586,-13465],[2052,-1766],[-461,-7946],[-2679,-1656],[-1592,-5959],[880,-5850],[-1382,-10375],[754,-3200],[-2303,-4084],[-1340,-6843],[-754,-7505],[377,-4745],[-1968,-6843],[54515,-15010],[-837,-17659],[51208,-13686],[24452,-6622],[-2135,-45361],[-1968,-38298],[24243,-6622],[-5946,-114672],[60587,-15231],[-2010,-41498],[22987,-6291],[-4648,-80900],[-38018,10595],[-754,2318],[-58116,16335],[-419,-7837],[-5401,1435],[-4355,-85093],[33957,-9713],[-3977,-74277],[-2848,-2539],[-6783,-83438],[-6615,-73836],[30440,-14569],[-11515,-157164],[-3433,1325],[-8835,-19646],[18591,-31565],[-6658,-4415],[-125,-40063],[-3643,-5188],[-3559,-8167],[-1089,-6291],[-2470,-8277],[-2470,-3091],[-2178,-8167],[-293,-3863],[-2470,-3752],[-1382,-7505],[-2721,-5077],[-1131,-12693],[503,-6732],[-1424,-13906],[251,-16445],[-544,-2539],[-3308,-4414],[-2721,-552],[-3518,1324],[-5192,-1876],[-6824,-4967],[-4104,-6291],[-2177,-552],[-4396,-4414],[-4062,-1214],[-1926,-1877],[-4941,-7505],[-3559,-3752],[-2721,-5960],[7243,-56508]],[[1457551,198773],[-62093,0],[-69254,0],[-34920,0],[-56609,-111],[-40949,111],[-68375,0],[-36427,110],[-62010,-110],[-60586,0],[-54851,110],[-73399,110],[-37725,-110],[-46392,0],[-41871,0],[-41870,0],[-41870,-110],[-41871,110],[-41870,-110],[-41871,110],[-41284,0],[-34543,0],[-49784,-110],[-41870,110],[-41871,-110],[-45681,220],[-38060,-110],[-52757,-110],[-72854,110],[-37307,-110],[-46727,0],[0,194909],[0,112355],[42,200870],[42,428117],[0,160475],[42,144472],[0,228130],[0,111472],[0,142043],[0,64234],[0,128469],[-42,176809],[0,215107],[45932,-11919],[32952,-8499],[12142,272499],[15576,2538],[251,15893],[59205,883],[61717,-15562],[16916,-49996],[29644,-7837],[3349,3201],[4104,-5077],[4103,-2649],[4103,-1324],[2136,993],[2428,-3200],[2806,1655],[6741,883],[12812,-3421],[6867,-4967],[22191,-6512]],[[3541485,1309405],[15115,-5077],[670,8830],[10760,441],[5527,2980],[-1088,-17659],[40112,-13575],[1800,30351],[15199,-4746],[49658,-16555],[20391,15231],[20768,14348],[-7495,22184],[-4103,5297],[-754,4526],[17502,10926],[3350,-37415],[11388,8388],[43629,-16445],[12310,-3973],[1508,30131],[19846,-5519],[1968,14017],[-1800,2207],[-84,5077],[2847,-441],[5192,37414],[8542,-13464],[27634,31013],[3936,-12472],[6783,-2097],[-921,61806],[12812,111],[-1047,53970],[21857,-6622],[3642,52204],[10887,-3863],[7411,-19425],[3391,-883],[2513,5629],[-252,4415],[-3852,10926],[2303,4415],[9002,15341],[12101,-23950],[251,6733],[1968,1765],[2219,-6953],[1089,-221],[2512,7285],[12896,-30462],[10342,24171],[2973,-7064],[22694,-7615],[7243,-11699],[4731,-17880],[7370,-5408],[5150,-16003],[4731,-27702],[670,-49114],[11640,-9381],[1382,-16776],[6908,-15783],[3643,-1545]],[[4062855,1373750],[2429,552],[251,-4857],[6113,-2207],[4731,-8940],[251,-24832],[2680,-5077],[3727,6401],[3475,-7726],[586,-7063],[2805,-1104],[11640,-9161],[587,-12913],[3642,-11809],[10970,-16886],[-1968,-9823],[-460,-16666],[4522,-12030],[6490,5850],[2010,-10264],[36092,-11920],[47230,-15562],[586,-7174],[-1926,-16555],[-1047,-1214],[-335,-8167],[-1926,-8057],[-1968,-3642],[-963,-7285],[2136,-19093],[-629,-3091],[2303,-6401],[3224,5298],[15660,-5740],[-377,-7505],[14487,-2428],[3476,4967],[2679,-773],[1382,3643],[12477,2648],[-1130,-16555],[6113,-1986],[3810,9050],[3057,-3091],[2261,1104],[-461,-6732],[28179,-9823],[3098,8940],[3057,3531],[4019,-2097],[2052,3091],[2973,8719],[3517,-1214],[1340,-4746],[2931,-1876],[4019,662],[1968,2318],[1089,5960],[1423,2428],[4648,3421],[2177,5960],[754,4856],[4145,2318],[2052,-3753],[4396,-2980],[2177,-7946],[2555,5408],[2889,-662],[5610,8057],[5820,1876],[1591,2649]],[[4372026,1134031],[9631,-30683],[5443,-6842],[2470,-9602],[-586,-8940],[-1842,-5298],[2386,-14017],[2429,-7946],[3014,-1545],[3057,-5408],[1005,-5850],[-168,-5187],[1675,-5739],[-84,-10816],[3141,-3532],[670,-3311],[2805,-3532],[-251,-5408],[2805,-6070],[1172,3532],[2345,-5077],[628,-5298],[2010,-3532],[1549,5298],[3559,-442],[4062,5740],[4940,-1546],[3727,5960],[2135,111],[4606,-3863],[3182,2538],[796,-2428],[6657,3532],[2345,-2649],[795,-3752],[2219,-773],[-837,-6291],[3098,-7836],[377,-5739],[1843,-3091],[3307,-220],[1759,-1766],[1633,2649],[2554,-2870],[1298,2539],[2093,-9161],[4355,-3532],[3391,-7726],[1885,-7063],[-1173,-5518],[2722,-7395],[-1005,-4084],[-4690,-6401],[-1298,-4746],[2261,-10595],[-83,-12693],[837,-3862],[-460,-6622],[1130,-10485],[-2763,-11368],[209,-3201],[-1759,-3201],[-4270,-883],[-1298,-21963],[-2806,-2318],[-1381,-6070],[-2806,-8388],[-4857,1214],[-544,-3973],[-4061,-7395],[963,-6291],[-838,-19314],[754,-7615],[2135,-10375],[-1256,-17328],[-1340,-8388],[-42,-9271],[-6406,-15893],[-3684,-7615],[-4439,-4304],[-4312,-2428],[670,-4967],[2051,-2538],[-209,-9492],[1675,-9271],[-3141,-11478],[-2763,3532],[-3852,-4084],[-2596,-6512],[335,-5629],[-2680,-5408],[503,-7063],[-2596,-6843],[-587,-4304],[-2261,-4856],[-3014,331],[-2177,-1766],[-419,-3863],[544,-10264],[-2470,-6181],[-1675,-6401],[-1759,552],[-209,-7395],[-1507,-12141],[-1005,-14237],[-3769,-14017],[-6866,-15562],[-1675,-10374],[-1131,220],[-2512,-9381],[-5736,-9160],[2093,-10927],[-628,-5518],[-4103,-7505],[-3978,-3090],[-1842,-3753],[-795,-11258],[-2387,-7284],[-2429,-4194],[-2051,-7946],[-3434,1324],[-3349,-9050],[-210,-5518],[1592,-9382],[-1592,-5077],[-209,-4194],[-3140,-9602],[-3475,-7505],[-1173,331],[-2721,-3531],[-1215,-6733],[1173,-10595],[-461,-4304],[-2093,-2649],[-587,-3753],[419,-5960],[-586,-7505],[-1005,-2980],[754,-14127],[-168,-6291],[586,-7615],[1005,-1214],[-1926,-18321],[-1465,-5519],[-461,-5849],[670,-19314],[-167,-18432],[1256,-7615],[-1759,-7836],[419,-3974],[-586,-13685],[-2973,-11258],[-3308,-221],[-335,-3973],[1215,-4304],[251,-11037],[-4271,-2649],[-2052,-8057],[1508,-7615],[1465,-3532],[1256,-7615],[2973,1766],[3308,-4305],[-168,-10705],[4564,-994],[-377,5298],[5695,1545],[2010,-2538],[963,-3863],[2805,-552],[2763,-4084],[2722,2870],[4606,-3311],[4312,4966],[628,9051],[-335,6511],[922,2980],[-2638,11810],[-168,7394],[1382,8609],[3685,7836],[-419,5518],[1423,7285],[3727,552],[3475,-7395],[3852,4194],[3685,-2759],[921,-3863],[4061,-2870]],[[4398823,186963],[-963,-6622],[-2093,-5629],[84,-5187],[-1215,-5187],[922,-13134],[-1340,-5739],[-1591,-10926],[2889,-6071],[2177,-2980],[167,-4856],[-3935,-2097],[-2596,-17438],[-1047,-2207],[-3350,-1877],[-5778,-7725],[-2135,-20750],[-1508,-8056],[-2805,-7064],[-6322,-10264],[-1215,-6843],[-1926,-2980],[-3517,-221],[-2763,-5187],[-1843,-9933],[-1256,-3201],[-167,-6070],[-2805,-6622],[-3266,2428],[-3183,-2097],[-9002,5187],[-2219,-3752],[-6071,-3863],[-1591,4856],[-5276,8940],[-2805,662],[-1549,5408],[167,4194],[-1130,4194],[-126,7726],[963,3973],[2722,4967],[-5778,19204],[-1340,7836],[-2596,1435],[-1298,-1545],[-1801,6070],[-1926,3642],[-1591,6843],[-418,16224],[-1466,2869],[209,5960],[4481,12803],[-42,8057],[1046,552],[1005,6511],[-1884,3311],[-460,13907],[-3601,-221],[-1926,5518],[921,6733],[3978,7836],[251,11809],[-377,4525],[-1884,6512],[-880,13355],[1927,5739],[-3894,7505],[586,5518],[3098,4305],[377,16334],[-2387,6953],[-502,4525],[-2973,2649],[-1758,4746],[-2345,-110],[-3224,6401],[-2722,2207],[-1298,4856],[-795,11589],[-1675,4967],[-2177,-4415],[-3643,2207],[-2387,2759],[-3349,6623],[-84,6953],[-3015,8608],[-6532,6623],[-2344,-2429],[-2554,442],[-461,2869],[-3475,8168],[-754,5077],[-3978,0],[-3559,5849],[-1381,-3311],[-3308,3421],[-2805,10485],[-4104,0],[-2847,8609],[-1340,-2318],[-879,9051],[-3098,-1766],[-1717,2759],[-3810,1324],[-4690,-7505],[0,-3973],[-5317,-1435],[-2136,-3973],[-293,5408],[-2763,-331],[-1173,5518],[-1842,4084],[1591,3752],[-2386,5740],[-84,8829],[2010,3973],[-377,4746],[125,15672],[-1381,111],[-1968,4194],[-3392,-111],[461,10596],[-796,7615],[-2093,3532],[795,3532],[3266,1765],[-1214,15783],[-1005,3090],[-5318,9823],[-502,2870],[-3224,662],[-5276,4635],[-3140,552],[-1089,3311],[-3433,883],[-3350,-6622],[-1088,2318],[-3475,-1104],[-2052,3201],[-670,5518],[-3392,-1986],[252,4745],[-2094,3311],[-1005,19204],[-2805,7837],[-1968,-2097],[-3433,5849],[-1466,7174],[-1256,1656],[-4522,-1435],[-1591,-7285],[-2470,332],[125,4525],[-2261,1324],[-2051,-5298],[-2178,9713],[-2261,-2870],[-4857,8940],[-963,6291],[-2679,2649],[-1550,-552],[-3349,5187],[-5108,883],[-1298,3753],[1130,6401],[-1842,221],[-4313,4415],[-4396,-1104],[-4815,10154],[-4229,552],[-1675,6401],[-5904,-552],[-921,5518],[-3350,221],[-7243,-1435],[-1047,-5739],[-4731,-4525],[-1717,-2869],[293,-4857],[-3433,-3531],[-3601,1655],[-2052,-4856],[-3182,-3642],[-3056,12030],[-1173,-3532],[-4857,-5849],[-6825,-6402],[-1423,-3090],[-2512,-10043],[-2513,4304],[-209,3973],[-2722,-221],[-586,-4304],[-3391,1876],[-4145,442],[-210,6843],[-7285,9712],[-3308,-2318],[-2470,221],[-3811,-3863],[-1591,8498],[-2512,-2097],[-670,-4083],[2554,-5187],[-1214,-7947],[-5653,662],[-1591,-1435],[-2805,3201],[-921,3090],[3266,5188],[2554,2207],[-3224,4746],[-2889,1104],[-1591,-1656],[-628,-4525],[-2261,-2428],[-4104,1214],[-1967,1987],[-3015,220],[-2471,2097],[-1004,-5408],[-1759,-2097],[-2680,3753],[-3140,-6181],[-2387,-2759],[-1088,5077],[-1884,-1876],[-4522,1766],[-2094,3200],[-1675,5850],[-2219,4304],[-2931,2207],[-2721,-1986],[-1005,4635],[1591,2649],[42,10927],[-2931,1655],[-2806,7395],[-2219,-1877],[-2177,-5518],[-2763,1987],[837,6291],[-3433,-442],[-3643,6401],[-670,8499],[377,3973],[-2094,993],[-293,3643],[1759,4966],[-1884,4084],[-419,9381],[-3559,0],[-1968,6732],[335,8830],[-3559,-221],[-5024,3201],[-2722,6070],[-1214,10706],[-2722,1435],[-1842,5518],[-3517,2097],[-3350,12140],[-1591,442],[-2345,-5298],[-2847,221],[-1758,2428],[-2052,-993],[-2638,-4746],[-2596,-993],[-2596,-7064],[-5736,-2980],[1717,-3090],[-2345,-3422],[-2973,-8608],[-2973,2207],[-2973,-1876],[461,-5519],[-4690,994],[-1800,5628],[-2596,773],[-5527,3421],[1717,4857],[-5318,-1766],[-460,4856],[-1424,2649],[-5276,-3753],[-502,6843],[-1800,-2207],[-1885,-9713],[-1800,1545],[-1005,-3752],[-4941,2428],[-2386,-110],[-1214,-5298],[-2345,-3863],[-5067,6843],[-2972,-1435],[921,-13354],[-2596,-3753],[-3015,-441],[-1172,-2649],[-2219,4856],[-3308,1766],[-2387,-1656],[-251,-5077],[-2512,-1876],[-1214,-4525],[-1675,2649],[-3350,1104],[-2512,6291],[-1549,1434],[-1424,-3642],[-4396,-1545],[-1759,-8057],[-4606,-4966],[-1381,1214],[-670,-7064],[-2219,-662],[-3601,-7726],[-4857,-1545],[-1968,-2980],[-3475,4525],[-4648,-6070],[-502,-4967],[-2094,3201],[-167,3973],[-2722,-331],[-2093,3201],[-6951,-1324],[-1465,-9492],[-2471,-883],[-4019,1104],[-1173,4304],[-3684,3201],[-1424,5739],[-2638,-662],[-1507,5187],[-1675,-4746],[-4103,1104],[-1508,-4525],[-3349,6953],[-3601,-221],[-1633,-5518],[-3685,-5188],[-1591,6181],[-4564,662],[-2344,-3090],[-4648,-1545],[-1047,-2870],[-1800,4636],[-1717,-3422],[-4815,-1545],[-3643,3421],[-3768,-441],[-1172,-6512],[-2848,2208],[-2554,-1435],[-2093,2207],[1591,4746],[-1968,1656],[-2889,-2870],[-1591,-4967],[-1884,3753],[-2638,-6512],[1633,-4194],[-1675,-3863],[1465,-4414],[-1842,-3974],[-2303,2649],[-7118,-1435],[-4396,2318],[1465,4415],[-1465,7174],[-2512,3200],[251,5629],[-1759,2759],[-1339,-5076],[-3769,2207],[-1214,5298],[335,3642],[-1842,5518],[-2052,993],[-2680,3753],[-4271,-1656],[-3600,-5187],[-293,4084],[-2010,-994],[251,7064],[-1382,5960],[-2219,-1987],[42,10485],[-1842,2980],[-3685,1656],[-1926,2207],[-2093,-1656],[-1005,2429],[-4857,-4084],[-1759,-3532],[-2931,2318],[-4899,1876],[-2554,-2097],[-1172,2759],[-1633,-5628],[-2345,-1987],[-4857,6181],[-1758,-2539],[-2973,-331],[-2638,-7064],[-1800,2760],[-1717,-2428],[-712,-6402],[-2010,-3973],[-5401,552],[-2722,-2318],[-1758,-9712],[-1675,-552],[-3685,-7616],[-41,-4635],[1465,-5739],[-2973,-5629],[-2219,-331],[-419,-6401],[922,-6512],[-880,-2759],[-209,-6733],[-963,-3090],[-3182,-773],[84,-4194],[-2471,-9160],[-209,-4856],[-2973,-9602],[-2763,662],[-2513,-8278],[545,-4194],[-1047,-5849],[-1507,-3201],[-2889,4856],[-2303,-2980],[-1801,5188],[-3349,-1435],[-503,4635],[-1717,773],[-2261,-7064],[-2051,-220],[-879,-6181],[-6993,-2980],[-84,-8829],[-3684,1324],[-1549,-5629],[-2261,-1214],[-4020,2428],[-3140,-1434],[-293,-3311],[-2680,-8168],[502,-3863],[-2261,-3421],[-1130,-3973],[-3768,-2870],[879,-6180],[-2889,-3091],[-1675,8388],[-4438,-5628],[-2094,1324],[-2847,-10485],[-2973,-552],[-1800,-7726],[-293,-6291],[-3182,-3862],[-419,2869],[-3475,-5187],[-3434,-3422],[-3266,-331],[-2554,-6732],[1633,-3753],[-2596,-1766],[335,-4966],[-1172,-3532],[1088,-5298],[-2763,-4193],[-4145,-8720],[-4062,-4856],[-3935,3532],[-2680,-773],[-2136,1546],[0,-6071],[1340,-5849],[-83,-7395],[-1508,-4083],[-3433,-1877],[-1214,-6511],[-2764,4304],[-1340,-1766],[-2093,3642],[-1675,-3532],[-2387,-1434],[-2386,2869],[-4355,-6843],[-502,-4414],[-2554,-1656],[0,-16224],[-1968,-1104],[-1256,-5077],[-712,-8608],[-1759,-1325],[-1214,-6291],[-1800,-993],[-1926,-7505],[3810,-1214],[-2512,-6953],[-670,-7064]],[[4911778,1858155],[3978,-10706],[1800,-9492],[3182,-4083],[3141,441],[1298,-1876],[41,-5629],[-2763,662],[-2470,-1655],[-1801,-10154],[-2177,-27371],[0,-5850],[1214,-3200],[2471,1986],[1967,-3311],[5695,13575],[2177,-3862],[3015,-221],[2303,3863],[-1089,5077],[1591,1324],[1172,-4525],[3015,-331],[5192,-2980],[4690,1766],[1423,6070],[3768,3863],[3476,1876],[-419,5960],[-3894,3311],[419,4084],[4271,2428],[2302,-2097],[2303,-10927],[-335,-7725],[-1005,-5629],[-209,-10816],[1842,-10816],[963,-8940],[293,-14900],[1801,-2207],[1172,2649],[2680,16113],[2763,1215],[6323,-14569],[1256,-7064],[2596,-3200],[1256,-3532],[3517,-993],[1382,1655],[2638,-1324],[2763,-5519],[2471,-3200],[2679,-10265],[84,-5849],[-963,-12472],[-1005,-5408],[-4857,-14237],[2847,-9492],[-3391,-46134],[-13650,5077],[-3308,-48230],[-3391,1103],[-586,-7836],[-6448,2539],[-461,-6843],[-5569,2207],[-3140,-441],[-879,3311],[293,5628],[-2219,883],[-461,-6511],[-2177,772],[-293,-4856],[-4564,1656],[-1424,-4084],[-1968,-29799],[3392,-1325],[2889,2097],[2554,-9822],[879,-15121],[-42,-8277],[-4187,1545],[-963,-13907],[-4187,1545],[628,8609],[-2428,2759],[1130,17770],[-7076,2428],[419,5849],[-1884,2980],[-8961,3201],[838,13685],[-1968,6071],[-8458,3311],[-125,993],[-12520,5739],[-1340,9602],[-7536,3090],[-880,-6291],[-7034,2760],[461,7394],[-5527,2097],[251,3422],[-7076,1986],[-377,-5628],[-12812,4966],[460,6070],[-1716,331],[502,6954],[-3182,-1325],[-7704,2870],[377,4966],[-7830,2870],[-84,-4967],[-8248,2980],[-5276,773],[-2093,-4856],[-629,-5519],[294,-10264],[-1843,-27482],[-8499,3201],[-1885,-27702],[-5275,1986],[-293,-3862],[-5778,2207],[-84,-6733],[-1382,-5076],[-670,-9603],[-4647,552],[-3266,-47237],[-2973,3532],[-3266,1214],[-1256,-18432],[-1926,662],[-670,-9822],[-7076,1986]],[[4774527,1451890],[-377,11589],[-1298,14569],[-1507,6511],[41,3532],[2429,6843],[-837,6732],[-2806,994],[586,8829],[-3559,1324],[377,5960],[8919,-2649],[711,10375],[-2596,883],[42,6512],[-3056,8277],[-2429,13576],[963,14127],[1550,-4967],[2679,-1766],[1215,13796],[2177,32669],[-1382,552],[963,13906],[1340,-552],[502,8057],[-9546,3422],[586,8608],[1382,3422],[3182,2097],[3433,3973],[754,9381],[1172,6402],[1382,-1545],[1466,5297],[-4229,2539],[293,4525],[2177,-662],[1926,3642],[3015,-2318],[377,5629],[3224,1545],[1507,-4304],[2261,-2097],[1047,3090],[3098,-10154],[670,9492],[1424,-552],[1088,7726],[-670,4304],[2261,5518],[1382,11589],[3392,11920],[586,5187],[2344,6181],[168,3752],[6909,8278],[-3099,14348],[2554,2979],[1968,-993],[628,9492],[1340,-2097],[544,8940]],[[4821170,1780125],[13231,-4636],[3727,-221],[2680,2539],[1633,-993],[1758,16665],[670,9933],[7914,-3532],[-545,-4083],[3936,-2980],[251,3201],[2722,4635],[5317,-2097],[252,4084],[2554,-1546],[10132,-3973],[1382,19756],[1382,-2759],[1926,3311],[1507,-4967],[1424,2428],[1633,-4966],[5150,9160],[3978,12362],[2302,4083],[1968,-2207],[1801,3311],[-963,3311],[628,4746],[2721,-2539],[1633,3091],[1508,-883],[3056,2097],[-167,6732],[-2303,2318],[-168,5849],[2429,2649],[1549,-5849]],[[4774527,1451890],[-251,-3090],[1465,-5187],[335,-6512],[2303,-6843],[-377,-19756],[-2763,-4966],[628,-14790],[2093,-8387],[-42,-8278],[2261,-11478],[-4564,-10816],[-1130,-5077],[-209,-13686],[-3015,-6732],[-2303,3752]],[[4768958,1330044],[-2805,8940],[-3601,2538],[-6993,1656],[-4061,-3311],[-1800,4856],[-3685,-4304],[-2889,-1987],[-2303,1987],[-2345,-1104],[-3349,3201],[-3936,7174],[-2136,110],[0,-5518],[-3140,-1987],[-3810,-7395],[-3057,994]],[[4719048,1335894],[-2386,4966],[-3140,3863],[-922,5298],[-8248,4525],[-1884,2759],[-3182,1324],[-419,2318],[-2847,1214],[460,7064],[-2889,1103],[461,6512],[-2806,5408],[-1842,-2649],[-4438,5629],[-1549,12913],[-2513,3642],[-1298,5188],[84,18872],[-2010,221],[-1046,5519],[-1884,-994],[-1382,4746],[-4020,2980],[461,3753],[-963,3752],[-1173,10595],[1466,11258],[419,16776],[-2429,4083],[-586,6512],[-2094,3753],[-670,8057],[880,7394],[3098,-110],[0,9160],[-2512,11037],[-2261,1435],[1382,8940],[-3811,1324],[545,7505],[-10342,3863],[-2303,3201],[1423,21521],[-3475,1325],[-1256,-18321],[-3433,1324],[586,2870],[-963,8167],[-3182,1104],[544,7725],[2219,-772],[251,3973],[-3726,1435],[-461,7174],[-2093,2538],[-3517,7064],[-4941,4746],[-7034,2207],[879,14679],[-9839,3532],[-2303,-4084],[-1466,1104],[754,11588],[-2345,773],[503,7947],[-4481,1655],[-711,5960],[2344,3973],[-1842,14569],[-1968,6843],[879,6070],[-2637,1324],[-2806,3201],[-3475,-2980],[-502,-2649],[-2806,221],[-2177,8719],[-754,5518],[-2889,5077],[293,9381],[1759,-772],[544,7174],[3141,-1104],[4605,-4415],[252,3201],[4480,-1655],[335,5849],[-2220,773],[294,6622],[3559,-1104],[2805,2428],[628,9933],[1758,-662],[922,15010],[6155,2318],[1716,-552],[293,5077],[-4145,1545],[-167,3532],[-4271,-6291],[1800,26267],[1089,-331],[670,9823],[-4731,-221],[544,8278],[-2722,5739],[1256,5850],[3350,2317],[-377,2980],[-4606,2539],[-586,2428],[-2721,772],[-3936,2980],[-879,-13244],[-1675,662],[335,5408],[-2512,2318],[-1508,8940],[4648,6732],[670,5739],[-1256,1104],[502,5298],[-84,10485],[-921,8057],[1256,7836],[10468,14348],[5108,-1877],[1047,16445],[5527,-1766],[586,10596],[1047,7394],[-3141,994],[963,8719],[2513,-4746],[1340,1103],[669,11810],[3936,7174],[6825,-3201],[796,11368],[-1926,2759],[711,8609],[2764,-1104],[-712,-10043],[5066,-662],[5276,-2097],[168,5297],[4270,-1435],[-293,-4083],[3099,-1214],[-461,-6512],[3308,-3311],[4689,-1766],[-335,-5077],[7998,-2869],[-377,-6843],[1926,-773],[167,-12030],[1843,221],[1046,4304],[3476,-1324],[-252,-7947],[2094,1545],[1130,11589],[1005,4415],[-544,4525],[5359,5298],[922,14679],[3810,662],[1842,-1877],[1256,2870],[586,6732],[-2386,14569]],[[4686306,1978235],[460,1766],[3769,-1435],[2931,-3973],[6280,0],[1591,2207],[13985,-4966],[-1172,-18101],[1967,-7836],[3099,2318],[3559,5077],[1800,8719],[3434,1435],[1256,-29910],[4061,1876],[2680,-4083],[2135,33883],[11389,-3753],[503,2980],[8709,-3090],[3642,110],[2513,-2649],[4731,-8608],[4564,-3091],[-879,-14789],[6113,-1987],[-294,-5077],[-1800,-1986],[11096,-3863],[-251,-5739],[795,-6291],[-419,-7616],[3978,-1214],[-335,-5077],[2764,-4304],[251,4084],[2428,-773],[1508,-4746],[1423,994],[3517,-6622],[2554,-8720],[-2931,-5518],[2345,-10485],[-1088,-6953],[-84,-6070],[10216,-3974],[-2931,-44478],[3015,1435],[8039,-1435],[-544,-8829],[-1508,-6953]],[[2564522,1414034],[-6071,2428],[3475,42381],[-3559,35980],[-586,7726],[3810,62248],[-209,6732],[1884,45692],[-84,552],[9170,152860],[-33329,9712],[502,9823],[-1256,14017],[-419,8719]],[[2537850,1812904],[-2721,56729],[-545,10043],[-5317,883],[1256,24612],[2847,50659],[-2512,773],[1424,45140],[1926,34656],[5150,98559],[7327,82003],[2303,-662],[4019,78692],[-251,552],[-27592,7726],[502,10374],[2931,-993],[2010,38187],[2512,41940],[3517,11699],[2847,48783],[29142,-6291],[-42,662],[30105,-6512],[3517,63572],[2345,38850],[628,96792],[42,48452],[6783,48120],[335,59709],[2512,47790],[1968,7505],[-1172,15562],[-1550,3973],[-13691,4083],[2638,49776],[6280,10485],[30901,-9160],[5317,101980],[1424,-883],[251,8388],[3433,63130],[252,-110],[5610,97455],[12310,-4415],[2052,39953],[377,10264],[-9756,2870],[1507,25937],[3433,23066],[-293,1987],[1298,12803],[-4438,8719],[377,10043],[-419,9271],[2387,13575],[2386,4084],[2387,1656],[2680,4856],[7453,-5408],[2805,-5408],[3308,6070],[7871,-2428],[4229,6622],[3015,58274],[-1256,2759],[-1842,13907],[-1215,1655],[252,6181],[3349,8277],[84,11148],[-921,14899],[251,11810],[-2680,4414],[168,3532],[4689,20418],[545,12472],[-1550,2428],[-4145,2097],[-2135,-331],[-3224,2207],[-1508,3753],[-5568,441],[-1801,-3090],[-3936,5187],[-11221,29468],[-2596,2760],[-2093,-221],[-1466,2538],[-1968,9933],[-5108,-4083],[-2470,221],[-3141,3973],[-5317,1214],[-1089,5518],[-3056,442],[-1591,2428],[-7118,5297],[-796,2097],[2345,10485],[-796,8278],[-2637,13355],[628,5297],[-1801,3090],[461,19756],[-210,25054],[-1591,12471],[-1842,10375],[-3140,9602],[-1675,10044],[1047,5849],[-41201,12140],[3099,66221],[4898,101318],[34125,-9492],[10342,-2980],[8123,160144],[21354,-6291],[7076,139947],[4899,-1324],[3600,23508],[-1298,12140],[-11681,22957],[293,3532],[-754,20970],[-754,10485],[53008,-15893],[23197,-7174],[5485,102090],[42247,-12913],[8458,166214],[-11138,3863],[4355,79686],[10174,-3201],[6867,-4746],[3391,-7063],[4732,-5077],[2763,-11148],[3475,-5518],[2094,5850],[3350,-994],[1842,1877],[4564,0],[1423,-2208],[2931,8940],[3308,-883],[-84,8388],[4397,13134],[963,10926],[2554,3090],[2010,8388],[1507,10485],[2554,7947],[1340,-4084],[2261,2318],[921,-2318],[4103,3974],[2973,6070],[3266,-662],[1591,2538],[377,5077],[2805,4304],[4522,663],[-418,8719],[3600,6180],[3518,4305],[2930,-3643],[1466,2208],[-1424,3973],[-1507,8940],[42,3973],[1633,4304],[3768,221],[1926,-2980],[4104,1656],[1591,-1214],[2512,12361],[2973,8277],[5317,7285],[2638,9933],[-1591,6070]],[[2910581,4744166],[1591,1766],[4564,-662],[4522,1214],[3726,-13575],[3852,-10706],[2848,3642],[5778,-1766],[1842,-6291],[3098,-3421],[1298,-3532],[2764,-1435],[3266,2649],[4480,-3090],[3350,-13465],[-252,-5739],[1550,-5850],[4103,-6953],[1088,-7395],[-1716,-9822],[2219,-14238],[-1549,-2759],[0,-6843],[1005,-3642],[335,-6512],[2009,-9381],[-209,-4746],[1507,-1876],[963,-7174],[1968,-5077],[4439,-4084],[1800,-4635],[1926,773],[1675,-3422],[-921,-4635],[418,-3863],[1926,-3753],[168,-7063],[2554,-3753],[2722,1877],[4563,-20087],[2010,0],[4564,-25054],[4229,-1214],[1759,883],[2470,5408],[2805,-1987],[4564,-662],[2973,2870],[1758,-994],[1382,-6953],[4983,-9160],[1549,-4305],[2345,-2207],[879,-10816],[-167,-4304],[4898,-12251],[1675,-2428],[1591,-6622],[2261,-2208],[3266,-8940],[3392,-5518],[-335,-4746],[3475,-6401],[2847,-2539],[1424,-5077],[-1131,-10153],[1005,-3091],[-586,-4304],[1507,-7615],[4187,-16556],[-377,-9271],[2890,-882],[5778,2759],[1633,-4194],[2847,-4415],[4522,-2649],[1758,-9933],[2387,-2097],[1298,-3863],[3433,3863],[4104,-4746],[41,-4635],[2094,-5960],[3894,2538],[2763,-1103],[3350,-11368],[126,-4525],[2512,-1766],[2889,11478],[2135,883],[1675,-2869],[4271,-2208],[3894,-3421],[8541,12913],[4899,1876],[2764,-3752],[6322,1876],[3140,-1545],[2387,3311],[3643,-1545],[2470,551],[5234,-3200],[1926,-5408],[3768,-1545],[4941,3973],[2805,-5629],[2261,-441],[4480,-6843],[2136,-5519],[-42,-3311],[3057,-5408],[2847,-552],[963,-1986],[5317,-3753],[4899,552],[2680,-5298],[2219,-8608],[4983,-16224],[2386,-4084],[1340,5408],[1465,221],[1633,5077],[628,10043],[1592,3973],[753,8057],[3978,-4635],[3517,1104],[2470,6401],[3224,-3422],[2220,-5518],[2805,-1324],[3894,2759],[-838,5739],[1298,1545],[2931,-1655],[3057,-18873],[2763,-15341],[-2763,-2318],[-2303,-6401],[126,-6071],[-3559,-3752],[-2261,-6733],[-126,-4525],[-2722,-5297],[-3265,-48893],[2470,-3753],[419,-11589],[4731,-9822],[2931,-3863],[7369,-4525],[1591,-7616],[3894,-8277],[461,-3532],[3266,-1104],[3098,-3531],[2889,-6954],[2680,5077],[1968,111],[1968,-3422],[-587,-2759],[1131,-6732],[4019,-1877],[3727,-6953],[12645,-5298],[3810,3863],[1717,-9491],[9881,-2980],[1926,1214],[879,4415],[4983,-221],[3685,4746],[2931,-1987],[1423,7064],[36051,-110920],[-16414,-30572],[1089,-2980],[-670,-9271],[293,-4967],[-628,-10153],[2722,-7174],[1465,4525],[-1465,4966],[-754,7174],[837,3201],[4606,-1325],[3015,221],[4061,-2207],[2680,-6291],[-1089,-2759],[-4019,3421],[-168,-5298],[3434,-5076],[1758,-552],[2680,-9161],[2010,-1545],[418,-3532],[-2428,-7505],[921,-4304],[2554,6291],[293,5629],[1382,3421],[-209,4525],[1423,1545],[5276,-4304],[42,-6070],[-3475,-5298],[-1592,-6732],[587,-6181],[1256,-1435],[3182,4304],[0,-5849],[-2680,-11147],[-251,-2980],[1214,-6070],[-6908,-6512],[-3518,3311],[-5066,-9712],[-1549,-221],[-2596,-12582],[-3392,-4746],[-2344,-221],[-6113,-11809],[-1340,-331],[-2177,-5077],[-1466,1987],[-837,8388],[-1298,4966],[-3015,7064],[-3182,110],[-2847,8057],[-1801,-2649],[712,-6622],[-2345,-6181],[-963,442],[-2805,-4525],[1382,-5960],[-1466,-7615],[1382,-5740],[-670,-4525],[-2303,-662],[-670,-3752],[1675,-12913],[-9672,-21633],[3726,-1214],[545,-7063],[14278,-3973],[7787,-23730],[1968,3311],[3601,2318],[3810,5629],[4397,1876],[6908,6843],[3643,6401],[3978,331],[0,-7836],[-2429,-21411],[-209,-4525],[2638,-10154],[5359,-16224],[3685,-1766],[963,-4525],[4271,-10816],[1172,-4194],[3182,-1324],[3852,-12031],[2847,-5408],[2261,-1434],[3057,-6402],[1633,-7615],[-5820,-73947],[1214,-8277]],[[3390667,3566430],[8081,-55515],[2261,441],[545,-3752],[2847,-111],[-251,-13023],[-2136,-6070],[3392,-23398],[1130,-4636],[34669,-10264],[-419,-16776],[-2052,-7726],[2303,-18983],[1256,-25164],[-6741,-13465],[-293,-12030],[-2303,-10816],[-3433,-5739],[-2680,-9492],[-3726,-883],[1591,-15562],[-2805,-14458],[-3434,-8057],[210,-15010],[-880,-21963],[293,-8609],[-1423,-8167],[-2052,-5297],[3182,-9602],[1968,-26820],[-3014,-14127],[-2638,-9381],[1214,-3201],[7160,-2759],[2847,-3090],[1675,-9382],[9211,16997],[4271,2980],[23531,4746],[2052,5408],[1717,1655],[502,5629],[6239,6291],[11430,-1876],[6867,-6843],[3559,-1214],[10551,5298],[11012,-1104],[-586,4083],[168,8057],[11263,-16003],[2805,-7505],[3936,-5629],[8165,-8167],[586,-1324],[4815,17107],[-628,10595],[15827,-4525],[-251,-4746],[-7411,-7836],[5861,-7395],[1843,-16003],[-880,-4304],[-2763,-6843],[628,-3091],[4648,552],[5066,2208],[1256,-663],[3350,4967],[1800,-1435],[1340,3532],[1507,-5408],[2471,-552],[2554,1987],[1340,-1325],[1633,32338],[18967,-5408],[-293,5187],[3768,5188],[8584,-2208],[2219,-7063],[10509,-2980],[796,3752],[4564,-1324],[2009,-3863],[2931,1324],[1340,-1986],[3224,6070],[-586,1545],[4355,15452],[22610,-7726],[0,441],[18506,-6180],[-1088,-6843],[7285,-9161],[-4061,-68759],[-6909,-15341],[-13357,-8388],[-460,8830],[-5904,4635],[-3015,-1104],[-1926,-31565],[-6071,2097],[-1423,-22625],[-2638,662],[-7537,-17438],[-7788,-13907],[17670,-5959],[-5611,-12031],[-2805,-10043],[-1257,-1656],[-1298,-7174],[84,-6732],[-1884,-13796],[3392,-1214],[-963,-16003],[3265,-1104],[-1298,-21301],[-3977,2318],[-1005,-16666],[1968,-662],[-1675,-27151],[-10970,3643],[-1256,-20198],[14529,-5187],[-2177,-36311],[-1675,-110],[-293,-5188],[-8709,-21963],[1591,-31786],[418,-32117],[-963,-15783],[-1633,-6953],[-2930,-5187],[209,-7284],[4731,-1546],[4020,-15451],[-38814,-38187],[1968,993],[2428,-8388],[2471,1214],[1758,-5298],[-10007,-11588],[10217,-72954],[7201,-54080],[6281,-22404],[7620,-46134],[-377,-4194],[2094,-4746],[42,-8719],[-1131,-7836],[-4312,-994],[-3224,2208],[-2010,4414],[-5653,-5297],[-4773,-2318],[-670,-2207],[293,-10375],[6030,221],[2721,-1325],[-921,-6511],[-3643,-6953],[2387,-7616],[251,-6953],[3978,-6401],[1465,1766],[419,5518],[1884,1104],[3810,-442],[4690,-3311],[963,-3863],[2261,-662],[-51208,-128468],[15283,-33994],[-11640,-29137],[-5317,-11699],[-9589,-17327],[-2931,-7395],[-1088,-331],[-7453,-13024],[-5946,-21301],[-712,-3311],[-2638,-4856],[838,-10816],[-3643,-14458],[-6197,-26268],[-670,-10043],[4355,-19756],[5652,-16997],[168,-3973],[6281,-20970],[-1173,-20197],[2094,-9492],[-3434,-66441],[-2973,-53639],[-1674,-27813],[-1550,-3201],[-1758,-110],[-628,-6953],[-1298,-3090],[-1968,551],[-3015,-13354],[-209,-6843],[-1131,0],[-3894,-12803],[-1674,-2538],[13901,-4194],[-2178,-35097],[17586,-6181],[-921,-16334],[-4229,-67545],[-28681,9160],[-1173,-5077]],[[1868677,4056684],[36637,-6622],[-210,-7946],[-879,-1987],[-1465,-34987],[-2261,-58715],[-4355,-22515],[-8332,1655],[-2219,5298],[-251,-55957],[-3978,-86087],[38311,-9271],[2889,12472],[2261,2097],[1005,2980],[-83,7394],[2386,8278],[293,8940],[3350,6070],[3140,10154],[461,7174],[1172,4525],[3936,4194],[-42,6070],[1507,6401],[-460,3422],[837,14789],[2931,5077],[921,5629],[3936,2097],[1633,7063],[1382,13796],[963,1877],[-1005,6401],[628,6181],[2847,3973],[754,4194],[1758,-221],[29770,-7726],[-3224,-64234],[1466,-8498],[377,-11147],[24494,-7726],[8541,-3090],[17544,-5739],[22275,-7947],[4187,-5408],[6406,-1987],[7746,10927],[2178,10816],[-293,34104],[-1759,35207],[1633,2980],[-13901,77809],[1926,34766],[-209,6843],[1381,30793],[-711,9271],[-796,3752],[15869,-110],[-1047,-26599],[-419,-16997],[126,-25274],[-879,-20859],[27886,-7947],[41,-552],[24997,-7063],[15325,-2428],[628,-552],[15366,-2649],[4313,91385],[4019,-1214],[335,9160],[6113,92047],[168,12030],[1047,13906],[-4187,1214],[2847,55074],[1591,33442],[1968,39291],[18465,-5298],[13607,-3422],[4481,-2317],[19972,-6181],[502,883],[7328,-2207],[-1633,-30683],[60335,-17769],[-3685,27151],[-2219,7284],[25416,-7284],[753,3311],[3099,-1104],[1842,33773],[1591,33331],[-2470,8829],[3140,72181],[4564,5408],[26085,-7395],[45890,-13354],[-2135,-47790],[-2596,-53307],[-3517,-75161],[460,-7505],[1466,1214],[22484,42712],[19679,39512],[210,5077],[2135,8057],[2973,7174],[2805,11920],[6825,32006],[7997,14459],[16706,-2097],[3057,68097],[23196,-5740],[377,10596],[1633,29137],[544,5849],[-1884,5298],[1926,35207],[10007,-2538],[6951,13465],[17208,-5187],[1843,993],[-14446,80017],[2555,7394],[1926,111],[2805,-2539],[2010,-5960],[2428,-3752],[4229,-1325],[4983,7505],[1340,5629],[-754,8388],[628,4746],[2010,5408],[1172,6512],[3182,4304],[1842,4525],[1675,1104],[4899,-3753],[3601,-1324],[1382,-2318],[293,-8719],[-1759,-9381],[2345,-552],[2638,-7836],[5862,-4084],[10384,1766],[6155,12030],[2512,111],[2554,-7505],[2052,883],[6866,12030],[3559,9160],[921,6622],[2387,4415],[3182,221],[1926,7836],[-2261,10485],[-502,16555],[1340,6732],[1716,221],[4439,18211],[921,7395],[502,3973],[2680,2759],[586,5187],[4564,883],[1382,1987],[-461,10816],[1507,2318],[1466,-2760],[6699,1877],[3434,-4636],[4731,331],[921,-2097],[2722,442],[1130,5408],[3559,1104],[3810,-3201],[1298,-5408],[1298,2538],[4020,-1876],[3056,-2759],[2722,-993],[6113,551],[9212,2428],[8415,552],[3978,2649],[1089,2428],[1340,8719],[2009,20639],[2052,2539],[1298,6953],[1884,3863],[-963,6511],[-42,6402],[5067,-7726],[2219,1324],[4271,6181],[2512,441],[921,6071],[3308,-3974],[3349,2097],[377,-15341],[4815,-2980],[3266,-220],[1717,4635],[167,4635],[3852,10375],[6616,7284],[1633,4415],[2261,2980],[5694,1214],[1256,2539],[4690,1434],[1465,5629],[377,7064],[-1591,1545],[-544,11368],[921,4194],[2052,2317],[6071,111],[3098,993],[2512,-3863],[1005,552],[2094,9271],[2805,3973],[3601,773],[1172,8057],[2345,-221],[2345,3421],[1591,8057],[1884,2207],[2470,8720],[2052,2979],[4522,1766],[2429,-2097],[2093,2428],[2680,-551],[2973,-4746],[628,-4746],[2093,-1656],[2806,5850],[3265,3311],[4229,-4635],[712,1655],[3559,-4084],[2387,2318],[2512,0],[1800,-10485],[-418,-6511],[1591,-4746],[1549,441],[4480,-8719],[1549,-6512],[1675,-3642],[-670,-4966],[3266,-8609],[2219,-2870],[4690,-2207],[5652,-9602],[2052,-7505],[2596,-5408],[628,-6070],[2638,-773],[4815,-11037],[-1131,-4966],[-1298,-11037],[838,-9050],[2512,-2428],[5318,-12251],[1632,-773],[1885,-6622],[-377,-2869],[2345,-3091],[-377,-3531],[1884,-4967]],[[2537850,1812904],[-6322,-7836],[-59707,23177],[-5485,-3311],[-16623,6401],[-15911,7726],[-14529,5960],[-16078,5187],[-16748,4856],[-24662,8499],[4187,88736],[3978,-1656],[4145,82114],[-35422,9602],[2512,14348],[2889,67876],[2763,59047],[294,8498],[-2722,773],[-1842,4414],[-4229,1104],[418,7947],[-3433,993],[-377,-8167],[-30356,7836],[-21144,5518],[3475,76927],[-2722,1545],[-59330,14237],[-38563,9382],[3392,78250],[-66407,12472],[-42,-552],[-27634,5187],[-7662,2649],[-12980,3753],[-61968,15451],[-4899,-94475],[-35967,10154],[-209,662],[-10929,2318],[-21270,5850],[-3601,0],[-1046,-21301],[-8374,2207],[-754,-15010],[-9672,4194],[-8458,2538],[-39693,9492],[-5401,110],[-64941,17549],[-15995,4746],[1800,36531],[-2554,663]],[[1781042,2398075],[796,41277],[-293,10816],[502,1325],[712,37083],[712,30352],[0,13685],[544,4194],[670,19977],[2638,67766],[2428,55073],[10803,-2207],[1591,441],[7327,-2428],[754,16997],[84,8388],[795,6401],[1256,24943],[838,1435],[-3266,19866],[-5527,5519],[-6574,21301],[-2051,13244],[-251,8498],[-1215,4746],[1884,2539],[11431,19204],[9547,6843],[2637,52645],[5444,107057],[-20391,5849],[6448,126592],[-168,2097],[2219,43044],[-6406,-662],[-13440,2869],[7118,163455],[23196,-6401],[1172,25716],[2722,56729],[3852,74057],[16371,-5188],[4146,69974],[-5988,1876],[2387,47458],[251,-110],[3978,78913],[2637,56508],[-3098,773],[4689,81341],[796,15893],[1298,31896],[921,15452],[1801,37525],[2051,46354],[3308,69201],[712,11589],[963,3752],[-126,5077]],[[2489490,198773],[-43461,0],[-38354,0],[-72268,110],[-34585,0],[-69128,-110],[-55311,0],[-48402,0],[-69128,0],[-69128,0],[-69170,0],[-36637,0],[-67118,0],[-70301,0],[-67997,0],[-39233,0],[-69923,0],[-63685,0],[-48110,0]],[[1391145,1685760],[3140,61254],[39358,-11147],[3894,76375],[30524,-8609],[1047,773],[4899,97234],[48737,-14569],[54264,-16114],[9211,-2428],[5025,1877],[1884,-3753],[40196,-10926],[3517,71187],[1046,11368],[1466,21411],[32491,-8719],[3559,78251],[2429,23950],[4522,47458],[30021,-8719],[31110,-8498],[7788,160033],[-7035,1987],[2513,55956],[4856,104629],[10091,-2759],[670,-3863],[3266,-1214],[3936,2870],[11472,-2980]],[[346059,2683817],[-754,3863],[796,4415],[2052,-221],[1423,2980],[-1130,3422],[1591,5187],[-1214,7836],[1842,552],[921,3863],[-1005,4414],[-2093,2428],[2931,10596],[-1005,8940],[-2094,-1435],[-1591,1435],[-1842,-2429],[-1131,10375],[-1423,3311],[-1759,7616],[921,7725],[-1465,7285],[-2680,4966],[1884,11809],[-209,5740],[1088,1655],[629,11258],[-712,4856],[-1424,221],[-1591,6180],[-2010,2318],[-1926,11920],[-1800,4194],[0,5077],[-2052,772],[-795,10706],[-2764,8609],[-84,5628],[-2261,3422],[-963,9271],[-2679,6180],[-1382,6512],[837,4635],[-1088,2870],[-2512,-221],[-4229,15231],[628,4856],[-1968,4415],[1298,10816],[-1173,1766],[587,4746],[-1340,6511],[-1466,3422],[796,3311],[-2345,5960],[-1214,7394],[-2638,2760],[-1382,18652],[-1256,1214],[-1591,17438],[1382,-442],[628,6291],[-1926,10706],[-2219,5739],[42,5077],[2177,3753],[-712,10154],[-1340,10264],[335,4635],[-1465,12803],[963,8829],[2428,13465],[2052,8278],[670,9381],[32868,-7726],[335,8057],[39023,-8829],[-84,-9161],[70008,-16334],[335,7174],[6490,-11589],[1842,18321],[712,9933],[167,19204],[1424,3753],[3056,11699],[1759,13134],[-84,4414],[1382,5850],[2889,4635],[2010,5629],[-419,5298],[1507,5959],[-251,8609],[4062,12141],[1549,6401],[-921,4967],[795,7505],[4439,29578],[1046,442],[1675,9050],[1424,1435],[4187,10485],[418,4525],[1717,5960],[-7537,113458],[7202,161578],[5234,100877],[8709,-2428],[1884,31123],[6699,-331],[5946,9271],[19763,43927],[4606,0],[6615,6070],[4857,7836],[1801,5408],[7871,7947],[8416,3531],[2429,-1655],[6448,5518],[1088,12361],[9379,6622],[1549,3312],[3936,882],[4857,4526],[3141,110],[3182,7174],[5568,9381],[10342,14127],[252,2428],[7118,11258],[5652,7505],[251,7946],[5067,11479],[27550,56729],[62178,-12803],[-1172,-5408],[-168,-6622],[-1382,-11037],[-3307,-2538],[-2471,-221],[3852,-9161],[40698,-10485],[32115,-8167],[-2931,-68097],[-4271,-91605],[7579,-2208],[28723,-7394],[4983,115665],[26043,-6291],[63894,-15341],[3057,79796],[1884,44368],[50077,-12140],[14236,-3201],[1842,-3532],[3015,773],[5359,-6512],[2010,-3863],[838,3422],[22191,-4856],[2512,59929],[-15283,3422],[4313,104408],[879,4746],[-1884,10043],[1842,6512],[2513,66000],[-461,110],[1842,37636],[-1339,3642],[502,10374],[1800,6071],[13734,-2870],[29937,59157],[19721,38850],[6323,-18652],[2805,-5850],[1214,-6622],[1298,-2428],[2764,1545],[4480,7174],[2847,-2207],[2177,-5408],[4941,-5077],[2470,-6402],[3811,-2538],[1214,-4746],[8625,-16114],[503,-6070],[1716,-3863],[4020,-4083],[7955,-6402],[7495,-18873],[-209,-3973],[6280,-20087],[9170,-56067],[-3308,-2317],[-921,-8830],[-4983,-9160],[-8206,1655],[-796,-662],[-1549,-7836],[-209,-8609],[2721,-6401],[377,8829],[31026,-6180],[126,2979],[41661,-10485],[21605,-63792],[11305,-34435],[209,1324],[13943,552],[1926,2428],[2429,5960],[10802,17438],[586,17880],[5109,8388],[2637,662],[2429,12030],[4187,9050],[-419,4636],[2973,7395],[712,4304],[-1131,23067],[3601,5077],[2010,10595],[-209,4856],[-1466,7836],[-377,5739],[628,5298],[12101,10706],[4857,23398],[2805,19645],[-2973,20970],[-2512,4856],[838,14128],[6196,26267],[10384,43154],[7956,33993],[3642,9823],[11598,50549],[54097,107167],[7411,-20749],[25960,111140],[8458,-52425],[61047,122178],[2763,96130],[7369,240492],[14027,15010],[-1465,-33110],[14570,-3863],[-1465,-29027],[-6155,-134759],[44215,-10596],[-3349,-80127],[27048,-6732],[-3182,-8499],[2261,-11257],[-377,-10926],[-1633,-14128],[-1633,-10816],[-335,-6070],[-1633,-10374],[754,-6402],[6490,-10595],[5150,-21743],[4229,-441],[1716,-4304],[419,-5740],[3685,-10264],[2386,773],[3475,5960],[5611,-1877],[3057,1435],[3600,-1435],[7495,2318],[2345,6401],[4313,5519],[3642,7505],[2722,3201],[-1842,-54081],[-1968,-42491],[-4355,-92709],[-4187,-2760],[-1130,-3421],[-5276,-3311],[-3098,-6291],[837,-13465],[-4103,-4304],[-25709,-49335],[4480,-662],[922,2980],[2889,-3090],[2596,-773],[14947,-1876],[13734,-2428],[4061,-7616],[4104,1766],[6573,-1655],[2429,993],[3642,-2538],[7746,-442],[419,-1545],[11808,-2870],[0,-9160],[-1131,-4305],[-4731,-6953],[4480,-7725],[837,-2980],[-293,-10485],[-1549,-8278],[126,-4415],[-1466,-9050],[15032,-4304],[3433,-2097],[4271,883],[2428,2538],[4062,-4414],[34040,-10154],[335,-1104],[33078,-9492],[293,883],[-5192,-104187],[-7704,1987],[-1465,-31014],[15910,-4635],[3517,19535],[8584,6180],[3978,14569],[9965,-3532],[19218,-24501],[4564,-25937],[7495,5408],[1633,-1545],[5192,-662],[2679,-8057],[2596,-773],[2513,-3863],[1130,221]],[[4686306,1978235],[-377,5187],[3182,4967],[1298,19756],[-4187,-6733],[1131,19535],[753,8057],[1382,-441],[84,9381],[837,11809],[-4773,1877],[1298,6401],[-251,3642],[1465,4084],[1549,221],[126,4745],[1214,4194],[-84,4194],[1424,3753],[-2889,3863],[-2010,14458],[796,3532],[-5150,1876],[-545,-3421],[-3056,-9492],[-2136,-4967],[-3768,883],[419,3974],[-1633,6622],[-1801,1655],[-921,6070],[1214,2539],[1424,8498],[2847,2980],[2680,-2759],[2303,-5187],[712,3642],[-2638,7394],[4019,1766],[2806,-2869],[921,14127],[4271,-1435],[167,3532],[3015,4966],[4103,3201],[963,3311],[2010,993],[3140,7174],[1298,20749],[-6574,2429],[-2261,-8388],[-11849,4194],[-2931,-332],[-2428,-6290],[-2178,441],[-1004,3532],[-3099,1655],[1172,18542],[3266,2318],[1591,5739],[1508,221],[3559,6070],[1256,7946],[-19470,25164],[-3308,5188],[2806,9160],[460,7395],[2764,5077],[2135,6291],[1507,7505],[2136,1655],[5066,11368],[1131,6953],[2219,2097],[-461,3642],[1675,27261],[2512,-12030],[9630,-3090],[0,5739],[3183,3642],[2302,6181],[-13607,4746],[1800,31896],[-2889,773],[293,4525],[10845,-3643],[921,4305],[-1424,4415],[-1298,-442],[-3852,4746],[-2847,993],[-210,5960],[-4857,1766],[880,13906],[-5736,2097],[-712,2870],[2805,3090],[-1382,3311],[2806,6070],[-1843,2649],[-4103,-3973],[84,9712],[-1759,-2207],[-3810,3973],[-2680,-1545],[293,5077],[-4898,1214],[-3057,3532],[-628,6953],[-1842,1104],[1005,4746],[125,6180],[4690,15121],[2009,3642],[-544,11037],[419,7173],[2512,7064],[-1130,6070],[-3811,-1324]],[[4663821,2515396],[1424,13575],[2345,9492],[3098,5960],[2135,0],[4606,6953],[-418,-5077],[1339,-3422],[6700,-2428],[-1843,7064],[-335,19425],[-1046,7615],[670,10264],[2135,-772],[1005,15782],[-6699,2428],[963,13686],[-2387,13796],[1633,4967],[-168,8056],[1005,5408],[-2303,3091],[-1172,4525],[-1800,-2980],[-3434,7505],[-42,16114],[545,3973],[2177,4856],[712,4525],[-5485,1766],[753,13796],[-4145,773],[-586,-4525],[1675,-2429],[-963,-5408],[-4229,-2980],[-1340,7726],[1842,4084],[-1884,3090],[-628,5298],[-1800,6180],[-1926,3422],[-2847,8829],[-3392,-3642],[-2094,3973],[712,2870],[-5024,3863],[-2471,6401],[-83,5187],[-2889,3863],[-84,8057],[-1005,11147],[670,5519],[2554,5960],[3768,4525],[3601,220],[2722,3091],[879,3532],[4899,5628],[251,5739],[3015,-662],[1340,6953],[-712,5077],[3182,14127],[-2303,15231],[3099,4305],[2051,5408],[-1675,2428],[-586,7394],[-2303,4194],[-376,4415],[2051,9492],[-293,6291],[-1005,4194],[-293,7505],[-837,1766],[-712,11036],[921,1656],[-1759,5960],[1592,4966],[669,5739],[-1800,3643],[126,8388],[-838,4856],[3392,6843],[1047,7173],[-1633,6733],[1339,8388],[3643,552],[2177,-3532],[1801,2759],[335,5187],[2345,-2317],[1004,3311],[2010,-883],[2847,-6733],[4355,-4966],[1256,-4305],[3015,-6070],[1130,-5077],[2973,-7505],[837,-4525],[3643,-1214],[1549,7726],[1089,1545],[3308,-4635],[1298,4304],[-210,9823],[-1172,2759],[2429,4304],[3684,993],[712,2539],[3224,1324],[1214,6512],[1298,2207],[168,5629],[1046,2759],[2429,0],[2093,5077],[335,11920],[4439,1214],[1968,-4635],[2135,-2318],[1298,-3863],[3350,-5077],[-335,-2207],[2889,-3973],[1716,-9271],[1717,4194],[4522,1876],[3727,4083],[1967,4084],[2555,-1545],[2512,4525],[1884,-1214],[1591,3532],[2680,772],[963,-6401],[1675,-4415],[4061,0],[1507,-4083],[3769,5628],[1591,-3421],[1884,3090],[2052,7616],[3642,-3311],[1591,3311],[4229,1545],[670,3421],[2805,-331],[-1758,-28475],[2638,-883],[1088,2870],[-1381,-22846],[-2471,-7285],[293,-6622],[-1758,-7174],[-126,-5297],[1466,-7174],[1633,1986],[376,6181],[2555,-3421],[-3894,-29027],[4396,-1435],[-754,-12582],[3978,-1324],[-628,-10927],[26336,-8388],[1047,2208],[-3014,9712],[-1550,11258],[17837,-5519],[2638,-10264],[1926,-2097],[1884,1324],[2387,-1655],[377,-7836],[-880,-4856],[4229,-1325],[-1088,-3311],[209,-5077],[1424,-8498],[1005,-2207],[-1927,-34656],[-4898,-13906],[335,-1325],[-8416,-23839],[1465,331],[-42,-7616],[880,-4414],[-2513,-6181],[-251,-6732],[754,-3201],[3894,-2207],[1214,883],[3266,-4636],[2721,-5298],[1089,-4414],[-628,-2870],[2093,-11478],[-1339,-2870],[418,-5077],[3141,-7505],[2219,-993],[1675,-4084],[1004,-6732],[6155,-1766],[963,-2759],[3099,-442],[2345,-2207],[2763,2870],[879,-6291],[1884,-6733],[3141,5408],[3475,-441],[2429,-4305],[669,-18431],[1466,-5077],[2763,-2649],[84,-3531],[-167,-9823],[1046,-1214],[-963,-7174],[-2931,-2759],[2722,-12582],[-2428,-4525],[-2220,-1877],[-251,-4635],[1675,-5187],[-335,-10816],[3182,-9713],[-712,-2759],[1801,-3642],[2680,-9050],[293,-9713],[837,-2759],[-293,-8829],[-4062,1434],[-125,-2428],[-4648,1766],[-42,-8719],[-2177,-6622],[10551,-3863],[-2135,-1655],[-1675,-3643],[-837,-5628],[-1256,-442],[-1508,-5960],[126,-8608],[-1926,-6291],[-963,-5960],[-1759,-1766],[-2344,883],[-628,-5298],[6657,-5849],[-754,-10927],[2345,4194],[1089,-1103],[2763,2207],[1591,-4856],[-1800,-3753],[-126,-7063],[2889,-1325],[-125,-5628],[-1340,-8168],[1591,-5297],[1675,-8388],[2512,-5519],[84,-7174],[1465,-2538],[-251,-4856],[963,-8940],[-2094,-2980],[252,-6622],[-2429,-7947],[-1298,-1765],[628,-4857],[1968,-3863],[-167,-3090],[-7244,2318],[2429,-9602],[879,-7064],[544,-12471],[-4522,-6291],[1340,-6402],[1675,-331],[2721,2539],[2513,-2318],[5108,-1545],[4229,-6512],[3391,-1103],[3475,993],[-418,-5629],[-1340,-1435],[-84,-10705],[-837,-3863],[1005,-4415],[1800,-17438],[1884,-10154],[-4271,-14237],[1801,-7505],[-1842,-2870],[-2513,-8057],[-1842,-2428],[-963,-4304],[-1675,-2318],[-3684,-11589],[-754,-5628],[1047,-4967],[-1550,-12140],[712,-7174],[-837,-4305],[-3894,-6291],[754,-4966],[-2220,-9492],[-2344,-5518],[-84,-10816],[837,-8609],[1382,-3642],[1507,552],[5904,-2870],[419,-10043],[-754,-4746],[1424,-1987],[2470,2870],[1884,-3422],[7328,-4746],[1758,3643],[2638,331],[2764,-2208],[1926,-5849],[-335,-10044],[-2889,-3752],[-252,-6070],[-1507,-331],[-2387,-4746],[-5987,1214],[-2219,-1325],[-963,-7946],[-2973,-2097],[-6071,-11368],[-2052,-883],[-2763,-5739],[-1885,-25937],[2806,-993],[1716,3421],[754,11148],[3015,-1104],[335,5408],[2763,-993],[377,5739],[6741,-2428],[-795,-12251],[4689,-1656],[-419,-6732],[1968,-662],[-1633,-25054],[1759,3422],[2596,-1987],[-1256,-6070],[418,-6622],[2429,-994],[-586,-8939],[963,-332],[-251,-8608],[-1382,-4967],[-628,-9491],[1382,-442],[502,-6843],[-1298,-18873],[-2428,883],[-210,-5849],[1173,-12251],[837,-4525],[-1214,-3090],[-712,-13245],[-3266,-1103]],[[4372026,1134031],[-753,17438],[3098,21411],[-1591,5629],[1172,7174],[2848,552],[3265,-1877],[1298,12913],[2806,6071],[1926,1655],[8751,-2759],[4689,81783],[12352,-3974],[3015,49997],[14236,-5187],[15952,-5187],[963,441],[18842,-5739],[209,441],[12561,-4414],[335,883],[11557,-3422],[4061,-441],[7034,-4636],[2010,-5849],[1800,-1656],[2890,3201],[3098,-13796],[2470,-8498],[5318,9160],[-2219,5077],[3391,11368],[1633,-221],[3810,-6512],[670,9713],[45513,-16666],[335,3974],[-4145,19204],[754,6622],[4103,-5298],[1214,18321],[21606,-7836],[1088,13796],[9463,-3421],[-1591,13023],[12226,-4304],[628,9491],[20517,-7505],[3266,2649],[6573,13023],[0,2870],[3685,5298],[13566,-4857],[1633,-4083],[125,-4084],[-1340,-2538],[-167,-4967],[2763,-5187],[587,-4084],[2805,331],[4313,-1655],[879,1876],[7243,773],[3099,1435],[1214,2979],[2219,-3090],[3392,-441],[753,11699],[5653,-3753],[3433,0],[4229,-3421],[4606,-6953],[2512,-6071],[4773,3974]],[[4768958,1330044],[-2638,-5187],[335,-5408],[-2345,-7505],[0,-9602],[-1298,-14458],[3308,-13355],[3140,-7174],[-753,-5960],[2428,-8277],[293,-5739],[-2093,-11148],[3936,-3973],[1256,-2869],[3433,-3753],[2387,-1104],[-628,-10154],[1549,-10595],[-3810,-8057],[-377,-4746],[1340,-6180],[-126,-7616],[1047,-4083],[2135,-2649],[1047,-6291],[1926,-5187],[3350,-2097],[-838,-12803],[1173,-5408],[251,-9712],[1214,-4305],[3475,-6842],[-1926,-10596],[2178,-11699],[3559,-9933],[6322,662],[0,-6070],[963,-4194],[-3182,-13686],[-3099,-4745],[335,-6181],[4564,-2538],[-209,-3422],[2512,-1655],[377,5849],[2554,-1435],[2345,-5739],[1842,-9933],[-1633,-2869],[-335,-7837],[-1633,-4745],[-3307,-552],[-1215,1435],[-3977,-2539],[-1591,-6181],[628,-5408],[-1340,-2979],[-1215,-6623],[-1256,-441],[-2763,-7284],[-1214,-7505],[670,-5519],[-3559,-2538],[-2010,2318],[-3936,-2097],[-2010,2759],[-1465,-5298],[293,-6070],[-1340,-3642],[-42,-11037],[2931,-12361],[-837,-5077],[-2261,-5850],[-3811,-6180],[-921,-5629],[-2261,-5629],[-753,-5629],[-2722,-7063],[-2847,3532],[-1507,-1435],[-4020,883],[-3601,5408],[-6155,-7505],[-2596,1545],[-1591,-1876],[-2219,1766],[-2596,-221],[-1926,3642],[-2680,883],[-879,-6843],[-5569,-11257],[-1465,-4194],[-586,-7064],[-1089,-3311],[-1968,-441],[-6322,2317],[-2638,-11147],[-1884,-2759],[-2889,-9050],[-4104,-7064],[-460,-6180],[-2973,-6733],[-963,-8167],[-1256,-221],[-1717,-8388],[-1842,-4746],[-1340,3422],[-2764,2538],[-1130,6181],[-4020,2207],[-2051,2318],[-1633,-5077],[-9044,6622],[-3476,-2207],[-795,-3753],[-3433,-1435],[-1801,-3421],[-2763,-10816],[-3141,-1876],[-2512,-7505],[-4229,-3974],[-2135,1325],[-6574,-5850],[-3014,-331],[-1675,-2097],[-4229,2318],[-419,-8829],[-795,-2429],[125,-7063],[-3098,-6291],[-1926,221],[-3978,-5077],[-754,-4525],[-3391,-8940],[-6992,-11810],[418,-3421],[-1381,-4415],[-6784,-3200],[-3642,3752],[-1256,-993],[-1801,9602],[503,6512],[-1298,8498],[-3936,-1876],[-1424,-4967],[-6029,-10706],[1172,-8719],[-1716,-7836],[-377,-6291],[1298,-3311],[-754,-11699],[1633,-5739],[-670,-5077],[1089,-3752],[1758,-994],[1340,-5518],[3894,-993],[4103,-9492],[1005,-10926],[1591,-3201],[-1256,-7174],[754,-9050],[1172,-5408],[-1507,-6843],[377,-4304],[3977,-12913],[796,-4415],[-167,-11368],[1716,-3311],[1173,-6181],[2219,-7284],[2763,2097],[4522,-2428],[3140,1655],[2429,-4083],[-168,-5298],[3350,-10043],[4522,3090],[2010,-6291],[-1424,-6070],[754,-6843],[2303,-8940],[1675,-3752],[-1968,-7285],[-3852,-3642],[-3434,-8057],[-4857,-6953],[1591,-2207],[670,-7284],[-2847,-7837],[126,-5849],[-2010,-4304],[628,-17659],[-963,-4856],[2052,-3753],[-1131,-7174],[-1465,-2097],[209,-5187],[1298,-4194],[-1130,-6843],[544,-7836],[-796,-4856],[-502,-14348],[-2764,-4084],[-1633,994],[-753,-6291],[-1759,-1435],[545,-7064],[-1382,-6511],[3433,-4967],[1214,-3863],[1508,3532],[3349,3752],[587,-3311],[-1466,-4194],[838,-6511],[-3099,-6181],[544,-4415],[-1339,-2980],[-1968,-15672],[-2764,-4304],[-2596,-13244],[-3810,-1987],[-795,5518],[669,4194],[-1381,4746],[-1340,-3642],[-4815,-8829],[-4564,-3863],[-1633,-7174],[-3140,-2649],[-2010,2207],[-1884,-2648],[-6113,-2649],[-3978,-3532],[-1968,-3421],[-2763,-1215],[335,4967],[-1424,5187],[-2554,3311],[-5025,4084],[-1214,-2207],[-4689,4304],[-1131,-1987],[-4145,-441],[-1465,4856],[-2345,2759],[-5276,-1876],[-3098,-4856],[-1173,-7947],[168,-3752],[-921,-9492],[1968,-11809],[-1633,-6181],[-168,-9271],[-2051,-5408],[-2094,-2538],[-5192,4635],[-628,4525],[1172,5629],[-3224,5850],[-5652,-4636],[-1717,-4304],[-2721,-552],[-2261,-3642],[-2848,1545],[1340,8829],[-209,10706],[-4397,3311],[-1884,5629],[-377,4635],[-1549,3311],[-2763,1656],[-461,6622],[-2721,15452],[586,4194],[-1759,2096],[-125,4084],[-2010,11920],[879,2869],[84,7837],[-3140,4966],[-1591,-1766],[-1340,-5297],[-2596,-2429],[-921,4746],[-1926,-552],[-1592,-7394],[-209,-4084],[-2596,-6953],[-3978,-662],[-502,-4636],[-3098,-7725],[-1256,-8278],[-3685,2318],[-3140,-7064],[-3517,-6291],[-2471,442],[-2973,-5629],[-125,-5187],[-1466,-3532],[-3056,7174],[-3769,-2759],[-2219,2979],[-2721,-1765],[-670,-2649],[-5485,-3753],[-2303,-5739],[-2554,-8719],[-3559,-110],[-1549,2649],[-7788,-12251],[-1382,-442],[-335,-8167],[-1214,-10264],[-2178,-6291],[670,-4194],[-2261,-6181],[-3684,-4746],[-921,-6842],[-2010,-1435],[-4690,-14238]],[[4062855,1373750],[9421,155729],[2973,-1214],[3475,56950],[-1214,4304],[879,31455],[3098,51431],[-293,111],[4271,71187],[5820,20970],[5066,4084],[-125,1434],[2680,11699],[1716,12141],[5276,14569],[4145,19424],[4103,13686],[3894,3311],[13901,-42381],[14822,7394],[10133,5739],[84,-22956],[-126,-18873],[15827,-7615],[3434,-3201],[4605,2759],[9589,2318],[1340,2318],[12896,-4746],[2763,-4856],[12059,13133],[-1968,8940],[1382,3532],[83,6512],[2471,5518],[1340,15783],[-2931,8388],[2428,38077],[-586,220],[-1884,13244],[-419,10375],[209,9381],[-209,13244],[963,21301],[3852,61144],[8458,-2869],[2010,1986],[22233,-7284],[5066,2318],[8165,-2649],[-1968,-16334],[11849,-4305],[18758,-6180],[17670,-5960],[1214,65227],[712,26268],[2093,-773],[3392,54301],[335,8499],[4647,73836],[47272,-78362],[2470,40285],[-1214,441],[2805,43264],[-4187,1546],[1633,23066],[-586,1877],[2261,36311],[3727,-1325],[544,9051],[879,-221],[-1800,18652],[-1005,4194],[502,8167],[7621,-2649],[-754,-12140],[6197,-2207],[293,4856],[12017,-3974],[377,6623],[5527,-2429],[2721,7064],[9798,-3311],[586,8388],[-1382,552],[712,12361],[2931,-883],[879,12913],[-963,442],[2136,35097],[6490,-2318],[1716,30351],[3057,2649],[6239,-2207],[1884,30461],[3852,-1324],[795,7836],[3434,1103],[4354,2870],[2973,3311],[-1256,6401],[335,5298],[5150,23177],[-1466,5960],[-711,16224],[-2178,2428],[-1465,6291],[-1298,0],[-1131,5408],[-3391,6512],[460,7174]],[[4458572,2501048],[1759,-2207],[3182,1214],[2764,3752],[1591,-6732],[3433,-5960],[1424,331],[3307,-5298],[1005,-5628],[1215,-773],[2219,-6843],[2051,111],[3601,-6512],[4145,-3973],[3057,3642],[2931,-2539],[3266,1656],[2386,-2208],[3099,111],[5275,3642],[5695,6070],[3349,8830],[3727,-5077],[2847,4746],[1382,-1215],[3140,4194],[2345,9602],[3726,7395],[1717,6622],[2010,4305],[167,5739],[18130,20197],[335,6181],[2136,6070],[1842,2318],[754,12030],[-670,4635],[460,5408],[1675,5077],[-84,4967],[1926,5739],[3936,5077],[2554,6070],[1508,7063],[83,5409],[3182,10153],[712,111],[16078,-5188],[503,8278],[1172,331],[754,12803],[3057,4635],[4187,-883],[502,7947],[4145,7174],[3350,-10706],[1884,-2207],[5024,-1766],[880,4746],[2303,4745],[2051,883],[1256,3974],[2261,3090],[-586,-11258],[5108,-1545],[670,-10264],[-921,-5298],[168,-11368],[1339,-6842],[1424,-111],[1298,-5960],[-502,-6401],[-3518,110],[-1884,-8829],[1298,-5960],[-1842,-6622],[-3810,-5960],[-2596,1545],[-838,-6070],[-2177,662],[-586,-5960],[1633,-3642],[1591,2649],[2052,-1545],[2512,1656],[1298,-3863],[8500,-2760],[-3224,-9270],[-754,-5077],[-1507,-2980],[1758,-5850],[293,-17769],[-2051,-6070],[-1885,-2428],[-502,-4636],[-1801,-993],[-837,-9492],[2847,-1103],[2764,-7064],[2805,-442],[7327,9051],[1633,5628],[4104,2980],[2386,8830],[2722,-442],[2847,3863],[3391,-2318],[2722,-4414],[879,6622]],[[3390667,3566430],[3685,2538],[6406,-4414],[1340,-1766],[5527,5518],[11095,-3421],[25541,-10044],[10091,-2759],[21982,-6291],[10593,45582],[3224,6401],[2973,-1545],[2471,6512],[3098,5849],[84,3311],[3098,2097],[712,7505],[4103,8278],[3266,1655],[6574,14017],[2010,-7284],[33747,-9933],[-2721,-46134],[41158,-12030],[3727,63903],[209,331],[26965,-9160],[6029,12140],[3559,4746],[921,3311],[3182,4415],[4397,3752],[18255,21411],[7830,-36311],[5192,-25053],[2135,-1656],[4857,17107],[-7202,34987],[1926,7615],[6993,-6401],[2596,8278],[1800,2538],[2261,-221],[1633,-3642],[2638,-1435],[3936,3974],[2093,9602],[-2596,883],[754,12913],[1507,-552],[4774,-9492],[4815,-110],[13733,8940],[1591,9381],[2806,-3201],[1381,7064],[2889,-1656],[1256,1987],[3601,-5298],[1843,-5297],[3559,-5740],[1884,-8387],[2303,-883],[5317,441],[1633,-1655],[3015,-10044],[2638,-331],[2428,3311],[6909,662],[4019,-5739],[5737,-5739],[3475,-8609],[2512,34435],[1424,-2538],[1968,110],[1674,4084],[1550,331],[586,-7726],[1675,-1545],[1172,2649],[1759,27812],[12309,1104],[2220,6732],[586,5298],[1758,7836],[963,-3090],[2219,1655],[4397,-17107],[5862,-7946],[5108,-4525],[5108,3421],[2554,331],[2303,4525],[3768,3863],[2010,6953],[838,0],[-42,11368],[-2513,16335],[13776,-4967],[2763,331],[4020,-2648],[5527,-1987],[2679,-6401],[2178,-883],[460,7946],[3517,-110],[6448,-8719],[2429,-221],[1130,19425],[5402,-1656],[17418,-11147],[1884,-27371],[1926,-3201],[6364,-772],[4104,3200],[7704,1104],[-838,9492],[2555,4966],[1046,6070],[4020,5960],[5485,1325],[3433,16444],[1382,41168],[1968,3752],[-5192,43927],[419,7946],[-1926,12803],[3391,11147],[4187,3973],[2596,44147],[-2303,16666],[1633,5408],[2136,2870],[15031,-7174],[837,-883],[4816,-24502],[3475,-8388],[5610,-5187],[2931,-5188],[5695,4084],[3349,1435],[3015,-1325],[3433,2429],[3811,1324],[6280,-5850],[2471,-10153],[8709,-1766],[17669,-6071],[586,-13464],[1340,-7395],[2093,-2759],[-83,-3422],[-2973,-8719],[-84,-5739],[-1884,-1435],[-2219,-7174],[-1382,-11478],[2680,-11699],[6155,-7174],[-586,-13465],[335,-14016],[1172,-6733],[-2805,-10595],[-4020,-993],[-1549,-5077],[-1005,-8168],[5359,-16334],[-3224,-2539],[3559,-11478],[5318,-7505],[586,-7174],[2931,-3752],[6825,-21853],[1465,-7174],[-1591,-8609],[-711,-8388],[-2471,-7615],[-3015,-4084],[-669,-6953],[586,-9933],[2219,-7946],[-42,-9603],[-1842,-9491],[-461,-6622],[-4438,-15672],[167,-7174],[1591,-8830],[587,-6622],[-712,-7063],[3768,-663],[3727,-2428],[4773,-1655],[5150,-12030],[2219,-442],[2470,4636],[1759,883],[3852,-994],[7495,442],[2805,-994],[1424,-10485],[2763,-7946],[1633,-11368],[-712,-3973],[3099,-3753],[1172,-3311],[-251,-4194],[-1884,-6732],[3810,-22515],[24955,-8278],[22735,40836],[1047,7395],[-167,4856],[3391,4636],[2638,-994],[2680,-7505],[2386,-1435],[7244,3422],[5192,-4304],[9128,6732],[-252,-4084],[2429,-4083],[1968,-17659],[3810,-13355],[-419,-6953],[2722,-11037],[795,-12692],[2303,-6622],[6951,-8829],[3182,-2760],[3475,-1214],[4522,552],[3434,3311],[2679,-11037],[2094,-1655],[2470,-3753],[1424,-5628],[2051,-1214],[2010,-4857],[1842,331],[3769,-2538],[1758,-6622],[2178,1104],[2386,3531],[3392,10154],[1256,-2649],[2303,4084],[2931,-1545],[753,-6291],[3266,-10706],[-1256,-14237],[335,-5188],[1424,-3973],[544,-8277],[-1340,-5519],[-3643,-5629],[-1298,1877],[-3224,-1435],[-5694,8609],[-2135,9271],[-1968,2317],[-7202,-9933],[461,-11478],[-2890,1104],[-6908,-2760],[-1340,-11919],[-21145,-25164],[-1884,3200],[-2051,552],[1423,-70856],[20852,1656],[29267,-9161],[-963,-10154],[-5359,-80568],[-2554,-38077],[-15911,-91054],[42,-331],[43796,-14238],[10803,-3752],[293,-2097],[-2010,-5518],[-84,-3532],[1968,-6181],[-1633,-7063],[3350,-14348],[2721,-3973],[1340,-4194],[3266,-6402],[3434,4856],[2177,-5518],[1968,-221],[-293,-9712],[2009,-6401],[2638,-5850],[3266,-2318],[2345,1104],[3224,5739],[3433,-1324],[-293,-9823],[377,-3863],[3015,-10154],[2721,-4414],[1466,-10154],[2931,-7616],[795,-4856],[1843,662],[1926,5077],[1256,-6953],[1926,-1104],[1381,-5739],[-376,-2649],[3852,-6953],[2973,-772],[1172,-10485],[2470,-1656],[2345,-5408],[2219,-662],[1424,-8719],[2721,2759],[2596,-7615],[4145,-5408],[5569,-16776],[503,-4415],[-838,-14679],[-6406,-11368],[1005,-883],[1382,-6953],[3224,-4194],[4899,-3201],[418,-4966],[-1716,-8719],[1381,-7505],[-1633,-8830],[2052,-4083],[335,-12693],[754,-6070],[1172,-221],[4522,-6732],[2554,-4856],[4103,-1435],[5946,-4304],[3894,1655],[921,3642],[2764,2980],[2554,-2207],[1800,-6843],[4773,-552],[838,-4083],[3517,1214],[2093,-994],[-837,-6511],[167,-8168],[-711,-3090],[376,-6070],[1759,-5739],[-2135,-6291],[1046,-1987],[2094,-10926],[1800,-1104],[1089,-7063],[2135,-2539],[1466,773],[3768,-10816],[377,-6733],[2680,-4525],[1130,-7063],[1675,-6071],[2303,-1876],[-209,-4304],[1549,-3863],[418,-9933],[2345,-11589],[1842,993],[2052,-2428],[921,-4414],[4104,0],[544,-3201],[3140,-5077],[1717,662],[4271,-9271],[3349,2097],[3685,-8829],[1465,-442],[2219,-6401]]],"transform":{"scale":[0.0000023883204776640943,9.060601812120365e-7],"translate":[140.9993,-29.1792]},"objects":{"qld_southern_ldmg_boundaries_gda2020_simp200m":{"type":"GeometryCollection","geometries":[{"arcs":[[0,1,2,3,4]],"type":"Polygon","properties":{"LGA Code":"300","Abbreviated Name":"Balonne","LGA Name":"Balonne Shire","Area Sq Km":31074.96,"LDMG Name":"Balonne","Source Area Sq Km":31074.95046,"Police Region Name":"Southern Region","Police Region Code":"SR","Police Region Short Name":"Southern","Region Slug":"southern","Layer Id":"qld_southern_ldmg_boundaries_gda2020_simp200m","Layer Group":"per-region","Layer Kind":"ldmg","Source":"Local government area boundaries - Queensland, Department of Natural Resources and Mines, Manufacturing and Regional and Rural Development; ASGS Edition 3 (2021) Local Government Areas, Australian Bureau of Statistics","Source URL":"https://www.data.qld.gov.au/dataset/local-government-area-boundaries-queensland","Licence":"CC BY 4.0","Licence URL":"https://creativecommons.org/licenses/by/4.0/","Dataset Date":"extract of 14/09/2026","Simplification Tolerance M":200,"Coordinate Precision Decimals":4,"CRS":"GDA2020 (EPSG:7844)","Fidelity":"standard: source boundaries, simplified","Modified":"Simplified and repackaged from the source dataset; see Source URL"},"id":"300"},{"arcs":[[5,6,7]],"type":"Polygon","properties":{"LGA Code":"1750","Abbreviated Name":"Bulloo","LGA Name":"Bulloo Shire","Area Sq Km":73234.53,"LDMG Name":"Bulloo","Source Area Sq Km":73234.89394,"Police Region Name":"Southern Region","Police Region Code":"SR","Police Region Short Name":"Southern","Region Slug":"southern","Layer Id":"qld_southern_ldmg_boundaries_gda2020_simp200m","Layer Group":"per-region","Layer Kind":"ldmg","Source":"Local government area boundaries - Queensland, Department of Natural Resources and Mines, Manufacturing and Regional and Rural Development; ASGS Edition 3 (2021) Local Government Areas, Australian Bureau of Statistics","Source URL":"https://www.data.qld.gov.au/dataset/local-government-area-boundaries-queensland","Licence":"CC BY 4.0","Licence URL":"https://creativecommons.org/licenses/by/4.0/","Dataset Date":"extract of 14/09/2026","Simplification Tolerance M":200,"Coordinate Precision Decimals":4,"CRS":"GDA2020 (EPSG:7844)","Fidelity":"standard: source boundaries, simplified","Modified":"Simplified and repackaged from the source dataset; see Source URL"},"id":"1750"},{"arcs":[[-2,8,9,10,11]],"type":"Polygon","properties":{"LGA Code":"3610","Abbreviated Name":"Goondiwindi","LGA Name":"Goondiwindi Regional","Area Sq Km":19281.48,"LDMG Name":"Goondiwindi","Source Area Sq Km":19280.68984,"Police Region Name":"Southern Region","Police Region Code":"SR","Police Region Short Name":"Southern","Region Slug":"southern","Layer Id":"qld_southern_ldmg_boundaries_gda2020_simp200m","Layer Group":"per-region","Layer Kind":"ldmg","Source":"Local government area boundaries - Queensland, Department of Natural Resources and Mines, Manufacturing and Regional and Rural Development; ASGS Edition 3 (2021) Local Government Areas, Australian Bureau of Statistics","Source URL":"https://www.data.qld.gov.au/dataset/local-government-area-boundaries-queensland","Licence":"CC BY 4.0","Licence URL":"https://creativecommons.org/licenses/by/4.0/","Dataset Date":"extract of 14/09/2026","Simplification Tolerance M":200,"Coordinate Precision Decimals":4,"CRS":"GDA2020 (EPSG:7844)","Fidelity":"standard: source boundaries, simplified","Modified":"Simplified and repackaged from the source dataset; see Source URL"},"id":"3610"},{"arcs":[[12,13,14]],"type":"Polygon","properties":{"LGA Code":"3960","Abbreviated Name":"Ipswich","LGA Name":"Ipswich City","Area Sq Km":1092.7,"LDMG Name":"Ipswich","Source Area Sq Km":1093.15869,"Police Region Name":"Southern Region","Police Region Code":"SR","Police Region Short Name":"Southern","Region Slug":"southern","Layer Id":"qld_southern_ldmg_boundaries_gda2020_simp200m","Layer Group":"per-region","Layer Kind":"ldmg","Source":"Local government area boundaries - Queensland, Department of Natural Resources and Mines, Manufacturing and Regional and Rural Development; ASGS Edition 3 (2021) Local Government Areas, Australian Bureau of Statistics","Source URL":"https://www.data.qld.gov.au/dataset/local-government-area-boundaries-queensland","Licence":"CC BY 4.0","Licence URL":"https://creativecommons.org/licenses/by/4.0/","Dataset Date":"extract of 14/09/2026","Simplification Tolerance M":200,"Coordinate Precision Decimals":4,"CRS":"GDA2020 (EPSG:7844)","Fidelity":"standard: source boundaries, simplified","Modified":"Simplified and repackaged from the source dataset; see Source URL"},"id":"3960"},{"arcs":[[-14,15,16,17,18]],"type":"Polygon","properties":{"LGA Code":"4580","Abbreviated Name":"Lockyer Valley","LGA Name":"Lockyer Valley Regional","Area Sq Km":2268.43,"LDMG Name":"Lockyer Valley","Source Area Sq Km":2269.27913,"Police Region Name":"Southern Region","Police Region Code":"SR","Police Region Short Name":"Southern","Region Slug":"southern","Layer Id":"qld_southern_ldmg_boundaries_gda2020_simp200m","Layer Group":"per-region","Layer Kind":"ldmg","Source":"Local government area boundaries - Queensland, Department of Natural Resources and Mines, Manufacturing and Regional and Rural Development; ASGS Edition 3 (2021) Local Government Areas, Australian Bureau of Statistics","Source URL":"https://www.data.qld.gov.au/dataset/local-government-area-boundaries-queensland","Licence":"CC BY 4.0","Licence URL":"https://creativecommons.org/licenses/by/4.0/","Dataset Date":"extract of 14/09/2026","Simplification Tolerance M":200,"Coordinate Precision Decimals":4,"CRS":"GDA2020 (EPSG:7844)","Fidelity":"standard: source boundaries, simplified","Modified":"Simplified and repackaged from the source dataset; see Source URL"},"id":"4580"},{"arcs":[[-5,19,20,21,22]],"type":"Polygon","properties":{"LGA Code":"4860","Abbreviated Name":"Maranoa","LGA Name":"Maranoa Regional","Area Sq Km":58713.27,"LDMG Name":"Maranoa","Source Area Sq Km":58712.43381,"Police Region Name":"Southern Region","Police Region Code":"SR","Police Region Short Name":"Southern","Region Slug":"southern","Layer Id":"qld_southern_ldmg_boundaries_gda2020_simp200m","Layer Group":"per-region","Layer Kind":"ldmg","Source":"Local government area boundaries - Queensland, Department of Natural Resources and Mines, Manufacturing and Regional and Rural Development; ASGS Edition 3 (2021) Local Government Areas, Australian Bureau of Statistics","Source URL":"https://www.data.qld.gov.au/dataset/local-government-area-boundaries-queensland","Licence":"CC BY 4.0","Licence URL":"https://creativecommons.org/licenses/by/4.0/","Dataset Date":"extract of 14/09/2026","Simplification Tolerance M":200,"Coordinate Precision Decimals":4,"CRS":"GDA2020 (EPSG:7844)","Fidelity":"standard: source boundaries, simplified","Modified":"Simplified and repackaged from the source dataset; see Source URL"},"id":"4860"},{"arcs":[[23,-21,24,25]],"type":"Polygon","properties":{"LGA Code":"5600","Abbreviated Name":"Murweh","LGA Name":"Murweh Shire","Area Sq Km":40698.46,"LDMG Name":"Murweh","Source Area Sq Km":40698.93007,"Police Region Name":"Southern Region","Police Region Code":"SR","Police Region Short Name":"Southern","Region Slug":"southern","Layer Id":"qld_southern_ldmg_boundaries_gda2020_simp200m","Layer Group":"per-region","Layer Kind":"ldmg","Source":"Local government area boundaries - Queensland, Department of Natural Resources and Mines, Manufacturing and Regional and Rural Development; ASGS Edition 3 (2021) Local Government Areas, Australian Bureau of Statistics","Source URL":"https://www.data.qld.gov.au/dataset/local-government-area-boundaries-queensland","Licence":"CC BY 4.0","Licence URL":"https://creativecommons.org/licenses/by/4.0/","Dataset Date":"extract of 14/09/2026","Simplification Tolerance M":200,"Coordinate Precision Decimals":4,"CRS":"GDA2020 (EPSG:7844)","Fidelity":"standard: source boundaries, simplified","Modified":"Simplified and repackaged from the source dataset; see Source URL"},"id":"5600"},{"arcs":[[-4,26,-7,27,-25,-20]],"type":"Polygon","properties":{"LGA Code":"5800","Abbreviated Name":"Paroo","LGA Name":"Paroo Shire","Area Sq Km":47628.77,"LDMG Name":"Paroo","Source Area Sq Km":47628.47582,"Police Region Name":"Southern Region","Police Region Code":"SR","Police Region Short Name":"Southern","Region Slug":"southern","Layer Id":"qld_southern_ldmg_boundaries_gda2020_simp200m","Layer Group":"per-region","Layer Kind":"ldmg","Source":"Local government area boundaries - Queensland, Department of Natural Resources and Mines, Manufacturing and Regional and Rural Development; ASGS Edition 3 (2021) Local Government Areas, Australian Bureau of Statistics","Source URL":"https://www.data.qld.gov.au/dataset/local-government-area-boundaries-queensland","Licence":"CC BY 4.0","Licence URL":"https://creativecommons.org/licenses/by/4.0/","Dataset Date":"extract of 14/09/2026","Simplification Tolerance M":200,"Coordinate Precision Decimals":4,"CRS":"GDA2020 (EPSG:7844)","Fidelity":"standard: source boundaries, simplified","Modified":"Simplified and repackaged from the source dataset; see Source URL"},"id":"5800"},{"arcs":[[28,-26,-28,-6]],"type":"Polygon","properties":{"LGA Code":"6150","Abbreviated Name":"Quilpie","LGA Name":"Quilpie Shire","Area Sq Km":67456.57,"LDMG Name":"Quilpie","Source Area Sq Km":67456.57279,"Police Region Name":"Southern Region","Police Region Code":"SR","Police Region Short Name":"Southern","Region Slug":"southern","Layer Id":"qld_southern_ldmg_boundaries_gda2020_simp200m","Layer Group":"per-region","Layer Kind":"ldmg","Source":"Local government area boundaries - Queensland, Department of Natural Resources and Mines, Manufacturing and Regional and Rural Development; ASGS Edition 3 (2021) Local Government Areas, Australian Bureau of Statistics","Source URL":"https://www.data.qld.gov.au/dataset/local-government-area-boundaries-queensland","Licence":"CC BY 4.0","Licence URL":"https://creativecommons.org/licenses/by/4.0/","Dataset Date":"extract of 14/09/2026","Simplification Tolerance M":200,"Coordinate Precision Decimals":4,"CRS":"GDA2020 (EPSG:7844)","Fidelity":"standard: source boundaries, simplified","Modified":"Simplified and repackaged from the source dataset; see Source URL"},"id":"6150"},{"arcs":[[-15,-19,29,30]],"type":"Polygon","properties":{"LGA Code":"6580","Abbreviated Name":"Somerset","LGA Name":"Somerset Regional","Area Sq Km":5373.87,"LDMG Name":"Somerset","Source Area Sq Km":5373.65012,"Police Region Name":"Southern Region","Police Region Code":"SR","Police Region Short Name":"Southern","Region Slug":"southern","Layer Id":"qld_southern_ldmg_boundaries_gda2020_simp200m","Layer Group":"per-region","Layer Kind":"ldmg","Source":"Local government area boundaries - Queensland, Department of Natural Resources and Mines, Manufacturing and Regional and Rural Development; ASGS Edition 3 (2021) Local Government Areas, Australian Bureau of Statistics","Source URL":"https://www.data.qld.gov.au/dataset/local-government-area-boundaries-queensland","Licence":"CC BY 4.0","Licence URL":"https://creativecommons.org/licenses/by/4.0/","Dataset Date":"extract of 14/09/2026","Simplification Tolerance M":200,"Coordinate Precision Decimals":4,"CRS":"GDA2020 (EPSG:7844)","Fidelity":"standard: source boundaries, simplified","Modified":"Simplified and repackaged from the source dataset; see Source URL"},"id":"6580"},{"arcs":[[-11,31,-17,32]],"type":"Polygon","properties":{"LGA Code":"6660","Abbreviated Name":"Southern Downs","LGA Name":"Southern Downs Regional","Area Sq Km":7089.06,"LDMG Name":"Southern Downs","Source Area Sq Km":7088.86614,"Police Region Name":"Southern Region","Police Region Code":"SR","Police Region Short Name":"Southern","Region Slug":"southern","Layer Id":"qld_southern_ldmg_boundaries_gda2020_simp200m","Layer Group":"per-region","Layer Kind":"ldmg","Source":"Local government area boundaries - Queensland, Department of Natural Resources and Mines, Manufacturing and Regional and Rural Development; ASGS Edition 3 (2021) Local Government Areas, Australian Bureau of Statistics","Source URL":"https://www.data.qld.gov.au/dataset/local-government-area-boundaries-queensland","Licence":"CC BY 4.0","Licence URL":"https://creativecommons.org/licenses/by/4.0/","Dataset Date":"extract of 14/09/2026","Simplification Tolerance M":200,"Coordinate Precision Decimals":4,"CRS":"GDA2020 (EPSG:7844)","Fidelity":"standard: source boundaries, simplified","Modified":"Simplified and repackaged from the source dataset; see Source URL"},"id":"6660"},{"arcs":[[-10,33,34,-30,-18,-32]],"type":"Polygon","properties":{"LGA Code":"6910","Abbreviated Name":"Toowoomba","LGA Name":"Toowoomba Regional","Area Sq Km":12976.42,"LDMG Name":"Toowoomba","Source Area Sq Km":12976.35649,"Police Region Name":"Southern Region","Police Region Code":"SR","Police Region Short Name":"Southern","Region Slug":"southern","Layer Id":"qld_southern_ldmg_boundaries_gda2020_simp200m","Layer Group":"per-region","Layer Kind":"ldmg","Source":"Local government area boundaries - Queensland, Department of Natural Resources and Mines, Manufacturing and Regional and Rural Development; ASGS Edition 3 (2021) Local Government Areas, Australian Bureau of Statistics","Source URL":"https://www.data.qld.gov.au/dataset/local-government-area-boundaries-queensland","Licence":"CC BY 4.0","Licence URL":"https://creativecommons.org/licenses/by/4.0/","Dataset Date":"extract of 14/09/2026","Simplification Tolerance M":200,"Coordinate Precision Decimals":4,"CRS":"GDA2020 (EPSG:7844)","Fidelity":"standard: source boundaries, simplified","Modified":"Simplified and repackaged from the source dataset; see Source URL"},"id":"6910"},{"arcs":[[-1,-23,35,-34,-9]],"type":"Polygon","properties":{"LGA Code":"7310","Abbreviated Name":"Western Downs","LGA Name":"Western Downs Regional","Area Sq Km":37942.35,"LDMG Name":"Western Downs","Source Area Sq Km":37943.32474,"Police Region Name":"Southern Region","Police Region Code":"SR","Police Region Short Name":"Southern","Region Slug":"southern","Layer Id":"qld_southern_ldmg_boundaries_gda2020_simp200m","Layer Group":"per-region","Layer Kind":"ldmg","Source":"Local government area boundaries - Queensland, Department of Natural Resources and Mines, Manufacturing and Regional and Rural Development; ASGS Edition 3 (2021) Local Government Areas, Australian Bureau of Statistics","Source URL":"https://www.data.qld.gov.au/dataset/local-government-area-boundaries-queensland","Licence":"CC BY 4.0","Licence URL":"https://creativecommons.org/licenses/by/4.0/","Dataset Date":"extract of 14/09/2026","Simplification Tolerance M":200,"Coordinate Precision Decimals":4,"CRS":"GDA2020 (EPSG:7844)","Fidelity":"standard: source boundaries, simplified","Modified":"Simplified and repackaged from the source dataset; see Source URL"},"id":"7310"}]}}}