{"type":"Topology","arcs":[[[65832,20302],[77,10],[43,19],[15,158],[27,30],[22,158],[-11,27],[33,231],[-31,18],[-46,-40],[18,182],[46,24],[26,52],[7,72],[27,69],[31,23],[34,170],[-13,134],[14,90],[-42,100],[3,35],[-49,72],[-120,41],[-15,134],[40,72],[105,22],[67,56],[17,92],[-30,22],[-22,78],[-30,-4],[-37,47],[-68,286],[-82,15],[-54,36],[2,45],[-44,65],[-22,4],[-46,84],[35,80],[-7,105],[40,57],[-27,73],[-63,101],[-326,47],[-12,11],[37,168],[-39,91],[18,61],[-11,65],[-36,62],[-58,141],[-44,24],[-14,44],[-2,86],[-19,153],[4,93],[26,46],[82,18],[12,51],[-39,46],[-13,45],[-69,-11],[-32,150],[-63,73],[-31,72],[-13,79],[-37,70],[-30,98],[-11,100],[-32,65],[12,29],[-94,242],[-8,161],[-16,65],[5,63],[-15,72],[39,136],[-16,85],[0,108],[-19,42],[1,102],[105,118],[-1,57],[22,77],[-42,53],[52,188],[-28,87],[-4,119],[36,98],[-6,29],[54,212],[52,37],[33,76],[39,-58],[67,51],[125,264],[-3,168],[-35,51],[-88,-11],[602,787],[279,-148],[19,-137],[30,-30],[64,-28],[28,-111],[26,-40],[46,-16],[116,-78],[37,-4],[158,33],[-10,-119],[-29,-86],[37,-130],[30,-7],[8,-70],[45,-14],[13,-118],[-69,-30],[9,-187],[37,-63],[26,-79],[-9,-83],[28,-98],[27,-151],[1,-91],[46,-157],[63,-59],[-4,-147],[19,-28],[78,-17],[87,0],[-39,-142],[24,-98],[-21,-123],[41,-58],[34,-134],[-12,-90],[46,-119],[-10,-87],[-20,-51],[-16,-104],[12,-101],[-37,-83],[-7,-60],[-119,-105],[2,-62],[-32,-72],[37,-59],[132,-76],[48,-92],[-39,-18],[12,-81],[66,-45],[110,13],[34,95],[132,111],[36,64],[42,105],[65,-10],[36,61],[9,82],[53,70],[20,64],[-23,54],[4,155],[15,56],[50,-22],[54,152],[24,20],[-34,124],[12,98],[32,86],[46,35],[-42,88],[-7,89],[-21,39],[-21,201],[26,-44],[73,-57],[68,-9],[22,-28],[42,7],[44,-36],[30,-133],[-8,-79],[89,-225],[78,-22],[48,-76],[145,-60],[70,-47],[58,47],[24,103],[-14,186],[4,79],[-28,150],[21,73],[-16,86],[16,54],[85,78],[82,-51],[54,-18],[57,-139],[49,22],[21,90],[56,92],[27,135],[-5,66],[117,68],[50,-24],[42,94],[40,-52],[156,-154],[103,-47],[5,-57],[57,-102],[33,-15],[44,57],[56,19],[40,39],[70,-20],[34,-32],[62,38],[-1,105],[23,70],[63,133],[-9,217],[-26,70],[11,38],[-50,64],[31,72],[-18,91],[42,46],[-28,34],[-21,147],[-38,94],[-5,69],[70,51],[17,34],[32,127],[36,429],[31,7],[86,137],[153,143],[15,194],[-11,84],[46,249],[38,81],[38,31],[78,-29],[-2,50],[63,191],[2,78],[136,33],[76,11],[19,-109],[125,4],[23,-666],[33,-810],[26,63],[43,-13],[16,-70],[60,-33],[59,22],[6,97],[35,121],[-21,76],[8,141],[-9,217],[-56,270],[-10,148],[-2,163],[10,141],[29,84],[77,98],[19,61],[-1,101],[121,85],[96,109],[75,145],[53,86],[54,145],[77,122],[73,64],[112,260],[175,334],[29,96],[33,61],[25,310],[26,6],[71,204],[-160,149],[-30,148],[96,558],[18,243],[377,-72],[-69,169],[56,-10],[0,105],[-23,83],[-50,105],[37,90],[-13,57],[-38,37],[10,63],[-13,80],[-54,77],[11,58],[-16,201],[-58,221],[32,67],[-11,54],[-2,231],[-35,112],[3,66],[-45,28],[6,73],[-19,55],[55,129],[-75,477],[-37,28],[-9,174],[15,50],[-29,112],[-3,57],[-40,81],[-6,52],[-171,513],[-53,97],[-28,110],[-71,2],[-19,168],[-55,53],[-9,62],[-34,24],[11,192],[33,53],[-82,120],[-25,135],[19,95],[-32,66],[-42,33],[-24,86],[16,61],[-18,74],[-29,18],[-46,108],[24,43],[129,109],[772,-22],[418,-95],[51,-37],[26,8],[40,86],[59,85],[-40,101],[-1,89],[-26,70],[46,101],[-53,136],[12,61],[-18,57],[24,83],[-2,81],[-17,68],[-84,54],[-46,50],[-85,44],[-94,115],[-29,108],[11,121],[45,188],[70,207],[39,137],[76,138],[8,105],[21,37],[70,-19],[84,-87],[38,8],[17,107],[-8,45],[-51,74],[-9,160],[14,151],[-11,148],[84,16],[102,-106],[51,-84],[73,60],[17,52],[81,1],[37,112],[55,32],[8,57],[54,20],[25,58],[23,121],[-15,92],[29,72],[2,85],[31,37],[-12,80],[-1,141],[30,64],[476,-136],[512,-45],[-12,117],[26,39],[20,80],[46,-23],[42,62],[-43,151],[8,138],[-52,58],[-25,104],[2,127],[-24,27],[-76,12],[-47,95],[-45,27],[-28,85],[-43,38],[-50,77],[-17,114],[0,139],[-30,49],[-17,86],[-23,40],[7,69],[-55,77],[11,75],[-29,32],[-37,0],[-29,149],[33,40],[28,-8],[34,72],[35,11],[21,78],[-61,365],[112,-25],[7,81],[78,-15],[94,2],[108,-21],[3,37],[154,-37],[20,279],[19,31],[16,197],[14,7],[38,121],[61,4],[21,69],[58,42],[31,-10],[122,40],[54,58],[60,-54],[10,-30],[48,-13],[45,68],[5,46],[223,-47],[5,56],[117,-27],[6,66],[89,-21],[-3,-43],[74,-16],[5,52],[110,-23],[58,18],[89,-94],[58,-7],[-1,-116],[92,-29],[-11,-35],[-51,-36],[-1,-62],[27,-49],[1,-52],[94,-100],[-32,-98],[-28,8],[-34,-36],[-23,-56],[33,-64],[69,-52],[33,-86],[50,-9],[23,-53],[-24,-107],[50,-37],[14,-125],[25,-16],[40,-104],[-26,-90],[151,-18],[20,-55],[50,-28],[-28,-47],[-10,-109],[17,-21],[1,-82],[-49,-45],[-3,-60],[60,-46],[-17,-246],[32,-33],[2,-91],[30,-29],[54,0],[29,170],[23,39],[47,22],[60,-53],[-6,-79],[37,-51],[53,-14],[46,-34],[49,-132],[62,-48],[62,-6],[43,50],[38,82],[10,94],[42,40],[51,11],[18,30],[37,-74],[81,22],[58,-18],[32,-35],[81,-7],[19,-88],[45,-50],[2,-66],[39,-25],[-9,-97],[70,-69],[43,63],[11,63],[52,-20],[23,-83],[55,10],[27,65],[57,-69],[54,23],[92,-52],[102,33],[11,118],[74,42],[-4,144],[90,54],[71,-41],[28,23],[115,-55],[49,55],[32,-37],[50,0],[68,-143],[56,-29],[51,2],[60,-32],[43,75],[103,-25],[9,98],[54,24],[13,80],[26,-7],[7,70],[-45,11],[-30,50],[9,97],[34,75],[49,19],[13,36],[51,-37],[18,30],[61,42],[-5,160],[19,40],[55,27],[58,-14],[82,36],[55,65],[60,99],[-28,82],[9,29],[61,4],[55,-35],[119,-15],[70,-92],[15,78],[47,2],[42,58],[2,93],[20,42],[0,103],[34,47],[47,19],[70,115],[-2,112],[13,47],[54,40],[27,78],[68,63],[39,-40],[18,39],[-23,68],[-43,74],[-38,25],[-16,51],[39,30],[-8,52],[-47,-4],[7,65],[37,-43],[34,47],[36,19],[29,-66],[-5,-52],[78,19],[-43,79],[-50,52],[18,27],[56,13],[15,-48],[54,36],[-9,170],[-42,-32],[-8,-80],[-48,18],[-22,86],[4,110],[57,28],[20,51],[30,2],[-5,-93],[45,-40],[23,69],[-9,93],[-32,69],[-36,-39],[-35,4],[-42,43],[-3,79],[42,19],[65,-44],[47,32],[-20,55],[-72,42],[-25,41],[-11,79],[13,53],[54,87],[32,15],[56,-94],[53,-62],[40,-25],[33,26],[15,55],[14,256],[10,86],[35,150],[356,435],[439,638],[75,347],[103,357],[84,228],[314,580],[1678,3108],[3162,-14],[3189,-15],[6859,29]],[[97473,52035],[1060,-7838],[822,-6105],[644,-4743],[-2719,9],[-6375,-9],[-179,0],[-41,-75],[-80,-71],[-122,-48],[-52,51],[-66,144],[-48,30],[-96,-26],[-44,-86],[-21,-76],[48,-101],[-10,-25],[-69,2],[20,-55],[-16,-125],[-24,-59],[-58,-47],[-21,-90],[-41,-72],[8,-83],[-10,-75],[-45,-76],[-31,-28],[235,-51],[-24,-277],[-204,41],[9,-114],[36,-112],[-10,-113],[-32,27],[-11,-128],[28,-24],[70,17],[98,-54],[32,15],[66,-10],[-5,-70],[-63,14],[-9,-100],[63,-14],[-28,-337],[-103,30],[-137,31],[-7,-177],[22,-162],[-11,-32],[-61,18],[-88,-78],[-84,-5],[-32,-53],[-37,-98],[-31,-131],[-2,-58],[33,-85],[-86,-23],[-40,-29],[-83,-25],[-35,25],[-19,-49],[29,-108],[-45,-63],[-32,-143],[-70,-104],[-68,-20],[-14,-87],[-33,-36],[-94,1],[-25,-59],[-51,9],[18,114],[-28,73],[-56,46],[-48,65],[-88,34],[-23,96],[-43,47],[-17,81],[-43,74],[-86,56],[-294,65],[-46,-470],[-14,57],[-120,142],[-49,143],[-11,123],[-70,80],[-20,58],[-57,97],[-29,77],[-87,42],[-27,40],[-15,86],[-43,84],[-44,-36],[-25,-69],[-61,-59],[-55,2],[-71,-102],[59,-44],[1,-75],[-60,-86],[-47,-15],[-36,73],[-63,42],[-75,156],[-46,28],[-81,97],[-64,26],[-104,-61],[-32,32],[-56,-114],[-31,-4],[-28,89],[-72,80],[-73,-32],[-84,68],[-15,-7],[-47,107],[-9,55],[-28,44],[-7,75],[-41,84],[30,75],[48,-19],[27,63],[37,11],[49,172],[24,33],[-26,66],[30,173],[-14,58],[16,93],[-42,46],[-27,92],[-79,104],[-96,25],[-55,62],[35,101],[-8,64],[-25,48],[-63,46],[8,51],[-62,73],[-16,118],[-26,72],[32,58],[-19,95],[-73,71],[-55,-8],[-32,-39],[15,-54],[-38,-231],[-42,-82],[-12,-65],[-33,3],[-112,103],[-42,-7],[17,-105],[53,-81],[-73,-203],[-69,-58],[-70,11],[-40,-22],[-7,-145],[-24,-115],[-70,-24],[-57,33],[-50,89],[-25,-54],[-43,-10],[-16,43],[-56,-33],[-46,-156],[-22,-24],[-5,-75],[-51,-66],[-77,-192],[-45,54],[-73,-2],[-33,18],[-41,-54],[-19,13],[-48,-72],[8,-57],[-27,-19],[-3,-119],[-34,-25],[-40,8],[-43,141],[-67,34],[-69,18],[-21,-34],[-42,34],[-21,-85],[-68,-36],[-17,-48],[-48,131],[-81,44],[-57,143],[0,55],[-47,6],[-34,65],[-104,-53],[-5,-36],[-57,-49],[-36,19],[-8,105],[36,71],[49,26],[26,45],[66,2],[60,-44],[54,-3],[-92,578],[16,91],[-18,56],[41,52],[18,65],[-12,39],[32,373],[-3,63],[-53,43],[-97,-43],[-56,19],[-21,-118],[-126,-31],[-81,-46],[-36,-59],[-55,-9],[-37,46],[-5,79],[-31,50],[11,77],[-16,72],[29,72],[-15,124],[11,71],[47,120],[2,78],[21,90],[37,31],[3,76],[-120,189],[-6,66],[-79,21],[-45,48],[-30,-113],[-93,-63],[-35,17],[-25,-104],[-63,61],[-7,107],[-51,56],[-13,112],[-65,129],[-143,43],[-18,73],[-70,90],[-28,-21],[-20,103],[-20,0],[-57,101],[-2,112],[22,41],[-27,104],[-118,31],[-10,-28],[-52,4],[-40,-44],[-94,34],[-34,-61],[-10,-98],[-51,-50],[-9,-95],[18,-107],[-8,-255],[-41,-59],[5,-128],[-19,-98],[-6,-90],[-21,-32],[0,-91],[-27,-60],[0,-116],[-42,-55],[-28,-7],[-14,-112],[-41,-63],[0,-84],[17,-83],[15,-177],[38,-47],[70,-172],[-54,5],[-39,-47],[-5,-122],[5,-119],[24,-93],[-30,-30],[-199,123],[-94,34],[-410,211],[-13,-64],[-63,14],[-31,-60],[-93,23],[-24,92],[-29,6],[-6,-79],[-29,-71],[-55,56],[-63,-28],[-30,62],[-58,-664],[33,-16],[126,-186],[82,-25],[52,-40],[15,-38],[81,-75],[121,80],[55,-91],[63,18],[5,-89],[20,-74],[83,-112],[-28,-41],[-45,-114],[-62,-100],[-31,-98],[-48,-21],[-22,-147],[-28,-15],[-25,-99],[33,-61],[-21,-212],[-27,-80],[-62,-36],[-54,26],[-31,-18],[-206,81],[-304,84],[-71,-51],[-44,2],[-74,111],[-57,50],[-103,19],[-79,57],[-46,6],[-51,-52],[-124,-29],[-77,22],[-80,-4],[-78,47],[-102,-65],[-30,13],[-59,131],[-111,-36],[-28,-59],[-11,-128],[-118,3],[-85,-33],[-194,-261],[-4,-14],[122,-804],[33,-123],[-20,-36],[-42,-479],[-28,-36],[-23,-96],[-87,-29],[-178,-722],[-16,-209],[13,-122],[-126,-490],[-22,-25],[53,-231],[56,-121],[-40,-271],[-3,-137],[10,-72],[4,-331],[-11,-91],[3,-118],[44,-175],[13,-96],[18,-52],[-12,-150],[20,-43],[55,-55],[102,-155],[-69,-40],[-38,-119],[-38,-43],[-32,-94],[20,-112],[23,-51],[0,-89],[-35,-55],[0,-78],[-49,-42],[-163,-2],[-99,-79],[-82,-43],[-81,-179],[34,-83],[-127,-34],[-69,59],[-51,4],[7,-74],[-17,-41],[16,-53],[34,-263],[-14,-154],[-25,-20],[-54,-105],[3,-87],[-27,-120],[-59,-10],[-17,-84],[51,-200],[-34,-41],[-85,-13],[-11,-91],[33,-54],[-2,-83],[19,-63],[-54,-189],[7,-55],[-41,-66],[-87,19],[-80,-94],[16,-72],[-5,-152],[12,-37],[-31,-93],[-72,-78],[7,-44],[84,-65],[-31,-30],[-18,-65],[-39,-24],[-91,-164],[72,-100],[-43,-72],[22,-155],[-65,-30],[-22,-36],[69,-128],[42,-47],[-56,-219],[-177,-194],[-7,-145],[-45,-61],[8,-62],[47,-30],[-11,-91],[17,-14],[69,34],[19,-95],[-20,-101],[31,-13],[68,34],[32,-38],[8,-60],[-87,-170],[20,-94],[-18,-65],[98,-79],[-14,-60],[6,-142],[55,-133],[18,-86],[-36,-174],[-33,-48],[-23,-137],[8,-69],[40,30],[58,-10],[7,-58],[91,-20],[84,-50],[44,-209],[-50,-553],[-79,-50],[-65,-140],[37,-160],[-8,-100],[99,-550],[-38,-48],[-26,-515],[-65,-207],[-105,-16],[-76,-75],[-20,-76],[-49,-62],[16,-119],[-147,-14],[-78,-40],[-121,10],[-36,40],[-36,343],[-332,139],[-103,21],[-21,-243],[-46,3],[-123,109],[-67,1],[-9,-99],[-41,11],[-51,80],[-105,25],[-77,33],[-53,-4],[-262,62],[48,-205],[1,-142],[-16,0],[-38,-87],[-72,-49],[-44,-56],[-49,-5],[-97,-42],[-97,56],[-112,100],[-83,214],[-42,-20],[-19,38],[-33,-98],[-11,-66],[-43,-85],[-234,-14],[-33,-348],[-23,-33],[-32,19],[-11,97],[-29,-4],[-32,-51],[-38,-2],[-27,32],[-48,-432],[-66,108],[-109,72],[-76,72],[-132,-8],[-46,-42],[-50,4],[-58,126],[-31,21],[-101,-5],[-44,11],[-36,105],[-67,72],[-35,66],[-69,66],[-24,-24],[-55,20],[-26,-88],[-54,40],[-30,-118],[-261,-112],[-92,2],[-91,119],[-28,7],[-15,-162],[50,-11],[-40,-121],[-75,-49],[-50,16],[-31,47],[-43,3],[-35,-32],[-49,-104],[-133,81],[-37,-96],[137,-438],[-92,-215],[-41,21],[-99,314],[-149,455],[-347,-268],[-84,-47],[-61,-56],[-17,-41],[-68,-60],[-116,-152],[-512,115],[-4,-4],[-71,-801],[-783,151],[52,578],[-643,124],[-38,92],[-125,-176],[-62,-21],[-78,-103],[-14,-94],[-59,-27],[-1,-41],[-59,-74],[-47,-81],[-57,19],[-61,-80],[-202,-571],[-418,79],[-192,34],[-487,126],[-211,43],[-105,-69],[-25,22],[-122,55],[-71,-32],[-23,104],[111,927],[-31,95],[-58,81],[-43,18],[-54,67],[-74,151],[-60,17],[-23,52],[-81,136],[-18,57],[-70,22],[-102,203],[-51,127],[4,57],[47,268],[0,99],[-76,-5],[-69,-80],[-132,-86],[-84,-23],[-72,-71],[-69,-29],[-37,-41],[-148,297],[-272,50],[-10,88],[-71,16],[184,271],[-32,162],[13,47],[43,8],[13,57],[-26,72],[28,95],[-26,75],[53,56],[18,-5],[45,77],[-14,83],[35,34],[54,-101],[60,-2],[58,-88],[24,-63],[16,-105],[28,-25],[42,64],[25,4],[117,148],[44,3],[65,59],[49,158],[30,3],[96,122],[67,-42],[132,82],[-24,76],[5,37],[51,140],[0,73],[-60,-54],[-24,18],[-11,78],[30,84],[66,67],[-1,76],[-100,54],[-27,-20],[4,-57],[-27,-42],[-5,-71],[-49,-79],[-17,54],[46,94],[-8,44],[-38,20],[-51,115],[-34,7],[-65,63],[3,67],[77,-43],[20,34],[-51,79],[-77,28],[-57,-3],[-88,17],[-16,-41],[14,-89],[28,-64],[-28,-55],[-52,90],[12,127],[-5,62],[13,116],[-21,38],[312,383],[-686,1390]],[[52746,28095],[-17,-93],[-85,-228],[-32,-3],[-26,-84],[10,-207],[43,-132],[-37,-98],[-61,-3],[-45,-55],[-18,-83],[-67,-115],[-131,-151],[-39,-11],[-49,94],[-48,-1],[-117,-151],[-197,-22],[-112,51],[-50,98],[-45,7],[34,118],[-6,109],[-26,29],[-69,17],[-93,47],[-32,-14],[-35,-57],[-60,-54],[-23,-81],[-38,-68],[-12,-60],[14,-105],[-25,-70],[-95,-94],[-80,16],[-47,47],[-38,75],[-53,32],[-37,-2],[-49,-92],[275,-1003],[-35,-13],[-327,66],[-133,-169],[-190,32],[-37,-442],[36,-66],[-10,-73],[-31,-366],[-7,-132],[-442,72],[-58,-854],[-318,26],[-152,-181],[-130,-401],[-54,-149],[-56,-90],[-41,-101],[-4,-64],[-374,-495],[-428,-535],[-28,-16],[-9,94],[67,942],[49,669],[41,598],[-873,168],[-497,93],[-87,-68],[-60,-905],[47,-111],[-30,-417],[-35,-424],[-59,14],[-14,-41],[-484,91],[42,-91],[70,-340],[-1148,222],[31,385],[-139,27],[-10,-11],[-380,78],[-85,29],[-259,43],[-352,66],[-37,-492],[-31,-419],[-54,-691],[80,-15],[-20,-174],[-3,-151],[-117,-1154],[-6,-114],[-76,15],[-83,-1145],[-292,33],[-12,7],[-292,30],[-475,89],[-1,7],[-531,99],[17,262],[-3,316],[8,213],[20,334],[-302,1],[15,-47],[14,-116],[-26,-386],[4,-86],[-37,-436],[264,-975],[-31,-37],[34,-441],[5,-428],[-41,-135],[-147,-137],[-122,25],[-80,67],[-424,100],[-334,72],[-163,39],[-392,84],[-74,12],[-7,140],[-28,107],[62,805],[-567,97],[-34,2],[-14,-52],[-54,-50],[-12,-77],[19,-81],[-18,-23],[-27,-173],[-31,-89],[-75,-26],[-17,-70],[-56,-64],[-16,-185],[9,-43],[-29,-81],[1,-76],[-75,-52],[-22,-57],[-9,-90],[-60,-127],[-63,-76],[-6,-112],[-45,-104],[1,-93],[-19,-37],[-43,-26],[-55,-157],[-729,117],[76,1079],[4,701],[43,-67],[158,-20],[83,282],[43,736],[28,438],[17,25],[4,100],[-698,83],[-21,-3],[-48,48],[-49,10],[-51,101],[-99,8],[-31,20],[-143,-68],[-87,325],[-366,307],[-189,44],[-76,-182],[-163,-78],[-67,-245],[-303,59],[28,388],[146,-25],[99,1306],[-5,-11],[-630,119],[-6,14],[-648,127],[-78,55],[-46,-31],[-81,-11],[-65,26],[-287,54],[28,113],[-2,56],[29,103],[6,132],[-16,37],[-85,97],[90,87],[21,54],[0,115],[-224,36],[-8,19],[-148,6],[-69,31],[-46,-12],[-125,21],[-79,-22],[-77,95],[-261,30],[-285,24],[-49,10],[-55,38],[-18,-37],[-85,8],[489,619],[78,54],[-16,168],[59,79],[101,42],[21,43],[80,34],[83,1162],[37,533],[35,677],[-51,-40],[-70,-94],[-82,-69],[-44,-80],[-143,-29],[-69,18],[-58,-18],[-107,23],[-66,-74],[-45,-10],[-70,129],[-8,72],[-33,54],[-80,5],[-98,273],[-124,132],[-14,81],[31,130],[6,76],[31,135],[31,177],[8,137],[-44,141],[61,107],[-515,84],[64,1004],[-842,133],[118,1689],[27,364],[-277,48],[28,415],[-267,-188],[-140,-3014],[-53,-1205],[-1162,-1531],[-161,657],[-494,-1393],[-141,260],[-1030,-1343],[-220,-633],[-70,-124],[-151,-426],[-198,-540],[-118,-330],[-16,-177],[48,-61],[57,-262],[-54,-247],[-92,-293],[-230,-134],[-12,-66],[7,-72],[28,-99],[4,-60],[-39,-133],[-68,-64],[21,-289],[-13,-54],[-57,-93],[8,-58],[-79,-113],[-47,-151],[-50,-8],[-97,-105],[-11,-224],[-206,-219],[-46,-75],[-37,-30],[-265,-7],[-4,-17],[-215,432],[-412,800],[-792,131],[-3,-37],[-590,77],[-8,-111],[-51,81],[4,108],[29,98],[15,8],[156,-21],[95,115],[18,111],[63,29],[-175,702],[-119,252],[4,50],[-143,237],[-151,80],[-77,51],[-33,48],[-9,76],[-164,202],[-23,60],[-73,32],[-47,80],[-94,64],[-41,67],[-55,28],[-85,-90],[-53,-19],[-24,30],[-23,83],[-54,73],[-120,234],[-375,-487],[-570,-741],[-262,36],[-34,-76],[-10,-130],[26,-46],[-35,-472],[9,-1],[-48,-827],[-35,-82],[36,-126],[-17,-59],[-82,-1309],[291,-43],[-48,-751],[-422,61],[-16,-43],[-39,49],[-102,81],[-57,-9],[-35,44],[-271,40],[-953,152],[-36,-556],[-58,-1000],[-1216,192],[-496,79],[-95,-1449],[-547,92],[-144,28],[81,1148],[56,853],[-611,103],[-775,131],[-73,115],[47,3],[63,32],[26,138],[3,83],[23,68],[-1184,160],[-524,-711],[-97,-144],[-4,-99],[-108,-94],[-135,-141],[-5,-31],[-197,-177],[-106,-117],[-61,-90],[-59,-2],[-93,-56],[-75,-12],[-29,-41],[-179,-83],[-20,-155],[-123,-69],[-46,21],[-161,-45],[-149,-99],[-35,-68],[-92,-98],[-126,-76],[-88,0],[-376,-551],[-113,-116],[-128,4],[-35,-390],[-166,30],[-100,-1264],[-137,-2025],[144,-1422],[-33,-75],[-8,-56],[-80,-132],[-27,-18],[-32,-113],[-20,-6],[-84,-370],[-15,-94],[17,-63],[-29,-80],[-78,-152],[5,-108],[-28,-75],[8,-66],[-39,-71],[-55,-58],[-26,-73],[2,-55],[-34,-165],[-58,-147],[-27,-47],[-3,-240],[-14,-125],[-35,-229],[-124,145],[-6,-90],[-1332,205],[1,115],[-743,110],[-6,-101],[-626,97],[-12,-118],[-39,-103],[-47,-169],[-18,-111],[28,-160],[-6,-58],[25,-129],[14,-127],[-42,-47],[-1,-64],[43,-72],[36,-134],[-12,-79],[-26,6],[30,-219],[24,-15],[27,-234],[50,-34],[23,-93],[45,-75],[-16,-41],[28,-43],[26,-82],[-11,-59],[22,-22],[-25,-136],[38,-55],[-12,-61],[80,-191],[48,3],[21,-36],[-16,-58],[26,-82],[51,-77],[18,-117],[43,-42],[2,-71],[53,-108],[15,-134],[39,-10],[0,-63],[34,-53],[37,-149],[38,-29],[30,-78],[27,-3],[14,-60],[-12,-142],[-21,-20],[4,-72],[-36,-148],[51,-62],[28,-92],[-17,-97],[33,-95],[27,-42],[22,-130],[35,31],[30,-18],[40,18],[19,-112],[-56,-133],[40,-30],[19,-56],[-17,-48],[-35,-7],[23,-98],[-30,-65],[21,-43],[-27,-37],[-39,2],[-15,-55],[14,-48],[-422,81],[-131,62],[-244,43],[-128,-11],[-53,-21],[-47,41],[-40,-13],[-78,17],[-79,33],[-78,64],[-63,-41],[-565,99],[-322,626],[-1174,195],[-1127,-11],[-5,-199],[-296,-32],[-232,-3415],[-632,107],[-869,149],[-1,1730],[0,1609],[0,2017],[1,1610],[-1,1811],[0,3838],[-715,0],[126,2191],[97,1688],[-133,19],[15,472],[-207,22],[117,2134],[-243,790],[-44,-40],[-6,-39],[-58,-38],[-61,-101],[-121,-67],[-59,-93],[13,-47],[-37,-145],[-71,-224],[-401,700],[-774,107],[68,1218],[118,2331],[108,-53],[1134,-170],[104,1924],[71,1306],[-611,89],[22,527],[47,1485],[487,-59],[87,2030],[-369,50],[15,356],[980,-64],[979,-10],[1260,-163],[-29,-541],[974,1328],[115,2023],[435,-9],[700,-1301],[42,-24],[-1,-59],[1476,-656],[181,-79],[28,44],[92,35],[136,-30],[55,49],[26,64],[122,43],[45,-15],[21,27],[116,25],[88,97],[56,118],[80,73],[27,57],[91,84],[30,40],[19,86],[58,83],[42,126],[45,55],[114,26],[67,29],[55,92],[58,59],[67,47],[52,58],[46,-12],[96,27],[61,32],[69,83],[19,74],[27,40],[-852,1615],[530,699],[-63,129],[339,449],[-265,447],[-677,1155],[-324,556],[904,1347],[833,-1525],[230,474],[381,528],[90,1392],[77,1176],[109,1669],[62,982],[17,237],[-1109,95],[-133,21],[-10,-192],[-1268,200],[-1183,13],[-8,-202],[-602,111],[-580,112],[-600,1170],[-538,987],[35,49],[-67,48],[-58,-16],[-565,1054],[-46,56],[-28,79],[-283,516],[-158,262],[-688,1308],[-860,-1164],[-107,-126],[-19,4],[-235,427],[-213,385],[-248,470],[-914,1672],[-57,121],[995,1296],[-55,108],[-124,216],[435,616],[536,723],[-189,336],[-267,139],[-10,14],[15,169],[74,22],[982,1299],[-63,415],[48,308],[19,42],[-44,643],[-106,151],[-10,23],[-63,667],[-24,65],[-18,125],[10,138],[65,-1],[278,-42],[93,-166],[425,495],[-545,1053],[-405,772],[587,802],[736,999],[64,191],[-201,327],[-365,671],[127,2687],[762,-93],[-4,109],[-28,123],[9,176],[-22,84],[18,34],[-53,192],[3,293],[30,68],[16,81],[154,530],[1384,-104],[197,2701],[594,-85],[-27,-501],[1273,-178],[12,219],[1584,-219],[869,-119],[73,844],[69,790],[11,611],[14,596],[-37,28],[1,57],[38,-6],[12,574],[8,311],[729,-34],[546,-107],[-30,-628],[854,-149],[-12,-180],[-10,-224],[367,-30],[897,-79],[35,639],[538,-76],[16,11],[729,-107],[-40,-792],[534,730],[-196,375],[490,662],[479,655],[169,-338],[202,-387],[641,874],[85,-164],[360,525],[29,-23],[40,52],[5,71],[228,305],[389,525],[820,1105],[387,-61],[1,25],[979,-149],[-77,-1255],[-80,-1296],[-64,-975],[-20,-440],[5,-39],[222,-37],[2,-25],[720,-119],[13,23],[640,-101],[636,-103],[313,-49],[-55,-885],[-93,-1275],[623,-112],[581,-119],[2,41],[1175,-123],[37,-29],[880,-113],[-45,-891],[147,-50],[88,5],[192,-13],[153,-41],[-3,-62],[581,-97],[14,-5],[-22,-570],[-24,-479],[663,-109],[53,-487],[-13,-211],[1185,-191],[-31,-504],[-83,-210],[-40,-605],[829,-112],[-11,-283],[284,-36],[143,-24],[664,-77],[220,-33],[416,-82],[50,24],[130,-133],[57,875],[-5,5],[48,737],[6,7],[345,-57],[36,733],[1133,-189],[60,947],[46,834],[1003,-170],[17,448],[-82,148],[8,115],[620,-104],[-2,-25],[265,-45],[-23,41],[8,46],[-12,80],[24,17],[7,65],[48,117],[-1,85],[-92,279],[33,426],[-164,226],[16,263],[703,-122],[62,-482],[863,-166],[382,-77],[133,2132],[750,-136],[29,603],[1160,-138],[-21,-367],[-16,-340],[-85,4],[-138,-1086],[660,-267],[-162,-826],[-92,14],[-87,-557],[392,-158],[-81,-152],[-777,191],[-80,-1556],[1215,-147],[-4,-261],[578,-128],[307,-65],[-1,-62],[1007,-223],[193,-45]],[[42660,66710],[38,-11],[243,-155],[64,-100],[-76,-862],[49,-565],[-147,-1540],[6,-10],[550,-132],[-56,-710],[-49,-638],[39,-16],[1289,-217],[-50,-635],[78,72],[-61,-934],[-92,17],[-59,-1371],[-116,11],[-11,-126],[181,-29],[469,-96],[26,110],[126,-31],[372,-74],[12,-23],[187,-30],[75,1199],[241,-596],[162,-162],[558,-92],[45,-133],[-25,-60],[19,-27],[41,29],[11,-71],[44,-113],[40,-65],[75,-90],[-16,-32],[-186,-120],[-12,-89],[11,-77],[30,-97],[79,-138],[12,-107],[-52,-162],[-37,-83],[-2,-142],[-57,-139],[-100,-63],[-29,-90],[-3,-72],[18,-119],[90,-191],[64,-171],[23,-121],[21,-206],[59,-199],[71,-115],[58,-47],[116,10],[785,-585],[610,-374],[-82,-1245],[226,-36],[1,-102],[16,-42],[-1,-143],[29,-35],[380,203],[21,-174],[83,-119],[181,42],[17,-93],[391,210],[58,78],[90,34],[14,-108],[-12,-145],[62,-165],[-10,-94],[76,-159],[-22,-354],[-9,-52],[-28,-496],[0,-78],[-89,-1114],[292,-41],[13,-6],[806,-223],[-33,-374],[550,-225],[43,2],[23,-38],[52,-6],[-6,-75],[31,-112],[-13,-129],[-14,-319],[-28,-259],[0,-64],[75,-12],[-28,-437],[490,-275],[256,-209]],[[52412,47916],[43,-96],[27,116],[80,-108],[2,-71],[45,-85],[14,-122],[4,-175],[-54,-150],[76,-150],[-78,-153],[-38,-38],[-47,-11],[-67,-65],[-43,15],[-32,-47],[-97,-73],[-43,-10],[-60,33],[-22,-151],[7,-65],[-12,-55],[-50,-48],[-1,-32],[64,-173],[-20,-100],[-75,-69],[-72,-100],[-8,-89],[36,-115],[-7,-63],[21,-78],[64,-74],[2,-40],[-36,-109],[-52,-101],[22,-50],[14,-141],[35,-105],[-111,-118],[22,-96],[-27,-122],[18,-116],[-27,-50],[-5,-79],[32,-97],[25,-30],[1,-94],[-17,-100],[-27,-62],[40,-130],[7,-64],[-16,-83],[7,-105],[92,-68],[60,-80],[36,-1],[50,-47],[-16,-50],[21,-96],[45,-95],[17,-82],[-53,-114],[-2,-101],[-27,-81],[16,-91],[55,-127],[-14,-94],[31,-104],[-13,-28],[-10,-167],[-17,-69],[23,-144],[37,-87],[1,-71],[-19,-70],[-13,-313],[-85,-221],[-46,-522],[-158,-156],[-128,-80],[-32,-497],[19,-667],[-142,-91],[-74,-1],[-60,91],[-58,4],[-67,-81],[-47,-9],[-43,-33],[-25,22],[-67,-5],[-118,-101],[-47,-54],[-68,-137],[-19,9],[-40,-56],[-92,21],[-93,-34],[-103,-98],[-1,-90],[-69,-75],[-1,-41],[-229,-220],[-85,-166],[-111,-64],[-142,54],[-39,-119],[-1,-65],[-23,-70],[-4,-104],[43,-59],[0,-40],[-26,-92],[-1,-65],[-87,-108],[33,-120],[-50,-82],[-8,-96],[-17,-47],[-11,-100],[-30,-32],[-27,-156],[50,-118],[58,13],[3,-45],[-40,-15],[9,-73],[-9,-76],[-98,-72],[-39,-1],[-21,-70],[0,-121],[-38,-60],[39,-113],[-24,-75],[-54,21],[-164,-72],[-47,-31],[-29,-58],[30,-99],[-44,-64],[-9,-133],[-44,-27],[-7,-108],[-56,-4],[-39,-46],[-78,33],[-27,-32],[-104,-8],[-97,-46],[-16,-114],[22,-122],[-52,-50],[-47,12],[-4,-96],[-36,-64],[-43,-152],[-24,111],[-104,67],[-42,2],[-19,-40],[-30,34],[-57,22],[-99,-44],[-140,-162],[-66,300],[5,169],[-72,101],[-91,-5],[-32,-42],[-32,22],[-22,62],[-34,-4],[-33,-70],[-19,-111],[-82,-32],[-47,-148],[-60,-40],[-30,57],[-83,12],[-26,-81],[-68,-2],[-23,28],[-74,-119],[-68,-19],[-44,-34],[-62,-22],[-38,34],[-32,-6],[-48,51],[-69,-18],[12,-54],[94,-134],[26,-77],[5,-159],[48,-34],[3,-98],[40,-8],[80,-67],[73,7],[-2,-127],[48,-368],[46,-57],[26,17],[38,-50],[27,-117],[39,-129],[-18,-73],[28,-81],[71,-138],[46,-123],[-21,-64],[33,-67],[15,-65],[34,-36],[63,-111],[9,-84],[-36,-32],[-24,-57],[-26,-11],[-25,-65],[63,-86],[59,-43],[3,-78],[55,-81],[79,-56],[113,-45],[63,-98],[48,-28],[80,5],[22,-85],[-25,-123],[27,-105],[80,-29],[10,-75],[49,-76],[81,-14],[49,21],[19,82],[25,286],[61,137],[101,79],[16,-44],[39,-184],[53,8],[43,145],[118,24],[66,125],[5,41],[47,49],[-7,60],[38,12],[35,136],[0,52],[73,56],[25,-35],[-6,-69],[59,-59],[21,-50],[36,7],[20,-86],[-10,-72],[47,-43],[13,-112],[23,-75],[-15,-112],[46,-131],[59,-33],[18,15],[36,-83],[-8,-48],[59,-49],[52,-126],[42,-41],[30,-64],[0,-84],[41,-159],[17,-129],[-73,-32],[-29,-52],[-70,-74],[-4,-105],[-26,-30],[-28,-93],[-7,-66],[-42,-101],[-52,-14],[-18,-105],[-35,-74],[-70,-34],[-40,-79],[-8,-98],[40,-53],[40,-20],[28,-131],[86,-233],[921,-69],[579,-56],[-17,-447],[394,-34],[-18,-469],[1273,-180]],[[42660,66710],[69,1119],[219,-46],[41,404],[407,-52],[624,-89],[7,93],[67,1189],[15,197],[-508,55],[-182,29],[-123,6],[129,1119],[-459,63],[58,1309],[63,1438],[7,164],[65,1222],[310,-56],[145,193],[1564,-250],[-47,-721],[451,-1287],[391,-67],[297,-173],[27,422],[9,39],[14,376],[21,433],[-21,28],[16,274],[1311,-216],[-74,-181],[30,-17],[12,-104],[805,-434],[628,-101],[16,7],[21,90],[-18,56],[15,126],[-20,68],[8,53],[-18,126],[46,282],[-28,73],[2,80],[94,176],[18,98],[-2,78],[58,102],[38,105],[41,32],[32,65],[-10,95],[-22,76],[2,46],[45,80],[39,125],[55,109],[98,159],[39,80],[49,63],[13,92],[22,76],[-16,176],[-38,67],[-53,22],[-20,137],[-37,42],[-72,147],[-55,249],[3,147],[52,127],[-27,33],[32,122],[100,68],[74,95],[9,71],[28,61],[13,84],[55,129],[86,51],[45,88],[99,150],[79,34],[54,101],[22,221],[-4,54],[-47,169],[6,145],[-27,72],[-59,101],[-141,17],[-43,86],[-92,74],[-64,36],[-83,5],[-45,29],[-42,56],[-94,195],[-55,134],[-9,81],[17,65],[113,139],[3,42],[-67,122],[-17,146],[-75,181],[-6,61],[-1,201],[-18,55],[-50,94],[-35,100],[26,87],[23,140],[4,97],[-14,69],[60,115],[-1,71],[15,154],[-24,97],[3,134],[28,83],[42,61],[105,207],[11,114],[-46,94],[-15,93],[3,84],[-25,117],[-51,198],[-7,121],[-19,109],[-57,165],[-24,103],[6,98],[71,137],[-7,99],[30,126],[-76,206],[-2,47],[38,106],[15,176],[-36,148],[-3,81],[-41,161],[-8,86],[35,130],[43,97],[34,-6],[43,-66],[39,6],[96,137],[104,14],[69,50],[30,82],[15,84],[12,183],[27,56],[55,31],[94,16],[39,28],[128,141],[16,47],[2,127],[20,110],[6,95],[-9,168],[-29,188],[4,59],[28,116],[87,34],[55,59],[22,61],[3,90],[-50,126],[-51,202],[-8,74],[4,79],[27,54],[209,144],[77,46],[37,-9],[37,-40],[10,-99],[15,-57],[51,-76],[44,-42],[51,-22],[44,7],[30,46],[49,19],[56,-65],[65,-256],[58,-61],[47,16],[75,116],[23,41],[55,56],[49,12],[99,-25],[71,-47],[123,-148],[60,1],[27,35],[29,86],[12,108],[51,152],[56,77],[5,169],[43,58],[16,-23],[62,66],[19,73],[106,93],[40,144],[63,3],[44,-68],[53,-36],[54,-6],[79,159],[53,82],[49,100],[23,26],[60,10],[40,66],[3,116],[25,107],[14,162],[29,94],[86,135],[14,58],[-1,92],[-73,236],[-10,102],[32,225],[26,125],[22,45],[64,81],[90,68],[87,36],[64,54],[29,68],[21,120],[20,176],[-3,94],[-65,109],[-59,54],[-86,145],[-51,155],[-31,144],[-36,228],[-43,162],[-13,103],[9,125],[65,265],[18,164],[6,168],[-17,558],[-13,140],[-45,263],[-10,140],[-36,228],[-34,145],[-102,286],[-34,125],[3,153],[46,237],[28,119],[66,187],[16,90],[-7,59],[-68,259],[-95,243],[45,33],[58,79],[112,78],[27,-21],[-36,-93],[2,-74],[24,-64],[79,-77],[40,-133],[30,-67],[55,-37],[76,-26],[80,-53],[73,33],[82,-26],[97,-82],[56,-20],[34,-36],[8,-85],[-45,-142],[45,-13],[602,-106],[102,1578],[-8,2],[43,675],[20,27],[-11,101],[47,721],[147,-28],[9,215],[-21,99],[57,53],[48,81],[38,21],[25,51],[64,39],[-10,116],[-15,24],[15,92],[37,45],[36,-10],[18,35],[154,30],[76,87],[204,47],[46,-11],[443,-149],[63,253],[371,1304],[963,-1],[1286,1],[1992,0],[1992,0],[1993,0],[2001,-1],[8002,11],[57,-76],[103,-78],[93,-53],[123,1],[23,-39],[188,-200],[263,-266],[92,-89],[51,-12],[135,-219],[65,-40],[86,-16],[154,-168],[57,7],[49,-153],[2,-116],[122,-278],[58,1],[42,-83],[25,-163],[85,-133],[54,-40],[93,8],[30,-62],[58,-76],[104,-62],[68,-21],[16,-69],[48,-65],[12,-128],[108,-168],[26,1],[23,-136],[77,-83],[78,-36],[70,-18],[50,-95],[22,1],[99,-193],[107,-69],[59,-153],[4,-92],[40,-177],[38,-206],[28,-404],[332,-617],[586,-750],[337,-600],[320,-1195],[223,-638],[490,-950],[264,-583],[313,-729],[287,-543],[169,-378],[240,-440],[297,-323],[306,-285],[278,-209],[352,-400],[224,-238],[450,-308],[368,-266],[416,-296],[346,-357],[416,-415],[279,-364],[330,-412],[309,-467],[332,-270],[403,-277],[285,-285],[311,-444],[247,-364],[306,-214],[376,-304],[362,-198],[314,-315],[311,-591],[186,-397],[153,-504],[328,-355],[436,-132],[401,-38],[371,69],[421,286],[198,381],[-35,466],[-179,549],[-167,448],[-173,548],[-82,411],[-10,743],[27,560],[98,358],[154,102],[129,42],[212,-350],[244,-345],[285,-442],[418,-350],[320,-144],[264,-141],[341,-145],[385,-159],[406,-61],[410,-79],[372,-67],[370,-98],[341,-242],[108,-288],[87,-308],[103,-450],[13,-462],[-59,-503],[-59,-379],[-75,-270],[-109,-209],[-100,-175],[-106,-211],[-31,-101],[-49,-20],[-26,-51],[-46,-172],[-47,-149],[-4,-119],[-14,-170],[19,-446],[-13,-66],[14,-298],[-21,-354],[-5,-267],[-38,-247],[-34,-346],[-40,-101],[-56,-46],[23,-223],[-10,-181],[5,-210],[-54,-174],[-48,-105],[30,-1108],[14,-410],[60,-282],[66,-248],[80,-181],[95,-301],[50,-180],[67,-148],[56,-40],[96,-246],[50,-150],[48,-90],[33,-123],[35,-68],[22,-90],[12,-186],[-12,-94],[27,-187],[35,-123],[107,-491]],[[95621,69525],[-6017,-65],[-6981,-17],[-795,3],[-1990,8],[-3649,32],[-1673,19],[-1950,28],[3,-1141],[7,-2841],[4,-2131],[2,-589],[-5,-148],[-101,-362],[-265,-435],[-89,-102],[-131,-123],[-86,-133],[-120,-198],[-67,-72],[-75,7],[-59,-20],[-37,-79],[-30,-245],[-27,-53],[-68,-80],[-79,-184],[-21,-36],[55,-102],[17,-114],[-8,-121],[11,-94],[23,-75],[-28,-26],[-57,72],[-21,-21],[2,-104],[-17,-101],[-127,3],[-23,58],[-48,-40],[-78,39],[-63,-18],[-54,38],[-75,-20],[-47,-57],[-24,-61],[-56,-8],[-50,-64],[-61,-102],[-59,-22],[-54,-45],[-28,-52],[-43,80],[-123,-18],[-29,-44],[-97,110],[-33,135],[-69,98],[-42,7],[-37,-486],[-50,47],[-44,-36],[-7,-36],[-67,-127],[-24,-23],[-35,19],[-47,-61],[-59,25],[-36,76],[-39,44],[-27,209],[-37,14],[-3,50],[-44,43],[-40,-27],[-3,-108],[-26,-113],[25,-47],[-29,-84],[-26,-23],[-22,-103],[-11,-114],[68,-197],[-1,-34],[36,-90],[6,-44],[44,-1],[59,63],[11,-103],[29,-87],[96,-18],[73,-50],[17,-29],[2,-169],[-8,-68],[30,-141],[108,-162],[-23,-90],[-42,-254],[-36,-40],[-57,-16],[-13,-96],[26,-224],[-1,-190],[47,-43],[-20,-61],[8,-195],[-99,-247],[-72,-162],[-118,4],[-241,-273],[-93,13],[-94,-43],[-78,21],[-25,34],[-28,-36],[0,-155],[24,-51],[-8,-83],[-67,-83],[-60,-5],[-41,-72],[-28,-107],[-14,-109],[-137,-199],[-22,-82],[33,-29],[-7,-106],[-65,-86],[-17,7],[-190,-174],[-67,18],[-44,-50],[-25,-90],[-11,-104],[-23,-130],[-30,-100],[-46,-99],[-58,-151],[-67,-256],[-20,-50],[-49,-58],[-65,42],[-70,1],[-78,-57],[-66,-24],[-116,-61],[-136,-31],[-28,-25],[-62,21],[-22,68],[-42,7],[-84,-39],[-72,-7],[-27,-23],[-75,-9],[-56,25],[-123,22],[-85,6],[-62,-94],[-59,-183],[-47,-55],[-159,-55],[-139,-74],[-78,-23],[-44,-78],[-11,-61],[16,-78],[30,-28],[-4,-64],[-27,-134],[54,-58],[56,25],[37,-65],[-29,-148],[38,-65],[103,-32],[14,-51],[-6,-190],[-51,-71],[-29,-74],[-26,-104],[-71,-152],[-53,38],[-78,-43],[-12,-46],[34,-48],[-7,-36],[-53,36],[-35,-11],[-48,-72],[-14,-74],[-28,-47],[11,-67],[28,-6],[-40,-270],[-33,-26],[-117,7],[-61,-109],[47,-58],[4,-67],[-98,-68],[-74,21],[-148,105],[-72,111],[-41,-84],[2,-89],[-53,11],[-63,-39],[-29,-63],[-16,-119],[7,-53],[-58,-52],[-11,-68],[56,-205],[29,-81],[47,-60],[39,-21],[23,-81],[2,-143],[-10,-278],[-30,-76],[-110,-156],[-63,-58],[-24,14],[-55,-38],[-53,-77],[-41,45],[-34,75],[-139,122],[-27,59],[6,75],[-86,-11],[-53,32],[-12,-25],[-4,-191],[-10,-75],[-44,-90],[-50,-27],[-114,0],[-22,22],[-23,164],[-63,260],[-59,-2],[-66,-51],[-35,13],[-39,-33],[-56,-146],[10,-140],[48,-114],[-5,-69],[-87,-122],[-41,-74],[-77,-17],[-42,-43],[-17,-178],[-42,-7],[16,-72],[111,-69],[126,-24],[10,-40],[-50,-92],[-169,-117],[-74,-134],[-120,-235],[-91,-18],[-49,25],[-21,-42],[14,-275],[-12,-155],[-26,-19],[-40,-126],[-2,-66],[-56,-150],[-52,-51],[-47,-25],[-43,14],[-66,-41],[-52,127],[-1,36],[-65,-13],[-23,-63],[-6,-105],[25,-28],[-32,-62],[-31,-25],[-88,-9],[-63,-34],[-38,47],[-65,-47],[-44,15],[-51,64],[-22,170],[10,145],[-10,144],[9,28],[-11,134],[402,503],[-180,859],[160,382],[-161,450],[-348,224],[-31,4],[76,571],[560,762],[-138,166],[472,1009],[-361,435],[-134,23],[203,614],[48,453],[47,497],[-117,32],[15,182],[-19,122],[-21,75],[-41,63],[-32,-5],[-85,-94],[-63,16],[-31,240],[-61,-31],[17,65],[-16,54],[54,51],[24,68],[-46,161],[-52,99],[7,51],[0,487],[6,100],[-328,65],[-340,70],[-72,-84],[-336,-371],[-246,-260],[-406,-423],[-98,255],[-66,184],[-50,117],[-76,24],[-12,44],[26,70],[-79,191],[-10,97],[27,56],[17,89],[44,20],[54,170],[19,4],[79,109],[23,64],[83,119],[30,7],[32,70],[16,129],[48,95],[62,46],[62,-23],[24,20],[22,86],[70,96],[22,65],[-1,47],[21,273],[-28,25],[-217,555],[-103,8],[-139,-69],[-111,11],[-8,-41],[-134,23],[-29,-44],[-59,-1],[-51,-76],[-80,-9],[-40,21],[-44,-47],[-31,25],[-29,-441],[-37,-79],[-143,-64],[-131,13],[-76,-75],[-17,-37],[-70,-14],[-53,99],[-156,47],[-24,43],[-26,162],[-86,-57],[-154,36],[-28,-9],[-152,148],[-35,70],[-129,140],[-51,23],[-18,50],[12,44],[-23,208],[5,106],[-43,61],[-39,87],[-49,36],[-67,12],[-102,42],[-23,58],[-1,71],[-26,42],[-16,101],[10,132],[-24,129],[-35,-98],[-61,-72],[-59,-145],[-4,-67],[21,-51],[-20,-123],[-76,-138],[-63,36],[-39,-9],[-42,-48],[-83,-11],[-108,-87],[-40,-13],[-61,-66],[-74,19],[-55,-19],[-17,-61],[33,-87],[-23,-132],[-26,-49],[-10,-93],[-30,-22],[-68,-151],[-50,-28],[-99,-15],[-61,-75],[-65,-58],[-39,-85],[-48,-7],[-42,-56],[-79,27],[-71,-23],[-37,27],[-73,-76],[-141,-168],[-48,-95],[-13,-96],[-35,-73],[-68,-102],[-40,-115],[-83,-132],[-39,-88],[-17,-95],[-57,-50],[-55,2],[-21,-34],[-121,-141],[-41,-35],[-37,-69],[-56,-59],[10,-64],[-26,-58],[9,-93],[-14,-101],[-44,-80],[-75,36],[-170,-15],[-15,-104],[-47,-18],[-39,-39],[-83,-20],[-9,59],[-37,-8],[-31,58],[-37,-9],[-45,115],[-17,78],[8,44],[-51,79],[-91,18],[46,-73],[-7,-97],[-59,-29],[-18,-197],[-71,15],[-41,-528],[-75,0],[-41,-17],[-44,-81],[-17,-57],[-44,-77],[26,-99],[20,-31],[-10,-58],[-44,-14],[5,-78],[-13,-162],[-389,325],[-56,-208],[180,-378],[-37,-25],[-29,25],[-40,-32],[-63,-123],[-70,-47],[-46,-50],[16,-83],[-24,-74],[25,-43],[-9,-117],[16,-132],[-67,-176],[-17,-18],[-66,24],[-32,-16],[-31,-85],[-104,-122],[-37,-98],[-8,-76],[-51,-31],[-58,-97],[-45,2],[-84,-81],[-53,-124],[-35,-44],[-48,-6],[-27,-122],[-62,-127],[-87,-73],[-11,-72],[-27,-42],[-43,-20],[-67,-140],[-21,54],[-91,54],[-53,-43],[-62,-24],[-18,-33],[-66,-45],[-27,5],[-106,-37],[-90,25],[-72,-35],[-66,-148],[-71,-46],[-11,-110],[11,-367],[21,-68],[58,-106],[-4,-57],[20,-47],[9,-84],[68,-44],[41,-71],[-28,-64],[-8,-113],[-24,-97],[19,-80],[44,-58],[56,-156],[-11,-52],[-47,-30],[-36,-73],[24,-76],[4,-223],[-29,-133],[-60,-47],[-81,-259],[9,-56],[-9,-166],[-14,-58],[18,-103],[-33,-152],[-5,-172],[-31,-109],[-45,-54],[-14,-106],[38,-105]],[[95621,69525],[462,-1372],[12,-108],[-14,-94],[47,-487],[15,-81],[66,-488],[13,-348],[70,-283],[34,-47],[14,-149],[-19,-390],[16,-278],[-30,-156],[24,-391],[11,-63],[-8,-101],[-34,-98],[-34,-147],[-64,-141],[-45,-80],[-38,-45],[-11,-362],[7,-77],[-26,-135],[-10,-222],[-85,-179],[-17,-87],[1171,-8680],[325,-2401]],[[65832,20302],[-27,-89],[-56,25],[-70,-59],[-95,3],[-16,-56],[-37,-15],[-188,37],[-33,119],[-72,-48],[-241,66],[-71,87],[-77,24],[-21,84],[11,35],[-37,43],[-38,-2],[-51,-63],[-55,87],[-59,44],[-62,14],[-9,44],[-74,104],[-30,95],[-140,57],[-56,49],[-90,123],[-8,145],[-47,47],[62,613],[52,66],[2,57],[43,84],[68,47],[-2,76],[43,81],[53,29],[-53,192],[-58,236],[-56,21],[-24,-19],[16,-72],[-74,-35],[-54,17],[-42,69],[-61,43],[-47,-80],[-67,-14],[-76,58],[-14,-101],[-31,-50],[-12,-126],[-31,-63],[-28,-4],[-25,-67],[-46,51],[-94,204],[-43,108],[-51,66],[-93,-7],[-101,47],[-18,25],[-55,7],[-58,68],[1,41],[-41,69],[-85,86],[-43,6],[-53,70],[-94,-50],[-72,20],[-37,68],[-99,40],[-47,-7],[-70,19],[-45,-41],[-60,19],[-120,-24],[-53,47],[-93,-23],[-163,-162],[-74,43],[-81,28],[-32,36],[-41,-11],[-55,-144],[-47,22],[-3,57],[-64,142],[-52,14],[-74,-32],[-40,75],[-1,58],[-78,59],[-65,-48],[-25,48],[-46,25],[-33,126],[-86,33],[-54,56],[-31,52],[-110,-34],[-55,11],[7,116],[-80,207],[-29,96],[12,54],[-20,38],[22,128],[-28,63],[-53,32],[-66,80],[6,60],[-65,69],[-62,112],[-43,28],[-30,83],[-32,30],[-93,154],[3,54],[-17,135],[-44,28],[-30,54],[-95,115],[-26,87],[-34,12],[-56,-36],[-87,9],[-53,24],[-47,-67],[-34,-11],[-80,15],[-87,314],[-38,0],[-87,252],[-52,-24],[-49,47],[-3,89],[-37,47],[-8,48],[18,58],[-32,43],[-37,-10],[-34,58],[-84,52],[-38,63],[-18,90],[-29,24],[4,59],[-38,118],[-6,81],[-20,46],[0,86],[30,34],[-42,179],[32,123],[-20,93],[-78,87],[-30,73],[5,72],[-64,169],[-85,38],[-62,-33],[-53,18],[-25,45],[-59,42],[-35,79],[-110,22],[-54,-45],[-73,135],[-71,169],[-86,-15],[-87,8],[-30,-22],[-36,62],[7,44],[-45,39],[7,36],[-35,83],[-31,10],[-102,153],[-47,31],[-16,113],[24,139],[22,62],[-92,138],[-50,10],[-12,76],[-49,68],[-39,94],[-108,120],[-89,28],[-43,36],[-62,108],[13,62],[-32,46],[-29,81],[-86,109],[-29,-5],[-30,59],[8,82],[-35,131],[-47,0],[-46,-29],[-68,52],[-13,-21],[-81,58],[-62,-42],[-53,-73],[-40,21],[-12,59],[-57,60],[-51,7],[-39,-31],[-47,27],[-86,-23],[-39,-37],[-47,-109],[-36,-28],[-30,-101],[-45,-43],[-44,3],[-23,-101],[-68,-10],[-54,-49],[-39,-117],[-19,-7],[-48,49],[-59,-13],[-116,-1],[-39,-29],[-17,-53],[10,-142],[30,-19],[-7,-89],[-28,-71],[-89,-17],[-24,-32],[-108,-16],[-43,-37],[-32,-55],[-125,-91],[-74,-131],[-3,-58],[-33,-58],[-62,3],[-91,37],[-8,193],[-63,-27],[-63,50],[-18,-76],[-48,-5],[-81,-78],[-42,-16],[-97,96],[1,-80],[19,-81],[-36,-49],[-25,-87],[-39,-32],[-38,-259],[-26,-109],[-21,-30],[-75,-33],[-160,-7],[-176,-31],[-116,-7],[-52,13],[-58,34],[-77,24],[-24,-32],[-25,68],[-73,40],[-67,-14],[-22,-68],[-52,-5],[-17,26],[-90,-4],[-66,58],[-127,-24],[-28,35],[-29,-29],[9,-136],[-26,-24],[-87,-12],[-11,-65],[-51,-34],[-10,-50]]],"transform":{"scale":[0.00012547825478254775,0.00007229372293722935],"translate":[140.6779,-26.9269]},"objects":{"qld_central_ddmg_boundaries_gda2020_simp200m":{"type":"GeometryCollection","geometries":[{"arcs":[[0,1]],"type":"Polygon","properties":{"District Name":"Gladstone","DDMG Name":"Gladstone","Police Region Name":"Central Region","Police Region Code":"CR","Police Region Short Name":"Central"}},{"arcs":[[2,3,4]],"type":"Polygon","properties":{"District Name":"Longreach","DDMG Name":"Longreach","Police Region Name":"Central Region","Police Region Code":"CR","Police Region Short Name":"Central"}},{"arcs":[[-4,5,6]],"type":"Polygon","properties":{"District Name":"Mackay","DDMG Name":"Mackay","Police Region Name":"Central Region","Police Region Code":"CR","Police Region Short Name":"Central"}},{"arcs":[[-5,-7,7,-1,8]],"type":"Polygon","properties":{"District Name":"Rockhampton","DDMG Name":"Rockhampton","Police Region Name":"Central Region","Police Region Code":"CR","Police Region Short Name":"Central"}}]}}}