{"type":"Topology","arcs":[[[70553,31545],[-164,-735],[706,-191],[-70,-1130],[-2,1],[-62,-1008],[-11,-207],[-30,-494],[-72,-1253],[0,-16],[-19,-322]],[[70829,26190],[-102,-1735],[-123,33],[-54,-906],[-26,-419],[-130,-2179],[-668,220],[2,32],[-461,153],[-685,230],[-4,-85],[-363,100],[-18,-23],[-570,157],[5,83],[-286,73],[-104,-335],[-66,-221],[-154,-496],[-160,-537],[-123,-404],[-81,-275],[-72,-1410],[-84,-1639],[-66,-1286],[22,-6],[-39,-771],[-13,3],[-43,-847],[98,-27],[-69,-1329],[-33,-25],[-34,-790],[237,-65],[142,-31],[55,-18],[133,-31],[-29,-645],[-4,1],[-69,-1455],[4,-13],[131,-26],[-80,-1323],[215,-684],[75,-219],[1,-22],[229,-671],[-2,25],[38,112],[50,-156],[17,-145]],[[67468,6163],[-3,-50],[15,-28],[-5,-41],[12,-44],[0,-79],[-29,-21],[-33,-123],[-26,12],[-2,-54],[-22,-25],[21,-40],[-3,-59],[-35,-35],[3,-74],[19,-60],[-6,-50],[-19,-47],[-3,-56],[-28,19],[1,-51],[9,-28],[-30,-31],[-15,-36],[-3,-49],[15,-24],[-14,-51],[0,-40],[-28,-96],[-27,59],[-84,-85],[-24,14],[-32,45],[-27,-46],[28,-8],[-5,-42],[-37,4],[-17,-48],[9,-58],[-19,-81],[-18,-26],[-35,-74],[-32,27],[-22,-14],[-11,-79],[-21,37],[-22,-53],[-23,27],[-28,-5],[-17,-21],[-8,-43],[-21,4],[-14,-84],[4,-72],[-21,-20],[4,-45],[-31,-62],[1,-44],[-21,-75],[-34,-32],[-7,-25],[-843,0],[-680,0],[-502,0],[-634,0],[-405,0],[-701,-1],[-715,0],[-529,0],[-429,0],[-676,0],[-694,-1],[-479,0],[-764,0],[-553,0],[-691,0],[-872,0],[-594,0],[-884,0],[-691,0],[-553,0],[-829,0],[-692,0],[-691,0],[-691,0],[-691,1],[-374,-1]],[[49790,3975],[-28,45],[-51,129],[13,319],[17,359],[48,914],[36,636],[29,637],[-44,15],[-705,144],[19,294],[19,213],[35,370],[29,260],[49,467],[29,314],[64,1014],[45,-14],[230,-44],[26,474],[-3,5],[87,1575],[-88,27],[43,812],[3,4],[18,331],[-2,6],[22,398],[166,511],[48,667],[-23,1224],[-4,249],[2,6],[39,552],[-43,27],[53,924],[13,240],[-437,135],[62,1112],[27,475],[48,473],[143,-50],[112,1957],[52,915],[3,12],[177,3145],[3,5],[359,-10],[294,-17],[305,-86],[29,476],[93,994],[40,666]],[[51291,28281],[4,36],[47,-14],[634,-223],[21,321],[318,-107],[332,-118],[42,765],[148,-57],[136,-41],[234,-81],[135,-45],[104,-30],[306,-112],[168,-55],[52,-4],[-11,322],[17,454],[23,469],[65,-25],[247,-85],[179,-60],[80,-22],[374,-117],[55,924],[24,423],[57,939],[48,778],[54,33],[399,-116],[-1,7],[100,1852],[395,-128],[156,-46],[218,-73],[21,85],[33,101],[65,98],[89,206],[69,72],[326,-105],[240,-82],[402,-128],[222,-74],[-7,373],[1,134],[27,404],[797,-232],[34,-35],[-9,-692],[-48,-206],[3,-317],[377,690],[336,-1010],[422,774],[36,37],[131,242],[2,-6],[127,232],[12,-2],[28,-77],[301,-902],[195,360],[319,-955],[439,780],[201,353],[63,36],[41,72],[302,553],[49,96],[11,-5],[33,-86],[22,-81],[33,-45],[57,-48],[28,-51],[53,-53],[56,-46],[44,-52],[40,-82],[206,367],[216,-65],[-1,-166],[677,-194],[-28,-538],[-5,-71],[-21,-451],[-5,-52],[600,-180],[520,-155],[138,-45],[7,-11],[51,1],[21,73],[-6,27],[-26,35],[-14,50],[0,101],[20,144],[-9,96],[-20,73],[-5,57],[-4,239],[8,62],[17,60],[13,66],[3,56],[26,92],[4,63],[-6,95],[-29,83],[-45,74],[-17,97],[-24,90],[3,119],[-13,149],[-23,31],[-30,-6],[26,485],[406,-119],[73,316],[480,-149],[-9,-258],[-29,-573],[633,-186],[765,-223],[172,796],[74,345],[82,-23],[125,-147],[-47,-825],[661,-210],[503,-158],[-41,-729],[281,-77],[301,-79],[66,-16],[310,-81],[1,-38],[637,-174],[434,-118],[33,-24],[-4,-46],[-32,-6],[-23,-32],[-20,-87],[-4,-54],[33,-35],[22,-10],[-11,-100],[-24,-34],[-23,1],[1,-60],[25,-56],[9,-64],[36,-90],[3,-57],[-23,-26],[-6,-43],[-38,-95],[-12,-63],[34,-70]],[[6922,53676],[293,-87],[1142,-324],[475,25],[878,-240],[784,-213],[61,-132],[289,58],[89,-565],[222,-1397],[16,-617],[500,-86],[212,-555],[970,-1264],[-23,-715],[512,-767],[85,1358],[345,919],[398,-785],[28,-101],[643,-1267],[3,48],[699,-1375],[273,-71],[-2,-39],[482,-128],[244,-61],[1301,-317],[-35,-802],[344,-98],[-73,-1759],[1373,-301],[-12,-301],[560,-138],[56,278],[1033,-273],[-21,-464],[601,-153],[-52,-1247],[1171,-411],[-8,656],[974,-1925],[601,-2043],[510,-1731],[252,-53],[237,-53],[66,-28],[12,10],[490,-132],[247,-62],[552,-77],[832,-118],[272,-37]],[[27823,33716],[-47,-926],[-77,-1483],[-94,-1832],[175,-49],[-10,-82],[-14,-78],[4,-65],[-10,-41],[2,-46],[-10,-94],[2,-24],[41,-35],[-11,-62],[2,-98],[-24,-5],[-10,-27],[-19,0],[-33,-119],[14,-68],[4,-50],[-14,-37],[4,-73],[-13,-40],[-5,-56],[16,-20],[0,-45],[-18,-68],[-13,-25],[-15,11],[-27,-136],[-15,-151],[8,-95],[-25,-55],[-6,-67],[-9,-15],[1090,-300],[-16,-352],[1023,-275],[14,14],[39,-10],[12,-21],[425,-114],[-43,-909],[-17,-297],[-23,-468],[485,-133],[-77,-1498],[-42,-795],[725,-183],[487,-122],[-40,-830],[460,-124],[-94,-1620],[-760,213],[-15,45],[-698,197],[-464,131],[-9,-158],[-107,31],[-88,-1703],[680,-195],[-76,-1425],[-4,-59],[-57,-52],[-136,-1669],[-76,-854],[-56,-622],[609,-292],[-97,-1318],[-133,-1824],[-69,26],[-177,-394],[372,-630],[-133,-89],[-2,-801],[-52,-66],[-22,-38],[-27,-75],[-44,-88],[-22,-127],[-27,-75],[-6,-51],[-16,-38],[-49,-62],[-44,-164],[-6,-76],[-49,-76],[-11,-37],[-5,-76],[-11,-38],[-33,-50],[-22,-51],[-23,-252],[2,-70],[8,-66],[-6,-101],[-11,-64],[-11,-113],[5,-89],[0,-240],[-11,-51],[-66,-87],[-43,0],[-11,-13],[-71,27],[-55,-12],[-32,-38],[-17,13],[-54,-50],[-22,0],[-60,-50],[-50,-88],[-32,-37],[-44,-12],[-44,-38],[-44,-50],[-43,-25],[-38,1],[-39,-37],[-65,-101],[-22,-12],[-11,-38],[-55,-50],[-16,-25],[-55,-119],[145,-1130]],[[29151,3976],[-543,0],[-699,0],[-687,0],[-698,0],[-698,-1],[-698,0],[-434,-1],[-820,2],[-530,0],[-837,1],[-729,0],[-837,0],[-403,0],[-1211,0],[-679,0],[-419,1],[-1468,3],[-754,-4],[-928,1],[-837,-1],[-838,1],[-837,-1],[-837,1],[-838,-1],[-837,0],[-826,1],[-691,-1],[-553,0],[-442,0],[-838,0],[-837,-1],[-509,1],[-405,2],[-761,-1],[-393,-1],[-662,0],[-620,0],[-837,1],[-746,-1],[-553,-1],[-382,0],[0,747],[0,3152],[1,2245],[0,4018],[1,8563],[0,1795],[0,1414],[0,1926],[0,963],[1,4564],[0,897],[-1,1333],[0,1124],[0,1716],[0,1285],[0,1285],[0,1285],[0,1285],[0,1607],[0,642],[0,4302],[327,-85],[592,-153],[659,-169],[242,5450],[312,50],[5,319],[1184,17],[1234,-310],[339,-1001],[592,-156],[68,64],[82,-102],[82,-53],[81,-27],[18,22],[25,-2],[49,-64],[25,-8],[31,40],[135,18],[256,-69],[138,-98],[444,-131]],[[70829,26190],[302,-103],[14,176],[215,10],[111,59],[-22,-353],[802,-271],[36,606],[304,-102],[0,8],[308,-103],[685,-229],[203,156],[205,149],[415,287],[-149,443],[-82,106],[-15,92],[349,217],[67,-749],[208,150],[20,18],[873,-327],[-1,12],[247,-92],[31,589],[-1,13],[397,-111],[39,280],[-36,45],[-2,102],[57,-8],[105,746],[170,-268],[553,620],[77,-266],[1,17],[136,-42],[-18,1235],[256,4],[-20,1078],[84,-24],[352,-108],[73,1045],[218,-78],[148,-389],[3,11],[65,-29],[15,57],[35,56],[-5,88],[-51,131],[-26,88],[46,89],[180,305],[132,-258],[110,-220],[5,18],[0,117],[40,35],[22,-41],[6,-46],[16,-51],[21,-5],[17,27],[8,43],[-3,51],[29,24],[258,-608],[207,482],[60,-140],[453,-152],[22,-33],[123,-202],[95,-359],[147,-106],[103,-321],[94,-555],[14,-980],[233,-190],[27,-335],[139,-314],[72,-32]],[[81256,27475],[49,11],[5,-96],[123,-45],[94,-178],[5,-497],[54,-101],[74,128],[69,-156],[12,-141],[56,-21],[233,-185],[12,-258],[73,-234],[26,-34],[193,-304],[4,-13],[-43,-184],[-10,-333],[91,-242],[130,118],[36,-217],[4,11],[722,-238],[171,-58],[283,-91],[491,-161],[11,-145],[-15,-170],[-14,-39],[-10,-121],[-20,-26],[-1,-80],[-6,-82],[-38,-162],[-40,-74],[-16,-94],[-3,-51],[42,-381],[-12,-62],[46,-128],[64,106],[32,-12],[23,18],[10,-30],[249,-92],[-7,-150],[289,-47],[69,100],[54,-17],[27,73],[250,53],[-23,-330],[123,-40],[-2,48],[21,31],[19,0],[38,102],[41,-49],[21,-13],[44,22],[-9,-135],[201,-72],[363,-124],[18,66],[44,112],[61,71],[81,-42],[22,54],[18,8],[35,94],[2,44],[22,36],[20,-21],[12,15],[39,-18],[19,18],[8,-113],[26,2],[33,-41],[17,24],[29,-22],[22,30],[12,-17],[39,45],[22,120],[29,50],[22,-6],[15,38],[55,36],[17,30],[27,88],[6,76],[9,22],[60,11],[23,34],[41,-74],[88,-60],[43,-158],[51,107],[30,-17],[28,4],[36,64],[3,27],[34,15],[40,56],[34,1],[18,26],[64,10],[20,51],[12,3]],[[87440,22682],[192,-615],[109,-137],[31,-80],[19,-112],[-12,-178],[-37,-106],[48,-282],[-6,-31],[30,-86],[24,-42],[61,-30],[24,-56],[36,-52],[16,-67],[5,-50],[-9,-29],[10,-45],[-4,-29],[15,-34],[18,-82],[4,-133],[-11,-25],[5,-58],[63,-70],[13,-66],[57,-71],[-11,-25],[6,-83],[27,-35],[29,-87],[13,5],[10,66],[47,-101],[13,-106],[40,-72],[17,39],[14,69],[25,24],[24,-30],[22,-4],[82,116],[98,-33],[15,15],[59,105],[43,2],[93,-76],[35,37],[28,12],[16,-47],[46,-2],[2,27],[85,46],[47,-54],[16,-76],[44,-15],[-16,-126],[62,-155],[7,-115],[20,-23],[17,-40],[66,-4],[35,-35],[33,52],[51,-58],[13,45],[13,7],[22,-88],[13,-13],[7,-81],[32,-41],[25,4],[30,-35],[55,-136],[13,-17],[38,-143],[-23,-79],[-1,-31],[41,-94],[14,-53],[-21,-82],[-93,-128],[4,-68],[-30,-28],[22,-99],[0,-60],[23,-52],[-7,-113],[5,-142],[17,-76],[-11,-28],[9,-59],[-8,-46],[8,-107],[15,-104],[-13,-72],[-16,-44],[-26,-111],[4,-64],[-35,-63],[-38,-24],[-47,5],[-27,-437],[-56,-47],[-27,-122],[-57,-167],[-57,-3],[-39,28],[-11,-81],[-34,-74],[-27,-28],[-21,-44],[3,-58],[17,-70],[1,-60],[-7,-122],[-10,-45],[-1,-159],[15,-153],[42,-207],[0,-53],[-24,-293],[-27,-167],[-1,-187],[-59,-143],[-69,-174],[-73,-153],[-45,-38],[-45,-47],[-86,-50],[14,-99],[41,-51],[-4,-188],[33,-186],[-30,-112],[-17,-107],[-16,-11],[-22,42],[-33,29],[-27,-46],[-50,-36],[-30,-62],[-22,-67],[6,-113],[-39,-50],[-14,-59],[10,-141],[-13,-49],[-38,-88],[-12,-86],[-15,-43],[-31,-54],[-60,7],[-44,-37],[-8,-77],[11,-203],[-50,-126],[-33,-127],[-35,11],[-5,-148],[-20,-189],[-9,-53],[-20,-287],[-55,-179],[-21,-100],[-19,-23],[-31,-99],[-47,-85],[-40,-103],[-34,-208],[-23,4],[-20,-113],[-30,-75],[-58,-99],[-57,-84],[42,-218],[-3,-77],[-9,-33],[-82,-151],[-33,-20],[-47,-42],[-36,-76],[-11,-79],[-5,-145],[-10,-51],[-38,-95],[-48,-83],[-19,-107],[-23,-53],[-47,47],[-22,-20],[-35,-122],[-32,-60],[-3,-110],[32,-186],[-5,-35],[-27,-67],[-5,-85],[-44,-107],[-19,-84],[-28,-50],[-16,-52],[-25,-49],[-23,8],[-55,-72],[-6,-60],[-18,-74],[4,-95],[19,-118],[-9,-85],[-23,-40],[-19,-14],[-12,-74],[8,-120],[-6,-48],[-5,-101],[-20,-59],[15,-285],[-24,-84],[21,-41],[12,-153],[19,-24],[-38,-366],[-29,-111],[9,-69],[-19,-48],[7,-100],[7,-285],[0,-200],[-4,-169],[25,-152],[-10,-29],[-24,-127],[8,-79],[-12,-274],[-9,-59],[-50,-167],[-31,-15],[-36,10],[-6,-79],[24,-85],[12,-145],[-7,-76],[-29,-31],[-56,-22],[-11,-85],[-20,-10],[-10,-66],[13,-31],[-4,-34],[20,-88],[30,-71],[8,-86],[17,-66],[27,-15],[33,51],[34,-54],[32,-34],[4,-124],[-13,-37],[5,-51],[40,7],[35,-79],[17,51],[-8,106],[21,28],[23,-25],[70,27],[15,-45],[26,-6],[19,-76],[32,-28],[23,17],[55,-82],[23,54],[32,4],[24,-49],[29,2],[13,-107],[24,47],[2,40],[38,45],[11,-37],[18,30],[20,61],[-3,90],[15,92],[-6,131],[18,59],[-4,45],[-17,83],[-17,45],[-15,64],[5,83],[-8,64],[11,92],[17,35],[0,44],[40,98],[34,60],[0,43],[-9,66],[25,91],[3,55],[45,19],[30,-6],[18,-51],[24,-29],[28,-69],[60,80],[16,4],[74,-56],[18,-78],[34,-12],[47,-45]],[[87975,3739],[-11,-51],[-8,-81],[-22,-24],[-19,-88],[2,-104],[-25,-104],[1,-96],[9,-43],[8,-124],[-27,-113],[-5,-79],[-24,-78],[-2,-63],[39,-70],[18,-52],[44,-59],[9,-35],[-6,-61],[-24,-62],[-15,37],[-24,10],[-15,-27],[9,-55],[-25,-81],[-36,-214],[-21,-43],[-67,-38],[-30,-55],[-32,-31],[-29,-46],[-24,-23],[-28,-250],[-1,-55],[-14,-110],[-30,-162],[-23,-66],[-34,-75],[-75,-129],[-51,-75],[-13,-42],[-11,-95],[-38,-60],[-23,-7],[-20,15],[-28,-11],[-12,-43],[-43,-63],[-37,-197],[-25,-66],[-4,-121],[-56,-132],[-22,7],[-44,41],[-63,-41],[-25,5],[-92,60],[-25,38],[-38,1],[-15,-38],[-29,-38],[-28,-1],[-24,-27],[-70,-49],[-25,29],[-7,68],[-105,180],[-22,18],[-34,-5],[-25,67],[-6,42],[3,83],[-6,45],[-16,39],[-3,155],[20,78],[54,100],[-17,83],[-29,95],[-13,16],[-28,100],[-29,89],[-2,70],[-25,88],[-18,26],[-34,3],[-26,-32],[-24,47],[-11,75],[-22,57],[-17,16],[-20,69],[-12,67],[-8,201],[9,39],[-9,85],[-29,57],[4,119],[23,43],[27,95],[6,40],[33,78],[-7,88],[6,74],[22,12],[15,71],[4,58],[-37,67],[-7,113],[1,77],[10,45],[-14,42],[-72,-4],[-38,111],[-2,30],[20,103],[59,92],[21,66],[0,108],[5,128],[-8,91],[-37,129],[-13,112],[-6,104],[2,52],[25,22],[20,44],[-7,49],[-17,23],[-26,68],[-28,31],[-7,27],[5,83],[7,28],[44,33],[18,53],[-6,80],[13,46],[-3,49],[5,77],[-2,75],[-9,39],[-39,100],[-9,91],[-37,41],[-23,11],[-18,33],[-2,45],[-15,17],[-47,-3],[-64,129],[-56,45],[-17,43],[-8,53],[-2,102],[-14,130],[-11,51],[-22,49],[-18,-19],[-11,-57],[-15,-13],[-32,27],[-41,17],[-48,56],[-20,49],[-46,82],[-2,141],[-25,56],[-7,50],[-29,64],[-24,12],[-35,47],[-50,41],[-21,33],[-25,-10],[-22,-39],[-31,-4],[-20,14],[-10,57],[-69,162],[0,58],[-15,46],[-35,7],[-44,-9],[-42,78],[-30,39],[-12,-46],[-15,-19],[-66,67],[-35,108],[0,26],[-22,76],[-53,-8],[-29,9],[-11,58],[-21,36],[-24,78],[-14,2],[-13,-48],[-16,59],[8,39],[-10,83],[-31,2],[-13,-36],[-18,-2],[-35,56],[-25,18],[-51,8],[-10,-8],[-27,-70],[-42,-45],[-14,-27],[0,-79],[-26,2],[-25,-22],[-55,-10],[-19,-50],[-24,-29],[-16,40],[14,34],[-4,34],[-28,30],[-28,-37],[-20,40],[-3,70],[-31,25],[-5,58],[26,23],[5,53],[-48,115],[-1,175],[14,57],[26,23],[-8,95],[4,175],[10,44],[-11,93],[-28,3],[-39,84],[-68,-2],[-6,53],[10,46],[5,114],[-16,151],[-14,48],[-27,23],[-4,56],[19,15],[49,-2],[17,37],[-6,152],[-19,165],[-19,61],[-29,50],[-28,62],[-28,35],[-22,50],[-10,56],[-35,16],[-30,-3],[-19,38],[-46,6],[-41,50],[-39,-8],[-23,18],[-22,66],[-68,18],[-20,-25],[-23,-75],[-24,-33],[-22,46],[-31,7],[-15,-37],[-23,9],[-42,64],[0,68],[-13,42],[-29,-2],[-25,-51],[-14,13],[6,95],[-8,29],[-35,37],[-9,37],[4,47],[-10,149],[-4,153],[-35,109],[-22,46],[-39,-41],[-35,48],[-34,69],[-10,66],[-19,77],[-26,33],[-41,1],[-49,-30],[-18,-55],[-4,-68],[-10,-23],[-36,-11],[-13,18],[2,92],[-26,41],[-19,-15],[-17,-85],[-24,-20],[-16,43],[-1,57],[-26,94],[-45,-58],[-42,67],[-8,35],[-19,13],[-29,64],[-1,41],[-18,85],[-23,30],[-31,23],[-30,-13],[-29,55],[-39,49],[-27,16],[-75,1],[-26,75],[0,41],[15,23],[8,64],[-37,7],[-48,38],[-38,49],[-44,-6],[-11,-46],[-33,30],[-17,54],[-18,17],[-61,132],[-39,14],[-17,-15],[-29,13],[-8,45],[-26,81],[-24,20],[-37,-29],[-57,-2],[1,27],[-19,85],[-14,9],[-36,-29],[-17,23],[-22,-13],[-35,8],[-88,-23],[2,-50],[-23,-64],[-94,-92],[-23,-8],[-12,-48],[13,-65],[-7,-34],[-69,-70],[-27,4],[-45,31],[-10,-9],[-31,-89],[-31,-25],[-13,-37],[-19,-11],[-15,40],[-24,117],[6,43],[-28,40],[-24,-71],[-23,-15],[-22,-44],[-52,-57],[-54,-38],[-48,-64],[-34,-27],[-29,-61],[-29,-97],[-21,-103],[-50,85],[-4,79],[-30,8],[-25,-12],[-11,-86],[-24,-3],[-45,41],[-49,16],[-34,-8],[-8,31],[12,50],[-8,57],[-30,26],[-32,61],[-50,44],[-33,62],[-34,1],[-32,-46],[-39,-21],[-11,24],[-47,-51],[-2,-30],[-27,5],[-32,169],[-21,17],[-29,-59],[-14,-82],[52,-102],[0,-33],[-25,-127],[-42,23],[-18,-31],[-53,22],[-20,-34],[-12,5],[-56,63],[-18,63],[38,53],[27,51],[26,-21],[15,17],[11,48],[-16,59],[-18,-10],[-31,44],[-17,-7],[-41,31],[-32,-34],[-12,-90],[-15,-32],[-31,-17],[-82,24],[-39,40],[-60,4],[-49,41],[-21,-106],[-35,-42],[-35,22],[-19,53],[-63,-124],[-47,-56],[-15,6],[-7,95],[-17,12],[-20,-49],[-33,8],[-58,29],[-42,62],[-33,117],[-45,87],[-33,41],[-25,3],[-55,-39],[-15,43],[-5,49],[22,16],[10,37],[-4,129],[5,89],[-25,45],[-34,-11],[-37,67],[-1,31],[-18,50],[-44,-37],[-6,-29],[-38,-83],[-35,6],[-21,34],[0,31],[14,46],[3,50],[-27,9],[-23,-25],[-18,7],[-43,100],[-30,27],[-13,170],[16,39],[-9,42],[-42,18],[-6,73],[19,22],[17,79],[-5,76],[-33,4],[-6,69],[6,49],[-9,71],[-37,-22],[-34,21],[-20,48],[-19,88],[1,70],[14,75],[-8,31],[-28,-11],[-43,7],[-52,40],[-49,24],[-26,43],[-28,78],[-25,213],[-17,24],[-37,7],[-37,108],[-45,37],[-25,6],[-34,111],[-4,66],[-29,66],[-32,9],[-21,-32],[-26,-75],[-19,-16],[-38,21],[-35,49],[-19,2],[-22,-21],[-53,-95],[-52,-21],[-29,-51],[-23,-90],[-41,-57],[-11,43],[-26,-30],[-24,13],[-12,-28],[34,-62],[0,-37],[-26,-11],[-12,40],[-31,52],[-15,-14],[8,-63],[29,-36],[-9,-43],[-14,-15],[-16,-50],[-5,-46],[-15,-19],[-60,44],[-11,-46],[-22,35],[-26,-26],[9,-111],[-24,-17],[-26,34],[-16,-22],[-28,25],[2,36],[-12,38],[-26,40],[-22,-15],[-30,29],[-22,-30],[-8,-94],[-11,-17],[-27,32],[-20,45],[14,36],[12,-21],[24,13],[-12,70],[-18,-13],[-21,12],[-21,36],[34,96],[5,36],[-18,29],[-10,-28],[-32,-38],[-18,28],[-17,-34],[1,-74],[-18,3],[1,44],[-9,97],[8,47],[-5,61],[-25,5],[-7,-60],[-26,-39],[-12,28],[-33,-23],[-35,-40],[-10,46],[9,69],[-9,21],[-36,-43],[3,-120],[-31,23],[0,-58],[-10,-41],[-21,43],[-14,-11],[4,-97],[-24,22],[5,74],[-27,-10],[-15,-49],[21,-31],[-23,-23],[-17,17],[4,51],[-19,-1],[-20,-44],[-8,63],[-24,47],[-5,-65],[-19,18],[-14,-36],[-22,-19],[12,-51],[-8,-42],[-22,12],[-17,-49],[-16,35],[-26,18],[-3,50],[-39,-6],[-17,41],[-46,-2],[-14,-29],[0,-74],[8,-67],[16,-44],[-6,-80],[-17,-45],[-13,29],[9,48],[-24,10],[2,-42],[-8,-75],[-28,14],[-11,45],[-22,-68],[21,-40],[-19,-30],[-25,17],[-45,96],[-22,-43],[-8,65],[-36,14],[-47,-32],[-8,-20],[2,-83],[-19,-46],[-30,10],[-25,-92],[-13,43],[-21,9],[13,77],[-25,25],[-2,-46],[-15,-31],[-13,7],[-14,46],[-10,-55],[-27,61],[-10,-17],[-19,30],[6,53],[-32,28],[-12,-13],[-16,-60],[-21,-8],[-29,57],[-3,-51],[-35,-28],[-12,-36],[-23,-125],[-19,16],[-4,52],[-36,-44],[9,-65],[-29,-20],[-13,-39],[-28,25],[-2,-99],[-11,-43],[-45,-14],[-47,-94],[-3,-51],[-22,-9],[-26,-107],[-15,88],[-26,23],[-4,-45],[-26,10],[-26,-24],[-13,-36],[-48,57],[2,47],[-24,-13],[-11,-34],[-18,36],[-19,-64],[9,-35],[-54,-24],[-1,-88],[-9,-11],[-41,64],[-4,78],[-21,29],[-7,-49],[-27,13],[-41,66],[-43,-21],[-25,45],[-7,-31],[-64,-19],[7,-41],[-17,-58],[-36,-14],[16,-79],[-15,-16],[-17,15],[-17,-17],[-36,25],[-9,63],[-36,-65],[-5,40],[-18,47],[31,51],[-72,-2],[6,52],[-39,-37],[-9,18],[5,54],[-24,42],[1,61],[-36,-32],[-18,-41],[-30,102],[-30,-40],[-4,-55],[-20,13],[-27,45],[-6,-28],[-29,-7],[-7,-64],[-23,-27],[-31,5],[0,37],[-36,97],[-23,-9],[-17,17],[-32,-11],[-12,-58],[-18,-1],[-2,-52],[-38,3],[-1,-49],[-35,-58],[-19,43],[-13,81],[-30,15],[-61,-3],[-35,-24],[-12,-37],[-20,6],[-11,-29],[-27,-12],[-35,4],[-1,-48],[-20,-9],[-13,54],[-14,-13],[-9,52],[-34,-69],[-5,69],[-26,16],[-5,-35],[20,-19],[-5,-45],[-21,16],[-25,-28],[-30,-5],[-19,18],[-18,-31],[-9,50],[-26,30],[-16,-10],[-36,15],[-24,-13],[-11,-60],[10,-38],[-4,-43],[-18,11],[-16,51],[-15,-37],[-20,0],[-6,30],[-30,-6],[-21,-23],[-11,42],[-31,2],[2,43],[17,10],[12,43],[-39,33],[-31,-42],[-26,-15],[-7,-59],[-25,-42],[-38,76],[-25,-45],[-3,-52],[-19,-4],[-5,-30],[25,-62],[8,39],[22,-15],[-23,-44],[-6,-54],[-24,1],[-4,-25],[30,-88],[-18,-72],[-19,-9],[-19,32],[-20,-15],[-7,36],[-35,-13],[-23,11],[-28,-19],[-17,38],[-40,-44],[-17,-46],[-5,65],[-25,4],[-13,-49],[-27,72],[16,35],[-4,39],[16,13],[-3,41],[-24,49],[-2,55],[-50,64],[6,111],[-36,57],[-19,-42],[12,-34],[-20,-27],[-24,22],[-23,-10],[-28,33],[-25,105],[7,74],[-36,109],[-21,23],[-21,-2],[-32,47],[-16,-29],[-5,57],[-25,-27],[-15,58],[-11,-43],[-34,-20],[-9,-55],[-23,4],[-41,-53],[-11,22],[6,59],[-40,-20],[-4,63],[13,33],[-5,46],[-23,63],[22,28],[-26,27],[-45,-40],[2,106],[13,48],[-14,55],[-37,62],[-32,14],[-17,45],[-24,-27],[-39,44],[-41,-33],[-21,49],[-35,3],[-7,-48],[-55,-38],[-27,-38],[-8,-31],[-22,29],[-11,-19],[-25,35],[-16,-7],[-19,28],[-18,-24],[-8,35],[-38,7],[-27,-33],[-24,-9],[-23,54],[-20,-18],[6,-54],[-18,-41],[-22,7],[-25,-46],[-11,27],[-23,14],[-3,-43],[-18,5],[5,64],[-16,48],[-13,-32],[-19,42],[-16,-17],[-25,42],[6,-76],[-14,-55],[-18,55],[-27,-7],[-29,-43],[-6,-50],[-18,-50],[-19,11],[-17,44],[-13,-3],[-22,-44],[5,-52],[-19,-77],[-27,51],[0,-82],[-13,-47],[-72,-9],[-19,25],[-17,-5],[-12,36],[-16,-56],[-26,35],[-1,-61],[-29,0],[13,-81],[-18,-114],[-15,-26],[-19,15],[-12,-38],[-20,4],[-4,-35],[-37,-85],[4,-41],[-6,-49],[20,-11],[-7,-63],[17,-43],[-36,-36],[-4,-41],[-20,-34],[-44,-8],[-3,-90],[-6,-36],[19,-18],[0,-113],[-18,-57],[14,-58],[-21,-5],[-6,-29],[9,-42],[-26,-17],[7,-44],[-14,-25],[-15,24],[-35,-14],[-16,-25],[18,-59],[34,8],[2,-39],[-17,-18],[-24,18],[-19,-56],[13,-42],[-11,-64],[-28,10],[-22,-50],[18,-47],[15,-9],[-51,-77],[-23,-107],[-26,-16],[-29,30],[-19,-61],[-23,1],[4,-62],[-13,-43],[11,-85],[-21,-116],[-30,-64],[-22,-14],[-1,78],[-35,33],[-46,-61],[-36,104],[-19,11],[-12,-41],[10,-59],[-14,-10],[-18,69],[-13,1],[-11,93],[-12,21],[-22,-5],[-26,-78],[-25,-22],[5,-41],[-10,-44],[-15,38],[-15,1],[-16,-66],[-2,-58],[-36,0],[-10,35],[-34,-71],[-42,21],[-17,-44],[22,-49],[3,-28],[-29,-31],[2,-69],[-32,7],[-14,-19],[-10,41],[-18,-2],[-5,-51],[21,-37],[-25,-20],[-3,-64],[-20,14],[1,46],[-41,12],[-4,-37],[-33,24],[-10,-11],[-30,67],[-8,-31],[-38,4],[-25,-33],[-5,-66],[-54,-165],[10,-76],[-5,-35],[-22,14],[-18,-47],[20,-64],[-43,-15],[-75,-58],[3,-38],[15,-32],[-1,-54],[-37,-78],[-21,17],[-16,116],[-17,50],[-63,-74],[-9,-79],[-17,42],[-22,-2],[-19,28],[-14,-81],[-21,-30],[-22,-99],[-25,4],[1,-45],[-36,29],[1,-50],[-17,-15],[11,-75],[-31,-13],[-5,-127],[-22,-48],[-22,-3],[-20,-25],[-9,57],[-40,-50],[-29,-54],[-47,-24],[-22,-43],[-18,23],[-19,-33],[-28,2],[-16,-66],[-35,-32],[0,-37],[23,-34],[10,-41],[-17,-34],[-36,-1],[8,-43],[-1,-57],[-24,-70],[3,-28],[20,-25],[-1,-52],[-28,-1],[3,-48],[-30,-37],[-7,-103],[-30,12],[-45,-82],[-6,-37],[-19,13],[-26,-15],[-14,47],[-17,-106],[-15,29],[-30,-5],[-8,27],[-26,21],[-27,-18],[-14,42],[-12,-40],[-23,28],[-20,2],[-8,-47],[13,-27],[-5,-47],[19,-62],[8,-54],[3,-82],[-5,-66],[-34,-31],[4,-52],[-49,-35],[-20,-2],[-24,-130],[-19,17],[-36,70],[-6,-30],[-21,-5],[3,81],[-23,-35],[-22,25],[-8,-88],[-26,17],[-49,-120],[2,93],[-18,44],[-14,-39],[-16,51],[-33,-36],[-29,-82],[-25,-18],[-10,-88],[-51,-33],[10,-62],[-15,-81],[0,-131],[5,-50],[-39,-24],[-25,-101],[-4,-79],[-15,-63],[4,-30],[-20,-32],[-15,6],[-24,-125],[-36,-20],[-23,-57],[-16,-95],[15,-19],[26,25],[7,-34],[29,4],[0,-49],[-25,-11],[-26,-79],[25,-16],[-25,-98],[-13,-27]],[[98234,37163],[3,-35],[34,-60],[43,-119],[4,-49],[32,-140],[39,-64],[25,-19],[63,9],[26,-36],[7,-52],[-6,-62],[-19,-24],[-37,38],[-23,-3],[-26,-31],[-15,-51],[-21,-151],[-17,-209],[-10,-101],[-7,-141],[-9,-97],[-1,-116],[25,-66],[29,1],[20,39],[16,-49],[23,-17],[41,109],[19,23],[14,53],[40,87],[26,-10],[18,-66],[25,-10],[35,4],[22,27],[3,42],[21,10],[-21,101],[31,27],[5,-53],[19,-40],[36,-31],[24,25],[56,-23],[14,-32],[34,-5],[58,17],[36,19],[22,58],[6,63],[29,19],[47,59],[33,24],[36,13],[7,53],[-16,67],[-77,66],[-1,46],[9,35],[37,44],[49,6],[46,-42],[20,-76],[25,-143],[2,-66],[-8,-88],[-20,-112],[-5,-219],[15,-109],[22,-106],[19,-179],[0,-80],[6,-119],[0,-100],[15,-35],[22,-7],[23,51],[43,272],[11,52],[23,38],[32,-15],[55,-127],[43,-88],[28,-76],[26,-141],[29,-64],[22,-1],[25,-71],[23,9],[20,-25],[27,-2],[29,33],[52,-28],[56,-110],[34,-34],[14,-28],[29,-89],[26,-118],[-8,-111],[9,-5],[-20,-249],[-20,-109],[-97,-285],[4,-37],[21,-75],[33,-77],[-43,-568],[-25,-355],[-274,101],[-21,-315],[-11,-188],[-34,-463],[-68,24],[-11,-158],[-129,51],[-9,-135],[-112,43],[-2,-33],[-60,24],[-18,67],[6,113],[-45,17],[-8,-131],[-44,15],[-6,-96],[-91,33],[-3,-91],[-25,8],[-13,-212],[-8,3],[-12,-181],[6,-2],[-13,-202],[68,-27],[3,50],[24,-17],[31,8],[34,-26],[-6,-66],[23,-103],[1,-60],[9,-36],[-3,-46],[10,-161],[8,-48],[-9,-119],[-84,32],[-19,-278],[-84,30],[13,174],[-82,34],[34,20],[22,356],[-141,48],[8,117],[-15,46],[-22,14],[-180,64],[17,273],[-39,122],[-170,66],[-2,21],[-136,54],[2,12],[-117,48],[0,32],[-26,159],[-151,61],[-5,-63],[-13,-61],[-140,56],[9,146],[-111,44],[5,67],[-69,12],[-72,27],[-8,-112],[-82,31],[-174,69],[9,120],[-34,7],[10,140],[-60,24],[-4,-52],[-153,59],[6,98],[-156,59],[-2,-100],[-164,60],[0,-24],[-106,39],[-34,-66],[-8,-32],[-13,-109],[7,-206],[-37,-548],[-170,64],[-38,-556],[-106,39],[-5,-76],[-116,44],[-6,-100],[4,-35],[-28,-100],[-13,-193],[-24,-14],[-69,25],[-65,-944],[-63,23],[3,46],[-65,26],[-25,-369],[-38,14],[-14,-197],[-49,8],[-93,31]],[[95489,29038],[3,65],[-15,90],[5,78],[-5,74],[-12,56],[-8,159],[-20,64],[-11,67],[1,72],[37,77],[12,58],[-18,135],[-56,21],[12,176],[-71,27],[-18,28],[5,79],[21,13],[126,-46],[52,-8],[14,207],[-52,19],[9,125],[-8,3],[-61,167],[-48,272],[19,281],[31,-99],[43,-37],[11,3],[19,278],[5,-2],[44,653],[-29,11],[20,276],[26,-9],[11,160],[-192,70],[10,84],[3,87],[27,69],[34,14],[30,27],[68,80],[15,187],[15,-5],[9,133],[28,-30],[29,107],[-52,17],[-32,33],[5,90],[44,-13],[16,56],[0,52],[23,-36],[60,-47],[20,5],[1,41],[-20,36],[6,31],[27,22],[19,-28],[19,39],[30,-87],[24,-4],[21,-38],[13,12],[8,50],[17,-31],[15,-60],[3,-70],[16,-45],[11,1],[13,191],[29,-11],[8,95],[14,59],[-14,87],[15,20],[30,91],[28,231],[23,58],[7,51],[26,75],[12,54],[11,103],[27,62],[21,63],[3,75],[138,165],[-62,286],[51,60],[39,-19],[13,189],[26,-41],[12,179]],[[96423,35603],[264,-93],[0,23],[75,-28],[3,39],[19,-7],[31,20],[33,-21],[11,71],[13,181],[-32,11],[6,83],[37,-13],[14,200],[66,-23],[0,-13],[92,-35],[-11,-82],[47,-47],[32,-13],[4,65],[19,12],[11,36],[18,1],[7,44],[106,-42],[6,80],[26,-25],[24,-5],[203,-79],[27,394],[8,12],[21,-66],[38,65],[30,-98],[28,48],[33,-98],[52,87],[25,88],[26,8],[-3,38],[24,12],[18,50],[21,21],[-7,49],[27,76],[46,83],[18,-7],[21,-39],[36,68],[-18,30],[-1,36],[16,32],[-3,62],[34,-23],[20,-27],[19,10],[14,51],[29,-18],[21,6],[41,35],[5,67],[-8,68],[-46,48],[-9,39],[5,78],[49,52],[23,-43],[7,-74]],[[95489,29038],[-5,-63],[14,-63],[16,-40],[7,-129],[21,-84],[25,-54],[-12,-82],[9,-100],[-10,-95],[13,-48],[-8,-69],[-49,-69],[-6,-32],[6,-117],[-3,-28],[10,-150],[29,-9],[-5,-81],[17,-79],[5,-78],[-5,-87],[18,-26],[4,-77],[18,-58],[5,-68],[-39,-71],[-9,-58],[-43,-88],[-23,-101],[4,-98],[-12,-94],[4,-82],[-19,-56],[-19,-16],[-23,-62],[-28,59],[-18,16]],[[95378,26601],[-11,50],[-25,59],[-20,70],[-22,0],[-49,50],[-22,-11],[-65,44],[-27,-11],[-27,13],[-38,-51],[-24,9],[-19,-26],[-36,97],[-74,-86],[-57,-38],[-47,40],[-47,-23],[-30,41],[-37,23],[-78,143],[-43,3],[1,-111],[-63,-40],[-16,-65],[-31,-9],[-30,-74],[-61,20]],[[94380,26718],[-48,100],[-23,4],[-7,45],[-33,28],[-17,105],[-40,36],[-30,1],[-46,39],[-26,-2],[-23,18],[-38,54],[-64,26],[-9,47],[-57,25],[10,141],[-58,22],[9,131],[-21,7],[-16,60],[-19,40],[-37,-53],[-25,23],[-63,89],[-10,41],[-1,61],[-14,89],[-6,68],[-24,26],[-27,48],[-26,103],[-4,159],[6,218],[-9,13],[-31,-8],[-21,110],[-38,-21],[-22,57],[-5,40],[-71,45],[-10,13],[10,76],[-20,76],[-5,65],[-10,44],[-9,101],[30,226],[-13,73],[18,56],[10,146],[-7,61],[-48,82],[-3,80],[-9,49],[-41,75],[3,89],[-17,73],[4,84],[15,24],[-2,40],[24,6],[38,-9],[15,13],[-13,63],[-1,108],[-12,87],[-15,29],[-24,104],[-45,28],[-22,51],[-14,2],[-12,37],[63,-22],[-2,55],[14,56],[-75,27],[10,150],[-206,77],[6,46],[-53,19],[29,429],[-70,27],[-25,-366],[-68,25],[11,60],[-11,55],[-8,106],[-63,24],[10,155],[44,-17],[6,79],[-75,28],[13,189],[-22,-44],[-19,48],[-23,3],[-9,55],[-19,-6],[-33,56],[-9,35],[-47,28],[-49,44],[-3,24],[-141,43],[18,295],[-197,70],[-3,-41],[-18,-29],[-25,-11],[-29,21],[14,231],[-47,17],[11,159],[-90,32],[-3,66],[-11,55],[15,44],[32,35],[-23,163],[-22,18],[8,110],[-8,48],[-31,88],[17,122],[-12,34],[-17,8],[-24,-16],[-55,64],[-24,1],[-13,-49],[-33,-11],[-10,-53],[-56,4],[-44,175],[-15,111],[-31,20],[-27,82],[1,95],[5,90],[36,-13],[10,143],[63,-22],[18,30],[22,-83],[18,-4],[34,-32],[5,64],[90,-33],[7,117],[-45,15],[6,132],[71,-22],[3,49],[53,-1],[12,199],[36,-12],[18,300],[88,26],[36,20],[34,-11],[6,103],[-83,30],[21,61],[-24,10],[-23,-45],[-12,-2],[-43,-89],[-8,10],[36,525],[22,-7],[13,197],[-47,-2],[-12,-35],[-18,31],[-18,2],[12,165],[-55,115],[31,57],[-6,59],[67,48],[-8,59],[-29,23],[-62,27],[-13,48],[-54,17],[-25,42],[-54,17],[-17,-264],[-10,22],[-24,-10],[7,108],[-24,8],[-26,39],[-19,82],[-11,98],[19,24],[10,39],[29,34],[17,-30],[18,66],[1,58],[12,56],[-25,23],[-3,47],[13,59],[27,40],[-1,51],[-27,0],[-1,118],[-32,8],[-5,28],[28,64],[-9,62],[14,63],[11,93],[-22,38],[4,30],[23,-20],[38,16],[32,48],[11,76],[25,-27],[56,61],[25,-7],[19,26],[-1,46],[25,56],[20,13],[-4,-97],[33,2],[13,-28],[15,17],[21,329],[110,-35],[12,211],[12,-4],[9,152],[-63,21],[1,102],[7,106],[11,-34],[50,-95],[27,21],[13,236],[-10,3],[89,141],[137,-63],[15,227],[-37,55],[14,172],[55,-21],[-14,-201],[93,-36],[8,21],[105,-42],[-4,58],[7,49],[23,26],[13,-36],[50,-19],[-5,-82],[61,-23],[-9,-132],[49,-19],[22,29],[-5,-75],[94,-35],[-6,-101],[159,-59],[-7,-136],[39,-15],[6,-83],[-11,-64],[10,-53],[-2,-42],[37,4],[20,88],[70,-27],[2,-70],[-13,-52],[6,-38],[49,-17],[-8,49],[8,112],[11,47],[4,71],[20,89],[-10,91],[45,36],[62,70],[18,294],[43,19],[33,-5],[37,-39],[38,-10],[-13,67],[12,135],[-1,72],[-16,32],[-30,187]],[[93726,39564],[9,36],[75,-27],[11,-27],[34,-25],[13,-29],[51,-12],[9,51],[17,-38],[49,-1],[32,44],[279,-99],[-23,-363],[14,-38],[-6,-37],[12,-46],[19,-35],[29,7],[33,39],[18,48],[53,54],[3,50],[23,58],[11,67],[31,2],[37,26],[25,-599],[44,31],[38,7],[21,-46],[32,-35],[43,677],[228,-75],[9,60],[175,-63],[26,20],[47,-16],[50,-54],[95,-172],[91,-62],[-17,-296],[122,-40],[-6,-100],[-36,-41],[222,-76],[-5,-116],[16,-125],[-9,-152],[80,-26],[-7,-99],[56,-87],[4,82],[49,-15],[30,-97],[28,20],[25,-37],[7,-32],[39,-63],[51,-175],[-3,-41],[-55,-68],[46,-209],[-21,-140],[-8,-109],[6,-13],[120,-48],[84,-30],[-3,-71],[-21,-321],[-2,-7],[-33,-491],[61,29],[73,-17],[1,14],[86,-27],[-10,-176],[-21,8],[-9,-147]],[[51291,28281],[-122,47],[55,706],[14,144],[-71,720],[-12,153],[76,1245],[-3,135],[37,913],[-2,13],[86,1421],[98,1635],[-667,194],[10,197],[-25,280],[-9,175]],[[50756,36259],[-31,664],[-22,471],[-12,199],[-106,18],[25,493],[57,1012],[-51,17],[11,277],[19,624],[38,693],[33,636],[70,1337],[146,1639],[47,-13],[79,1575],[-4,9],[-552,157],[10,206],[59,-20],[40,765],[50,838],[70,234],[53,909],[4,67],[583,-125],[-1,12],[602,-131],[71,1271],[42,722],[5,57],[7,1289],[5,645],[1,970],[76,534],[60,428],[3,714],[3,481],[51,954],[39,152],[-23,311],[-32,79],[-274,82],[54,995],[5,37],[57,70],[63,102],[618,-183],[65,1235],[42,806],[28,-17],[7,132],[-2,33],[46,835],[2,14],[21,415],[4,-1],[113,1948],[246,-89],[41,800],[8,205],[-195,57],[22,405],[8,42],[-1,72],[69,462],[-6,38],[16,89],[2,54],[16,70],[-8,43],[-88,175],[-1,114],[9,86],[-9,187],[48,271],[48,83],[47,32],[53,98],[149,-109],[57,-109],[66,123],[158,-49],[84,131],[60,1168],[-25,53],[-37,279],[-24,32],[5,125],[21,37],[7,58],[39,71],[-2,105],[19,30],[-15,88],[-18,297],[8,172],[-4,64],[-53,90],[3,69],[94,408],[11,250],[-32,48],[-82,43],[-43,-7],[-65,44],[-29,75],[-51,13],[-61,-4],[-36,-61],[-35,68],[-31,10],[-13,26],[-123,330],[-101,257],[-52,57],[-42,-4],[-29,51],[-39,197],[-103,-81],[-49,5],[-31,52],[-32,27],[-24,-23],[-22,33],[-60,13],[-9,63],[-13,48],[-61,9],[-32,48],[-79,48],[-63,59],[-16,42],[5,53],[19,29],[1,76],[22,50],[-16,167],[-16,99],[-19,82],[0,36],[-18,49],[14,64],[-1,43],[-34,39],[-2,23],[5,241],[-4,61],[8,92],[0,229],[-4,273],[-33,221],[1,29],[-37,206],[-63,193],[-23,112],[-10,89],[22,76],[-1,40],[-825,243],[62,1325],[99,2026],[682,-189],[207,-60],[89,1752],[74,1451],[427,-126],[141,2798],[98,-25],[72,471],[-16,172],[-10,68],[-233,461],[5,70],[-4,163],[-11,257],[-6,81],[-11,73],[2,55],[680,-204],[381,-114],[463,-143],[110,2043],[845,-260],[59,1166],[110,2159],[-98,29],[-125,49],[39,713],[15,250],[33,631],[204,-65],[60,-35],[77,-61],[23,-41],[45,-100],[44,-54],[51,-47],[55,-222],[55,-104],[14,-7],[42,116],[67,-19],[3,39],[22,27],[12,-29],[91,1],[12,-43],[16,-3],[8,44],[17,-6],[18,67],[-15,48],[32,26],[44,-37],[21,20],[-1,168],[88,263],[11,76],[8,143],[51,60],[10,73],[31,95],[10,96],[26,78],[-7,36],[51,159],[27,-81],[10,31],[15,-16],[20,32],[19,-47],[43,55],[33,-33],[6,57],[46,69],[-4,31],[18,23],[27,-26],[38,12],[8,33],[24,17],[-13,47],[20,53],[44,34],[12,53],[90,13],[7,69],[-25,52],[10,55],[72,123],[25,-53],[15,48],[1,40],[29,52],[60,-74],[18,2],[10,43],[-27,79],[-20,106],[1,44],[-12,28],[1,81],[32,85],[23,7],[22,-29],[14,34],[17,-8],[0,-52],[26,19],[13,-26],[81,34],[32,-25],[25,144],[25,104],[26,49],[34,115],[38,40],[52,102],[16,5],[34,137],[17,2],[2,58],[-22,67],[-10,55]],[[58211,94883],[32,35],[69,6],[22,-19],[60,28],[31,-4],[27,-54],[3,-56],[45,-160],[10,-3],[27,-96],[20,-47],[19,-70],[29,18],[14,44],[14,12],[46,-3],[50,-30],[20,-2],[14,-70],[23,-57],[30,-22],[32,-46],[26,-71],[23,-21],[32,-7],[40,43],[25,10],[28,-28],[62,-33],[20,-36],[-1,-41],[17,-59],[7,-74],[24,-60],[-5,-115],[12,-63],[19,-53],[23,-27],[10,-34],[24,-27],[25,-51],[3,-80],[19,-70],[-35,-195],[27,-164],[3,-61],[15,-60],[-31,-55],[4,-74],[-5,-62],[21,-73],[-5,-43],[9,-24],[3,-64],[10,-24],[29,-164],[-3,-94],[30,-38],[5,-66],[14,-79],[24,-46],[16,-54],[51,-33],[37,-48],[1,-45],[35,-50],[39,17],[29,-30],[4,-39],[-18,-92],[8,-77],[38,-76],[5,-68],[-1,-72],[13,-46],[38,-30],[34,15],[21,22],[65,-267],[13,-102],[12,-31],[41,-2],[21,-74],[3,-64],[67,-363],[40,5],[44,-30],[36,19],[49,108],[37,-16],[19,-23],[91,-14],[20,30],[40,27],[35,-20],[28,-139],[100,-183],[31,-86],[47,-43],[17,-216],[-8,-43],[5,-43],[35,-70],[13,-64],[50,-112],[34,-48],[4,-42],[19,-32],[8,-58],[45,-46],[28,-86],[19,-30],[19,-63],[-3,-32],[70,-78],[-16,-40],[10,-55],[47,-89],[2,-35],[20,-4],[48,-53],[9,3],[40,-74],[-12,-28],[-22,-202],[20,-63],[-12,-86],[23,-94],[7,-57],[-6,-36],[39,-78],[32,-116],[19,-103],[-7,-185],[28,0],[29,-18],[21,25],[27,-5],[44,35],[24,1],[32,-83],[42,-32],[16,-58],[90,-51],[18,-65],[17,-136],[48,-41],[26,-76],[68,75],[56,-52],[27,-41],[0,-94],[28,-63],[14,-55],[28,26],[19,-12],[31,37],[36,-26],[20,4],[11,-66],[27,-84],[7,-48],[21,-30],[3,-91],[15,-20],[35,-15],[24,26],[5,63],[29,140],[43,19],[33,-58],[54,-39],[32,-5],[28,-49],[50,-21],[26,34],[43,73],[64,88],[37,64],[98,38],[22,-13],[33,-62],[127,37],[63,-30],[15,7],[32,58],[40,-3],[33,-28],[49,13],[63,-27],[42,-37],[39,-110],[41,-39],[35,8],[80,83],[18,-2],[56,-113],[45,-9],[34,-40],[16,-45],[40,-53],[43,-110],[-1,-66],[13,-47],[18,-16],[12,-60],[18,15],[34,2],[23,-12],[20,-41],[105,-75],[45,15],[54,-3],[29,-86],[24,-21],[13,-36],[12,-73],[20,-63],[7,-53],[23,-40],[26,-98],[19,-39],[25,-94],[47,-82],[17,21],[9,86],[30,5],[33,103],[12,200],[10,64],[22,16],[9,51],[-6,52],[12,58],[32,-16],[48,-76],[34,-13],[36,34],[7,29],[43,99],[30,-46],[34,-23],[18,-55],[27,-56],[26,8],[30,-34],[55,15],[23,41],[-3,48],[-14,68],[26,31],[58,-34],[62,-379],[31,-153],[23,-153],[-55,-47],[-9,-34],[-31,-9],[7,-43],[-13,-42],[3,-121],[-71,-75],[-46,-134],[-2,-91],[-55,-106],[-65,-978],[1,-40],[49,-35],[20,-63],[-17,-55],[5,-114],[75,-138],[20,-58],[23,-18],[35,-60],[79,-55],[68,-35],[17,-47],[15,-106],[78,-164],[9,-71],[29,-25],[37,3],[19,-36],[43,-35],[22,-64],[17,-17],[18,-58],[22,-11],[-3,46],[35,66],[40,4],[39,-70],[-12,-56],[12,-36],[11,-98],[54,-49],[26,12],[44,-94],[17,-8],[14,-37],[252,-105],[77,78],[34,-192],[198,-58],[39,23],[17,89],[99,-5],[74,96],[58,-41],[36,31],[-12,33],[5,79],[721,-2220],[-328,-610],[22,-60],[-1,-87],[-13,-99],[6,-99],[-13,-157],[1,-46],[24,-87],[30,-57],[25,21],[5,68],[-30,100],[-14,90],[-1,53],[17,65],[36,2],[56,-29],[60,5],[47,-32],[34,-12],[39,-67],[15,-58],[-6,-37],[-16,-20],[-43,47],[-37,22],[-15,-59],[11,-46],[38,-67],[31,-35],[36,-12],[19,-50],[6,-41],[28,-92],[40,-30],[9,-70],[-50,-151],[0,-29],[19,-57],[13,16],[14,72],[24,38],[6,113],[28,67],[-4,91],[7,28],[21,3],[27,-33],[58,-23],[20,-30],[8,-66],[-7,-56],[-20,-37],[-49,-69],[-21,-52],[-11,-81],[2,-57],[10,-68],[25,-27],[63,86],[30,7],[9,-31],[-5,-50],[-34,-44],[-23,-116],[-30,-107],[-5,-61],[10,-87],[14,-33],[-138,-131],[-70,66],[-102,-192],[-30,-5],[-29,-118],[-23,-134],[-27,-53],[-41,-42],[-47,-4],[-122,-237],[-27,-7],[-44,-100],[-29,39],[-17,168],[-26,100],[-60,140],[-14,15],[-50,-12],[-56,161],[-27,5],[-9,-59],[14,-60],[0,-71],[-27,-72],[1,-25],[-21,-28],[-20,9],[-55,-91],[6,-63],[21,-56],[-5,-59],[-24,-93],[1,-78],[26,-36],[1,-59],[-14,-32],[-47,-13],[-12,-75],[22,-20],[-10,-61],[21,-179],[-194,-431],[75,-25],[-7,-106],[18,-34],[285,-80],[156,-474],[40,66],[72,47],[76,111],[35,21],[53,16],[25,33],[67,67],[46,39],[37,72],[36,56],[36,18],[26,-20],[18,7],[-1,-155],[-18,-183],[-30,-247],[-4,-89],[14,-81],[38,-123],[103,-299],[4,-26],[74,-36],[8,-35],[-31,-40],[43,-15],[48,-131],[12,-78],[25,-8],[24,-83],[30,-19],[33,-7],[3,-18],[74,-222],[57,-110],[45,-28],[18,-47],[18,-15],[25,-66],[33,-153],[-116,-1478],[24,-166]],[[67813,71328],[161,-1109],[46,8],[11,-75],[34,-32],[23,30],[-5,-262],[-43,-120],[68,-467],[8,6],[14,-99],[694,-205],[-8,-161],[-1,-175],[-41,-156],[46,-379],[26,-502],[-136,-270],[-8,-152],[2,-88],[-30,-161],[-15,-56],[-69,-114],[-53,-192],[-75,-17],[32,-310],[-37,-162],[-19,-128],[-53,-134],[-16,-28],[4,-300],[-18,-439],[7,-172],[-29,-162],[-41,-107],[63,-193],[40,-536],[-60,-282],[-53,-187],[24,-65],[143,-53],[57,-62],[34,-188],[184,338],[85,60],[151,32],[51,6],[269,57],[41,108],[34,34],[11,113],[124,124],[229,-37],[137,-137],[72,-24],[210,107],[220,-22],[-11,80],[-3,156],[6,6],[226,-319],[55,-151],[79,-112],[164,-164],[11,-25],[96,340],[-14,104],[2,109],[316,-91],[-5,-94],[-147,-158],[1,-43],[34,7],[82,-112],[36,-319],[-17,-86],[-28,-47],[-27,-91],[-3,-50],[15,-11],[93,10],[101,46],[25,-15],[67,101],[36,-29],[28,71],[29,-109],[26,26],[24,-37],[26,30],[25,9],[27,-27],[32,647],[379,-107],[-5,102],[19,51],[14,-5],[42,58],[70,-14],[102,-29],[44,-140],[113,-33],[22,-41],[10,32],[65,-19],[17,76],[91,-26],[40,-78],[58,27],[27,-40],[27,46],[26,-63],[12,137],[-12,32],[87,307],[452,-152],[1,8],[369,-124],[-22,-136],[147,-185],[-81,-1374],[-139,-306],[-267,-169],[-9,176],[-119,93],[-60,-22],[-38,-630],[-122,42],[-28,-453],[-53,12],[-151,-348],[-156,-277],[354,-121],[-113,-240],[-55,-201],[-26,-34],[-3,-99],[-22,-44],[6,-88],[-5,-47],[-32,-185],[-5,-90],[68,-24],[-20,-320],[66,-23],[-26,-425],[-55,19],[-25,27],[-20,-334],[39,-14],[-33,-542],[-220,74],[-25,-406],[291,-102],[-43,-727],[-34,-1],[-6,-105],[-174,-438],[32,-637],[8,-641],[-19,-317],[-33,-139],[-58,-103],[4,-145],[94,-33],[81,-308],[-248,-245],[-529,-519],[40,21],[17,-84],[23,-42],[8,-43],[24,-6],[26,30],[25,-39],[10,-66],[-201,-233],[205,-1457],[55,-410],[89,-673],[2,3],[123,-451],[107,-634],[46,-288],[-8,-85],[27,-41],[15,-54],[4,-47],[-9,-46],[6,-81],[-16,-80],[-7,-76],[-21,-22],[-20,11],[-45,-9],[-31,31],[-33,13],[-10,57],[34,42],[-6,45],[-22,7],[-36,-62],[-38,-39],[-45,-33],[-31,-34],[-61,-19],[-34,-28],[-13,-45],[2,-92],[-4,-67],[7,-47],[45,-6],[15,45],[21,-31],[2,-82],[9,-43],[17,-3],[12,125],[11,9],[36,-12],[7,-24],[-18,-131],[-33,-80],[-21,-6],[-19,-53],[20,-38],[28,-114],[5,-138],[20,-44],[60,-84],[15,-10],[14,45],[-2,73],[10,37],[38,22],[23,-10],[53,0],[94,-66],[19,-76],[15,-20],[31,6],[-357,-897],[-349,-875],[-319,-798],[306,-679],[-233,-584],[-10,4],[-32,-79],[-70,-146],[6,-13],[-192,-347],[-58,-147],[-22,-6],[-112,-185],[-37,-75],[-119,-426],[-14,-67],[-53,-97],[10,-99],[7,-117],[-74,-291],[-65,-282],[-59,-241],[-12,-201],[86,-396],[113,-341],[4,-78],[75,-257],[50,-162],[-23,-406],[42,-188],[-25,-424],[1,-31],[-48,-873],[3,0],[-59,-1075],[-33,-554],[-23,-86],[-9,20],[-35,-2],[0,-56],[-12,-82],[-27,-62],[-39,11],[-17,-82],[4,-49],[-24,-35],[2,-73],[-25,-28],[-1,-59],[15,-32],[-18,-45],[-23,-2],[-13,-82],[8,-45],[-12,-26],[-16,37],[-31,-83],[-14,-57],[-22,1],[-11,-51],[277,-83],[-43,-704],[352,-122],[-19,-328],[-84,-1351],[-574,184],[-23,-102]],[[37374,81133],[732,-131],[-4,-161],[-18,-38],[-29,-699],[-45,-1176],[-88,-449],[-166,33],[-39,113],[-5,-8],[-5,-1118],[-80,-1722],[62,-16],[704,-170],[58,249],[46,42],[36,14],[-17,47],[-1,146],[12,77],[28,53],[7,36],[7,178],[30,71],[36,51],[42,116],[21,87],[10,144],[23,90],[78,85],[4,57],[-4,64],[21,56],[9,72],[-9,69],[5,206],[12,89],[26,68],[24,9],[8,25],[-5,66],[23,46],[33,-7],[46,48],[17,49],[16,94],[4,94],[15,98],[8,84],[20,37],[-21,129],[1,48],[12,74],[57,79],[15,86],[35,-5],[595,-155],[-19,-403],[-7,-22],[1,-68],[-14,-298],[-19,-102],[11,-48],[-17,-343],[30,-170],[7,-224],[78,-21],[203,-67],[209,-66],[171,-61],[167,-54],[184,-62],[445,-159],[84,-107],[128,-41],[155,218],[44,217],[-7,682],[-11,207],[-24,498],[33,59],[-144,814],[-134,743],[38,694],[-3,137],[27,616],[-14,186],[-16,75],[317,-2],[-20,-533],[-9,-339],[0,-160],[3,-288],[0,-58],[-19,-416],[558,-159],[1,-13],[281,-81],[219,-60],[307,-47],[13,-11],[307,-54],[37,796],[49,1032],[80,-25],[12,183],[-5,2],[51,767],[72,1073],[2,240],[22,279],[-84,23],[29,554],[10,207],[18,342],[31,668],[32,614],[8,172],[369,-105],[273,-70],[89,-45],[400,-124],[9,17],[147,-44],[-32,-613],[621,-184],[585,-172],[-74,543],[-44,146],[244,-71],[155,-41],[109,-33],[16,66],[61,-22],[37,676],[22,449],[10,217],[-49,177],[31,733],[31,710],[8,1],[83,107],[523,-149],[273,-79],[644,-187],[-43,-957],[-51,-1065],[-60,-1275],[-11,-229],[-8,-66],[3,-31],[-5,-120],[20,68],[29,25],[209,399],[116,217],[125,237],[171,340],[222,450],[4,103],[43,160],[59,142],[57,240],[35,160],[-6,45],[19,16],[88,419],[160,288],[334,-41],[61,1363],[464,-116],[7,213],[33,582],[-7,52],[21,20],[-3,46],[-37,105],[13,212],[25,491],[200,-49],[139,270],[344,-106],[37,20],[-289,1602],[19,25],[32,122],[38,2],[19,-32],[38,-18],[40,-119],[49,-75],[27,-29],[26,-9],[31,11],[29,39],[27,61],[44,50],[18,48],[9,65],[-15,167],[12,94],[16,56],[25,53],[17,71],[6,60],[24,59],[39,27],[38,90],[33,23],[44,-21],[54,-54],[72,-27],[28,-48],[9,-69],[-4,-104],[-34,-188],[46,-12],[53,-156],[117,-81],[208,35],[123,240],[50,2],[51,-150],[41,19],[116,197],[22,42],[26,92],[45,92],[18,133],[48,88],[32,-24],[32,28],[38,156],[-45,212],[-10,330],[11,89],[16,46],[34,4],[44,176],[2,48],[23,60],[6,50],[13,29],[-1,36],[8,93],[12,20],[10,80],[31,8],[23,46],[10,47],[1,58],[27,25],[23,-12],[41,4],[28,41],[-1,87],[-9,39],[1,89],[30,47],[17,-6],[13,-50],[16,12],[47,0],[35,37],[21,-28],[15,17],[68,-93],[24,-6],[33,18],[22,-19],[16,14],[18,-43],[23,-7],[31,16],[21,64],[3,45],[34,20],[36,2],[77,-64],[26,-109],[25,52],[81,-39],[61,-55],[55,-18],[63,1],[59,9],[139,34],[45,14],[169,11],[36,10],[43,44],[22,47],[11,54],[16,122],[17,213],[23,199],[41,51],[9,68],[17,72],[37,76],[3,36],[-22,94],[-4,60],[3,67],[14,57],[38,-129],[50,-81],[44,27],[85,123],[26,-22],[24,32],[19,119],[16,-3],[36,-67],[15,-8],[30,36],[36,6],[14,-92],[-11,-47],[5,-167],[11,-26],[30,-3],[17,-17],[38,-14],[66,-6],[34,93],[3,93],[15,62],[24,35],[16,106],[22,4],[132,146],[33,88],[45,60],[48,-4],[23,25],[43,4],[25,51],[43,3],[17,43],[17,12],[17,-30],[18,21],[-2,30],[13,62],[12,107],[-4,34],[-32,30],[-9,108],[-2,121],[19,83],[40,46],[54,10],[68,-8],[37,31],[25,-11],[50,-77],[21,11],[12,69],[29,117],[38,65],[19,14],[45,-2],[26,17],[7,27],[3,84],[14,50],[33,-11],[13,8],[47,67],[19,55],[-1,49],[15,58],[37,43],[10,53],[15,33],[25,90],[41,59],[26,12],[25,-5],[39,29],[16,-35],[32,-8],[43,49],[24,9],[29,-21],[59,-94],[13,-96],[19,-31],[23,0],[56,115],[26,8],[39,58],[43,-29],[6,-41],[36,-22],[14,33],[40,-38],[15,-38],[16,-6],[48,48],[51,-1],[17,-61],[18,-147],[-8,-131],[17,-75],[15,-20],[31,9],[17,-42],[73,-134],[30,-87],[0,-41],[34,-73],[-13,-101],[10,-46],[55,-125],[18,-4],[26,-53],[26,-4],[10,18],[19,-34],[39,-25],[18,18],[8,-66],[51,-70],[36,-74],[41,-149],[21,-28],[31,-81],[12,-76],[1,-45],[26,-22],[26,6],[25,-35],[16,-62],[23,0],[5,-52],[28,-72],[-23,-98],[-4,-84],[-22,-138],[16,-75],[0,-105],[14,-23],[37,-27],[33,-87],[26,-43],[47,-115],[33,-15],[37,-133],[-7,-57],[18,-44],[29,-17],[-7,-71],[16,-70],[21,-30]],[[50756,36259],[-126,-157],[-410,159],[-585,228],[-199,77],[-110,-68],[-101,34],[-81,38],[-150,58],[-318,153],[-133,59],[-158,61],[-108,37],[-213,66],[-142,39],[-193,59],[-167,55],[-206,74],[-121,40],[70,1479],[14,296],[80,-34],[18,366],[64,1277],[-203,57],[-406,109],[-99,26],[50,288],[28,638],[30,718],[55,1181],[6,170],[-54,16],[-37,88],[-85,22],[9,159],[-69,19],[-7,-161],[-278,72],[-330,83],[-287,74],[-135,37],[69,1539],[-55,31],[-770,185],[-416,100],[-771,187],[67,1565],[-943,177],[-385,73],[0,-11],[-553,104],[-153,53],[-260,74],[-770,192],[-469,118],[-47,-898],[-51,-993],[-720,203],[-4,14],[-218,57],[0,-12],[-270,73],[-155,45],[-73,0],[-21,-426],[-167,44],[-15,-300],[-194,83],[-169,53],[-338,80],[-455,109],[-109,3],[-674,181],[-270,74],[-354,96],[-320,94],[36,731],[-52,13]],[[35620,47962],[16,825],[-5,216],[10,27],[14,741],[14,608],[-11,41],[18,86],[-1,93],[-6,53],[11,85],[14,400],[27,729],[25,625],[23,486],[26,615],[216,-44],[32,8],[146,-48],[15,341],[-3,77],[9,33],[-4,57],[5,68],[11,61],[19,418],[6,81],[17,28],[-66,398],[-110,111],[-35,125],[-56,168],[-40,132],[-30,215],[-11,50],[-6,169],[-24,95],[38,51],[38,66],[190,319],[191,136],[53,1054],[109,2141],[-408,116],[57,1119],[72,1412],[-3,42],[44,863],[-33,-22],[-34,0],[-20,33],[-16,2],[-25,-28],[-268,57],[89,2073],[52,1198],[128,-32],[337,-97],[23,514],[55,1136],[77,1479],[327,-103],[83,1400],[-120,38],[48,949],[5,-2],[31,625],[48,953],[53,1130],[-62,15],[40,710],[54,917],[16,318],[26,638],[18,310],[25,545],[11,204],[41,928],[15,286],[28,603],[9,157],[14,337],[15,232],[19,76],[-2,100]],[[49790,3975],[-870,0],[-767,1],[-753,1],[-692,0],[-692,0],[-823,0],[-559,0],[-692,-1],[-415,0],[-635,0],[-333,0],[-691,1],[-691,0],[-692,0],[-691,0],[-697,0],[-686,0],[-732,0],[-651,0],[-692,0],[-700,0],[-706,0],[-669,-1],[-691,0],[-785,0],[-679,0],[-719,0],[-583,0],[-691,0],[-691,0],[-271,0]],[[27823,33716],[63,1224],[787,-222],[3,62],[11,25],[-6,63],[70,1377],[610,-171],[21,15],[64,1269],[-8,41],[4,73],[11,35],[27,526],[349,-105],[626,-186],[430,-128],[655,-194],[184,-49],[39,31],[62,7],[37,-75],[601,-164],[203,-56],[71,1425],[21,226],[25,349],[4,79],[650,-174],[23,501],[48,1065],[48,478],[68,704],[23,246],[600,-174],[212,-59],[410,-111],[68,1395],[56,1141],[32,664],[-140,40],[26,593],[23,526],[47,1003],[14,45],[0,55],[-8,36],[45,953],[202,-55],[13,-76],[66,-25],[25,9],[53,49],[53,-14],[28,-26],[12,15],[136,-35]],[[6922,53676],[-16,78],[8,74],[8,14],[41,-5],[29,61],[-2,35],[-21,33],[2,37],[25,19],[25,-34],[0,58],[-20,24],[-20,69],[-9,58],[5,28],[36,13],[19,77],[-3,48],[-17,40],[-27,7],[-15,41],[6,36],[20,45],[15,82],[17,49],[2,84],[-9,15],[-12,81],[-21,-28],[-22,-2],[-31,28],[-37,-47],[-6,99],[-17,109],[-41,30],[13,35],[-35,153],[-3,38],[13,50],[15,-4],[8,42],[-15,27],[-6,63],[-16,39],[-7,45],[-23,18],[-26,52],[-5,30],[23,69],[-5,70],[15,31],[5,65],[-4,114],[21,34],[2,92],[11,133],[-14,97],[-29,5],[-7,55],[-25,67],[-20,3],[-3,44],[-16,1],[-8,81],[-19,68],[14,62],[-26,28],[-10,54],[-26,29],[0,102],[-41,16],[0,63],[-15,49],[-1,101],[-19,29],[-17,67],[6,29],[-25,48],[6,38],[-8,73],[-18,-1],[-27,70],[-19,102],[-1,84],[-19,55],[-34,69],[-28,130],[18,49],[-1,43],[-22,58],[-33,22],[-17,-26],[-30,76],[-3,58],[-30,95],[-14,19],[-8,57],[12,96],[-26,72],[-13,17],[9,47],[-18,40],[28,32],[8,41],[0,56],[-24,34],[12,96],[-27,130],[-21,29],[-8,40],[15,66],[-21,76],[-6,67],[-19,-24],[-11,40],[-14,108],[-25,-76],[-12,33],[18,68],[-8,47],[-25,-16],[-7,38],[4,59],[-20,42],[-4,44],[14,26],[-1,49],[-10,38],[5,40],[-9,37],[-26,22],[-10,48],[-3,59],[22,27],[2,36],[-25,16],[-7,69],[-17,41],[7,54],[28,-9],[3,75],[9,52],[-14,46],[5,36],[-17,38],[1,54],[-13,40],[2,72],[-21,-10],[-26,51],[11,70],[-9,32],[37,43],[5,34],[-29,74],[25,19],[2,45],[-11,64],[13,61],[-26,37],[-14,106],[11,32],[-13,27],[9,35],[-15,35],[-1,91],[-14,130],[19,177],[49,268],[41,166],[13,187],[658,-154],[6,162],[781,-177],[-2,-183],[1400,-326],[7,143],[129,-232],[38,365],[-3,44],[17,156],[3,383],[19,81],[10,-6],[61,234],[26,182],[9,82],[-2,87],[16,50],[12,69],[58,91],[16,77],[24,35],[2,75],[-11,31],[31,121],[4,64],[-10,106],[22,-4],[10,42],[-1,57],[21,16],[5,81],[25,52],[5,56],[24,43],[2,28],[-18,100],[4,46],[16,48],[-5,57],[30,133],[-5,80],[12,17],[24,162],[10,43],[0,46],[18,110],[21,8],[17,106],[14,25],[3,51],[28,28],[16,74],[25,18],[24,89],[19,30],[8,89],[21,45],[2,64],[11,11],[-150,2270],[80,1795],[64,1435],[105,2017],[173,-47],[38,621],[134,-5],[119,185],[396,879],[92,-1],[132,122],[97,156],[36,110],[158,159],[89,47],[79,23],[48,-33],[20,10],[109,99],[22,247],[188,133],[31,67],[79,17],[97,91],[62,3],[64,143],[111,188],[26,31],[181,250],[5,49],[143,226],[113,149],[4,159],[102,230],[551,1134],[1036,-214],[207,-42],[-23,-109],[-6,-70],[3,-61],[-10,-55],[-9,-136],[-9,-30],[-66,-51],[-24,26],[-25,-30],[77,-184],[90,-24],[723,-186],[643,-163],[-59,-1361],[-85,-1833],[152,-43],[573,-148],[100,2312],[521,-126],[1111,-267],[167,-40],[61,1596],[38,889],[547,-133],[455,-110],[284,-64],[3,-24],[34,-48],[60,15],[107,-129],[40,-78],[18,68],[444,-95],[50,1197],[-307,69],[38,912],[49,1177],[18,95],[-10,102],[-24,54],[-4,44],[17,84],[20,46],[50,1320],[-9,2],[37,754],[-27,72],[10,208],[33,57],[3,64],[275,-58],[598,1184],[394,776],[128,-373],[23,1],[3,-66],[30,-51],[24,-133],[25,-48],[56,31],[36,70],[53,73],[58,-43],[43,-110],[99,-102],[32,-62],[17,-64],[51,-55],[26,4],[24,-95],[172,-323],[10,-122],[34,-77],[65,-51],[16,-30],[160,-127],[149,-379],[-4,-79],[125,-402],[184,-1120],[-14,-32],[-52,-15],[-7,-137],[-12,-39],[-99,-184],[-164,32],[-17,-12],[-31,-157],[4,-33],[-9,-48],[2,-91],[54,-128],[7,177],[621,-124],[2,59],[833,-209],[433,-1276],[226,-688],[4,25],[85,3],[15,-22],[13,23],[166,8],[39,47],[11,51],[37,68],[102,164],[114,187],[-4,83],[8,32],[8,241],[40,58],[42,86],[20,25],[36,-7],[17,20],[49,240],[19,12],[16,83],[29,33],[19,54],[-9,92],[11,47],[22,57],[27,45],[14,85],[-22,461],[30,37],[41,65],[-1,32],[24,69],[18,111],[-4,98],[-16,68],[-13,87],[-8,115],[12,106],[242,215],[21,77],[8,58],[68,332],[57,393],[-60,419],[-50,98],[17,283],[123,524],[209,864],[95,411],[63,269],[73,197],[232,1010],[1082,2143],[148,-414],[520,2223],[169,-1049],[1220,2443],[56,1923],[147,4809],[256,267],[25,33],[-30,-661],[292,-77],[-29,-580],[-99,-2162],[-24,-534],[305,-73],[578,-140],[-66,-1603],[541,-132],[-64,-171],[46,-226],[-8,-218],[-33,-283],[-32,-217],[-7,-119],[-33,-209],[15,-128],[52,-77],[78,-135],[8,-54],[24,-72],[5,-49],[20,-65],[32,-145],[14,-50],[85,-8],[34,-86],[9,-116],[35,-120],[38,-84],[47,14],[36,83],[34,38],[112,-38],[25,-1],[37,30],[71,-29],[89,38],[62,9],[26,45],[20,82],[87,110],[38,68],[35,84],[54,62],[-37,-1080],[-33,-714],[-16,-26],[-4,-97],[14,-14],[-27,-571],[-61,-1284],[-8,-27],[-42,0],[-33,-28],[-23,-68],[-105,-65],[-32,-69],[-22,-26],[-8,-32],[15,-211],[2,-57],[-54,-76],[-28,-10],[-515,-989],[90,-13],[0,37],[18,24],[58,-62],[15,11],[37,-27],[241,-29],[21,35],[37,-43],[94,-19],[19,42],[27,-50],[135,-21],[14,-21],[16,-57],[51,-75],[42,20],[18,54],[22,-38],[132,-34],[10,25],[38,-4],[22,-39],[50,-12],[11,46],[47,-61],[34,-8],[15,24],[49,-10],[8,-32],[236,-58],[6,-42],[-6,-141],[-22,-85],[-40,-74],[-28,1],[-27,-66],[90,-156],[16,-57],[-6,-212],[-30,-164],[6,-28],[-4,-61],[-29,-182],[300,-84],[69,-42],[38,-1],[26,25],[21,-6],[49,49],[22,-33],[31,-22],[28,-34],[233,-69],[448,-133],[6,-22],[662,-190],[6,18],[-104,-2085],[-154,41],[-29,-621],[318,-93],[70,391],[172,123],[80,292],[199,-69],[34,-25],[5,-26],[345,-440],[92,-519],[149,109],[33,-31],[104,-15],[20,-51],[34,-110],[51,-14],[50,-78],[24,4]],[[93726,39564],[-8,105],[19,10],[1,34],[23,16],[20,38],[26,397],[-10,-5],[-30,-74],[-43,-56],[22,390],[6,-2],[9,163],[28,-9],[6,110],[-5,77],[17,237],[-95,38],[16,47],[10,81],[-5,74],[29,80],[17,-25],[14,30],[3,95],[8,53],[16,31],[-2,83],[29,75],[-58,79],[0,85],[-25,48],[0,77],[-16,78],[17,72],[-104,37],[-11,-16],[1,-52],[-19,-44],[2,-31],[-23,-24],[-14,-37],[-7,-54],[-19,-57],[-24,-43],[-36,-7],[-15,-44],[-17,18],[-7,50],[8,80],[-19,54],[-14,77],[-11,-8],[-25,42],[-18,120],[24,52],[11,91],[13,27],[4,53],[27,54],[30,5],[54,-56],[20,-68],[26,-34],[15,71],[-21,86],[-31,18],[-1,45],[43,36],[37,-1],[56,-58],[19,284],[85,-30],[3,71],[22,17],[14,43],[25,40],[45,30],[14,27],[23,6],[19,67],[11,16],[29,2],[25,57],[2,27],[36,60],[26,416],[-132,49],[-37,-124],[-8,-45],[-237,84],[-1,-23],[-57,18],[-20,-60],[-20,3],[-9,-69],[-43,8],[-23,30],[3,42],[-33,9],[-29,23],[23,372],[25,28],[40,18],[32,114],[30,4],[28,32],[9,40],[34,51],[7,90],[19,67],[-390,503],[1,17],[-67,87],[15,32],[28,115],[13,37],[8,69],[1,78],[14,-4],[3,66],[38,41],[-1,57],[17,2],[27,66],[0,68],[23,-6],[13,36],[-6,51],[43,33],[23,60],[27,52],[14,7],[0,53],[24,18],[13,39],[23,6],[0,35],[-17,17],[17,80],[45,43],[-17,28],[7,44],[33,546],[51,-242],[193,-60],[14,-59],[25,8],[-4,54],[-26,38],[-9,72],[13,37],[24,-8],[27,45],[1,26],[-22,56],[40,-21],[17,12],[9,51],[-272,94],[-1,4],[37,635],[-57,15],[5,91],[217,-73],[10,15],[8,72],[-28,87],[-26,-10],[-77,97],[-57,19],[2,85],[-6,34],[-97,34],[18,280],[-115,40],[-14,59],[22,32],[34,29],[25,47],[-53,20],[-16,36],[16,33],[33,-15],[24,42],[-1,26],[-37,52],[-31,-9],[-15,-39],[-36,-32],[-5,37],[9,63],[-2,94],[-12,42],[-14,2],[-10,-87],[-76,79],[-38,-46],[-15,16],[10,78],[-4,22],[-42,25],[-57,0],[-28,25],[-33,46],[-5,26],[-7,112],[-37,23],[21,95],[6,78],[-5,45],[34,115],[12,17],[20,86],[17,20],[12,64],[25,12],[15,61],[-9,66],[7,71],[-9,85],[8,143],[27,48],[-2,40],[26,53],[-23,122],[-34,-34],[-15,62],[-28,-54]],[[93275,50309],[7,120],[22,151],[47,189],[62,121],[43,-1],[47,70],[16,78],[28,-10],[-8,-101],[27,-69],[134,-47],[2,39],[-39,101],[-7,119],[7,86],[-7,184],[7,49],[-27,102],[13,206],[43,-15],[20,316],[-134,48],[5,93],[11,112],[3,68],[-26,120],[-1,60],[-20,98],[24,26],[-5,36],[13,37],[-4,160],[11,38],[30,-16],[-20,87],[-46,61],[-24,90],[-36,-58],[-22,45],[-16,12],[-30,92],[-3,122],[6,86],[18,54],[-23,60],[12,79],[17,18],[11,58],[15,23],[15,90],[-111,35],[16,276],[-45,-9],[-38,25],[-21,-20],[9,-71],[34,-48],[1,-71],[-20,-38],[-39,-9],[-46,-50],[-27,153],[13,30],[24,23],[0,31],[-38,61],[-12,105],[-18,40],[-19,84],[-38,69],[-23,94],[-34,83],[-39,-33],[-28,-41],[-42,80],[17,26],[-3,32],[-101,77],[-30,45],[-19,83],[-2,104],[-57,76],[-5,20],[3,142],[-8,115],[-12,108],[5,77],[8,33],[36,48],[15,72],[34,34],[42,56],[71,3],[55,63],[18,70],[36,26],[31,36],[7,35],[23,15],[6,116],[29,-18],[30,5],[24,-49],[10,32],[-8,54],[2,103],[-14,100],[49,243],[14,39],[-22,136],[-6,68],[-20,59],[2,43],[32,34],[30,52],[16,53],[17,-21],[12,52],[-4,24],[-34,48],[-12,149],[-20,50],[-25,32],[-8,89],[14,104],[27,87],[-6,124],[-20,86],[-6,149],[-17,36],[0,73],[-13,64],[0,83],[17,33],[-34,120],[5,75],[27,22],[1,64],[12,51],[-36,74],[4,34],[-1,134],[-18,36],[1,62],[32,37],[19,68],[16,31],[1,46],[20,98],[-6,60],[-13,16],[-13,59],[2,42],[18,72],[6,52],[20,30],[26,1],[27,-19],[44,-70],[16,52],[20,3],[7,103],[22,10],[25,-56],[19,66],[32,3],[8,-21],[9,-37],[25,-13],[24,-84],[43,-69],[17,8],[27,-38],[20,-53],[5,-34],[60,-121],[23,-102],[16,-26],[43,-124],[17,-90],[32,-16],[19,-25],[22,16],[18,107],[13,47],[22,31],[29,-49],[37,-44],[12,19],[14,69],[-7,80],[8,29],[-6,86],[-23,57],[20,25],[28,60],[23,-14],[30,38],[21,-5],[15,52],[33,26],[19,-21],[12,21],[11,83],[13,47],[26,45],[4,112],[21,56],[48,-1],[43,103],[8,156],[-2,81],[26,-11],[6,23],[57,13],[14,-22],[25,-72],[43,-47],[25,-76],[2,-61],[27,12],[24,-20],[14,-32],[-6,-45],[21,-18],[36,-61],[1,-38],[34,-147],[19,5],[16,79],[31,4],[18,36],[41,-2],[34,55],[40,26],[12,52],[28,29],[24,-28],[27,-2],[9,35],[41,56],[38,-24],[32,69],[22,-2],[31,17],[20,-51],[0,-77],[28,-40],[4,-48],[44,8],[38,-7],[30,-83],[20,49],[55,64],[19,-25],[14,-43],[37,62],[4,57],[19,66],[18,29],[73,-66],[32,67],[42,10],[13,-18],[29,37],[14,68],[55,-5],[-34,-570],[52,-18],[1,37],[22,21],[-28,-457],[-27,-50],[-23,-96],[-3,-36],[9,-95],[-6,-58],[-17,-11],[-12,-75],[-3,-106],[10,-79],[-2,-117],[17,-21],[5,72],[33,41],[-1,65],[8,58],[25,-19],[26,-48],[-10,-155],[-12,-6],[-15,-133],[-17,-6],[3,-42],[-5,-94],[-14,-47],[1,-75],[-9,-23],[88,-29],[-15,-251],[80,-27],[-13,-220],[285,-89],[60,-22],[182,-55],[20,44],[-60,194],[-4,76],[-17,56],[-9,94],[356,-112],[23,-67],[30,-139],[17,-30],[21,-10],[38,27],[21,-29],[27,-5],[7,-157],[-17,-96],[85,-27],[-23,-66],[5,-103],[28,-170],[-12,-34],[32,-9],[-38,-693],[-99,-278],[7,-28],[-168,-477],[13,-22],[17,30],[-1,-153],[19,-30],[-2,-58],[-26,-88],[-24,-36],[2,-91],[-7,-43],[15,-65],[22,1],[56,-44],[24,17],[29,-33],[14,-43],[23,-16],[54,-106],[22,-90],[-13,-55],[6,-68],[15,-29],[2,-82],[19,-53],[-2,-26],[-25,-30],[9,-102],[36,-98],[27,-52],[44,-20],[33,-81],[0,-29],[20,-105],[30,3],[94,-39],[15,-15],[3,-41],[36,-28],[27,20],[47,-44],[23,48],[32,10],[27,-61],[-9,-66],[19,-64],[1,-59],[17,-13],[29,43],[16,7],[18,60],[69,-10],[49,-85],[10,-200],[-6,-59],[6,-31],[3,-80],[23,-32],[7,-68],[55,-54],[2,-69],[6,-39],[-16,-60],[-1,-59],[7,-39],[21,-26],[-19,-143],[-32,-42],[-27,-13],[1,-41],[20,-27],[26,24],[13,-28],[-23,-85],[17,-57],[0,-38],[-47,-89],[-46,-38],[-4,-92],[34,-104],[-10,-56],[4,-59],[-1,-102],[15,-65],[20,31],[12,-43],[-4,-42],[20,-75],[-14,-56],[36,-71],[18,-82],[36,-99],[-12,-65],[18,0],[-1,-130],[18,-55],[3,-65],[-10,-18],[0,-94],[-81,29],[-3,-48],[-92,33],[3,-87],[-4,-87],[-19,-84],[-18,-12],[-6,-36],[211,-77],[-16,-26],[-27,-8],[1,-49],[-35,-24],[-17,-112],[-25,-8],[-30,-120],[7,-83],[-4,-89],[7,-30],[-27,-36],[-19,-60],[-19,-118],[-24,7],[-12,-44],[-25,46],[-22,-28],[-8,-38],[-4,-67],[48,-3],[2,-54],[43,-48],[24,18],[17,-29],[-12,-103],[-22,-23],[7,-89],[12,-4],[46,82],[22,-22],[30,11],[25,35],[23,-11],[9,-86],[-20,-23],[-16,-52],[8,-73],[-13,-31],[2,-37],[20,-47],[38,19],[-2,-113],[23,4],[-9,-62],[-21,17],[-10,-31],[5,-44],[-15,-48],[16,-81],[16,-24],[12,-47],[3,-46],[18,-75],[30,-51],[20,-59],[-13,-63],[14,-13],[1,-68],[30,-49],[-5,-98],[24,-34],[-13,-49],[13,-41],[-5,-55],[-34,-20],[-8,-39],[-1,-86],[6,-48],[-13,-58],[-29,-65],[-7,-34],[-26,-36],[1,-60],[12,-38],[-11,-54],[51,-23],[-4,-62],[-145,46],[7,-53],[20,-39],[12,-73],[10,-25],[17,-142],[-13,-60],[14,-41],[12,-112],[-2,-37],[-39,-61],[-43,-30],[-8,-35],[27,-127],[33,-8],[31,40],[23,12],[51,-46],[52,1],[50,-32],[34,-58],[25,-24],[27,-9],[-2,-40],[68,-22],[3,40],[66,-21],[-8,-112],[-26,-29],[1,-97],[-8,-49],[5,-69],[-17,-76],[5,-45],[15,-42],[6,-47],[-3,-55],[15,-57],[18,-190],[16,-50],[12,-83],[-2,-62],[12,-9],[-26,-103],[-53,-132],[-7,-49],[36,-152],[-23,-22],[-13,-35],[5,-40],[-10,-40],[-19,6],[-27,-85],[-36,-51],[-20,-86],[-33,-46],[-9,-75],[-19,-2],[-17,-70],[-28,-84],[-16,-113],[11,-18],[10,-81],[-8,-105],[-17,-69],[-6,-69],[4,-89],[10,-55],[-16,-86],[-40,-83],[-20,-5],[-19,-38],[4,-52],[12,-45],[-3,-39],[-25,-69],[-17,-83],[-47,-111],[-6,-45],[4,-171],[17,-53],[0,-119],[5,-34],[23,-39],[30,10],[66,-27],[52,-29],[8,-67],[-9,-62],[9,-71],[-15,-96],[2,-49],[27,9],[49,58],[12,-4],[26,-66],[55,-42],[30,-8],[41,-49],[21,6],[35,72],[53,7],[26,-38],[29,-7],[16,-61],[23,-54],[-4,-48],[1,-96],[-5,-58],[-16,-34],[-16,-4],[-25,-38],[-5,-122],[-31,-5],[-20,-56],[-27,-40],[-67,3],[-9,-21],[-27,15],[-17,28],[-44,-28],[-5,-94],[-14,-64],[-60,-42],[-26,-41],[-33,-83],[-38,-53],[-24,-51],[-19,10],[-22,-26],[-18,-70],[-22,-51],[-16,6],[-37,-518],[56,-21],[5,79],[29,-11],[15,223],[61,-21],[7,107],[55,-19],[7,115],[135,-48],[-16,-245],[94,-35],[-9,-133],[39,-15],[-32,-500],[12,5],[24,63],[38,-4],[13,-36],[-8,-74],[-17,-47],[8,-131],[49,-21],[-11,-179],[19,-7],[-5,-53],[4,-66],[-4,-52],[-39,-47],[-16,-44],[27,-10],[-12,-188],[27,-11],[-5,-82],[17,-6],[-2,-48],[-26,-377],[-49,17],[-3,-117],[12,-59],[-8,-38],[7,-41],[18,-20],[-6,-87],[23,-10],[-6,-80],[-19,7],[-6,-69],[8,-87],[-11,-23],[-11,-154],[-32,2],[-34,-25]],[[87440,22682],[-15,347],[45,302],[-8,24],[25,104],[-13,60],[-19,52],[19,90],[4,52],[57,11],[66,-36],[-1,45],[17,89],[4,66],[3,22],[13,77],[46,81],[38,32],[175,-55],[69,1206],[25,429],[247,-79],[3,10],[38,637],[20,354],[284,-105],[319,-103],[19,9],[378,-115],[3,9],[251,-89],[7,18],[231,-68],[3,51],[23,-40],[21,-16],[34,-4],[142,-93],[31,-61],[9,-56],[35,-33],[25,45],[19,-3],[14,23],[6,-118],[16,10],[26,-81],[14,-88],[37,-148],[13,-21],[106,183],[-44,101],[55,171],[12,56],[33,-5],[7,-48],[20,-1],[35,-47],[14,-34],[14,195],[331,-121],[579,-212],[9,23],[-3,56],[-40,202],[-37,118],[-5,63],[15,134],[82,-106],[24,365],[433,-156],[16,239],[5,38],[189,-69],[-32,260],[245,-86],[12,190],[410,-150],[66,53],[52,99],[17,8],[17,60],[46,94],[0,55],[73,108],[272,-98],[8,-46],[24,-36],[3,-82],[-27,-49],[-3,-100],[55,-103],[12,-82],[56,7],[37,-30],[49,-3],[18,37],[49,-2],[95,18],[63,28],[24,59],[44,-62],[68,-7],[15,233],[38,-41],[47,-11],[28,-23],[15,22],[54,-23],[38,-47],[47,-21],[51,-69],[40,-69],[51,-122],[56,37],[32,13],[7,29]],[[95378,26601],[-25,-27],[-27,-76],[7,-109],[-24,-53],[-24,-98],[0,-192],[-14,-150],[5,-33],[-17,-105],[7,-37],[47,-151],[13,-80],[38,-93],[25,-48],[-16,-120],[22,-53],[27,-112],[-5,-43],[11,-73],[-11,-76],[-31,-147],[33,-27],[46,-53],[24,-57],[37,-29],[33,-47],[47,-22],[1,-88],[-13,-113],[13,-48],[17,-164],[-11,-49],[-39,-38],[-26,-74],[-7,-96],[19,-71],[8,-53],[-3,-152],[5,-41],[16,-41],[43,-52],[9,-27],[12,-100],[19,-35],[20,-68],[66,-42],[-5,-32],[1,-82],[-13,-142],[14,-26],[10,-82],[-4,-74],[9,-50],[0,-71],[15,-32],[10,-53],[44,-69],[23,-13],[2,-56],[-19,-79],[-7,-75],[-13,-57],[1,-68],[18,-40],[9,-76],[16,-51],[2,-59],[25,-25],[28,-82],[16,-33],[17,28],[43,-20],[15,9],[51,-2],[0,-123],[20,-84],[-10,-55],[-13,-17],[-6,-68],[-18,-37],[-17,-97],[-45,-35],[-17,-59],[6,-123],[92,-50],[-4,-68],[50,-36],[8,118],[50,-28],[19,-81],[28,-34],[-6,-92],[16,6],[24,-39],[3,-75],[-32,-57],[-10,-68],[3,-89],[-33,-93],[-25,3],[-41,-15],[-24,28],[-26,-8],[-54,-42],[-18,-38],[-14,-86],[3,-77],[10,-32],[-27,-58],[-24,-133],[-25,-8],[-24,-42],[-2,-34],[-29,-71],[-20,-77],[-5,-72],[14,-111],[-11,-26],[-21,18],[-23,-40],[-17,-2],[-40,47],[-26,1],[-12,-42],[-40,-2],[-40,55],[-13,-28],[-4,-43],[-13,-34],[6,-123],[-6,-34],[-21,-39],[-1,-220],[41,-141],[18,-106],[-17,-102],[-39,-71],[-6,-45],[-76,-123],[-19,-114],[-25,-51],[-20,-61],[-15,-113],[-31,-78],[0,-33],[-23,-30],[-31,16],[-27,54],[-30,-29],[-50,26],[-30,-9],[-31,57],[-41,53],[-19,-8],[-44,-77],[-29,-22],[-31,-43],[-52,30],[-31,-37],[-45,34],[-52,-4],[-38,74],[-25,24],[-29,-7],[-17,-137],[-27,-72],[-14,-10],[-71,-142],[-29,-84],[-12,-143],[2,-29],[-23,-35],[-41,-10],[-67,23],[-34,20],[-12,29],[-13,-26],[-11,-77],[-18,-40],[-23,-105],[-38,-57],[-14,-59],[-15,-27],[-3,-74],[-26,-20],[-45,-98],[-37,-42],[3,-38],[-12,-86],[-24,-27],[-7,-59],[-29,-49],[-19,-164],[-25,-5],[-30,-105],[-4,-62],[-17,-66],[-20,-29],[-27,69],[-29,-4],[-27,21],[0,34],[-22,124],[-80,42],[-41,47],[-19,-27],[-14,-75],[-17,-8],[-24,40],[-78,63],[-31,-4],[-31,43],[-38,-15],[-31,-29],[-16,-76],[-33,-1],[-36,-27],[-17,-60],[-19,-9],[-27,-120],[-10,-11],[-18,-84],[-38,-39],[-25,-1],[-23,-78],[-28,-71],[-5,-43],[-30,7],[-49,-44],[-43,27],[-32,-4],[-10,-39],[-32,-31],[-16,8],[-6,-76],[-35,26],[-28,-28],[-32,20],[-34,-42],[-35,15],[-13,43],[-13,-26],[-23,15],[-8,-24],[-1,-152],[-15,-49],[2,-142],[-62,-126],[-38,4],[-29,-49],[-51,-52],[-15,-90],[-34,-76],[-34,-104],[-73,-120],[-23,-1],[-10,-51],[-34,-63],[9,-68],[-28,-89],[-33,-8],[-15,-18],[-19,8],[-22,-31],[-29,0],[-18,-15],[-23,38],[-24,-8],[-26,45],[-25,-19],[-12,37],[-3,69],[-21,86],[-2,61],[12,68],[-9,78],[-10,13],[-6,79],[-41,6],[-3,-19],[-36,-25],[-28,-99],[-36,-66],[-12,-44],[-24,-30],[-25,-1],[-24,-72],[8,-141],[16,-33],[-16,-51],[-18,-107],[-8,-126],[12,-58],[14,-8],[1,-69],[-19,-88],[3,-76],[32,-115],[-13,-101],[22,-75],[35,-21],[8,-49],[19,-60],[25,2],[53,-23],[27,-86],[25,-22],[30,-82],[-2,-25],[16,-75],[6,-117],[32,-64],[-1,-34],[-24,-111],[4,-92],[10,-35],[0,-54],[18,-16],[9,-35],[-2,-56],[-14,-40],[-3,-56],[-14,-42],[8,-85],[42,-137],[8,-63],[12,-4],[17,-55],[16,-88],[0,-157],[-3,-71],[34,-67],[22,-86],[2,-36],[22,-58],[-9,-70],[31,-17],[55,42],[32,-33],[59,-18],[62,35],[49,-82],[7,-57],[-10,-49],[14,-63],[14,-3],[21,-61],[18,-74],[31,23],[16,28],[22,-18],[21,30],[26,-41],[14,-86],[-28,-122],[15,-136],[-4,-17],[24,-76],[24,-34],[2,-52],[26,-41],[8,-35],[-40,-146],[-25,-16],[-52,-56],[-33,-63],[-8,-45],[-15,-12],[-13,-42],[-53,-65],[-9,-28],[-25,-19],[-10,-26],[32,-45],[12,-78],[1,-67],[-19,-58],[-13,-66],[-25,-32],[6,-45],[-3,-73],[-21,-27],[-19,-58],[-2,-97],[11,-60],[-5,-45],[4,-66],[-7,-34],[12,-52],[-19,-98],[12,-37],[29,-38],[-3,-61],[-20,-81],[-29,-43],[-4,-48],[7,-55],[26,-84],[0,-43],[-22,-95],[0,-98],[11,-58],[-16,-97],[12,-11],[5,-48],[-21,-49],[2,-87],[-8,-91],[-39,-40],[-16,-42],[-33,19],[-17,-93],[2,-33],[-35,-28],[10,-140],[-9,-76],[-18,-56],[12,-34],[26,-10],[30,-54],[25,-79],[16,22],[14,49],[22,11],[45,64],[12,-65],[-15,-59],[-15,-26],[17,-131],[-30,-28],[-32,-95],[11,-88],[-27,-58],[-27,-208],[-9,-9],[4,-72],[-7,-26],[-59,-41],[4,-45],[-13,-83],[-15,-33],[-5,-53],[-19,-95],[-50,-52],[-26,12],[-17,110],[14,83],[-28,97],[-12,4],[-14,-79],[-97,-176],[-21,-54],[-23,25],[-30,-11],[-17,-37],[-25,-92],[-8,-51],[-16,5],[-17,-36],[-29,-22],[-40,43],[-38,-52],[-58,-15],[-18,-32],[-46,-5],[-80,-72],[-40,-67],[-55,-26],[-6,56],[12,44],[-28,103],[-51,68],[-61,53],[-26,-4],[-13,31],[-24,-44],[-94,87],[-23,-40],[-60,-22],[-23,13],[-29,96],[-47,56],[-64,-8],[-41,-30],[-39,-77],[-23,-19],[-24,-158],[3,-76],[-9,-116],[0,-51],[-9,-22],[11,-103],[28,-61],[0,-73],[-18,-53],[-14,-71],[6,-46],[-10,-139],[-19,-66],[-22,-43],[-41,-49],[-16,36],[-50,11],[-38,44],[-13,90],[28,43],[-4,70],[-33,39],[-16,67],[-16,12],[-67,-65],[-46,-27],[-5,-33],[-30,-55],[-24,11],[-30,-23],[-45,-70],[-4,-41],[-53,72],[14,140],[13,34],[-6,90],[2,126],[-32,4],[-28,52],[-28,10],[-9,60],[-29,52],[12,84],[-19,8],[-32,68],[-24,3],[-31,28],[-23,81],[14,52],[-14,95],[-14,61],[1,37],[-28,116],[13,84],[-15,34],[-21,8],[-2,81],[-22,98],[-18,141],[17,58],[-6,48],[9,56],[-2,52],[-21,16],[-19,61],[-22,22],[-32,-33],[-27,-107],[-52,-48],[-18,95],[-15,9],[-24,-21],[2,-41],[-17,-25],[-16,-81],[-5,-83],[-33,-53],[-21,2],[2,-88],[-22,-7],[-30,15],[-9,24],[-18,-44],[-10,-93],[-18,-55],[-16,-23],[-28,-77],[-2,-80],[-16,-34],[-7,-52],[-46,37],[-28,10],[-16,-19],[-47,-123],[-32,-63],[-18,-13],[-20,-50],[-30,28],[-19,-20],[-60,-111],[-3,-105],[-13,-53],[-16,-16],[-20,74],[-28,30],[-13,38],[-33,-14],[-17,-29],[-26,-12],[-14,32],[-30,29],[-54,-37],[-14,-52],[-56,-32],[-53,-42],[-46,-115],[-8,-68],[-13,-4],[-30,-103],[-17,-21],[-15,33],[-20,-25],[-19,10],[-31,53],[-42,-72],[-114,-173],[-28,-7],[-6,-165],[-10,-47],[-15,-158],[-18,-13],[-15,-39],[-10,-73],[13,-85],[-27,-43],[-18,-80],[-74,-95],[-18,-136],[-40,-29],[-57,-179],[-29,-39],[-9,-68]],[[81256,27475],[83,1363],[106,1751],[60,-23],[51,849],[17,55],[3,56],[-11,36],[8,142],[-24,88],[18,628],[62,1028],[-6,3],[86,1423],[116,419],[101,83],[-2,28],[54,235],[34,241],[105,292],[83,390],[47,167],[36,104],[77,67],[7,-18],[271,-829],[297,149],[202,114],[2,-459],[-3,-379],[317,-152],[69,-62],[92,54],[191,46],[28,46],[257,-94],[55,-98],[242,262],[-40,180],[28,70],[1,132],[50,109],[27,315],[-59,168],[49,761],[-12,5],[-23,129],[-15,136],[-8,208],[4,188],[-4,265],[4,120],[16,305],[24,404],[43,683],[9,136],[170,-56],[39,39],[446,-147],[101,47],[163,-52],[-39,-327],[237,-86],[375,-123],[219,-73],[134,-47],[2,5],[9,481],[-1,19],[14,799],[10,401],[5,124],[42,-14],[21,401],[5,39],[41,646],[7,169],[58,931],[35,535],[0,12],[695,-1154],[250,-415],[50,807],[-25,9],[26,415],[30,449],[-83,31],[21,314],[12,147],[-13,38],[46,726],[74,-26],[12,182],[17,-6],[-27,289],[-9,85],[-17,30],[-3,53],[10,164],[152,-53],[-15,-244],[124,-43],[6,97],[240,-80],[8,134],[31,-24],[79,-26],[23,65],[16,19],[16,58],[196,-66],[11,169],[-27,9],[14,249],[59,-19],[17,259],[-19,7],[7,107],[36,596],[129,-46],[1,41],[34,566],[19,-5],[17,36],[25,21],[125,-44],[37,610],[78,-26],[15,156],[44,31],[25,-8],[47,48],[40,8],[60,66],[-25,128],[6,106],[71,316],[32,149],[-32,93],[3,26],[-14,323],[-26,43],[-18,6],[-29,126],[-26,1],[-24,69],[1,38],[-68,131],[10,143]],[[89171,50021],[35,-44],[64,25],[33,56],[22,19],[32,-136],[27,-32],[7,-42],[34,-45],[29,7],[66,-106],[20,-113],[25,-14],[20,-85],[23,-52],[42,3],[15,-36],[57,-95],[48,-35],[35,-45],[20,8],[41,65],[24,3],[35,-54],[36,4],[29,29],[48,-45],[61,4],[41,42],[22,2],[43,28],[27,33],[32,21],[54,66],[68,178],[75,-101],[28,63],[29,31],[26,-24],[63,85],[16,44],[23,118],[9,29],[74,148],[34,132],[40,86],[-3,59],[7,57],[363,404],[-4,37],[11,85],[42,122],[37,46],[5,163],[10,78],[-14,92],[14,44],[-4,64],[33,103],[-1,98],[38,115],[79,101],[25,97],[26,26],[18,54],[12,87],[1,108],[14,32],[10,58],[10,13],[30,101],[15,1],[293,-98],[28,-6],[10,166],[23,6],[16,256],[46,77],[15,16],[17,-27],[67,11],[9,157],[83,144],[67,-214],[13,25],[28,-22],[-3,-48],[101,-35],[7,114],[10,-18],[47,95],[17,-7],[23,24],[13,-16],[13,95],[45,62],[-12,-225],[102,-31],[0,-41],[11,-101],[2,-63],[-18,-107],[3,-112],[-33,-31],[34,-83],[4,-69],[22,-69],[29,-1],[23,-68],[3,-53],[-10,-126],[-19,-24],[-12,44],[-19,3],[-21,-21],[-3,-47],[-35,-130],[18,-46],[9,-74],[-9,-60],[-29,-71],[-32,-28],[-44,-93],[-51,33],[-11,-35],[0,-72],[-6,-14],[-44,11],[-16,-35],[4,-84],[10,-42],[24,-31],[31,53],[41,-29],[25,41],[26,-8],[10,-59],[15,-19],[171,-56],[-17,-39],[-17,-73],[-31,-73],[0,-45],[-15,-57],[-30,-59],[13,-81],[22,-35],[6,-46],[-8,-43],[8,-267],[-37,-70],[-5,-52],[-37,-48],[-10,-92],[-36,-20],[-17,-190],[57,-22],[30,-66],[26,-75],[32,-16],[24,6],[30,48],[25,24],[16,67],[11,-26],[64,68],[-4,41],[30,19],[7,52],[59,33],[23,28],[48,175],[29,4],[25,-12],[45,36],[12,42],[30,-6],[38,-41],[54,-89],[17,134]],[[67813,71328],[39,49],[35,2],[37,-34],[91,-54],[27,-35],[55,66],[53,5],[2,39],[222,-68],[511,-201],[202,-54],[439,-128],[212,912],[21,7],[6,39],[37,82],[60,-31],[29,39],[20,91],[43,96],[19,23],[2,66],[29,0],[33,42],[15,148],[81,166],[66,34],[131,281],[5,2],[23,-142],[12,-6],[675,-199],[-24,-419],[-5,-46],[-25,-458],[822,-241],[8,147],[67,1132],[5,6],[539,-183],[121,244],[71,94],[18,66],[63,88],[88,75],[366,429],[157,-726],[103,-502],[16,-26],[27,-7],[97,343],[-86,421],[-58,277],[39,154],[139,-128],[22,33],[30,132],[36,49],[46,-4],[13,-47],[19,-26],[53,-28],[33,25],[46,55],[8,67],[32,80],[1,46],[-51,17],[15,258],[29,-10],[96,-192],[77,12],[20,-13],[274,178],[32,189],[17,-9],[39,-55],[12,6],[3,65],[13,70],[16,31],[6,-62],[36,-2],[16,-18],[9,57],[72,-105],[36,-107],[55,-80],[17,-34],[38,-169],[23,2],[23,-19],[44,16],[62,-7],[33,-33],[21,-79],[23,-58],[16,-64],[30,-15],[23,7],[25,54],[24,14],[137,13],[81,-115],[114,-115],[24,-37],[46,-135],[46,786],[7,-21],[-3,-75],[29,-53],[39,4],[33,81],[32,7],[9,-43],[2,-112],[18,-36],[16,6],[23,53],[-1,90],[12,47],[24,419],[247,22],[44,133],[11,107],[35,157],[20,-63],[44,33],[88,-340],[117,-161],[103,-88],[5,-12],[54,52],[43,27],[27,-5],[24,11],[46,92],[43,31],[33,45],[40,140],[17,0],[-1,226],[-51,328],[85,-25],[67,-35],[124,-40],[55,8],[81,-55],[110,-40],[53,-128],[44,-17],[9,159],[71,-2],[129,-174],[48,-5],[23,389],[108,-34],[348,-223],[38,-547],[39,-63],[127,-16],[43,27],[39,37],[153,21],[-16,191],[17,55],[34,45],[21,120],[51,81],[29,38],[110,28],[69,327],[27,825],[40,73],[-104,879],[9,159],[-39,256],[68,223],[84,80],[46,771],[5,111],[-5,56],[-41,278],[33,108],[43,58],[142,-63],[159,-80],[16,-18],[97,-490],[69,-167],[112,-105],[38,-51],[21,-52],[113,80],[68,31],[60,-27],[69,49],[76,26],[126,-116],[21,-63],[28,-141],[69,-7],[105,-30],[353,-120],[12,-270],[27,-147],[42,-55],[-2,-68],[-31,-76],[-28,-100],[-2,-115],[-38,-27],[-44,-145],[-28,-230],[40,-197],[14,-35],[56,-63],[67,-82],[-5,-106],[1,-124],[-8,-39],[7,-281],[40,-13],[-26,-77],[9,-45],[-56,-211],[-80,-20],[-32,-100],[-19,-127],[0,-37],[107,-326],[-64,-52],[71,-229],[106,-150],[11,-144],[59,-74],[137,-438],[16,-14],[14,-130],[-24,-136],[-9,-35],[-14,-168],[-31,-112],[-19,-42],[-47,-56],[-12,-25],[-14,-139],[-1,-94],[13,-105],[34,-83],[10,-74],[-1,-192],[-8,-74],[-28,-117],[-10,-132],[-23,-102],[-66,-211],[5,-72],[-1,-72],[32,-177],[12,-133],[-15,-140],[25,-13],[50,-1],[75,-49],[64,-28],[31,-5],[77,-175],[27,-66],[43,-7],[50,92],[36,18],[76,-20],[98,-2],[53,10],[56,-19],[11,-114],[14,-24],[3,-72],[29,-6],[0,-77],[26,-76],[32,-227],[-13,-80],[27,-67],[34,-8],[24,-67],[-5,-83],[-31,-80],[-7,-54],[42,-243],[22,-81],[13,-128],[498,-164],[171,307],[285,510],[20,147],[-3,97],[17,14],[50,79],[54,-20],[32,-78],[21,-72],[48,-29],[4,33],[46,-22],[34,35],[61,22],[103,-85],[183,134],[-5,-81],[48,-83],[40,-352],[60,-224],[16,-43],[-8,-139],[43,-158],[11,-63],[4,-178],[12,-77],[46,-131],[139,-176],[64,-56],[53,0],[16,-24],[49,0],[16,-36],[25,46],[69,67],[7,-51],[34,-96],[13,-74],[33,-13],[9,-19],[28,-65],[21,-11],[29,-112],[15,-22],[25,-2],[31,-50],[10,-49],[36,8],[14,-29],[29,8],[7,-31],[26,2],[36,-134],[20,-2],[23,24],[26,63],[22,8],[32,111],[36,93],[8,-49],[17,-5],[26,34],[20,48],[58,-31],[15,-51],[1,-75],[22,-61],[20,-95],[23,-58],[0,-73],[-14,-114],[10,-56],[-21,-42],[6,-103],[19,-25],[10,-55],[11,-166],[-27,-110],[-32,-39],[-41,-74],[-26,39],[-39,-43],[-26,14],[-76,123],[-37,48],[-3,32],[-23,35],[-17,120],[-40,46],[-143,-199],[9,-229],[-58,20],[-138,-53],[-7,-94],[-20,-145],[-246,-295],[-177,-209],[-27,33],[-10,31],[-42,10],[29,-1416],[360,31],[57,2],[237,-75],[231,-69],[117,-40],[-19,-203],[-107,-1610],[-33,-489],[-16,-266],[-3,-6],[-318,-1821],[2,-8],[875,-284],[217,-74],[5,-42],[-17,-61],[-23,-52],[-2,-69],[39,-125],[-32,-141],[3,-45],[13,-14],[14,-71],[37,-157],[40,-49],[14,-29],[31,-16],[-4,-69],[9,-26],[38,-41],[18,-61],[39,33],[9,46],[21,20],[26,-83],[18,-29],[30,26],[9,-30],[3,-128],[-9,-66],[22,-125],[18,-4],[53,-117],[47,-24],[18,-21],[25,34],[22,-12],[42,81],[10,54],[13,-20],[24,6],[45,-33],[-6,-104],[0,-93],[7,-78],[60,-202],[19,-47],[36,-42],[29,-202],[22,-49],[24,-16],[-3,-42],[16,-45],[1,-55],[15,-43],[15,24],[21,-11],[39,102],[15,-27],[12,-83],[-1,-29],[22,-38],[15,15],[11,-68],[17,-47],[-7,-52],[31,-72],[46,-66],[60,-16],[23,-210],[49,-33],[30,-59],[17,-50],[44,-14],[21,-79],[-13,-66],[21,-28],[26,17],[29,38],[37,-82],[14,-70],[44,-45],[25,16],[15,-22],[-1,-56],[38,-86],[13,-61],[61,-190],[10,-89],[-17,-294],[-128,-226],[20,-17],[24,-88],[4,-51],[64,-85],[20,16],[26,-55],[32,-6],[20,-18],[9,-100],[-16,-112],[-19,-62],[4,-60],[19,-27],[5,-63],[-13,-82],[-20,-95],[41,-81],[-1,-88],[10,-123],[-2,-43],[11,-56],[4,-67],[23,-4],[9,-41],[16,-2],[27,-44],[15,-45],[24,-1],[15,-48],[36,-50],[48,-10],[34,-19],[52,-50],[24,10],[27,-17],[16,-29],[39,40],[39,-8],[18,74],[35,11],[21,49],[50,-46],[30,-69],[6,-66],[39,-16],[16,23],[41,-18],[17,-82],[35,-8],[35,33],[42,-22],[-17,-128],[-1,-67],[5,-98],[-15,-60],[7,-43],[1,-79],[31,-73],[4,-42],[-36,-92],[-7,-35],[21,-40],[16,-95],[26,-124],[36,-21],[22,-140],[42,-52],[30,16],[36,-93],[14,-82],[25,-41],[-2,-74],[10,-61],[35,-70],[18,-21],[15,-58],[8,-82],[24,-75],[9,-47],[46,-37],[-4,-87],[7,-34],[25,-42],[2,-142],[5,-58],[20,-86],[-3,-26],[31,-121],[37,22],[41,-50],[4,-63],[13,-25],[28,19],[27,-22],[27,4],[12,-64],[29,-59],[25,-11],[9,-31],[34,11],[41,-90],[1,-52],[18,5],[8,-36],[17,-11],[67,42],[74,-177],[29,-9],[21,-82],[24,-46]]],"transform":{"scale":[0.00011941739417394174,0.000045303253032530336],"translate":[140.99927,-29.17922]},"objects":{"qld_southern_ldmg_boundaries_gda2020_simp20":{"type":"GeometryCollection","geometries":[{"arcs":[[0,1,2,3,4]],"type":"Polygon","properties":{"LGA Code":"300","Abbreviated Name":"Balonne","LGA Name":"Balonne Shire","Area Sq Km":31074.95046,"LDMG Name":"Balonne","Police Region Name":"Southern Region","Police Region Code":"SR","Police Region Short Name":"Southern"}},{"arcs":[[5,6,7]],"type":"Polygon","properties":{"LGA Code":"1750","Abbreviated Name":"Bulloo","LGA Name":"Bulloo Shire","Area Sq Km":73234.89394,"LDMG Name":"Bulloo","Police Region Name":"Southern Region","Police Region Code":"SR","Police Region Short Name":"Southern"}},{"arcs":[[-2,8,9,10,11]],"type":"Polygon","properties":{"LGA Code":"3610","Abbreviated Name":"Goondiwindi","LGA Name":"Goondiwindi Regional","Area Sq Km":19280.68984,"LDMG Name":"Goondiwindi","Police Region Name":"Southern Region","Police Region Code":"SR","Police Region Short Name":"Southern"}},{"arcs":[[12,13,14]],"type":"Polygon","properties":{"LGA Code":"3960","Abbreviated Name":"Ipswich","LGA Name":"Ipswich City","Area Sq Km":1093.15869,"LDMG Name":"Ipswich","Police Region Name":"Southern Region","Police Region Code":"SR","Police Region Short Name":"Southern"}},{"arcs":[[-14,15,16,17,18]],"type":"Polygon","properties":{"LGA Code":"4580","Abbreviated Name":"Lockyer Valley","LGA Name":"Lockyer Valley Regional","Area Sq Km":2269.27913,"LDMG Name":"Lockyer Valley","Police Region Name":"Southern Region","Police Region Code":"SR","Police Region Short Name":"Southern"}},{"arcs":[[-5,19,20,21,22]],"type":"Polygon","properties":{"LGA Code":"4860","Abbreviated Name":"Maranoa","LGA Name":"Maranoa Regional","Area Sq Km":58712.43381,"LDMG Name":"Maranoa","Police Region Name":"Southern Region","Police Region Code":"SR","Police Region Short Name":"Southern"}},{"arcs":[[23,-21,24,25]],"type":"Polygon","properties":{"LGA Code":"5600","Abbreviated Name":"Murweh","LGA Name":"Murweh Shire","Area Sq Km":40698.93007,"LDMG Name":"Murweh","Police Region Name":"Southern Region","Police Region Code":"SR","Police Region Short Name":"Southern"}},{"arcs":[[-4,26,-7,27,-25,-20]],"type":"Polygon","properties":{"LGA Code":"5800","Abbreviated Name":"Paroo","LGA Name":"Paroo Shire","Area Sq Km":47628.47582,"LDMG Name":"Paroo","Police Region Name":"Southern Region","Police Region Code":"SR","Police Region Short Name":"Southern"}},{"arcs":[[28,-26,-28,-6]],"type":"Polygon","properties":{"LGA Code":"6150","Abbreviated Name":"Quilpie","LGA Name":"Quilpie Shire","Area Sq Km":67456.57279,"LDMG Name":"Quilpie","Police Region Name":"Southern Region","Police Region Code":"SR","Police Region Short Name":"Southern"}},{"arcs":[[-15,-19,29,30]],"type":"Polygon","properties":{"LGA Code":"6580","Abbreviated Name":"Somerset","LGA Name":"Somerset Regional","Area Sq Km":5373.65012,"LDMG Name":"Somerset","Police Region Name":"Southern Region","Police Region Code":"SR","Police Region Short Name":"Southern"}},{"arcs":[[-11,31,-17,32]],"type":"Polygon","properties":{"LGA Code":"6660","Abbreviated Name":"Southern Downs","LGA Name":"Southern Downs Regional","Area Sq Km":7088.86614,"LDMG Name":"Southern Downs","Police Region Name":"Southern Region","Police Region Code":"SR","Police Region Short Name":"Southern"}},{"arcs":[[-10,33,34,-30,-18,-32]],"type":"Polygon","properties":{"LGA Code":"6910","Abbreviated Name":"Toowoomba","LGA Name":"Toowoomba Regional","Area Sq Km":12976.35649,"LDMG Name":"Toowoomba","Police Region Name":"Southern Region","Police Region Code":"SR","Police Region Short Name":"Southern"}},{"arcs":[[-1,-23,35,-34,-9]],"type":"Polygon","properties":{"LGA Code":"7310","Abbreviated Name":"Western Downs","LGA Name":"Western Downs Regional","Area Sq Km":37943.32474,"LDMG Name":"Western Downs","Police Region Name":"Southern Region","Police Region Code":"SR","Police Region Short Name":"Southern"}}]}}}