{"type":"FeatureCollection","name":"qld_northern_ddmg_boundaries_gda2020_simp20","crs":{"type":"name","properties":{"name":"urn:ogc:def:crs:EPSG::7844"}},"features":[{"type":"Feature","geometry":{"type":"MultiPolygon","coordinates":[[[[141.48599,-15.49949],[141.48476,-15.49918],[141.47963,-15.5053],[141.47304,-15.52167],[141.4562,-15.58208],[141.44124,-15.64501],[141.43621,-15.66121],[141.43054,-15.69523],[141.42524,-15.71978],[141.41986,-15.79316],[141.41597,-15.83136],[141.41261,-15.85528],[141.40852,-15.8715],[141.40117,-15.88951],[141.39464,-15.9013],[141.39465,-15.90382],[141.39061,-15.91228],[141.38427,-15.91541],[141.37919,-15.91965],[141.37995,-15.92568],[141.38766,-15.94545],[141.39337,-15.96413],[141.39451,-15.96275],[141.39424,-15.96935],[141.41055,-16.02446],[141.41624,-16.03504],[141.41937,-16.04393],[141.43056,-16.06179],[141.43294,-16.07272],[141.43059,-16.08345],[141.42372,-16.09974],[141.4096,-16.12716],[141.40055,-16.14335],[141.39062,-16.15704],[141.35405,-16.21343],[141.3481,-16.22608],[141.34586,-16.23568],[141.34623,-16.23984],[141.34786,-16.24108],[141.34977,-16.24088],[141.34847,-16.24291],[141.3425,-16.27555],[141.33682,-16.28926],[141.33655,-16.29315],[141.32658,-16.3242],[141.32674,-16.32779],[141.32112,-16.34563],[141.31837,-16.35237],[141.30089,-16.38314],[141.29951,-16.39345],[141.29129,-16.39916],[141.2882,-16.40818],[141.28798,-16.42163],[141.29105,-16.42746],[141.30004,-16.43725],[141.30567,-16.44916],[141.30685,-16.45452],[141.30775,-16.46509],[141.30703,-16.47355],[141.30441,-16.48427],[141.29305,-16.5046],[141.27457,-16.54333],[141.27427,-16.55277],[141.26993,-16.56029],[141.26848,-16.56037],[141.26761,-16.55918],[141.26786,-16.55524],[141.26587,-16.55341],[141.2599,-16.55274],[141.25356,-16.55522],[141.24721,-16.5647],[141.24386,-16.57242],[141.24386,-16.57529],[141.23847,-16.58037],[141.23577,-16.58688],[141.23457,-16.59808],[141.22704,-16.62517],[141.22329,-16.65213],[141.21795,-16.66671],[141.20421,-16.69209],[141.20033,-16.69542],[141.1811,-16.72454],[141.17338,-16.73386],[141.15394,-16.75554],[141.1372,-16.77217],[141.11068,-16.79395],[141.09645,-16.80013],[141.09297,-16.79964],[141.09343,-16.79685],[141.09127,-16.79578],[141.09008,-16.79887],[141.09058,-16.80282],[141.09722,-16.80253],[141.0967,-16.80782],[141.09134,-16.80878],[141.08479,-16.80593],[141.08231,-16.80703],[141.07798,-16.81965],[141.0767,-16.84179],[141.07373,-16.85133],[141.06842,-16.86305],[141.05269,-16.88821],[141.04244,-16.90292],[141.01988,-16.93039],[141.00087,-16.94982],[140.98418,-16.96315],[140.97415,-16.9731],[140.96432,-16.99123],[140.95888,-16.99849],[140.95104,-17.01979],[140.94652,-17.0393],[140.94677,-17.04613],[140.94796,-17.04851],[140.94957,-17.04854],[140.95148,-17.05067],[140.95113,-17.05732],[140.9433,-17.06223],[140.94278,-17.06017],[140.94121,-17.05944],[140.93851,-17.05839],[140.9351,-17.05862],[140.92994,-17.06401],[140.93216,-17.0644],[140.93619,-17.06079],[140.94272,-17.0626],[140.95113,-17.05733],[140.95004,-17.06284],[140.9537,-17.07447],[140.95497,-17.08279],[140.95462,-17.08844],[140.95596,-17.09042],[140.95299,-17.09736],[140.95283,-17.09997],[140.95538,-17.10065],[140.95531,-17.10487],[140.94892,-17.14477],[140.95022,-17.15182],[140.94824,-17.15563],[140.94718,-17.15556],[140.93938,-17.1745],[140.93945,-17.18659],[140.93165,-17.1902],[140.92423,-17.20122],[140.92316,-17.20435],[140.92359,-17.20769],[140.92555,-17.20997],[140.92356,-17.21521],[140.91378,-17.23226],[140.9115,-17.24414],[140.91199,-17.24867],[140.91038,-17.25046],[140.90963,-17.25547],[140.91062,-17.26047],[140.90855,-17.27402],[140.90713,-17.27527],[140.90774,-17.27803],[140.90511,-17.27981],[140.90468,-17.28635],[140.90673,-17.28676],[140.90695,-17.28867],[140.90503,-17.29139],[140.90478,-17.29764],[140.90279,-17.2973],[140.90166,-17.30159],[140.9001,-17.30152],[140.89952,-17.32357],[140.89369,-17.34305],[140.89348,-17.34945],[140.88946,-17.36019],[140.88833,-17.3653],[140.8891,-17.36612],[140.88413,-17.37485],[140.88363,-17.3818],[140.87488,-17.39266],[140.87268,-17.39374],[140.86942,-17.39776],[140.85163,-17.42314],[140.8462,-17.43694],[140.83454,-17.44817],[140.82735,-17.45802],[140.81422,-17.46458],[140.80943,-17.46493],[140.79018,-17.47292],[140.77008,-17.47804],[140.76811,-17.47999],[140.77008,-17.48195],[140.75943,-17.48769],[140.74418,-17.50177],[140.73873,-17.5155],[140.73724,-17.51458],[140.73328,-17.51616],[140.73108,-17.51573],[140.72922,-17.51337],[140.72354,-17.51366],[140.71331,-17.50924],[140.71086,-17.50964],[140.70391,-17.51682],[140.69261,-17.51975],[140.68501,-17.52526],[140.67986,-17.52722],[140.67758,-17.53193],[140.66436,-17.54249],[140.65615,-17.5526],[140.64112,-17.56603],[140.61897,-17.58107],[140.60825,-17.5871],[140.60322,-17.59112],[140.59807,-17.59243],[140.58969,-17.5984],[140.58352,-17.59834],[140.57227,-17.60218],[140.56604,-17.6027],[140.55975,-17.60573],[140.54466,-17.61916],[140.52549,-17.63006],[140.48746,-17.64242],[140.47925,-17.64379],[140.46104,-17.64579],[140.45788,-17.6452],[140.45668,-17.64279],[140.45417,-17.64152],[140.45178,-17.64215],[140.44626,-17.64605],[140.43446,-17.64982],[140.42643,-17.65705],[140.38843,-17.67508],[140.36645,-17.68004],[140.35065,-17.68547],[140.32981,-17.68794],[140.31113,-17.68884],[140.28584,-17.69388],[140.28343,-17.69566],[140.27748,-17.69508],[140.26846,-17.69619],[140.26277,-17.6985],[140.25788,-17.69719],[140.2489,-17.69815],[140.22882,-17.70288],[140.21667,-17.70775],[140.21006,-17.70353],[140.20458,-17.70307],[140.18924,-17.70592],[140.18313,-17.70819],[140.17373,-17.70865],[140.16178,-17.71164],[140.15966,-17.71373],[140.15496,-17.712],[140.14212,-17.71412],[140.12375,-17.71894],[140.08993,-17.72319],[140.03046,-17.72134],[140.0068,-17.71625],[139.99261,-17.71187],[139.97283,-17.69975],[139.96378,-17.6925],[139.95765,-17.68706],[139.94468,-17.67237],[139.93814,-17.65902],[139.93764,-17.65389],[139.93855,-17.64799],[139.93496,-17.64563],[139.94434,-17.64089],[139.94528,-17.63928],[139.93912,-17.63228],[139.92085,-17.62253],[139.88172,-17.61105],[139.84754,-17.5962],[139.84367,-17.59584],[139.84194,-17.60059],[139.84173,-17.60156],[139.84383,-17.60171],[139.84536,-17.60517],[139.83375,-17.6054],[139.83317,-17.60158],[139.8341,-17.59669],[139.83924,-17.59219],[139.83965,-17.58957],[139.83456,-17.5836],[139.83248,-17.58405],[139.82804,-17.57806],[139.82639,-17.57352],[139.82043,-17.56944],[139.81055,-17.5732],[139.80872,-17.57591],[139.80741,-17.57361],[139.80362,-17.57194],[139.80144,-17.57243],[139.79596,-17.57907],[139.79161,-17.57978],[139.78507,-17.57508],[139.77495,-17.57388],[139.75855,-17.57624],[139.75622,-17.57808],[139.75213,-17.57743],[139.75404,-17.57137],[139.75218,-17.56714],[139.75023,-17.567],[139.74776,-17.56963],[139.74565,-17.5684],[139.74283,-17.57055],[139.74181,-17.56753],[139.73828,-17.56402],[139.7346,-17.5627],[139.731,-17.55736],[139.72865,-17.55718],[139.72449,-17.55383],[139.72293,-17.55621],[139.72124,-17.5575],[139.72336,-17.55519],[139.71829,-17.55284],[139.71565,-17.55354],[139.71399,-17.55548],[139.7146,-17.55739],[139.7102,-17.55525],[139.70958,-17.55899],[139.70584,-17.55889],[139.70782,-17.55515],[139.70836,-17.55173],[139.70735,-17.55051],[139.70344,-17.55007],[139.70198,-17.55202],[139.70123,-17.55014],[139.69783,-17.55069],[139.69614,-17.54937],[139.67808,-17.54559],[139.6712,-17.54578],[139.6546,-17.54038],[139.64623,-17.53959],[139.6385,-17.53381],[139.63357,-17.52858],[139.61817,-17.52213],[139.61477,-17.51951],[139.61125,-17.51575],[139.60846,-17.51041],[139.60693,-17.51034],[139.60645,-17.51187],[139.60321,-17.51128],[139.60364,-17.50734],[139.59876,-17.50314],[139.59576,-17.49747],[139.59293,-17.48828],[139.58828,-17.48327],[139.58028,-17.47948],[139.57497,-17.48069],[139.57172,-17.47741],[139.56604,-17.47808],[139.56342,-17.47462],[139.55292,-17.47199],[139.54453,-17.46759],[139.54152,-17.46722],[139.54009,-17.46467],[139.54421,-17.46285],[139.55128,-17.4626],[139.55191,-17.46151],[139.5397,-17.448],[139.53168,-17.44057],[139.51046,-17.43044],[139.50719,-17.42995],[139.50624,-17.42777],[139.49567,-17.41702],[139.47418,-17.40244],[139.46362,-17.39822],[139.4495,-17.39507],[139.44169,-17.38886],[139.41295,-17.37424],[139.38794,-17.37348],[139.3687,-17.37551],[139.34185,-17.37515],[139.3406,-17.37549],[139.33933,-17.37787],[139.33768,-17.37412],[139.3246,-17.3681],[139.30996,-17.36389],[139.30481,-17.36631],[139.30572,-17.36301],[139.30324,-17.36087],[139.29208,-17.35458],[139.28476,-17.3529],[139.28127,-17.34864],[139.23734,-17.32266],[139.22086,-17.307],[139.21918,-17.30388],[139.21661,-17.30404],[139.20876,-17.2901],[139.20387,-17.28503],[139.20144,-17.27187],[139.19912,-17.26582],[139.18791,-17.24619],[139.18254,-17.23209],[139.17666,-17.22172],[139.173,-17.2174],[139.17378,-17.21549],[139.16914,-17.20413],[139.16706,-17.20301],[139.16636,-17.19671],[139.15993,-17.18415],[139.1597,-17.17922],[139.15581,-17.17077],[139.15095,-17.13389],[139.14859,-17.12808],[139.14557,-17.12834],[139.14816,-17.12631],[139.14863,-17.12413],[139.147,-17.11755],[139.14605,-17.11704],[139.14538,-17.1111],[139.14362,-17.11102],[139.14416,-17.10763],[139.13959,-17.08789],[139.14014,-17.0766],[139.1436,-17.06046],[139.14617,-17.05265],[139.15244,-17.04218],[139.15622,-17.03006],[139.14963,-17.02596],[139.11531,-17.01681],[139.09763,-17.00741],[139.09213,-17.00687],[139.09067,-17.00555],[139.0902,-17.0036],[139.08272,-16.99602],[139.07663,-16.98701],[139.0737,-16.98068],[139.0768,-16.97924],[139.0728,-16.97725],[139.06955,-16.97282],[139.06198,-16.96848],[139.05931,-16.9654],[139.04729,-16.95809],[139.0386,-16.94791],[139.03417,-16.93772],[139.03337,-16.9305],[139.03116,-16.92851],[139.03504,-16.92189],[139.03852,-16.91945],[139.03938,-16.915],[139.03782,-16.9133],[139.02749,-16.9101],[139.00912,-16.89854],[139.00486,-16.89709],[139.0017,-16.89672],[138.99966,-16.90188],[138.99276,-16.89511],[138.9836,-16.89271],[138.98169,-16.8901],[138.9779,-16.89158],[138.97564,-16.88945],[138.94274,-16.88689],[138.92922,-16.88392],[138.90973,-16.87769],[138.89399,-16.87901],[138.88185,-16.87815],[138.84705,-16.86999],[138.83828,-16.86634],[138.83299,-16.86168],[138.8292,-16.86052],[138.82868,-16.85797],[138.82267,-16.85356],[138.78675,-16.84469],[138.77387,-16.8402],[138.76007,-16.83353],[138.75765,-16.83313],[138.75714,-16.83424],[138.75276,-16.82767],[138.751,-16.82669],[138.73648,-16.82096],[138.7312,-16.82043],[138.73062,-16.81873],[138.72799,-16.81689],[138.70029,-16.80847],[138.68125,-16.80094],[138.67014,-16.79529],[138.66431,-16.79104],[138.6531,-16.7775],[138.6484,-16.77526],[138.63384,-16.77212],[138.63108,-16.7694],[138.6291,-16.76914],[138.62623,-16.77134],[138.61909,-16.77219],[138.61632,-16.77373],[138.60933,-16.77402],[138.60754,-16.77507],[138.60079,-16.77476],[138.58369,-16.77809],[138.58078,-16.77963],[138.57415,-16.77793],[138.54038,-16.78027],[138.53907,-16.78086],[138.53719,-16.78459],[138.53071,-16.78252],[138.51048,-16.78204],[138.49108,-16.77986],[138.48654,-16.78083],[138.48563,-16.78411],[138.48119,-16.7848],[138.46642,-16.77905],[138.45892,-16.77816],[138.4536,-16.77291],[138.45021,-16.77228],[138.43608,-16.7727],[138.43057,-16.77464],[138.42516,-16.77466],[138.41313,-16.76829],[138.40135,-16.75912],[138.39603,-16.75619],[138.36333,-16.74167],[138.34887,-16.74081],[138.34611,-16.74157],[138.34294,-16.74107],[138.33875,-16.73804],[138.33693,-16.74045],[138.33345,-16.74011],[138.33279,-16.73754],[138.33009,-16.73713],[138.32885,-16.73845],[138.33052,-16.74062],[138.32994,-16.74472],[138.3242,-16.74688],[138.31796,-16.74734],[138.31448,-16.74377],[138.29708,-16.73867],[138.29051,-16.73532],[138.27143,-16.72001],[138.23936,-16.71257],[138.21479,-16.70523],[138.188,-16.69417],[138.16978,-16.684],[138.1621,-16.67839],[138.16071,-16.6779],[138.15796,-16.68119],[138.1561,-16.67997],[138.15552,-16.67534],[138.157,-16.67365],[138.15638,-16.67198],[138.15286,-16.66938],[138.13847,-16.66269],[138.12129,-16.65155],[138.1192,-16.65053],[138.11557,-16.65183],[138.11462,-16.65078],[138.11497,-16.64845],[138.11312,-16.64614],[138.08561,-16.62031],[138.08114,-16.62045],[138.08003,-16.61877],[138.08126,-16.61563],[138.07899,-16.61289],[138.06253,-16.60082],[138.06064,-16.60126],[138.05047,-16.58325],[138.04406,-16.57615],[138.03904,-16.57302],[138.0293,-16.56955],[138.02835,-16.5684],[138.02899,-16.56519],[138.02517,-16.5615],[138.01724,-16.5551],[138.00417,-16.54754],[137.99465,-16.53869],[137.99881,-23.97585],[137.99905,-25.99686],[140.90956,-25.9964],[140.9377,-25.71601],[140.92091,-25.71461],[140.92275,-25.68049],[140.89691,-25.67889],[140.91147,-25.52465],[140.88104,-25.46756],[140.87546,-25.47046],[140.87474,-25.4732],[140.86749,-25.47601],[140.86296,-25.48165],[140.84456,-25.48814],[140.8376,-25.49382],[140.83718,-25.4948],[140.83887,-25.49819],[140.82781,-25.52187],[140.82534,-25.52495],[140.77496,-25.47428],[140.67788,-25.46662],[140.70118,-25.20999],[140.71479,-25.21377],[140.85705,-25.22611],[140.87896,-24.9926],[140.80236,-24.9862],[140.81099,-24.84074],[140.87215,-24.84505],[140.88313,-24.69825],[140.83673,-24.6946],[140.83871,-24.6689],[140.96164,-24.67353],[141.08449,-24.67418],[141.24248,-24.686],[141.23889,-24.72515],[141.36107,-24.62911],[141.37551,-24.48295],[141.43008,-24.48352],[141.518,-24.57764],[141.5233,-24.57928],[141.52307,-24.58364],[141.73105,-24.63672],[141.73447,-24.63355],[141.74608,-24.63102],[141.75623,-24.63273],[141.76006,-24.63205],[141.76307,-24.63321],[141.77004,-24.62957],[141.77332,-24.62506],[141.77659,-24.62381],[141.78129,-24.624],[141.79033,-24.6218],[141.79427,-24.62302],[141.79692,-24.62097],[141.81336,-24.61846],[141.82254,-24.61219],[141.82947,-24.60373],[141.83292,-24.60265],[141.8367,-24.59899],[141.83958,-24.59837],[141.84299,-24.59432],[141.85643,-24.58697],[141.85819,-24.58531],[141.86236,-24.57679],[141.86783,-24.57308],[141.87148,-24.56833],[141.87313,-24.56404],[141.87866,-24.55999],[141.90136,-24.55605],[141.9074,-24.5512],[141.90828,-24.54937],[141.92403,-24.54168],[141.92793,-24.53819],[141.9305,-24.53751],[141.93626,-24.53845],[141.94836,-24.53636],[141.95595,-24.53415],[141.96261,-24.53022],[141.96474,-24.5281],[141.96708,-24.52283],[141.9705,-24.51995],[141.86355,-24.40314],[141.93001,-24.35265],[141.92211,-24.34327],[141.96473,-24.31085],[141.8058,-24.1548],[141.91925,-24.05737],[142.02381,-24.16766],[142.0527,-24.1334],[142.10045,-24.0952],[142.14502,-23.70082],[141.98921,-23.69238],[141.98785,-23.70632],[141.82876,-23.69179],[141.68035,-23.6909],[141.6794,-23.70551],[141.531,-23.68945],[141.45581,-23.60482],[141.38816,-23.53338],[141.3926,-23.52995],[141.38414,-23.5264],[141.37703,-23.52758],[141.30598,-23.45146],[141.3003,-23.44734],[141.29674,-23.44157],[141.26129,-23.4043],[141.24137,-23.38543],[141.15508,-23.29083],[141.04715,-23.37501],[141.03377,-23.38415],[141.03141,-23.38378],[141.00193,-23.3529],[140.9998,-23.35197],[140.99917,-23.35005],[140.82937,-23.17019],[140.82219,-23.16155],[140.947,-23.06777],[140.92457,-23.04444],[140.97916,-22.99981],[141.04636,-22.94765],[141.02273,-22.92334],[140.988,-22.91223],[140.98856,-22.90771],[140.9912,-22.90652],[140.98925,-22.90449],[140.98985,-22.89998],[140.98558,-22.89774],[140.98506,-22.89627],[140.98612,-22.89434],[140.98767,-22.89412],[140.9878,-22.89648],[140.99844,-22.89761],[140.99907,-22.89841],[141.12226,-22.80449],[141.11446,-22.77451],[141.12037,-22.75224],[141.12286,-22.7492],[141.11725,-22.70269],[141.10278,-22.69007],[141.09492,-22.64193],[141.09192,-22.63725],[141.08964,-22.62817],[141.09085,-22.61823],[141.13389,-22.62126],[141.14563,-22.63336],[141.19892,-22.59756],[141.07972,-22.46565],[141.24573,-22.33539],[141.25369,-22.32158],[141.22851,-22.29793],[141.1827,-22.24942],[141.19863,-22.05517],[141.29434,-22.06189],[141.29371,-22.05401],[141.29022,-22.04508],[141.29123,-22.04234],[141.29138,-22.0324],[141.29274,-22.03092],[141.2886,-22.0263],[141.29084,-22.0239],[141.2842,-22.00998],[141.28454,-21.98884],[141.28838,-21.98391],[141.29025,-21.97802],[141.30967,-21.93967],[141.48325,-21.94717],[141.50805,-21.75206],[141.58256,-21.75813],[141.57919,-21.79429],[141.73892,-21.8072],[141.74038,-21.79137],[142.04826,-21.8158],[142.06613,-21.69767],[142.06915,-21.61039],[142.06451,-21.60838],[142.06473,-21.60429],[142.06935,-21.60472],[142.07202,-21.54073],[142.07366,-21.52335],[142.03825,-21.52008],[142.08027,-21.48833],[142.09165,-21.3826],[142.064,-21.37989],[142.13765,-21.32349],[142.04725,-21.22429],[142.05765,-21.21654],[142.15766,-21.23475],[142.24985,-21.23619],[142.25528,-21.16974],[142.22241,-21.16738],[142.23774,-21.01415],[142.19906,-21.0108],[142.20307,-20.98754],[142.29189,-20.99491],[142.30189,-20.88424],[142.32092,-20.88618],[142.33099,-20.79408],[142.35487,-20.79643],[142.36337,-20.71988],[142.30988,-20.7147],[142.33464,-20.66516],[142.33906,-20.66557],[142.3449,-20.60066],[142.34105,-20.60033],[142.34446,-20.57118],[142.34723,-20.57154],[142.36177,-20.56893],[142.37375,-20.43973],[142.37069,-20.43948],[142.38064,-20.33403],[142.33581,-20.33033],[142.37936,-19.86172],[142.34927,-19.8592],[142.37514,-19.59988],[142.60223,-19.62006],[142.60224,-19.62006],[142.60955,-19.54777],[142.59212,-19.54661],[142.60477,-19.40322],[142.39668,-19.38842],[142.3953,-19.40228],[142.37437,-19.4004],[142.40069,-19.12654],[142.35383,-19.1226],[142.35227,-19.14748],[142.23643,-19.13604],[142.23507,-19.14953],[142.15942,-19.14202],[142.17658,-18.97215],[142.12913,-18.96955],[142.12672,-18.9934],[141.94147,-18.97846],[141.93114,-19.08966],[141.77106,-19.0782],[141.76215,-19.19181],[141.75874,-19.1927],[141.757,-19.19163],[141.75321,-19.19317],[141.74622,-19.19269],[141.73912,-19.18512],[141.73452,-19.184],[141.729,-19.17905],[141.71551,-19.17908],[141.71113,-19.17634],[141.70899,-19.17274],[141.70415,-19.17073],[141.69795,-19.16237],[141.69734,-19.16003],[141.69411,-19.15915],[141.6916,-19.15644],[141.68607,-19.15725],[141.6787,-19.15548],[141.66899,-19.15909],[141.66443,-19.15841],[141.66176,-19.1597],[141.65825,-19.15716],[141.64613,-19.15772],[141.63961,-19.15469],[141.63585,-19.15568],[141.63308,-19.15473],[141.63119,-19.15183],[141.62901,-19.15188],[141.62698,-19.15016],[141.62372,-19.15054],[141.62368,-19.1487],[141.62121,-19.14826],[141.62107,-19.14558],[141.61802,-19.14374],[141.61705,-19.14478],[141.61533,-19.14274],[141.61683,-19.14042],[141.61674,-19.13846],[141.61276,-19.13778],[141.61129,-19.1352],[141.61282,-19.13222],[141.61139,-19.12852],[141.61328,-19.12597],[141.6132,-19.1242],[141.60933,-19.12001],[141.6089,-19.11341],[141.62013,-19.11458],[141.6362,-18.96712],[141.66814,-18.96969],[141.69195,-18.71361],[141.62238,-18.7076],[141.36401,-18.68142],[141.36995,-18.62546],[141.31496,-18.62045],[141.30566,-18.61513],[141.30369,-18.6126],[141.2987,-18.61142],[141.30098,-18.60736],[141.30273,-18.60659],[141.30163,-18.60222],[141.30216,-18.59517],[141.30012,-18.59316],[141.29949,-18.58798],[141.29611,-18.58733],[141.29457,-18.58521],[141.29212,-18.57789],[141.29357,-18.57522],[141.29324,-18.57028],[141.29119,-18.5697],[141.29079,-18.56859],[141.2917,-18.56659],[141.29348,-18.56594],[141.29669,-18.56594],[141.2968,-18.56764],[141.29811,-18.56778],[141.30029,-18.56333],[141.29872,-18.56035],[141.29867,-18.55649],[141.2974,-18.55587],[141.29586,-18.55229],[141.29382,-18.55139],[141.29225,-18.54858],[141.2881,-18.54644],[141.28823,-18.54123],[141.28552,-18.53002],[141.2862,-18.5229],[141.28365,-18.51873],[141.2863,-18.51689],[141.28513,-18.51217],[141.28636,-18.50949],[141.28487,-18.50859],[141.28475,-18.5054],[141.28788,-18.50283],[141.29024,-18.5024],[141.29042,-18.50022],[141.29774,-18.49961],[141.29901,-18.49649],[141.29933,-18.49295],[141.29583,-18.4899],[141.29294,-18.48508],[141.29446,-18.484],[141.29285,-18.47996],[141.29863,-18.47553],[141.29677,-18.47044],[141.29382,-18.46761],[141.29649,-18.46343],[141.29491,-18.46169],[141.29498,-18.45976],[141.30101,-18.45575],[141.30078,-18.4503],[141.30479,-18.4478],[141.30132,-18.43749],[141.30261,-18.42955],[141.30204,-18.42765],[141.30074,-18.42647],[141.29236,-18.42514],[141.28935,-18.42152],[141.28323,-18.41753],[141.28103,-18.41754],[141.28063,-18.41603],[141.2839,-18.40808],[141.28254,-18.40516],[141.28383,-18.39825],[141.2815,-18.39123],[141.27481,-18.38875],[141.2726,-18.38681],[141.26744,-18.37785],[141.26613,-18.36878],[141.26176,-18.36528],[141.25447,-18.36404],[141.25225,-18.36178],[141.25299,-18.3601],[141.24992,-18.35368],[141.24975,-18.35049],[141.24193,-18.3464],[141.24005,-18.34358],[141.23787,-18.33594],[141.235,-18.33466],[141.23171,-18.33532],[141.22973,-18.3319],[141.22644,-18.33109],[141.22574,-18.32922],[141.22318,-18.32971],[141.2233,-18.32465],[141.22022,-18.32238],[141.22197,-18.31961],[141.22065,-18.31656],[141.21745,-18.31447],[141.22014,-18.30851],[141.21804,-18.30225],[141.22094,-18.3009],[141.21836,-18.29719],[141.21986,-18.29428],[141.21225,-18.28797],[141.21303,-18.28497],[141.21077,-18.28237],[141.21314,-18.27867],[141.21066,-18.27413],[141.21135,-18.27033],[141.21056,-18.26446],[141.20938,-18.2628],[141.20573,-18.2616],[141.20421,-18.25489],[141.20085,-18.25264],[141.19371,-18.25366],[141.19013,-18.24786],[141.18872,-18.24285],[141.19062,-18.23852],[141.19032,-18.23357],[141.18659,-18.22999],[141.18585,-18.22653],[141.18697,-18.22499],[141.18476,-18.22291],[141.18463,-18.2203],[141.18123,-18.21686],[141.18125,-18.21326],[141.17519,-18.20902],[141.17003,-18.20715],[141.16793,-18.20371],[141.16267,-18.20464],[141.15744,-18.19603],[141.14732,-18.19294],[141.14504,-18.19401],[141.14451,-18.19558],[141.13877,-18.19137],[141.13702,-18.18888],[141.13788,-18.17974],[141.14411,-18.16627],[141.14224,-18.16089],[141.14314,-18.15715],[141.13939,-18.14955],[141.13886,-18.14497],[141.13486,-18.13773],[141.13452,-18.13434],[141.13596,-18.13247],[141.1341,-18.12918],[141.13406,-18.12527],[141.13633,-18.12233],[141.13798,-18.11744],[141.14061,-18.11469],[141.14046,-18.11267],[141.14684,-18.11042],[141.19206,-18.11331],[141.19987,-18.01543],[141.28378,-18.02323],[141.28171,-18.04674],[141.39519,-18.05711],[141.40022,-18.00399],[141.39506,-18.00405],[141.39195,-18.00611],[141.38829,-18.0066],[141.39314,-17.93477],[141.46607,-17.93898],[141.46824,-17.91042],[141.30441,-17.89896],[141.31686,-17.7367],[141.32829,-17.73323],[141.33002,-17.73356],[141.33245,-17.73813],[141.3388,-17.74448],[141.3509,-17.74325],[141.35915,-17.74492],[141.35933,-17.75444],[141.36207,-17.75553],[141.37443,-17.7521],[141.37832,-17.75276],[141.38293,-17.75138],[141.388,-17.75184],[141.39341,-17.75323],[141.39858,-17.75687],[141.40088,-17.76091],[141.4041,-17.76334],[141.41335,-17.76163],[141.43296,-17.74933],[141.43825,-17.67981],[141.37818,-17.67662],[141.38216,-17.60803],[141.40658,-17.60994],[141.42226,-17.44381],[141.57272,-17.45842],[141.57639,-17.42038],[141.72874,-17.43295],[141.72563,-17.46952],[141.83673,-17.48249],[141.78533,-17.4224],[141.89772,-17.33075],[142.01225,-17.4712],[142.05777,-17.43427],[142.17835,-17.56624],[142.26773,-17.49178],[142.26785,-17.48728],[142.26298,-17.48059],[142.25899,-17.47126],[142.25245,-17.46577],[142.25139,-17.46284],[142.24468,-17.45788],[142.23857,-17.45741],[142.22956,-17.45168],[142.22544,-17.4456],[142.21721,-17.44184],[142.20596,-17.44235],[142.19333,-17.44049],[142.1843,-17.4379],[142.17501,-17.43242],[142.34059,-17.28623],[142.40159,-17.35527],[142.54068,-17.17553],[142.53509,-17.17683],[142.52194,-17.17526],[142.51961,-17.17167],[142.51297,-17.17046],[142.5083,-17.16216],[142.50526,-17.16051],[142.5022,-17.15631],[142.4992,-17.15466],[142.49521,-17.15],[142.48923,-17.14756],[142.48696,-17.1458],[142.4859,-17.14231],[142.47778,-17.13901],[142.46845,-17.1307],[142.46673,-17.12619],[142.46373,-17.12476],[142.46166,-17.12231],[142.46231,-17.11824],[142.45883,-17.11609],[142.45592,-17.10833],[142.45134,-17.10586],[142.44516,-17.10504],[142.44016,-17.10125],[142.4359,-17.10085],[142.43386,-17.09823],[142.42873,-17.09603],[142.42751,-17.09234],[142.42142,-17.08744],[142.50803,-16.97216],[142.54669,-16.55812],[142.59614,-16.19067],[142.63722,-16.13242],[142.69898,-16.17321],[142.74222,-16.11202],[142.74231,-16.10953],[142.71993,-16.08656],[142.71095,-16.07937],[142.70607,-16.07404],[142.69862,-16.07043],[142.6801,-16.06948],[142.66494,-16.06287],[142.65833,-16.05902],[142.6488,-16.05014],[142.6412,-16.03797],[142.63651,-16.02795],[142.63093,-16.02061],[142.6257,-16.01756],[142.62197,-16.01693],[142.63054,-15.95454],[142.69583,-15.89654],[142.70633,-15.74768],[142.77007,-15.75245],[142.77982,-15.61315],[142.89042,-15.61962],[142.9031,-15.4747],[142.9596,-15.47934],[142.97234,-15.33308],[142.66736,-15.31142],[142.65005,-15.4605],[142.24007,-15.42314],[142.09312,-15.19026],[142.02453,-15.37881],[142.01894,-15.37952],[142.01227,-15.37301],[141.99578,-15.36476],[141.98411,-15.36246],[141.97571,-15.35777],[141.96699,-15.35581],[141.96706,-15.35899],[141.95645,-15.38018],[141.94396,-15.38615],[141.94029,-15.39066],[141.94022,-15.39765],[141.94409,-15.40413],[141.9535,-15.40736],[141.95554,-15.40991],[141.9578,-15.41747],[141.96502,-15.41911],[141.96904,-15.42197],[141.97293,-15.42883],[141.982,-15.43719],[141.98385,-15.44223],[141.99174,-15.44762],[141.99533,-15.45349],[141.97257,-15.56914],[141.64917,-15.54203],[141.647,-15.54079],[141.64489,-15.54171],[141.63348,-15.54166],[141.62744,-15.544],[141.62617,-15.54046],[141.62341,-15.53851],[141.62075,-15.53862],[141.61732,-15.53645],[141.61416,-15.53757],[141.61102,-15.53569],[141.60982,-15.53344],[141.60697,-15.53562],[141.60422,-15.53542],[141.59883,-15.52923],[141.59764,-15.52448],[141.59585,-15.52484],[141.59291,-15.52074],[141.5896,-15.52236],[141.58842,-15.52098],[141.58756,-15.52178],[141.58448,-15.52071],[141.58367,-15.51874],[141.58161,-15.51928],[141.57907,-15.52251],[141.58029,-15.52365],[141.57936,-15.52609],[141.57419,-15.52607],[141.57428,-15.52255],[141.57673,-15.52219],[141.57303,-15.51963],[141.57182,-15.52036],[141.56924,-15.5254],[141.57119,-15.52844],[141.56924,-15.53],[141.56869,-15.53194],[141.56538,-15.53048],[141.56309,-15.53475],[141.55955,-15.53333],[141.55926,-15.53035],[141.55656,-15.52999],[141.55509,-15.53446],[141.55549,-15.53552],[141.5582,-15.53571],[141.55851,-15.53706],[141.55627,-15.53812],[141.55329,-15.53607],[141.55281,-15.53305],[141.55429,-15.53043],[141.55787,-15.52754],[141.55731,-15.52058],[141.55915,-15.52086],[141.56083,-15.51868],[141.55916,-15.5169],[141.55368,-15.51756],[141.55286,-15.51855],[141.55161,-15.51613],[141.55194,-15.51247],[141.55029,-15.51144],[141.54936,-15.51085],[141.54896,-15.51095],[141.54307,-15.51242],[141.53852,-15.51079],[141.53608,-15.51332],[141.53496,-15.51021],[141.53664,-15.50812],[141.53421,-15.5068],[141.53368,-15.50651],[141.53231,-15.50791],[141.53096,-15.5093],[141.5307,-15.50957],[141.53091,-15.5099],[141.532,-15.51158],[141.53136,-15.51384],[141.52715,-15.51318],[141.52389,-15.51048],[141.52227,-15.51073],[141.52215,-15.52119],[141.52364,-15.52262],[141.52763,-15.5215],[141.52819,-15.52679],[141.52184,-15.52679],[141.51978,-15.52586],[141.51866,-15.52275],[141.51605,-15.52262],[141.51356,-15.51938],[141.50982,-15.522],[141.50447,-15.52069],[141.5031,-15.51913],[141.50266,-15.51621],[141.50702,-15.5144],[141.50758,-15.51309],[141.50509,-15.5073],[141.50241,-15.50562],[141.49675,-15.50899],[141.49669,-15.50967],[141.49606,-15.51646],[141.4933,-15.51552],[141.49234,-15.51071],[141.49225,-15.50901],[141.49345,-15.50618],[141.49936,-15.50195],[141.50422,-15.49597],[141.50714,-15.49616],[141.50864,-15.49466],[141.50714,-15.49417],[141.50932,-15.49367],[141.50733,-15.49221],[141.50248,-15.49143],[141.5022,-15.48881],[141.49919,-15.48518],[141.49909,-15.48506],[141.49716,-15.48497],[141.49348,-15.48765],[141.49334,-15.48793],[141.49171,-15.49117],[141.49152,-15.49691],[141.48776,-15.49956],[141.48723,-15.49979],[141.48599,-15.49949]]],[[[141.65082,-15.07212],[141.65065,-15.06893],[141.64534,-15.07044],[141.64531,-15.07056],[141.64335,-15.07886],[141.64681,-15.08776],[141.65883,-15.09491],[141.66663,-15.10233],[141.67261,-15.11101],[141.6742,-15.11183],[141.68601,-15.11034],[141.68808,-15.10808],[141.68842,-15.10419],[141.68996,-15.10209],[141.69579,-15.10035],[141.69872,-15.10156],[141.70067,-15.10399],[141.70019,-15.10714],[141.70147,-15.10939],[141.70429,-15.10948],[141.70644,-15.10781],[141.7082,-15.11175],[141.70983,-15.11239],[141.71388,-15.11023],[141.71676,-15.10998],[141.71834,-15.1123],[141.71131,-15.1128],[141.70925,-15.11548],[141.7088,-15.11854],[141.71166,-15.1217],[141.7201,-15.12191],[141.72069,-15.12455],[141.71692,-15.1283],[141.71832,-15.12782],[141.7204,-15.13022],[141.71972,-15.134],[141.72138,-15.13315],[141.72141,-15.13615],[141.72322,-15.13972],[141.73015,-15.14169],[141.73008,-15.14443],[141.73107,-15.14524],[141.73822,-15.14565],[141.74123,-15.14987],[141.7449,-15.15016],[141.74677,-15.14829],[141.74653,-15.14102],[141.74788,-15.14023],[141.74923,-15.14119],[141.75015,-15.14432],[141.75285,-15.14553],[141.75437,-15.14302],[141.75609,-15.14244],[141.75675,-15.1434],[141.75675,-15.14236],[141.75862,-15.14179],[141.75835,-15.13972],[141.76076,-15.13823],[141.76069,-15.14114],[141.76337,-15.1406],[141.76333,-15.13861],[141.76574,-15.14236],[141.76834,-15.14275],[141.77209,-15.1403],[141.77504,-15.1421],[141.77741,-15.1411],[141.7776,-15.13999],[141.78269,-15.14068],[141.78499,-15.14252],[141.78652,-15.14604],[141.78993,-15.14673],[141.79157,-15.14405],[141.79448,-15.14455],[141.80113,-15.1419],[141.80454,-15.14204],[141.80547,-15.14028],[141.80501,-15.13782],[141.80865,-15.13695],[141.81156,-15.13456],[141.81557,-15.13431],[141.81819,-15.13243],[141.82158,-15.13589],[141.82378,-15.13641],[141.83119,-15.13303],[141.83455,-15.13051],[141.8383,-15.13],[141.84356,-15.1267],[141.84386,-15.1253],[141.84461,-15.12642],[141.84621,-15.12612],[141.84668,-15.12678],[141.84823,-15.12739],[141.85171,-15.12617],[141.86023,-15.12731],[141.8662,-15.12463],[141.87145,-15.12623],[141.87472,-15.12234],[141.88091,-15.1199],[141.8837,-15.12144],[141.88632,-15.11878],[141.88835,-15.11891],[141.8919,-15.1163],[141.89639,-15.11501],[141.89863,-15.1166],[141.90124,-15.11502],[141.90414,-15.11652],[141.91002,-15.11508],[141.91214,-15.11606],[141.91513,-15.11094],[141.92526,-15.11133],[141.9282,-15.11485],[141.93354,-15.11427],[141.93688,-15.11201],[141.94077,-15.10651],[141.9457,-15.10672],[141.95605,-15.10496],[141.9611,-15.10132],[141.96661,-15.09956],[141.97078,-15.09634],[141.97752,-15.09411],[141.98334,-15.08941],[141.98977,-15.08628],[141.99548,-15.09252],[142.00076,-15.09399],[142.01401,-15.09158],[142.01302,-15.08906],[142.0146,-15.08789],[142.01836,-15.08718],[142.02475,-15.08179],[142.0261,-15.08249],[142.03073,-15.0812],[142.03531,-15.07815],[142.0393,-15.07874],[142.04822,-15.07692],[142.05274,-15.0775],[142.05596,-15.0744],[142.05731,-15.07123],[142.06406,-15.06894],[142.07059,-15.06052],[142.07458,-15.05817],[142.07743,-15.05908],[142.0789,-15.0582],[142.08659,-15.04741],[142.09887,-15.03975],[142.10004,-15.03518],[142.09934,-15.03365],[142.11389,-15.02004],[142.11201,-15.0164],[142.1133,-15.01007],[142.11084,-15.00898],[142.10603,-15.01521],[142.10496,-15.0182],[142.10152,-15.01976],[142.10123,-15.02262],[142.09942,-15.02526],[142.09305,-15.03135],[142.09268,-15.03566],[142.09026,-15.03724],[142.08693,-15.04212],[142.08624,-15.04592],[142.08105,-15.05086],[142.07734,-15.05179],[142.0753,-15.05429],[142.07313,-15.05466],[142.06553,-15.06009],[142.06174,-15.06004],[142.05954,-15.06239],[142.05943,-15.06693],[142.05877,-15.06797],[142.04696,-15.07057],[142.04318,-15.07366],[142.04069,-15.07349],[142.03639,-15.07071],[142.02921,-15.07438],[142.0277,-15.07417],[142.02289,-15.07781],[142.01822,-15.07829],[142.00361,-15.08784],[141.99627,-15.08724],[141.99281,-15.08432],[141.98371,-15.08894],[141.97417,-15.08824],[141.96884,-15.09161],[141.96628,-15.09109],[141.96288,-15.09317],[141.95817,-15.09238],[141.95547,-15.09503],[141.95288,-15.09423],[141.95102,-15.09721],[141.94982,-15.0966],[141.94667,-15.09833],[141.93386,-15.11363],[141.92959,-15.11423],[141.92556,-15.11095],[141.91921,-15.10994],[141.91428,-15.11085],[141.91256,-15.11258],[141.91192,-15.11528],[141.90987,-15.11438],[141.90381,-15.11596],[141.90154,-15.11441],[141.89858,-15.11567],[141.89666,-15.11415],[141.88588,-15.11855],[141.88388,-15.12075],[141.88142,-15.11966],[141.87939,-15.11948],[141.87405,-15.12203],[141.87128,-15.12556],[141.86627,-15.12432],[141.86222,-15.12519],[141.86033,-15.12712],[141.85816,-15.12585],[141.85247,-15.12575],[141.84854,-15.12692],[141.84382,-15.12488],[141.84278,-15.1267],[141.83912,-15.12894],[141.83234,-15.13089],[141.83116,-15.13266],[141.82325,-15.13557],[141.81869,-15.13185],[141.81652,-15.13193],[141.815,-15.13379],[141.8115,-15.13437],[141.80828,-15.13639],[141.80426,-15.13712],[141.80431,-15.14131],[141.80168,-15.14097],[141.7945,-15.14391],[141.7911,-15.14358],[141.78968,-15.14616],[141.78792,-15.14627],[141.78534,-15.14166],[141.7817,-15.13969],[141.77708,-15.13958],[141.77475,-15.14106],[141.77103,-15.13957],[141.76804,-15.14144],[141.76566,-15.14071],[141.76396,-15.13707],[141.75932,-15.13765],[141.7561,-15.13596],[141.7538,-15.13714],[141.75427,-15.14078],[141.75102,-15.14407],[141.74986,-15.14286],[141.74978,-15.14006],[141.74778,-15.13886],[141.74763,-15.13892],[141.74422,-15.1404],[141.7418,-15.13879],[141.73881,-15.14073],[141.73518,-15.14052],[141.73249,-15.14155],[141.72952,-15.1391],[141.72464,-15.13911],[141.72408,-15.13839],[141.72174,-15.12694],[141.72514,-15.12153],[141.72447,-15.11773],[141.72305,-15.11664],[141.7197,-15.11672],[141.71485,-15.12085],[141.71323,-15.12099],[141.71013,-15.11819],[141.71068,-15.1159],[141.71245,-15.11438],[141.7185,-15.11571],[141.72043,-15.11497],[141.72119,-15.11136],[141.71848,-15.10772],[141.71369,-15.10726],[141.70918,-15.11016],[141.70916,-15.10708],[141.70608,-15.10569],[141.7023,-15.10838],[141.70162,-15.10173],[141.69803,-15.09912],[141.69484,-15.09865],[141.69027,-15.09999],[141.68737,-15.10243],[141.68693,-15.10802],[141.68588,-15.10924],[141.6739,-15.10997],[141.67066,-15.10357],[141.65132,-15.08152],[141.65082,-15.07212]]],[[[139.05222,-16.88844],[139.05379,-16.88982],[139.05407,-16.8922],[139.05724,-16.89387],[139.05728,-16.89642],[139.05987,-16.89784],[139.06462,-16.89829],[139.06901,-16.90388],[139.07175,-16.90346],[139.06791,-16.89276],[139.06166,-16.89051],[139.05773,-16.88513],[139.05222,-16.88844]]],[[[139.05723,-16.87009],[139.05914,-16.87615],[139.06633,-16.87157],[139.06497,-16.86879],[139.06515,-16.86541],[139.0638,-16.86443],[139.05723,-16.87009]]],[[[139.09333,-16.8153],[139.0952,-16.81786],[139.09092,-16.82657],[139.09228,-16.82889],[139.09155,-16.83409],[139.09445,-16.83932],[139.09502,-16.8435],[139.09848,-16.84613],[139.0994,-16.84334],[139.09839,-16.84351],[139.09835,-16.84038],[139.10396,-16.83421],[139.11292,-16.83053],[139.11504,-16.83097],[139.11942,-16.82542],[139.12216,-16.82707],[139.1258,-16.82171],[139.12702,-16.82188],[139.1235,-16.82701],[139.13004,-16.8236],[139.13342,-16.82552],[139.13897,-16.82537],[139.14406,-16.82702],[139.14759,-16.82249],[139.14963,-16.8224],[139.14925,-16.82061],[139.14653,-16.81876],[139.14567,-16.81544],[139.14077,-16.81357],[139.13794,-16.81104],[139.13448,-16.8017],[139.1312,-16.79907],[139.12626,-16.80252],[139.1195,-16.80532],[139.0994,-16.81269],[139.09506,-16.81315],[139.09333,-16.8153]]],[[[139.12004,-16.85999],[139.12036,-16.86149],[139.12048,-16.86157],[139.12069,-16.86132],[139.12004,-16.85999]]],[[[139.13314,-16.79105],[139.13321,-16.79113],[139.13326,-16.79079],[139.13314,-16.79105]]],[[[139.13881,-16.7897],[139.13805,-16.78985],[139.13909,-16.78985],[139.13881,-16.7897]]],[[[139.14514,-16.69441],[139.14405,-16.70137],[139.13947,-16.70879],[139.1394,-16.7123],[139.14018,-16.71602],[139.14378,-16.72075],[139.14634,-16.73084],[139.14215,-16.74505],[139.13952,-16.7498],[139.13972,-16.75513],[139.14916,-16.74862],[139.16169,-16.74901],[139.15983,-16.74171],[139.16068,-16.73793],[139.16288,-16.73499],[139.17138,-16.72845],[139.17621,-16.72861],[139.17966,-16.72722],[139.18311,-16.722],[139.1845,-16.72237],[139.18604,-16.71915],[139.18475,-16.71779],[139.18496,-16.71271],[139.18101,-16.70152],[139.18133,-16.69821],[139.18549,-16.69134],[139.18745,-16.67925],[139.18156,-16.67374],[139.17076,-16.67178],[139.15135,-16.68658],[139.14514,-16.69441]]],[[[139.13995,-16.75824],[139.1396,-16.76126],[139.14063,-16.76308],[139.14398,-16.76347],[139.14731,-16.76228],[139.1425,-16.75626],[139.13995,-16.75824]]],[[[139.1477,-16.82556],[139.14761,-16.82572],[139.14775,-16.82573],[139.1477,-16.82556]]],[[[139.16046,-16.60983],[139.16178,-16.61722],[139.16137,-16.62039],[139.15003,-16.63447],[139.15419,-16.63901],[139.1563,-16.64585],[139.15837,-16.64895],[139.15875,-16.65833],[139.16059,-16.66331],[139.16253,-16.66616],[139.16525,-16.6678],[139.17328,-16.66657],[139.1797,-16.66852],[139.18591,-16.66766],[139.19317,-16.66426],[139.18993,-16.66699],[139.19304,-16.66935],[139.19635,-16.67653],[139.19649,-16.68254],[139.19753,-16.68485],[139.1957,-16.68861],[139.19531,-16.69506],[139.19963,-16.7082],[139.2009,-16.70764],[139.19979,-16.70533],[139.2017,-16.70682],[139.20495,-16.7071],[139.20757,-16.69613],[139.21848,-16.68567],[139.22072,-16.68755],[139.21625,-16.69058],[139.21616,-16.6923],[139.21761,-16.6934],[139.22339,-16.69249],[139.22158,-16.69452],[139.21433,-16.69638],[139.21166,-16.69853],[139.20945,-16.70803],[139.21799,-16.70996],[139.22214,-16.71319],[139.22501,-16.71878],[139.22645,-16.72774],[139.2286,-16.73224],[139.23271,-16.73202],[139.24331,-16.72642],[139.25089,-16.72495],[139.25925,-16.72496],[139.26422,-16.72589],[139.26867,-16.73232],[139.27509,-16.73391],[139.27961,-16.73344],[139.28061,-16.73229],[139.28749,-16.73529],[139.29811,-16.72707],[139.30264,-16.72506],[139.3055,-16.72483],[139.31221,-16.73096],[139.31668,-16.72767],[139.31692,-16.72332],[139.32486,-16.71028],[139.32819,-16.70967],[139.33508,-16.70263],[139.34977,-16.69143],[139.35175,-16.68447],[139.34709,-16.6792],[139.34445,-16.67783],[139.34698,-16.67696],[139.34712,-16.67549],[139.34904,-16.67633],[139.35236,-16.67591],[139.35712,-16.67793],[139.36225,-16.68309],[139.36516,-16.68407],[139.36534,-16.6865],[139.36817,-16.68831],[139.37089,-16.68872],[139.37395,-16.68772],[139.36788,-16.68409],[139.36561,-16.67768],[139.36899,-16.67087],[139.37795,-16.66303],[139.38171,-16.6578],[139.37837,-16.65252],[139.3741,-16.64946],[139.37232,-16.64555],[139.3718,-16.62818],[139.36864,-16.62123],[139.37435,-16.62024],[139.37271,-16.61871],[139.37396,-16.61665],[139.36436,-16.60925],[139.36307,-16.60637],[139.36366,-16.60455],[139.36664,-16.60337],[139.36969,-16.60388],[139.38258,-16.61313],[139.38795,-16.61389],[139.39052,-16.61216],[139.39042,-16.61463],[139.3885,-16.61637],[139.38553,-16.61674],[139.38519,-16.61762],[139.38164,-16.61695],[139.37784,-16.6216],[139.3811,-16.62212],[139.37953,-16.62493],[139.38426,-16.62422],[139.38605,-16.62589],[139.38793,-16.62831],[139.3849,-16.63003],[139.38644,-16.63137],[139.39185,-16.63199],[139.39116,-16.63265],[139.39345,-16.63606],[139.4004,-16.63811],[139.4033,-16.64128],[139.40406,-16.6427],[139.40312,-16.64269],[139.40285,-16.64401],[139.40619,-16.64545],[139.40915,-16.65136],[139.40913,-16.65426],[139.41132,-16.65934],[139.41258,-16.65941],[139.41609,-16.66304],[139.41626,-16.66533],[139.41394,-16.66887],[139.41419,-16.67078],[139.43237,-16.67059],[139.43585,-16.67264],[139.43661,-16.67489],[139.43802,-16.67408],[139.43954,-16.67026],[139.44851,-16.66739],[139.44722,-16.66474],[139.44865,-16.66486],[139.44872,-16.66044],[139.4495,-16.65963],[139.4513,-16.66117],[139.4486,-16.65698],[139.44991,-16.65194],[139.44649,-16.64571],[139.44143,-16.64169],[139.44138,-16.63879],[139.44001,-16.63651],[139.43627,-16.63604],[139.43726,-16.63289],[139.43557,-16.63202],[139.44747,-16.62846],[139.4548,-16.62819],[139.45905,-16.63021],[139.46493,-16.62963],[139.47048,-16.62081],[139.47227,-16.61529],[139.46636,-16.60642],[139.46603,-16.60383],[139.46609,-16.60164],[139.4679,-16.60018],[139.47122,-16.59002],[139.47116,-16.58761],[139.46993,-16.58559],[139.46421,-16.58258],[139.45441,-16.58123],[139.45738,-16.57283],[139.4598,-16.5722],[139.465,-16.56719],[139.47127,-16.56306],[139.47953,-16.55976],[139.48835,-16.55886],[139.49216,-16.56057],[139.49456,-16.56299],[139.49527,-16.56781],[139.49915,-16.57169],[139.50053,-16.57619],[139.50617,-16.578],[139.50573,-16.57021],[139.51035,-16.56407],[139.51395,-16.56169],[139.51371,-16.55992],[139.51531,-16.55656],[139.51398,-16.54645],[139.51241,-16.54467],[139.50393,-16.54453],[139.49826,-16.54658],[139.49411,-16.54591],[139.49077,-16.54756],[139.48329,-16.54591],[139.48106,-16.54421],[139.47886,-16.53898],[139.47251,-16.53251],[139.46619,-16.53206],[139.46646,-16.53006],[139.46979,-16.52856],[139.47014,-16.52648],[139.47314,-16.5265],[139.47364,-16.52546],[139.472,-16.52296],[139.47383,-16.52282],[139.47618,-16.52067],[139.48066,-16.52142],[139.4809,-16.52287],[139.47956,-16.52374],[139.48088,-16.52463],[139.48305,-16.52385],[139.48379,-16.52554],[139.48555,-16.5237],[139.48928,-16.52445],[139.4927,-16.52384],[139.49941,-16.51562],[139.50409,-16.51277],[139.50883,-16.51304],[139.51088,-16.51619],[139.51271,-16.51708],[139.51878,-16.51624],[139.53033,-16.51761],[139.53253,-16.51257],[139.52939,-16.51046],[139.52991,-16.50782],[139.53677,-16.50225],[139.53795,-16.49953],[139.54305,-16.49532],[139.54266,-16.49275],[139.5388,-16.49753],[139.541,-16.49137],[139.54044,-16.48936],[139.56028,-16.48098],[139.5603,-16.47487],[139.55668,-16.46956],[139.55814,-16.4676],[139.56092,-16.47015],[139.56201,-16.47327],[139.56492,-16.47284],[139.56203,-16.47504],[139.5628,-16.47981],[139.56114,-16.48277],[139.56259,-16.48334],[139.5575,-16.48776],[139.55841,-16.48981],[139.55795,-16.49269],[139.5626,-16.49634],[139.57507,-16.50094],[139.57975,-16.50658],[139.57983,-16.51146],[139.57655,-16.5138],[139.57555,-16.51636],[139.57834,-16.52161],[139.57818,-16.5267],[139.57927,-16.5286],[139.58521,-16.53018],[139.58827,-16.53263],[139.5888,-16.53559],[139.58765,-16.54168],[139.5904,-16.54348],[139.59325,-16.54734],[139.59182,-16.55071],[139.59411,-16.55534],[139.59824,-16.55365],[139.61527,-16.54139],[139.62333,-16.53819],[139.6276,-16.53407],[139.63369,-16.53204],[139.63853,-16.5329],[139.64182,-16.52819],[139.65227,-16.52577],[139.65716,-16.52023],[139.67336,-16.51896],[139.68156,-16.52045],[139.68439,-16.52283],[139.68643,-16.52653],[139.6869,-16.53408],[139.68792,-16.53583],[139.69866,-16.53471],[139.70351,-16.53568],[139.71115,-16.53354],[139.71194,-16.53199],[139.70956,-16.5291],[139.7103,-16.5248],[139.70915,-16.52237],[139.7029,-16.51915],[139.69987,-16.51882],[139.69792,-16.51974],[139.69776,-16.51575],[139.69953,-16.51183],[139.69903,-16.50896],[139.70021,-16.50647],[139.69878,-16.49767],[139.70181,-16.48983],[139.69819,-16.47964],[139.69329,-16.47762],[139.69064,-16.46906],[139.68651,-16.46828],[139.68067,-16.47049],[139.67995,-16.46672],[139.67329,-16.46589],[139.67003,-16.46222],[139.67062,-16.46133],[139.67232,-16.46408],[139.67398,-16.46473],[139.67866,-16.46528],[139.68114,-16.45884],[139.67839,-16.45383],[139.67259,-16.45161],[139.66141,-16.45235],[139.65437,-16.45168],[139.64317,-16.44606],[139.63336,-16.43389],[139.62475,-16.42692],[139.61607,-16.42162],[139.61512,-16.41837],[139.60424,-16.40452],[139.5934,-16.40189],[139.57274,-16.4],[139.55881,-16.3971],[139.55328,-16.39432],[139.55091,-16.39081],[139.54955,-16.39193],[139.54742,-16.3916],[139.54662,-16.39415],[139.5424,-16.39767],[139.53704,-16.39915],[139.5381,-16.40469],[139.53522,-16.4097],[139.52109,-16.41704],[139.49861,-16.42493],[139.48571,-16.43082],[139.48604,-16.43278],[139.48475,-16.43434],[139.47475,-16.43918],[139.47538,-16.44064],[139.47456,-16.44226],[139.4645,-16.4466],[139.45626,-16.4485],[139.43685,-16.44919],[139.41914,-16.44609],[139.40047,-16.44824],[139.38677,-16.4525],[139.36371,-16.45288],[139.36108,-16.45476],[139.35895,-16.45933],[139.36041,-16.46073],[139.3722,-16.46461],[139.37475,-16.46741],[139.37025,-16.46873],[139.36499,-16.46417],[139.36644,-16.46847],[139.36512,-16.46898],[139.36343,-16.46543],[139.35994,-16.46397],[139.3571,-16.46109],[139.35602,-16.45808],[139.34758,-16.46259],[139.33312,-16.46611],[139.32542,-16.46521],[139.31405,-16.46087],[139.30953,-16.46134],[139.30365,-16.46386],[139.29811,-16.46862],[139.29493,-16.47402],[139.29043,-16.4789],[139.26358,-16.49473],[139.25539,-16.49729],[139.24833,-16.5022],[139.24123,-16.50533],[139.24329,-16.50898],[139.24128,-16.51908],[139.23438,-16.52634],[139.21789,-16.53621],[139.22037,-16.53768],[139.22075,-16.53981],[139.21301,-16.55059],[139.21361,-16.55373],[139.21695,-16.55616],[139.21729,-16.55778],[139.21003,-16.57125],[139.20022,-16.57955],[139.18412,-16.59025],[139.17511,-16.59884],[139.16841,-16.60297],[139.16046,-16.60983]]],[[[139.15111,-16.78307],[139.1508,-16.78343],[139.1505,-16.7838],[139.15111,-16.78307]]],[[[139.15301,-16.7752],[139.15525,-16.77459],[139.15545,-16.77427],[139.15352,-16.77459],[139.15301,-16.7752]]],[[[139.1616,-16.74055],[139.16235,-16.74345],[139.16626,-16.74771],[139.16382,-16.74423],[139.16291,-16.7406],[139.1616,-16.74055]]],[[[139.19502,-16.99304],[139.19986,-16.99462],[139.20182,-16.99573],[139.19975,-16.99265],[139.19502,-16.99304]]],[[[139.20594,-17.00651],[139.20522,-17.0109],[139.20767,-17.01625],[139.20738,-17.01773],[139.2096,-17.01866],[139.21253,-17.02215],[139.21443,-17.02789],[139.21467,-17.03396],[139.21893,-17.03155],[139.22336,-17.03157],[139.22628,-17.03583],[139.22763,-17.04051],[139.23235,-17.04603],[139.23561,-17.04795],[139.23966,-17.04633],[139.24805,-17.04657],[139.25108,-17.05091],[139.25104,-17.0566],[139.25931,-17.05554],[139.2613,-17.05893],[139.26548,-17.05867],[139.26365,-17.05373],[139.24962,-17.04352],[139.24499,-17.03811],[139.24159,-17.03116],[139.22886,-17.02332],[139.22471,-17.01749],[139.21818,-17.01386],[139.21228,-17.00609],[139.20727,-17.00561],[139.20594,-17.00651]]],[[[139.25185,-16.2299],[139.25174,-16.23082],[139.25304,-16.23258],[139.25356,-16.23011],[139.25185,-16.2299]]],[[[139.2606,-16.99051],[139.26259,-16.99363],[139.26162,-16.99857],[139.2623,-17.00014],[139.26374,-16.99863],[139.26844,-16.99835],[139.27098,-17.00115],[139.27126,-16.99832],[139.27377,-16.99681],[139.27496,-16.99323],[139.27946,-16.99477],[139.27609,-16.9911],[139.27302,-16.99177],[139.26925,-16.98923],[139.26779,-16.98983],[139.26458,-16.98867],[139.26407,-16.9872],[139.2606,-16.99051]]],[[[139.2714,-16.26836],[139.27268,-16.27072],[139.27385,-16.27605],[139.27791,-16.26857],[139.27644,-16.26618],[139.27696,-16.26327],[139.27519,-16.26367],[139.27663,-16.26744],[139.27481,-16.26847],[139.2714,-16.26836]]],[[[139.28009,-16.26297],[139.2802,-16.26417],[139.28093,-16.26397],[139.28009,-16.26297]]],[[[139.28841,-16.74403],[139.28862,-16.74831],[139.29145,-16.74922],[139.29335,-16.75271],[139.2956,-16.75241],[139.29558,-16.74971],[139.29059,-16.7465],[139.28939,-16.74332],[139.28841,-16.74403]]],[[[139.36104,-16.95404],[139.3611,-16.95648],[139.36348,-16.95722],[139.36401,-16.95549],[139.36205,-16.95366],[139.36104,-16.95404]]],[[[139.36489,-17.06929],[139.36547,-17.07179],[139.36875,-17.07329],[139.38245,-17.07545],[139.38762,-17.07519],[139.3897,-17.07439],[139.38717,-17.07504],[139.38546,-17.07277],[139.37427,-17.06861],[139.36489,-17.06929]]],[[[139.37069,-17.00195],[139.37296,-17.00696],[139.37574,-17.00769],[139.37582,-17.00676],[139.37069,-17.00195]]],[[[139.37739,-17.03095],[139.37827,-17.03118],[139.38085,-17.02988],[139.3825,-17.02438],[139.38562,-17.0239],[139.38222,-17.02428],[139.38055,-17.02976],[139.37739,-17.03095]]],[[[139.37842,-16.64011],[139.3794,-16.64337],[139.3774,-16.64572],[139.37876,-16.64812],[139.38155,-16.6459],[139.38222,-16.6427],[139.38381,-16.64209],[139.38225,-16.63932],[139.38198,-16.6345],[139.37842,-16.64011]]],[[[139.39394,-17.08254],[139.39615,-17.092],[139.3988,-17.09558],[139.39899,-17.09803],[139.40097,-17.09984],[139.40095,-17.10671],[139.40527,-17.10883],[139.40999,-17.11352],[139.41089,-17.1222],[139.41537,-17.12574],[139.41819,-17.12434],[139.42043,-17.12578],[139.42548,-17.12582],[139.42127,-17.12158],[139.42189,-17.11807],[139.4262,-17.11128],[139.42677,-17.10896],[139.42581,-17.10768],[139.42897,-17.10595],[139.42805,-17.10341],[139.42989,-17.10248],[139.4312,-17.10347],[139.43317,-17.10075],[139.43874,-17.10132],[139.45105,-17.09766],[139.47469,-17.09303],[139.47378,-17.09557],[139.47645,-17.09793],[139.47735,-17.10031],[139.4751,-17.10814],[139.47663,-17.11314],[139.47787,-17.1127],[139.47871,-17.1136],[139.47792,-17.11654],[139.47912,-17.11585],[139.48041,-17.11827],[139.48094,-17.11623],[139.48238,-17.11625],[139.48369,-17.11764],[139.48271,-17.11829],[139.48428,-17.11879],[139.48732,-17.116],[139.49519,-17.11507],[139.49785,-17.11722],[139.50269,-17.11713],[139.5034,-17.1184],[139.50823,-17.12036],[139.51386,-17.11893],[139.51019,-17.11531],[139.51305,-17.11365],[139.51507,-17.1153],[139.51657,-17.11368],[139.51484,-17.11248],[139.51619,-17.1082],[139.52128,-17.10407],[139.53941,-17.09927],[139.54984,-17.09867],[139.55215,-17.09961],[139.55977,-17.0949],[139.56668,-17.09246],[139.56832,-17.09339],[139.5741,-17.09184],[139.5766,-17.09396],[139.57856,-17.09398],[139.57379,-17.08814],[139.57102,-17.08265],[139.56053,-17.07412],[139.5518,-17.05652],[139.55013,-17.0463],[139.55202,-17.0447],[139.55347,-17.03993],[139.55495,-17.03975],[139.55673,-17.03421],[139.55062,-17.0354],[139.54346,-17.03147],[139.53855,-17.02478],[139.53149,-17.01776],[139.51949,-17.00825],[139.50938,-16.9972],[139.50626,-16.99246],[139.50423,-16.9858],[139.49874,-16.98414],[139.49488,-16.98037],[139.49179,-16.97949],[139.49132,-16.98112],[139.49486,-16.99109],[139.49327,-16.99753],[139.49726,-17.00137],[139.49571,-17.00226],[139.49377,-17.00961],[139.49448,-17.0142],[139.49047,-17.01998],[139.48364,-17.02645],[139.47611,-17.02852],[139.47393,-17.0318],[139.47091,-17.03242],[139.47079,-17.031],[139.46619,-17.03011],[139.45792,-17.03055],[139.45661,-17.03195],[139.4579,-17.0332],[139.45508,-17.03981],[139.45617,-17.04355],[139.45359,-17.05397],[139.44335,-17.06226],[139.43436,-17.06625],[139.43417,-17.06832],[139.42844,-17.07292],[139.42887,-17.07375],[139.42383,-17.07902],[139.40999,-17.08446],[139.39394,-17.08254]]],[[[139.44381,-16.68236],[139.44366,-16.68639],[139.43787,-16.69678],[139.44087,-16.69831],[139.44054,-16.70452],[139.44428,-16.7067],[139.45076,-16.70701],[139.45197,-16.70792],[139.46426,-16.70056],[139.46785,-16.68934],[139.472,-16.68293],[139.47601,-16.68029],[139.47538,-16.6761],[139.47179,-16.67001],[139.46905,-16.67093],[139.46715,-16.66855],[139.46571,-16.66857],[139.46177,-16.6719],[139.45705,-16.67283],[139.45592,-16.67795],[139.45468,-16.67606],[139.45579,-16.67414],[139.45497,-16.67376],[139.45069,-16.67674],[139.44805,-16.6804],[139.44381,-16.68236]]],[[[139.45301,-16.66417],[139.45417,-16.6674],[139.45771,-16.66797],[139.45819,-16.66638],[139.45301,-16.66417]]],[[[139.45787,-16.66908],[139.45895,-16.66913],[139.45944,-16.6688],[139.45893,-16.6684],[139.45787,-16.66908]]],[[[139.47374,-16.61055],[139.47389,-16.61116],[139.47434,-16.61086],[139.47374,-16.61055]]],[[[139.55261,-17.11477],[139.55369,-17.11962],[139.5492,-17.12465],[139.55019,-17.12711],[139.54869,-17.12855],[139.5501,-17.12977],[139.54971,-17.13089],[139.55163,-17.12991],[139.55424,-17.13116],[139.55422,-17.12459],[139.55617,-17.12411],[139.55525,-17.12344],[139.55931,-17.11939],[139.56123,-17.11521],[139.55986,-17.11458],[139.5565,-17.11626],[139.55378,-17.11373],[139.55261,-17.11477]]],[[[139.59538,-17.11187],[139.59705,-17.11386],[139.59839,-17.12106],[139.59767,-17.12331],[139.59856,-17.12927],[139.59687,-17.13287],[139.60336,-17.1346],[139.60467,-17.13675],[139.60445,-17.13853],[139.61001,-17.13725],[139.61488,-17.13944],[139.6157,-17.13477],[139.61409,-17.13365],[139.61423,-17.12757],[139.61234,-17.12369],[139.61346,-17.11856],[139.62941,-17.09034],[139.63358,-17.08609],[139.63374,-17.08329],[139.63686,-17.07708],[139.63993,-17.07756],[139.63927,-17.07375],[139.63423,-17.06592],[139.62924,-17.06256],[139.62653,-17.06181],[139.62569,-17.06268],[139.62389,-17.06696],[139.62584,-17.07209],[139.62523,-17.07817],[139.6215,-17.08076],[139.6216,-17.08294],[139.61976,-17.08481],[139.61925,-17.0872],[139.61367,-17.09296],[139.6158,-17.09942],[139.61423,-17.10103],[139.61551,-17.10328],[139.61459,-17.10603],[139.60582,-17.11118],[139.60071,-17.11227],[139.59538,-17.11187]]],[[[139.70121,-16.47499],[139.70385,-16.48233],[139.70957,-16.49066],[139.71382,-16.4922],[139.7204,-16.49073],[139.72404,-16.49162],[139.7263,-16.4932],[139.72705,-16.49776],[139.72918,-16.49885],[139.73048,-16.5017],[139.73261,-16.50119],[139.73401,-16.49172],[139.73322,-16.48477],[139.73518,-16.47839],[139.73168,-16.47537],[139.73031,-16.47256],[139.72897,-16.462],[139.73058,-16.45641],[139.72997,-16.45463],[139.72613,-16.45182],[139.71776,-16.4509],[139.71269,-16.45813],[139.71204,-16.46656],[139.70823,-16.47229],[139.70121,-16.47499]]],[[[139.80309,-16.48806],[139.8026,-16.49003],[139.80711,-16.49447],[139.80689,-16.49764],[139.80928,-16.49458],[139.81349,-16.49321],[139.81261,-16.49124],[139.81031,-16.49154],[139.80421,-16.48763],[139.80309,-16.48806]]],[[[139.80802,-16.50254],[139.80873,-16.5027],[139.80955,-16.50257],[139.80875,-16.50139],[139.80802,-16.50254]]],[[[139.82557,-16.7034],[139.83211,-16.70328],[139.83975,-16.6999],[139.83903,-16.69847],[139.83196,-16.69775],[139.82557,-16.7034]]],[[[139.84183,-16.70901],[139.84161,-16.70984],[139.84196,-16.70903],[139.84183,-16.70901]]],[[[139.84289,-16.70681],[139.84284,-16.70796],[139.84332,-16.70673],[139.84289,-16.70681]]],[[[139.8477,-16.66406],[139.84995,-16.66532],[139.85437,-16.6713],[139.85553,-16.67386],[139.85505,-16.67755],[139.85874,-16.67225],[139.86028,-16.66784],[139.86736,-16.66353],[139.87238,-16.66394],[139.87476,-16.663],[139.87894,-16.65697],[139.88724,-16.65379],[139.87683,-16.64935],[139.87465,-16.64521],[139.87168,-16.64582],[139.86971,-16.64641],[139.86794,-16.64864],[139.8694,-16.65568],[139.86681,-16.65912],[139.86038,-16.66128],[139.85259,-16.66117],[139.8477,-16.66406]]]]},"properties":{"District Name":"Mount Isa","DDMG Name":"Mount Isa","Police Region Name":"Northern Region","Police Region Code":"NR","Police Region Short Name":"Northern"}},{"type":"Feature","geometry":{"type":"Polygon","coordinates":[[[150.00516,-19.69761],[149.98354,-19.68457],[149.95016,-19.64823],[149.87934,-19.62347],[149.87129,-19.61647],[149.86659,-19.61521],[149.86152,-19.60792],[149.65206,-19.46158],[149.64249,-19.4578],[149.42092,-19.33375],[149.09763,-19.21405],[149.03058,-19.2006],[149.02542,-19.19543],[149.0191,-19.19239],[148.96643,-19.18291],[148.96308,-19.17956],[148.9233,-19.11512],[148.91591,-19.10658],[148.70088,-19.07153],[148.56564,-19.02739],[148.56195,-19.02401],[148.43336,-18.9808],[148.4263,-18.9734],[148.42,-18.97175],[148.41821,-18.97221],[148.38148,-18.95305],[148.3804,-18.95023],[148.34512,-18.92813],[148.16383,-18.85097],[148.11747,-18.83513],[148.06635,-18.83766],[148.03089,-18.81398],[147.984,-18.79477],[147.95466,-18.76505],[147.94991,-18.75181],[147.9393,-18.74561],[147.92879,-18.74181],[147.86991,-18.69489],[147.85403,-18.68923],[147.72474,-18.65458],[147.61512,-18.6093],[147.61159,-18.60285],[147.60583,-18.59656],[147.5994,-18.58178],[147.0011,-18.58179],[147.00109,-18.49845],[146.29715,-18.49849],[146.27697,-18.49748],[146.25108,-18.49244],[146.23773,-18.49175],[146.22989,-18.48956],[146.22415,-18.49407],[146.21039,-18.50818],[146.20693,-18.5165],[146.1994,-18.52182],[146.19609,-18.52015],[146.19072,-18.52363],[146.19094,-18.52835],[146.18638,-18.53003],[146.18719,-18.53333],[146.18518,-18.53195],[146.18277,-18.53201],[146.18016,-18.52899],[146.17955,-18.5247],[146.16887,-18.51829],[146.16739,-18.51573],[146.16429,-18.51766],[146.16085,-18.51736],[146.15613,-18.51874],[146.14671,-18.51703],[146.13755,-18.51227],[146.13014,-18.51066],[146.12624,-18.50805],[146.12172,-18.50788],[146.11998,-18.50609],[146.11712,-18.50134],[146.11709,-18.49669],[146.11532,-18.49482],[146.11728,-18.49126],[146.11666,-18.48941],[146.1207,-18.4873],[146.12197,-18.48448],[146.11847,-18.48003],[146.11416,-18.478],[146.11414,-18.47714],[146.11715,-18.47452],[146.12035,-18.47439],[146.11793,-18.47269],[146.11411,-18.47249],[146.11087,-18.46947],[146.10915,-18.46503],[146.10731,-18.46318],[146.10432,-18.4535],[146.10011,-18.45118],[146.09377,-18.45135],[146.09159,-18.44847],[146.09353,-18.44015],[146.0957,-18.43918],[146.10161,-18.43268],[146.0987,-18.42764],[146.09767,-18.4218],[146.10074,-18.41661],[146.10026,-18.41523],[146.09259,-18.41162],[146.08582,-18.40204],[146.08559,-18.4012],[146.08526,-18.40125],[146.07259,-18.40307],[146.06407,-18.39906],[146.0605,-18.39861],[146.04923,-18.39265],[146.04644,-18.39668],[146.04421,-18.3957],[146.04335,-18.39315],[146.03552,-18.38766],[146.0274,-18.39189],[146.02361,-18.39022],[146.0222,-18.3883],[146.01826,-18.38969],[146.01121,-18.38864],[146.00815,-18.39142],[146.00464,-18.39132],[146.00098,-18.39357],[145.99197,-18.39379],[145.98976,-18.39561],[145.98359,-18.39712],[145.9798,-18.39528],[145.97523,-18.39681],[145.96179,-18.39444],[145.94732,-18.36432],[145.93344,-18.37048],[145.92995,-18.3695],[145.92701,-18.37104],[145.92194,-18.37649],[145.91465,-18.37906],[145.9087,-18.38529],[145.90863,-18.38795],[145.89722,-18.39758],[145.8911,-18.39993],[145.88647,-18.40463],[145.88288,-18.40491],[145.87963,-18.40746],[145.87702,-18.40522],[145.87709,-18.40235],[145.87349,-18.40003],[145.87129,-18.40048],[145.87094,-18.40254],[145.86554,-18.40234],[145.86535,-18.4043],[145.85671,-18.40571],[145.85078,-18.40598],[145.84768,-18.4047],[145.83884,-18.40626],[145.83282,-18.40214],[145.82944,-18.40416],[145.82896,-18.40681],[145.82561,-18.40704],[145.81941,-18.40386],[145.81596,-18.39795],[145.81824,-18.39521],[145.81931,-18.38687],[145.81578,-18.38589],[145.81575,-18.38357],[145.81319,-18.37989],[145.81129,-18.37829],[145.80933,-18.37891],[145.80863,-18.37772],[145.80675,-18.37816],[145.80486,-18.38073],[145.8069,-18.386],[145.79984,-18.38784],[145.79831,-18.39021],[145.79389,-18.38999],[145.79481,-18.392],[145.79336,-18.39319],[145.79443,-18.39615],[145.79372,-18.39753],[145.79556,-18.39974],[145.79536,-18.40117],[145.79242,-18.40337],[145.78784,-18.40237],[145.78254,-18.39425],[145.78144,-18.39401],[145.77992,-18.39683],[145.77569,-18.39896],[145.7725,-18.39826],[145.76983,-18.39966],[145.76347,-18.39513],[145.76231,-18.39395],[145.76185,-18.39397],[145.76056,-18.39403],[145.75973,-18.39407],[145.75746,-18.39577],[145.75752,-18.39583],[145.75745,-18.39582],[145.75757,-18.39589],[145.75785,-18.39619],[145.7589,-18.40044],[145.759,-18.40241],[145.75947,-18.40273],[145.76916,-18.40942],[145.75582,-18.40806],[145.75518,-18.41488],[145.76005,-18.42394],[145.7575,-18.4259],[145.75777,-18.4294],[145.75456,-18.43083],[145.75599,-18.43509],[145.75496,-18.43848],[145.747,-18.44548],[145.7442,-18.45054],[145.74215,-18.45124],[145.73895,-18.45015],[145.73611,-18.45732],[145.73183,-18.45406],[145.72924,-18.45351],[145.73238,-18.46176],[145.72909,-18.46528],[145.72851,-18.46566],[145.72518,-18.46621],[145.72509,-18.46835],[145.72009,-18.46726],[145.71504,-18.46839],[145.71258,-18.46786],[145.70805,-18.47089],[145.71431,-18.48026],[145.71427,-18.48369],[145.71587,-18.4854],[145.71631,-18.48839],[145.50124,-18.46187],[145.49452,-18.57644],[145.39003,-18.56506],[145.38345,-18.57023],[145.35725,-18.53575],[145.29679,-18.46404],[145.30174,-18.45519],[145.27917,-18.43955],[145.28644,-18.42999],[145.25993,-18.42733],[145.26788,-18.35504],[145.19522,-18.34776],[145.19442,-18.3495],[145.16662,-18.34671],[145.1639,-18.34988],[145.16229,-18.34876],[145.16111,-18.35097],[145.1588,-18.35185],[145.15996,-18.35367],[145.15774,-18.35583],[145.15717,-18.35808],[145.15796,-18.36268],[145.15561,-18.36465],[145.15273,-18.36397],[145.1495,-18.36522],[145.13986,-18.35782],[145.13756,-18.35994],[145.13903,-18.36077],[145.13878,-18.36167],[145.13735,-18.36253],[145.13442,-18.362],[145.13219,-18.3705],[145.13547,-18.37736],[145.13309,-18.37795],[145.13288,-18.37971],[145.13433,-18.3851],[145.1381,-18.38805],[145.13954,-18.39083],[145.14308,-18.39062],[145.14404,-18.39192],[145.14962,-18.39387],[145.15154,-18.39353],[145.15217,-18.39179],[145.15467,-18.39288],[145.16133,-18.39084],[145.16164,-18.39347],[145.16372,-18.39523],[145.16084,-18.39981],[145.16261,-18.40292],[145.16171,-18.40698],[145.1642,-18.41496],[145.16908,-18.42015],[145.17162,-18.42106],[145.17205,-18.42332],[145.17746,-18.42507],[145.17818,-18.42745],[145.18062,-18.4284],[145.18377,-18.43193],[145.18285,-18.43249],[145.17996,-18.44663],[145.18231,-18.44919],[145.18199,-18.47248],[145.18569,-18.48024],[145.17808,-18.47951],[145.17207,-18.48837],[145.17447,-18.49142],[145.1738,-18.49377],[145.18416,-18.4948],[145.18251,-18.51058],[145.17903,-18.51024],[145.17348,-18.51548],[145.17183,-18.52081],[145.15736,-18.53833],[145.15673,-18.54549],[145.14862,-18.55298],[145.14053,-18.56512],[145.14067,-18.5727],[145.13895,-18.57286],[145.13893,-18.57413],[145.13581,-18.5744],[145.1343,-18.57756],[145.13274,-18.57805],[145.13071,-18.57266],[145.13354,-18.56909],[145.13366,-18.56512],[145.131,-18.56041],[145.12905,-18.56024],[145.12951,-18.55884],[145.12767,-18.55752],[145.12442,-18.55779],[145.11967,-18.55586],[145.1178,-18.55744],[145.11585,-18.55744],[145.10752,-18.5638],[145.10435,-18.56429],[145.10113,-18.56675],[145.0983,-18.56704],[145.09504,-18.56539],[145.09169,-18.56682],[145.08632,-18.55994],[145.07984,-18.56062],[145.07777,-18.55963],[145.0755,-18.55433],[145.06855,-18.55363],[145.06364,-18.55459],[145.05829,-18.55131],[145.05759,-18.54933],[145.05347,-18.54889],[145.05235,-18.54211],[145.05399,-18.543],[145.05507,-18.53972],[145.05184,-18.53611],[145.05264,-18.53054],[145.05021,-18.52807],[145.05138,-18.51813],[145.04673,-18.51323],[144.98098,-18.50697],[144.98216,-18.49856],[144.98119,-18.49362],[144.97663,-18.49212],[144.97521,-18.49027],[144.97573,-18.4871],[144.97101,-18.47511],[144.97148,-18.47228],[144.96831,-18.46956],[144.96301,-18.47322],[144.96308,-18.47843],[144.9645,-18.48153],[144.96287,-18.48551],[144.96063,-18.48611],[144.95788,-18.48312],[144.95684,-18.48347],[144.95485,-18.47529],[144.95284,-18.47503],[144.95139,-18.47733],[144.95323,-18.48209],[144.95282,-18.48459],[144.95138,-18.48928],[144.94727,-18.49513],[144.94688,-18.49769],[144.94911,-18.50103],[144.95089,-18.50157],[144.95117,-18.50417],[144.92174,-18.50134],[144.92226,-18.5067],[144.9199,-18.51654],[144.92405,-18.52278],[144.87821,-18.51791],[144.88042,-18.49736],[144.8367,-18.49314],[144.84135,-18.45245],[144.83754,-18.44003],[144.84462,-18.408],[144.85162,-18.39999],[144.85518,-18.36952],[144.84956,-18.36959],[144.84348,-18.37177],[144.83461,-18.36881],[144.82242,-18.36907],[144.81717,-18.37174],[144.81361,-18.36775],[144.81104,-18.3675],[144.79979,-18.35919],[144.78014,-18.35794],[144.77406,-18.3588],[144.7712,-18.35751],[144.76036,-18.35638],[144.74113,-18.31746],[144.67774,-18.31097],[144.67614,-18.42343],[144.65996,-18.56862],[144.65162,-18.62657],[144.76414,-18.63846],[144.78708,-18.66128],[144.74169,-18.70268],[144.74687,-18.70754],[144.74389,-18.71249],[144.74515,-18.72186],[144.75095,-18.72507],[144.75561,-18.72526],[144.75648,-18.72762],[144.75799,-18.72854],[144.76544,-18.72856],[144.77753,-18.7407],[144.78675,-18.73399],[144.78901,-18.73295],[144.79204,-18.7332],[144.80247,-18.74438],[144.80257,-18.74569],[144.80057,-18.74775],[144.80065,-18.7496],[144.80162,-18.75092],[144.8059,-18.75233],[144.80676,-18.75728],[144.80468,-18.75999],[144.80462,-18.76176],[144.80755,-18.76449],[144.80723,-18.76844],[144.80842,-18.76959],[144.74538,-18.81803],[144.7903,-18.87105],[144.72138,-18.92125],[144.7075,-18.93594],[144.69798,-18.996],[144.69931,-19.00392],[144.69973,-19.00515],[144.71527,-19.01684],[144.77435,-19.14797],[144.79442,-19.1622],[144.80437,-19.15723],[144.8105,-19.15584],[144.82384,-19.15684],[144.8314,-19.15985],[144.77111,-19.20467],[144.75009,-19.18077],[144.6297,-19.28843],[144.62247,-19.2973],[144.61898,-19.30604],[144.6174,-19.32092],[144.5978,-19.31904],[144.59084,-19.38413],[144.47737,-19.37091],[144.4705,-19.4479],[144.45079,-19.44125],[144.38745,-19.43073],[144.36955,-19.43009],[144.35173,-19.42391],[144.34486,-19.5015],[144.30255,-19.49738],[144.2957,-19.56645],[144.28401,-19.57451],[144.27945,-19.57604],[144.27323,-19.57594],[144.26185,-19.58294],[144.25508,-19.58554],[144.24804,-19.5942],[144.23889,-19.60856],[144.23153,-19.61593],[144.22644,-19.61872],[144.2123,-19.61006],[144.20652,-19.60376],[144.17996,-19.59442],[144.17468,-19.58844],[144.1722,-19.57646],[144.1569,-19.56761],[144.14701,-19.56571],[144.13929,-19.56558],[144.12405,-19.57187],[144.11716,-19.57176],[144.11271,-19.57615],[144.10357,-19.57967],[144.08894,-19.57822],[144.06497,-19.57227],[144.0589,-19.57076],[144.05622,-19.5701],[144.05528,-19.57061],[144.05354,-19.57154],[144.05292,-19.57187],[144.04476,-19.58357],[144.0289,-19.59785],[144.01424,-19.61493],[144.00388,-19.62131],[143.97651,-19.62294],[143.96733,-19.62052],[143.95568,-19.61959],[143.94745,-19.62199],[143.93804,-19.62729],[143.92508,-19.63076],[143.85183,-19.63705],[143.82446,-19.63044],[143.79698,-19.61756],[143.77572,-19.60576],[143.73416,-19.58996],[143.71515,-19.58536],[143.68225,-19.597],[143.67747,-19.59715],[143.64667,-19.58382],[143.61899,-19.55995],[143.60538,-19.53032],[143.59054,-19.50726],[143.58322,-19.50157],[143.57977,-19.49689],[143.56527,-19.48563],[143.54954,-19.47658],[143.5355,-19.47185],[143.51377,-19.48003],[143.50767,-19.48394],[143.51109,-19.49157],[143.51315,-19.50534],[143.50939,-19.516],[143.50142,-19.52443],[143.48987,-19.53091],[143.46631,-19.53998],[143.46186,-19.54496],[143.45811,-19.54668],[143.45374,-19.55596],[143.44734,-19.55879],[143.44383,-19.56602],[143.43406,-19.56531],[143.42777,-19.56313],[143.42564,-19.56515],[143.41699,-19.56712],[143.41316,-19.56438],[143.40288,-19.57019],[143.39797,-19.57524],[143.39508,-19.5751],[143.39396,-19.57662],[143.39427,-19.59677],[143.38307,-19.61258],[143.37284,-19.61388],[143.36769,-19.61272],[143.35139,-19.60434],[143.34614,-19.60371],[143.34193,-19.60561],[143.3392,-19.60962],[143.33667,-19.6167],[143.333,-19.62111],[143.31717,-19.62848],[143.31067,-19.63325],[143.30581,-19.63948],[143.29837,-19.65636],[143.28957,-19.66971],[143.2885,-19.68426],[143.28719,-19.68726],[143.27965,-19.6942],[143.27497,-19.69645],[143.27211,-19.69602],[143.27006,-19.69421],[143.26395,-19.68458],[143.25928,-19.68144],[143.25673,-19.68182],[143.2497,-19.68991],[142.60067,-19.63552],[142.60224,-19.62006],[142.60223,-19.62006],[142.37514,-19.59988],[142.34927,-19.8592],[142.37936,-19.86172],[142.33581,-20.33033],[142.38064,-20.33403],[142.37069,-20.43948],[142.37375,-20.43973],[142.36177,-20.56893],[142.34723,-20.57154],[142.34446,-20.57118],[142.34105,-20.60033],[142.3449,-20.60066],[142.33906,-20.66557],[142.33464,-20.66516],[142.30988,-20.7147],[142.36337,-20.71988],[142.35487,-20.79643],[142.33099,-20.79408],[142.32092,-20.88618],[142.30189,-20.88424],[142.29189,-20.99491],[142.20307,-20.98754],[142.19906,-21.0108],[142.23774,-21.01415],[142.22241,-21.16738],[142.25528,-21.16974],[142.24985,-21.23619],[142.15766,-21.23475],[142.05765,-21.21654],[142.04725,-21.22429],[142.13765,-21.32349],[142.064,-21.37989],[142.09165,-21.3826],[142.08027,-21.48833],[142.03825,-21.52008],[142.07366,-21.52335],[142.07202,-21.54073],[142.16343,-21.54317],[142.23189,-21.55087],[142.22822,-21.5963],[142.33543,-21.60713],[142.33256,-21.63632],[142.49122,-21.64418],[142.49559,-21.598],[142.65663,-21.61041],[142.65155,-21.66772],[142.71847,-21.61495],[142.69396,-21.58786],[142.81545,-21.49265],[142.86209,-21.54506],[142.94247,-21.48178],[142.95317,-21.49372],[142.99838,-21.45575],[143.00204,-21.45744],[143.00702,-21.45361],[143.00758,-21.4485],[143.18803,-21.30866],[143.23645,-21.313],[143.23664,-21.31119],[143.35953,-21.32201],[143.32877,-21.61186],[143.35772,-21.61417],[143.35803,-21.61603],[143.44827,-21.62462],[143.44997,-21.62296],[143.64926,-21.64118],[143.63084,-21.79742],[143.64704,-21.7991],[143.65148,-21.79849],[143.65377,-21.79979],[143.78183,-21.81408],[143.78207,-21.81112],[143.92945,-21.81998],[143.93423,-21.82211],[144.04462,-21.8303],[144.03885,-21.89471],[144.05743,-21.89834],[144.09245,-21.89896],[144.11173,-21.90185],[144.11141,-21.90633],[144.1843,-21.91332],[144.18658,-21.90807],[144.18849,-21.90841],[144.18797,-21.91383],[144.18598,-21.91375],[144.18033,-21.98956],[144.26343,-21.99739],[144.27007,-22.03261],[144.26849,-22.04787],[144.41721,-22.06172],[144.41387,-22.09836],[144.40281,-22.1133],[144.39778,-22.15705],[144.50178,-22.16514],[144.50051,-22.18566],[144.63741,-22.19547],[144.71722,-22.2038],[144.72353,-22.20211],[144.73978,-22.21173],[144.75232,-22.0948],[144.79636,-22.09843],[144.80091,-22.04539],[144.94303,-22.05911],[144.94603,-22.03067],[144.94742,-22.02738],[144.94644,-22.02732],[144.9563,-21.93031],[145.08221,-21.94261],[145.08434,-21.91026],[145.07402,-21.89951],[145.075,-21.89123],[145.15276,-21.89869],[145.15256,-21.90049],[145.18582,-21.90377],[145.18285,-21.90081],[145.18395,-21.89755],[145.18251,-21.8917],[145.18551,-21.89046],[145.18625,-21.88586],[145.19232,-21.87728],[145.19215,-21.8712],[145.18066,-21.85103],[145.18482,-21.8202],[145.16415,-21.80386],[145.16619,-21.78491],[145.25449,-21.79368],[145.26219,-21.8285],[145.41852,-21.84616],[145.43507,-21.69201],[145.52929,-21.70179],[145.53287,-21.65826],[145.67848,-21.66819],[145.67382,-21.71929],[145.66319,-21.71904],[145.64578,-21.79751],[145.72869,-21.81686],[145.70833,-21.87656],[145.69676,-21.8755],[145.68593,-21.91584],[145.73505,-21.92722],[145.72489,-21.93823],[145.62742,-21.92441],[145.61736,-22.03694],[145.76982,-22.04749],[145.76929,-22.06646],[145.88043,-22.08032],[145.88015,-22.08481],[146.0308,-22.10433],[146.03555,-22.10502],[146.03081,-22.10425],[146.03948,-22.02335],[146.06687,-22.02657],[146.07207,-21.99741],[146.20149,-22.00763],[146.20231,-22.00094],[146.21259,-21.90067],[146.11055,-21.89426],[146.12674,-21.81327],[146.06923,-21.80876],[146.08516,-21.59836],[146.09344,-21.50994],[146.13229,-21.51403],[146.15051,-21.50006],[146.3467,-21.51812],[146.34093,-21.57021],[146.39735,-21.66333],[146.44652,-21.66811],[146.48379,-21.68057],[146.48719,-21.65008],[146.48829,-21.64729],[146.49272,-21.58882],[146.48995,-21.58677],[146.49211,-21.56698],[146.6565,-21.58262],[146.6473,-21.59576],[146.65112,-21.59687],[146.65255,-21.60442],[146.75349,-21.63584],[146.83239,-21.64315],[146.83443,-21.64257],[146.83698,-21.6361],[146.83468,-21.63287],[146.8366,-21.62293],[146.83413,-21.61799],[146.83511,-21.61419],[146.83261,-21.60472],[146.83711,-21.58939],[146.83896,-21.58745],[146.83857,-21.58476],[146.83505,-21.57946],[146.83539,-21.57339],[146.84723,-21.56091],[146.84943,-21.55385],[146.84969,-21.54695],[146.85415,-21.54418],[146.85894,-21.53506],[146.86383,-21.53157],[146.86644,-21.53091],[146.86723,-21.52848],[146.87038,-21.52623],[146.86802,-21.52084],[146.86907,-21.51933],[146.8686,-21.51757],[146.86632,-21.51378],[146.86661,-21.51047],[146.86913,-21.5085],[146.86996,-21.50589],[146.87217,-21.50468],[146.87402,-21.49999],[146.8794,-21.49291],[146.89644,-21.47699],[146.89526,-21.47521],[146.89916,-21.47325],[146.90436,-21.46831],[146.90569,-21.46845],[146.90867,-21.46333],[146.90894,-21.45931],[146.91182,-21.45385],[146.90974,-21.44114],[146.90496,-21.43629],[146.89844,-21.43476],[146.8959,-21.42478],[146.89112,-21.4225],[146.88527,-21.41342],[146.88221,-21.4111],[146.87857,-21.4033],[146.87824,-21.39988],[146.87531,-21.39308],[146.87564,-21.38253],[146.88224,-21.37327],[146.87852,-21.36963],[146.88279,-21.36212],[146.89437,-21.35784],[146.89995,-21.35464],[146.90463,-21.35032],[146.90532,-21.3461],[146.90925,-21.34082],[146.91089,-21.33474],[146.91783,-21.32545],[146.92121,-21.32513],[146.92455,-21.32245],[146.93015,-21.32083],[146.9342,-21.31535],[146.94668,-21.30451],[146.95661,-21.30204],[146.95932,-21.30041],[146.96328,-21.29475],[146.96613,-21.27875],[146.96384,-21.27041],[146.95974,-21.26261],[146.96051,-21.2521],[146.95706,-21.24688],[146.94972,-21.23958],[146.94738,-21.23874],[146.93759,-21.23926],[146.93203,-21.23842],[146.92658,-21.23216],[146.91502,-21.22684],[146.90701,-21.22423],[146.89655,-21.22391],[146.89088,-21.22182],[146.88565,-21.21775],[146.87665,-21.20731],[146.86599,-21.19121],[146.8659,-21.18816],[146.86801,-21.18345],[146.88221,-21.17333],[146.88261,-21.17029],[146.87297,-21.15953],[146.87203,-21.15095],[146.86264,-21.13778],[146.86128,-21.11756],[146.84916,-21.1028],[146.84881,-21.10094],[146.85212,-21.09456],[146.85297,-21.08849],[146.85485,-21.08454],[146.85433,-21.08107],[146.8555,-21.07755],[146.85369,-21.07135],[146.85447,-21.06958],[146.85966,-21.06618],[146.86167,-21.06223],[146.86106,-21.05899],[146.86304,-21.04792],[146.85985,-21.04088],[146.86035,-21.03119],[146.8638,-21.0252],[146.86913,-21.0208],[146.8809,-21.008],[146.88321,-21.00281],[146.88367,-20.99761],[146.8793,-20.99296],[146.877,-20.98863],[146.87596,-20.98408],[146.87643,-20.97802],[146.86689,-20.95519],[146.86506,-20.94264],[146.8564,-20.92672],[146.85346,-20.9192],[146.85421,-20.91208],[146.86305,-20.9022],[146.86348,-20.89904],[146.86222,-20.89508],[146.86595,-20.88598],[146.85603,-20.87019],[146.8562,-20.86776],[146.86104,-20.86001],[146.86281,-20.8473],[146.85834,-20.83666],[146.85741,-20.82873],[146.85284,-20.81915],[146.85223,-20.81133],[146.85618,-20.80351],[146.86159,-20.79648],[146.86592,-20.7969],[146.86971,-20.80099],[146.8746,-20.80176],[146.87786,-20.80023],[146.88899,-20.79079],[146.90121,-20.79029],[146.90989,-20.78672],[146.9147,-20.77787],[146.91704,-20.76155],[146.92041,-20.75741],[146.9274,-20.75522],[146.94165,-20.75327],[146.95818,-20.74324],[146.9612,-20.7402],[146.96228,-20.73634],[146.96228,-20.72924],[146.96487,-20.72133],[146.96561,-20.71444],[146.96453,-20.70227],[146.96087,-20.68867],[146.9613,-20.68441],[146.96484,-20.67605],[146.97584,-20.67362],[146.98058,-20.67119],[146.98446,-20.66713],[146.98597,-20.66246],[146.98511,-20.65658],[146.97738,-20.64603],[146.97263,-20.63288],[146.97265,-20.62359],[146.976,-20.6197],[147.0066,-20.60761],[147.01482,-20.60623],[147.02011,-20.60812],[147.02121,-20.6095],[147.02238,-20.61674],[147.02615,-20.62276],[147.03632,-20.62932],[147.04591,-20.63096],[147.04823,-20.63041],[147.05375,-20.6263],[147.05811,-20.62576],[147.06217,-20.62712],[147.0674,-20.6345],[147.07327,-20.64889],[147.07888,-20.65285],[147.08216,-20.65329],[147.08636,-20.65218],[147.10122,-20.6389],[147.10571,-20.63678],[147.11177,-20.63586],[147.1242,-20.63769],[147.13311,-20.64107],[147.14862,-20.65183],[147.15611,-20.65173],[147.16147,-20.64645],[147.16462,-20.63518],[147.16854,-20.62783],[147.17307,-20.62203],[147.17801,-20.61859],[147.17831,-20.60898],[147.17968,-20.60467],[147.18408,-20.60224],[147.18608,-20.60392],[147.19113,-20.60175],[147.19377,-20.59912],[147.19624,-20.59378],[147.20954,-20.58711],[147.21455,-20.57674],[147.21694,-20.57529],[147.21956,-20.57529],[147.22248,-20.57652],[147.22797,-20.58145],[147.23458,-20.58405],[147.24138,-20.58445],[147.26406,-20.55982],[147.26701,-20.55794],[147.27449,-20.55724],[147.27861,-20.55463],[147.27987,-20.54399],[147.28314,-20.53634],[147.28482,-20.52458],[147.28844,-20.51781],[147.29925,-20.50805],[147.30103,-20.5038],[147.30092,-20.49726],[147.29167,-20.48013],[147.2906,-20.47638],[147.29054,-20.47273],[147.29449,-20.45653],[147.29782,-20.44743],[147.30053,-20.44418],[147.30857,-20.43836],[147.31986,-20.43345],[147.33513,-20.42917],[147.34099,-20.42472],[147.34502,-20.41333],[147.34772,-20.3968],[147.34723,-20.3938],[147.34321,-20.38906],[147.33008,-20.38088],[147.32323,-20.37446],[147.31721,-20.3656],[147.31256,-20.35601],[147.306,-20.33343],[147.29959,-20.31827],[147.29951,-20.30776],[147.30825,-20.28606],[147.31096,-20.27058],[147.30921,-20.2217],[147.3076,-20.2116],[147.30259,-20.19553],[147.30062,-20.18251],[147.29517,-20.16304],[147.29487,-20.16226],[147.2942,-20.16055],[147.29296,-20.15739],[147.27599,-20.12789],[147.27475,-20.12506],[147.27459,-20.12241],[147.27501,-20.11722],[147.28322,-20.09184],[147.28364,-20.09084],[147.29272,-20.07547],[147.2947,-20.06901],[147.2939,-20.06472],[147.28531,-20.04606],[147.27336,-20.02845],[147.27896,-20.02602],[147.28628,-20.02027],[147.30189,-20.01469],[147.30247,-20.01481],[147.30379,-20.01623],[147.29929,-20.02291],[147.29914,-20.0265],[147.2995,-20.02751],[147.30004,-20.02907],[147.30034,-20.02992],[147.30253,-20.0329],[147.31362,-20.03977],[147.32018,-20.05216],[147.32813,-20.05566],[147.33769,-20.05756],[147.34769,-20.06129],[147.35812,-20.05875],[147.36228,-20.05913],[147.37931,-20.06676],[147.38887,-20.06929],[147.39121,-20.0719],[147.39164,-20.07691],[147.38601,-20.08716],[147.46708,-20.09585],[147.47988,-19.98172],[147.47892,-19.98162],[147.48408,-19.932],[147.48488,-19.93088],[147.48679,-19.93085],[147.48766,-19.92379],[147.48549,-19.92355],[147.49135,-19.87142],[147.50981,-19.87343],[147.51094,-19.85793],[147.50692,-19.85746],[147.50715,-19.85553],[147.509,-19.8541],[147.5083,-19.85075],[147.5148,-19.8474],[147.51626,-19.84508],[147.51794,-19.84513],[147.52118,-19.84117],[147.52621,-19.83948],[147.52974,-19.83555],[147.5309,-19.8358],[147.53283,-19.83425],[147.53291,-19.83569],[147.53488,-19.83566],[147.53557,-19.83384],[147.53707,-19.83348],[147.53679,-19.82699],[147.53544,-19.82622],[147.53644,-19.82539],[147.53465,-19.82476],[147.5343,-19.82289],[147.53551,-19.82019],[147.53758,-19.82039],[147.53737,-19.81784],[147.53556,-19.8182],[147.53622,-19.81622],[147.53848,-19.81544],[147.54036,-19.81316],[147.54488,-19.81418],[147.54541,-19.8121],[147.54738,-19.81124],[147.55187,-19.8119],[147.55373,-19.81049],[147.56166,-19.80976],[147.56358,-19.8087],[147.56536,-19.80924],[147.56583,-19.808],[147.56688,-19.80899],[147.57649,-19.80269],[147.60203,-19.7993],[147.66336,-19.81091],[147.67128,-19.79262],[147.71778,-19.69833],[150.00516,-19.69761]]]},"properties":{"District Name":"Townsville","DDMG Name":"Townsville","Police Region Name":"Northern Region","Police Region Code":"NR","Police Region Short Name":"Northern"}}]}