{"type":"Topology","arcs":[[[63723,59918],[-47,489],[-231,209],[-107,38],[-264,390],[-509,116],[-161,-39],[-348,243],[-174,247],[-133,-104],[-168,0],[-231,-185],[-110,15],[-351,459],[-174,50],[-244,347],[-151,112],[-50,154],[114,209],[-94,424],[50,89],[-54,235],[-120,173],[-522,-42],[-395,35],[-231,81],[-291,274],[-612,-31],[-284,220],[-231,351],[-181,-54],[-17,-143],[-284,-85],[-80,224],[-198,11],[-271,263],[-140,443],[-144,35],[-74,285],[-365,135],[-46,193],[-201,174],[-174,57],[-435,-34],[23,-394],[-110,-200],[-214,-131],[-224,77],[-449,339],[-331,108],[-251,-38],[-217,-240],[-271,-200],[-241,-347],[-221,-610],[-70,-270],[-395,-756],[-144,-173],[-121,-259],[-200,-57],[-285,123],[-194,-54],[-197,-197],[-275,-69],[-97,162],[77,551],[-97,101],[-180,7],[-134,-135],[-67,143],[-191,85],[0,255],[111,-20],[90,151],[47,250],[-91,147],[-107,636],[345,-69],[-67,289],[167,112],[211,-123],[167,42],[61,343],[-191,158],[-84,186],[-271,111],[54,170],[174,108],[120,521],[-53,339],[90,135],[271,232],[104,0],[281,208],[-64,166],[84,154],[20,255],[-241,135],[248,478],[190,-116],[168,89],[-4,116],[-274,177],[97,258],[174,170],[325,35],[46,166],[161,-12],[-241,613],[-124,-7],[-170,204],[47,181],[-362,116],[-137,193],[-368,-27],[-127,-124],[-54,-169],[-247,-108],[-271,73],[-37,120],[-295,196],[-130,-77],[-201,-405],[-50,-196],[114,-351],[-54,-213],[74,-81],[-137,-266],[-178,-23],[-154,62],[-374,-4],[-134,-158],[-141,146],[-227,390],[-278,-96],[-114,416],[-211,85],[-3,123],[-288,101],[61,266],[-91,173],[-3,401],[-94,159],[97,297],[-47,297],[-120,50],[-74,200],[-147,-58],[-1017,1408],[-171,-65],[-20,-232],[-261,81],[-93,-173],[-265,38],[-214,-166],[54,-119],[-449,-104],[-167,108],[-10,135],[-114,135],[-301,-270],[-171,88],[-107,151],[-100,-139],[-278,-42],[-16,-224],[-181,8],[-137,100],[-121,-937],[-923,131],[-147,-89],[-295,12],[40,358],[-70,81],[-278,104],[-26,-81],[-295,151],[-187,-58],[-191,46],[-264,-131],[-308,124],[-80,-143],[-141,158],[-348,108],[-150,150],[140,232],[181,131],[103,397],[74,100],[295,621],[26,155],[-277,88],[33,120],[-43,270],[110,501],[0,236],[-144,154],[34,174],[-466,647],[-217,31],[-114,139],[-53,274],[117,312],[-338,398],[94,247],[-44,162],[167,270],[127,-31],[181,-151],[87,178],[157,146],[348,27],[325,135],[23,170],[151,58],[-104,258],[44,340],[154,177],[-7,390],[-67,162],[117,189],[-10,339],[-184,62],[-167,231],[100,208],[-184,375],[-217,50],[10,285],[-255,366],[30,270],[-150,116],[-174,-15],[-147,-101],[-261,105],[-104,-205],[-214,-108],[-174,-15],[-278,-131],[-124,-116],[-371,-97],[-151,97],[-50,208],[-157,50],[-261,-378],[-385,77],[-114,-57],[-207,165],[-171,263],[-107,-12],[-298,154],[11,321],[-231,270],[-37,223],[144,290],[10,154],[-178,92],[-90,278],[87,151],[-214,347],[60,111],[254,-104],[225,58],[200,-19],[168,65],[167,-61],[77,146],[-395,1370],[-23,420],[-188,397],[-174,262],[30,189],[-60,174],[-144,166],[-130,-31],[-298,154],[-351,-142],[-151,-155],[-378,-166],[-150,-11],[-292,-189],[-200,58],[47,-324],[-362,-448],[-144,4],[-241,182],[-80,189],[187,269],[-157,255],[27,278],[251,640],[214,120],[-120,304],[-201,189],[-67,347],[-177,363]],[[32546,90079],[321,536],[214,185],[23,208],[94,66],[191,436],[234,92],[67,-119],[181,27],[107,150],[210,-247],[238,-92],[294,65],[101,321],[30,405],[167,61],[295,-31],[291,162],[304,567],[-224,224],[-70,293],[177,19],[469,-285],[140,-8],[50,182],[174,227],[161,644],[-60,151],[130,108],[231,23],[308,-197],[80,-266],[-134,-162],[107,-201],[67,-327],[265,-205],[-37,-142],[264,-128],[107,-135],[34,-177],[-148,-282],[231,-173],[405,-70],[331,-289],[111,-258],[177,-128],[-67,-258],[60,-162],[-127,-482],[111,-185],[-104,-93],[-204,-478],[-157,-31],[-111,-177],[-201,54],[-127,-209],[171,-235],[30,-208],[117,-124],[37,-154],[201,-297],[60,19],[355,-189],[304,89],[301,-224],[121,-247],[130,12],[234,316],[134,-88],[439,169],[267,-73],[338,-270],[194,-77],[315,-436],[264,-116],[151,-204],[200,42],[251,240],[-6,208],[-248,123],[301,286],[231,-8],[254,166],[107,193],[184,100],[181,-235],[64,-240],[110,-111],[368,-116],[121,-216],[237,-270],[87,-162],[291,-224],[47,-343],[208,-397],[501,-398],[61,-158],[190,1312],[1238,-182],[358,-158],[181,-204],[74,-228],[180,-131],[94,-266],[371,-96],[201,-182],[238,-127],[113,-204],[-73,-317],[214,-27],[104,166],[395,-4],[140,101],[57,243],[284,57],[295,290],[134,397],[190,177],[-120,301],[77,135],[147,-69],[348,69],[171,81],[358,66],[-138,235],[11,162],[127,367],[157,273],[134,147],[351,15],[371,216],[255,-50],[47,89],[-91,451],[27,494],[579,-85],[432,-85],[117,941],[-265,39],[37,278],[264,-39],[24,197],[-278,27],[-134,-43],[-415,151],[-294,-47],[-117,66],[47,359],[134,-78],[43,317],[-151,312],[-40,316],[857,-111],[100,771],[-983,143],[130,77],[187,212],[44,208],[-34,232],[171,200],[87,251],[244,131],[101,166],[67,347],[-84,154],[291,-4],[44,70],[-205,281],[91,213],[184,239],[401,73],[204,-85],[275,-401],[221,-143],[512,135],[334,197],[174,208],[750,0],[26763,27],[11417,-27],[1244,-6344],[67,-764]],[[96887,88112],[-254,92],[-204,12],[-519,-262],[-676,-394],[-251,-181],[-863,-748],[-291,-313],[-264,-354],[-278,-483],[-171,-223],[-772,-853],[-171,-258],[-214,-455],[194,-77],[278,100],[180,-19],[358,-131],[271,-159],[305,-243],[288,-285],[321,-397],[458,-748],[522,-1003],[442,-745],[160,-362],[91,-332],[33,-397],[-53,-571],[-194,-860],[-24,-316],[-130,-429],[-439,-890],[-291,-525],[-759,-1126],[-308,-498],[-285,-382],[-458,-482],[-23,-23],[-552,-617],[-546,-451],[-234,-236],[-385,-324],[-408,-385],[-642,-502],[-372,-216],[-682,-331],[-204,-197],[-824,12],[-4011,0],[-2680,0],[-5909,11],[-331,73],[-154,174],[-241,100],[-532,-23],[-285,170],[-301,8],[-231,-132],[-147,-158],[-120,-223],[-328,-251],[-74,-216],[194,-266],[-20,-236],[-458,-227],[-268,73],[-30,-158],[-254,-247],[-214,181],[-11,31],[64,112],[-70,143],[-208,11],[-93,-73],[-238,43],[-355,-278],[-321,4],[-167,65],[-318,-335],[-291,-174],[-54,-196],[-267,-587],[-850,-1608],[-204,-864],[-111,-841],[-719,-837],[-412,124],[21,-386],[-288,-19],[-181,-116],[-150,15],[-251,-347],[-415,-285],[70,-131],[-87,-135],[54,-108],[-292,-363],[-100,0],[-134,-227],[-401,42],[-298,-66],[-17,-81],[-836,-813]],[[53524,25683],[-60,270],[-2660,363],[14,170],[351,219],[80,510],[171,111],[278,-177],[87,46],[-4,305],[-87,166],[261,413],[107,-209],[224,-96],[174,112],[111,212],[231,-232],[-231,-246],[33,-147],[164,-69],[208,34],[73,128],[-37,277],[195,-173],[261,4],[113,-74],[-57,-270],[-164,-42],[-180,-405],[37,-135],[251,-139],[177,228],[164,-120],[-238,-528],[151,-58],[-70,-174],[103,-162],[-231,-112]],[[96887,88112],[77,-193],[-6,-366],[-71,-787],[-97,-1369],[-57,-1238],[-16,-621],[43,-1154],[87,-694],[94,-544],[177,-640],[57,-73],[201,-583],[177,-432],[161,-320],[318,-428],[391,-378],[358,-285],[442,-139],[244,-12],[251,66],[40,-147],[-20,-478],[33,-409],[61,-362],[140,-220],[27,-178],[-124,-493],[-207,-506],[-265,-547],[-578,-1339],[-292,-763],[-160,-359],[-1365,-3452],[-238,-509],[-318,-802],[-672,-1578],[-91,-243],[-565,-1292],[-291,-775],[-295,-694],[-525,-1343],[-388,-1049],[-251,-632],[-659,-1740],[-134,-401],[-355,-960],[-682,-2041],[-368,-1265],[-285,-1168],[-133,-698],[-121,-779],[-30,-760],[47,-691],[63,-513],[131,-678],[110,-413],[24,-440],[-234,-972],[-178,-316],[-23,-305]],[[90547,45612],[-405,62],[-632,-4],[-154,-262],[-104,-313],[-70,-351],[16,-331],[121,-502],[-67,-370],[-345,-162],[-241,-258],[-465,-359],[-341,-100],[-127,-120],[-5036,887],[-441,85],[-3089,548],[27,-193],[-237,123],[-362,104],[-174,4],[-23,-162],[244,4],[134,-69],[-161,-209],[352,-582],[144,23],[30,-216],[338,-69],[200,-112],[51,-355],[-261,-58],[-27,-181],[-164,-347],[7,-266],[-118,-120],[-204,-42],[-301,23],[-415,-170],[-124,-247],[0,-169],[-317,-205],[0,-119],[-208,-166],[-535,85],[-84,-571],[188,-31],[-51,-336],[-204,31],[-93,-679],[-265,-34],[-70,-232],[-1134,182],[27,258],[-362,54],[101,633],[-439,69],[44,220],[-57,69],[-1131,174],[40,362],[-144,205],[147,247],[-284,34],[-57,-439],[-308,92],[64,324],[-174,340],[-1322,196],[-184,77],[-117,-96],[-736,112],[-74,251],[-264,11],[-43,189],[-489,81],[-97,197],[-846,135],[63,428],[-391,58],[23,173],[-729,108],[-104,-366],[-194,-89],[-114,39],[-84,266],[-983,143],[-161,-1169],[-247,58],[-91,-594],[-2252,374],[-1064,158],[-10,-38],[-856,127],[-1211,154],[-4,212],[-328,124],[-234,-205],[-214,12],[-97,127],[-201,120],[-130,146],[-107,-162],[-4,-308],[-237,-8],[-37,154],[-171,205],[-70,277],[84,282],[-131,189],[-231,-197],[-147,4],[-60,-216],[-338,-193],[-171,54],[-144,-139],[-261,-92],[-63,-239],[-402,-108],[-50,135],[-338,169],[-140,132],[134,281],[117,467],[-50,150],[-362,19],[-174,-34],[-150,81],[23,189],[97,77],[-23,243],[-91,289],[101,293],[-87,89],[-7,359],[231,247],[-24,331],[124,193],[-328,123],[-244,-84],[-114,108],[-344,154],[-168,227],[-50,166],[-134,47]],[[54491,46816],[-40,779],[40,158],[-80,370],[-505,143],[73,170],[-10,528],[208,23],[281,123],[211,-243],[227,159],[144,192],[77,729],[-37,147],[77,224],[-221,239],[51,343],[207,301],[281,266],[94,316],[281,-15],[107,887],[147,255],[228,-112],[107,-448],[294,232],[385,-151],[221,-281],[264,-143],[67,154],[388,131],[151,116],[110,-31],[111,143],[16,297],[-124,170],[-73,289],[50,197],[425,96],[27,143],[170,46],[-16,131],[341,23],[204,105],[281,46],[345,339],[-51,563],[91,479],[104,208],[227,239],[124,255],[0,235],[475,150],[254,-23],[194,43],[101,-93],[190,35],[-23,274],[412,-58],[100,-185],[97,165],[204,-7],[435,-236],[375,-11],[184,-43],[10,282],[94,104],[20,247],[-138,108],[71,528],[123,81],[-33,178],[-164,54],[-217,200],[53,236],[-114,327],[61,112],[351,1034],[37,35]],[[90547,45612],[-157,-312],[93,-440],[37,-632],[131,-1003],[143,-625],[148,-455],[123,-266],[138,-166],[307,-532],[168,-240],[308,-354],[465,-378],[428,-205],[294,-77],[358,-23],[204,35],[154,142],[225,575],[153,147],[168,-220],[-4,-135],[-177,-77],[-331,-729],[-502,-1173],[-509,-1284],[-425,-1165],[-368,-1169],[-428,-1299],[-435,-1539]],[[91256,32013],[-4105,682],[-44,-312],[74,-77],[-94,-679],[-184,-332],[-43,-262],[-128,-42],[-16,-143],[-141,-193],[-378,-81],[-30,-170],[-144,-73],[-207,69],[-378,-81],[10,-420],[-623,96],[-23,-162],[-197,31],[-47,-335],[-124,100],[-261,363],[-281,231],[-783,108],[-97,-771],[-643,88],[-20,-169],[-170,-120],[83,-590],[-167,-46],[90,-313],[-578,-1975],[-57,-354],[-231,-374],[-77,-255],[-154,-1022],[-318,54],[-368,166],[-154,-656],[-77,15],[4,-389],[177,-12],[-74,-493],[20,-324],[338,-54],[-40,-274],[121,-81],[261,38],[137,-131],[100,-470],[-97,46],[-77,-536],[137,-31],[-204,-1419]],[[80974,19879],[-20,-139],[-1037,177],[3,-270],[258,-15],[7,-239],[-134,-66],[-308,-297],[-104,-247],[-150,-58],[-37,-343],[615,-92],[-80,-556],[258,-88],[70,-151],[-77,-235],[-127,-54],[-164,89],[-10,-290],[-184,-227],[-97,100],[-157,-93],[-248,363],[-144,-108],[-164,231],[-462,-358],[-76,4],[-61,-402],[-328,-331],[-197,-104],[3,-297],[-301,-54],[-167,-267],[64,-208],[-81,-324],[-351,62],[-325,-39],[-224,166],[-33,101],[-298,154],[-264,42],[-342,120],[-231,-89],[-217,50],[-197,-50],[-14,177],[-114,70],[-234,-239],[-110,-12],[-144,181],[-288,-46],[-137,-119]],[[73814,15459],[-191,57],[-150,-46],[-154,73],[-211,359],[-1425,193],[123,-393],[241,-340],[-83,-77],[-2105,293],[50,382],[-318,46],[61,440],[-352,50],[312,1015],[-205,119],[-30,-216],[-130,-69],[-117,250],[10,186],[140,250],[-23,232],[197,254],[111,799],[-87,-101],[-211,31],[140,995],[-224,12],[-53,-120],[-338,-54],[-127,-115],[-291,115],[-164,-266],[-151,-108],[-127,120],[-301,-197],[-121,143],[-324,0],[-134,154],[-77,224],[-214,-27],[-127,-124],[-151,43],[-201,-158],[-204,54],[-157,-143],[-298,-143],[-361,-65],[-137,-147],[-138,324],[-230,139],[26,77],[-267,177],[-104,135],[-171,81],[-157,162],[-355,-42],[-26,-417],[-168,-177],[-194,0],[-83,-96],[-14,-197],[-103,-77],[-97,-228],[-258,-46],[-57,-89],[-294,-35],[-195,-150],[94,-96],[17,-344],[-104,-150],[-264,162],[-87,-54],[-124,-270],[-291,42],[-67,158],[-238,263],[-90,177],[-241,212],[-100,151],[-348,173],[-228,236]],[[60169,19640],[208,1430],[-57,70],[-30,347],[-127,158],[-4,274],[-251,31],[-83,185],[-134,69],[-44,151],[-164,92],[-157,-162],[-80,224],[-184,154],[-264,31],[-174,128],[73,324],[-127,27],[27,239],[-281,4],[-408,162],[-121,-20],[-271,301],[-140,96],[-382,162],[-124,-910],[-87,58],[-1713,243],[-187,104],[-198,-46],[14,270],[-111,166],[385,262],[50,112],[-160,146],[1405,-189],[238,351],[154,35],[184,463],[70,12],[100,366],[104,802],[130,251],[-23,305],[-177,192],[-104,197],[-147,66],[-47,405],[-124,517],[-3,316],[-315,224],[-401,-313],[-271,374],[-84,-31],[-304,425],[-382,-120],[-134,501],[97,139],[104,282],[-13,224],[-325,196],[37,212],[-382,483],[-481,77],[93,698],[-107,135],[30,127],[-40,594],[-354,77],[-268,100],[-137,456],[257,88],[228,-34],[241,262],[140,19],[198,367],[-1646,262],[170,1161],[-167,135],[0,150],[261,100],[150,348],[-130,169],[-171,340],[17,374],[-903,143],[3,-89],[-2111,320],[-512,69],[-70,-559],[-696,93],[13,135],[137,112],[77,277],[-381,50],[254,1910],[-1656,243],[-295,158],[-90,324]],[[46304,40398],[201,-39],[127,77],[40,185],[197,97],[245,247],[30,297],[-60,92],[0,301],[100,170],[40,239],[-164,216],[-50,158],[53,243],[-3,266],[-94,359],[-113,85],[-71,254],[94,147],[-10,235],[-114,147],[14,258],[-71,220],[74,150],[161,66],[100,278],[-57,96],[-268,54],[-16,139],[-228,73],[4,139],[153,81],[174,455],[275,-89],[167,12],[0,127],[-181,262],[138,224],[307,54],[77,197],[-36,328],[348,61],[184,-92],[157,-158],[-74,-128],[101,-162],[77,-354],[-21,-189],[178,-74],[271,155],[77,-74],[10,-374],[378,-146],[184,-216],[562,-112],[398,-320],[-73,-201],[133,-281],[27,-213],[114,-61],[54,-282],[230,-11],[114,-255],[-47,-120],[34,-266],[124,-243],[250,-196],[318,-85],[288,177],[238,16],[67,177],[140,8],[104,258],[221,201],[130,4],[87,204],[147,112],[138,366],[120,-34],[244,135],[-50,289],[110,251],[41,219],[187,-108],[244,479],[-47,285],[27,189],[117,216],[-83,181],[127,185],[157,0],[90,105]],[[91256,32013],[-177,-664],[-402,-1678],[-177,-836],[-301,-1725],[-87,-713],[-30,-976],[67,-744],[197,-718],[211,-439],[160,-243],[161,-108],[271,-85],[258,266],[154,-12],[87,97],[267,-135],[-43,-243],[70,-216],[-97,-270],[-181,-922],[-267,-1477],[-61,-625],[-103,-795]],[[91233,18752],[-459,116],[-33,70],[63,432],[-461,100],[211,274],[100,247],[30,358],[-207,-54],[-419,97],[-214,169],[17,189],[164,274],[137,23],[-100,251],[-358,62],[-64,-436],[-174,31],[-258,-58],[-207,4],[-736,115],[-47,178],[-298,73],[-344,-62],[-676,108],[-44,-312],[-625,120],[-44,-286],[-304,58],[-10,-73],[-459,77],[-150,-239],[-168,-58],[-301,-8],[-117,-119],[-251,-39],[-237,-278],[3,-293],[-194,120],[-291,46],[-54,-335],[-535,-282],[-244,-201],[-74,105],[-268,-205],[-257,-131],[-37,-258],[-422,46],[-67,143],[34,219],[-161,267],[-177,173],[33,228],[-505,81]],[[46304,40398],[-137,119],[-171,27],[-247,-200],[-362,196],[-334,50],[-432,255],[-375,305],[-883,204],[-268,16],[151,586],[-137,146],[73,166],[-324,282],[107,332],[-285,7],[-113,139],[-211,-77],[-107,100],[-131,297],[-277,50],[-231,182],[-288,-20],[-124,-196],[-381,-182],[-154,27],[-137,174],[-690,116],[-200,-81],[-251,169],[-248,-69],[-90,89],[-265,-85],[-130,50],[-234,-85],[-298,-2029],[-305,-19],[-164,189],[14,193],[-121,216],[-133,23],[-154,-220],[-17,-123],[271,-174],[30,-204],[-137,-205],[80,-85],[241,89],[248,-108],[33,-162],[-197,-682],[97,-340],[-201,-328],[-278,-231],[54,-320],[-188,-85],[-30,-417],[-113,-112],[-198,43],[-30,-112],[27,-366],[-164,-66],[-2891,-239],[-907,139],[-221,-236],[-281,12],[-535,-536],[30,-162],[191,-212],[-37,-243],[-104,-73],[-458,-583],[-144,-281],[-328,-290],[-368,193],[-288,-42],[-164,100],[-873,143],[-3239,482],[-318,23],[-250,127],[-810,158],[3,-208],[-67,-551],[-241,-313],[-33,-177],[221,-158],[271,81],[20,-213],[-81,-235],[54,-77],[-1191,-227]],[[23746,34254],[-167,57],[-215,386],[-274,-116],[-361,-19],[-278,43],[-254,96],[-556,308],[-184,232],[-63,443],[-218,386],[34,243],[-305,467],[-157,617],[-194,143],[20,142],[-729,-235],[-415,150],[-579,-119],[-191,50],[-214,262],[-211,35],[-271,-162],[14,-170],[-84,-258],[-1817,-1427],[-1994,289],[-305,787],[151,235],[20,147],[-94,116],[-247,131],[57,138],[-131,398],[-221,277],[-113,367],[-225,35],[-599,-16],[-307,35],[-141,-31],[-197,-162],[-178,15],[-411,421],[-382,58],[-297,85],[-301,23],[56,247],[-46,231],[-128,309],[-13,250],[355,548],[36,231],[148,332],[3,336],[-177,277],[-47,347],[53,243],[241,143],[198,266],[57,293],[127,301],[-117,251],[-546,764],[-234,131],[-47,250],[-425,263],[-284,401],[258,89],[-429,570],[81,286],[123,177],[322,35],[224,370],[-94,235],[-27,490],[47,471],[-492,251],[-214,408],[111,401],[177,251],[150,50],[7,201],[238,305],[6,119],[-167,97],[-107,258],[-47,471],[-1412,212],[-696,61],[-197,355],[-502,205],[-305,-47],[-274,-85],[-241,47],[-267,-50],[-456,-143],[-234,181],[-448,181],[-278,294],[-385,856],[-66,31],[-1202,250],[-170,-100],[-131,-189],[-354,139],[-379,58],[-33,162],[-241,27],[-167,-85],[-34,193],[94,382],[141,135],[150,486],[-77,239],[-231,370],[-23,397],[57,166],[-408,220],[73,181],[-83,263],[364,474],[-33,166],[-134,108],[-284,-97],[-131,39],[84,281],[-81,263],[-291,-93],[-70,39],[47,254],[-198,81],[-33,174],[187,170],[30,405],[743,540],[234,613],[-173,131],[-292,355],[94,100],[274,85],[-93,432],[180,200],[-301,278],[382,459],[164,66],[73,181],[131,85],[-355,181],[-27,123],[301,216],[131,259],[-50,104],[20,424],[-67,201],[338,262],[365,-54],[170,185],[-27,155],[225,524],[-81,178],[10,231],[-140,150],[47,255],[358,35],[144,115],[-215,556],[71,235],[247,27],[114,336],[-13,243],[227,293],[104,54],[60,432],[-144,732],[-67,147],[71,116],[-27,204],[214,-11],[288,-162],[532,92],[-141,232],[338,501],[345,120],[418,219],[683,4],[204,120],[3,216],[147,154],[0,247],[-100,143],[-80,312],[133,262],[158,120],[160,332],[291,111],[-428,432],[-231,155],[-87,119],[54,417],[-77,146],[-54,266],[-187,490],[-10,328],[47,255],[-17,922],[-50,420],[187,918],[-234,339],[-224,644],[93,70],[529,1365],[-53,340],[66,582],[747,2013],[364,81],[97,270],[117,101],[178,1334],[83,100],[-140,344],[-512,2241],[17,38],[816,729],[358,93],[495,-8],[47,355],[117,166],[465,104],[248,-371],[124,-34],[431,181],[325,-131],[338,11],[321,-61],[522,81],[214,142],[194,-15],[331,-158],[432,-54],[241,-139],[308,-309],[187,-7],[298,142],[1275,-235],[866,-223],[128,50],[227,-74],[261,101],[114,223],[87,590],[-137,170],[103,278],[121,42],[90,409],[201,58],[130,274],[261,278],[188,320],[117,112],[-345,312],[-87,208],[-20,247],[-264,-50],[-231,254],[-509,-223],[-338,208],[-63,108],[-218,112],[-348,69],[-525,517],[-140,46],[244,1852],[127,-174],[264,77],[231,-154],[121,197],[26,220],[121,-16],[100,-258],[392,-62],[127,166],[264,-39],[57,178],[1720,-587],[395,-96],[535,-224],[301,-119],[127,89],[-100,254],[-24,332],[24,339],[164,131],[224,-11],[-291,478],[-161,131],[-63,494],[-74,231],[0,236],[174,173],[57,312],[120,20],[174,154],[0,324],[114,166],[7,266],[83,77],[24,251],[80,274],[-20,358],[171,162],[33,714],[-77,297],[40,266],[215,139],[40,274],[144,169],[394,-96],[168,123],[217,-11],[44,77],[495,-85],[114,-289],[-91,-116],[7,-312],[238,-282],[83,0],[84,-285],[120,58],[291,-251],[77,-204],[599,-120],[275,-359],[57,-312],[210,-158],[30,-297],[265,-170],[107,289],[147,-46],[388,174],[127,316],[191,-135],[328,-58],[27,-185],[502,-525],[-10,-212],[-154,-89],[-91,-250],[-6,-216],[-201,-336],[-44,-196],[61,-348],[-121,-200],[67,-201],[-47,-216],[131,-139],[23,-219],[154,-128],[231,23],[150,166],[342,128],[528,88],[87,328],[238,-54],[405,120],[224,-120],[13,-173],[-133,-1042],[50,-108],[-77,-181],[-171,-147],[74,-154],[-67,-254],[385,-1613],[-225,8],[-251,123],[-277,-3],[-111,-128],[-204,-73],[-154,-197],[34,-293],[150,-54],[241,139],[20,100],[439,147],[140,-181],[198,-16],[3,-154],[237,-397],[338,-124],[205,-366],[70,135],[284,100],[91,235],[174,-92],[90,92],[291,-50],[278,-92],[184,-394],[167,-23],[140,70],[14,331],[114,54],[-34,158],[201,201],[80,-35],[171,151],[140,-50],[305,3],[191,-150]],[[60169,19640],[-160,30],[-81,-115],[-187,81],[-27,-182],[-144,-96],[-174,123],[-291,-19],[-107,-293],[131,-235],[-84,-251],[-271,-239],[67,-170],[-10,-293],[144,-127],[-54,-201],[-127,-173],[141,-209],[-74,-57],[57,-386],[67,-62],[23,-262],[81,-147],[23,-220],[-164,-331],[30,-155],[184,-146],[47,-258],[134,-85],[-164,-189],[-248,-151],[184,-532],[-254,-494],[57,-177],[-107,-243],[-241,23],[-20,-201],[-392,-196],[-70,-124],[-217,-108],[-288,-7],[-301,-159],[-204,-208],[-54,-193],[81,-389],[6,-282],[231,-135],[7,-181],[197,-224],[402,-135],[-57,-100],[167,-139],[271,127],[228,-308],[154,-120],[143,-216],[51,-185],[150,-108],[-147,-142],[107,-270],[338,104],[77,189],[-134,84],[47,159],[331,-27],[-60,-482],[438,-62],[-57,-158],[-174,-170],[-43,-139],[3,-563],[275,-262],[143,104],[94,-158],[184,-108],[-80,-189],[13,-282],[-130,-173],[191,-482],[-77,-479],[535,-85],[-80,-551],[-171,27],[-54,-359],[84,-266],[27,-679],[147,-247],[-535,85],[-107,120],[33,177],[-368,-243],[-171,0],[-247,-208],[-188,-332],[-113,-474],[-71,-232],[-217,155],[-271,81],[-228,-135],[-217,15],[-191,-308],[-328,-105],[-130,-196],[-586,-317],[-224,16],[-221,247],[-227,38],[67,332],[144,35],[40,162],[150,85],[164,212],[-23,621],[-141,204],[121,104],[60,178],[258,324],[-680,96],[-103,135],[-201,-58],[-164,54],[-127,-92],[-131,127],[47,208],[174,-23],[67,212],[207,-54],[305,208],[147,232],[-104,208],[151,309],[281,-4],[40,224],[-103,208],[-114,4],[-107,239],[-14,397],[74,185],[-54,359],[-408,54],[47,393],[-181,-108],[-100,-139],[-164,-30],[-184,-166],[-70,-166],[-402,62],[-150,77],[-268,374],[-331,-251],[-40,-278],[-335,31],[-244,-162],[-60,-447],[-94,-12],[-40,-289],[-1285,181],[-57,-4],[-254,-354],[-7,-189],[-120,-247],[-205,-212],[-314,-178],[-154,-200],[7,-174],[-134,-177],[-37,-189],[54,-162],[-61,-421],[-147,-81],[-171,-212],[-26,-216],[-1449,-706],[-13,-200],[-161,-151],[-137,-231],[-298,-258],[-187,-336],[-251,-147],[-111,43],[-227,-166],[-298,177],[-268,-308],[-455,-212],[-421,-128],[-248,-3],[-191,77],[-261,-58],[-234,89],[-244,-128],[-331,139],[-288,228],[-164,-4],[-177,239],[-97,27],[-81,197],[-264,185],[-114,-12],[-274,209],[-127,235],[-221,-131],[-254,-43],[-141,77],[-177,224],[-117,16],[-295,308],[-267,-73],[-342,324],[-137,-23],[-251,177],[-43,112],[-328,0],[-74,154],[-164,85],[-147,-35],[-187,405],[-34,347],[-124,135],[17,151],[-184,65],[-134,213],[-90,246],[-214,159],[-30,235],[-302,378],[-117,-27],[-170,89],[-87,246],[-144,39],[-167,382],[-84,69],[171,220],[-141,201],[-30,212],[57,108],[-14,285],[67,228],[-167,34],[-281,-42],[-67,143],[-381,19],[-144,239],[-204,77],[-221,-104],[-74,-127],[-311,-58],[-475,150],[-328,51],[-204,169],[-361,236],[-94,7],[-60,212],[-27,444],[-164,143],[130,308],[-110,262],[137,305],[-33,174],[-392,112],[-257,146],[-111,243],[-80,31],[512,397],[67,513],[-40,154],[-445,587],[-332,189],[-207,266],[-218,-97],[-113,305],[-178,23],[-187,189],[-197,58],[-94,367],[-238,27],[-308,243],[31,92],[-111,201],[-154,38],[-100,243],[-154,-177],[-147,-23],[-64,169],[-234,266],[-117,355],[-218,155],[-241,354],[-30,135],[24,344],[-275,46],[-257,-201],[-188,-38],[-261,81],[-210,204],[-161,224],[23,339],[-157,8],[-174,193],[-274,-170],[-261,224],[-107,147],[-218,138],[-267,502],[130,247],[-157,216],[7,123],[160,193],[-23,73],[-864,131],[-3499,498],[-4,11],[1272,3182],[204,1331],[428,2816],[77,354],[-2339,321],[-1666,-58],[-114,2476],[164,-19],[151,-112],[1690,879],[107,417],[552,96],[231,-38],[-37,401],[575,347],[157,-81],[171,-324],[455,-301],[258,50],[104,-65],[291,196],[107,193],[-44,289],[-114,139],[-26,181],[100,498],[-261,374],[-60,220],[-234,54],[-184,-143],[-101,93],[-271,-355],[-191,-123],[-174,-39],[-140,231],[-301,89],[-147,-11],[-161,169],[-164,43],[-114,196],[-197,132]],[[91233,18752],[-54,-316],[-50,-675],[0,-297],[100,-243],[231,-320],[-67,-289],[-97,-1018],[-3,-590],[27,-317],[120,-478],[-27,-289],[10,-637],[64,-293],[60,-520],[114,-336],[141,-93],[304,-327],[268,-105],[254,66],[-67,-914],[-33,-934],[13,-350],[80,-776],[-40,-185],[90,-686],[81,-263],[244,-104],[0,-224],[74,-192],[-291,-51],[-245,-266],[-180,-1033],[-24,-224],[50,-621],[10,-471],[64,-478],[244,-1072],[248,-999],[-2008,-563],[-6,-108],[-251,-231],[20,-348],[-81,-254],[-374,-286],[-235,147],[-140,-19],[-60,177],[-124,31],[-228,216],[-813,120],[-53,-494],[-178,4],[-287,-224],[-489,66],[-110,-62],[-234,173],[-104,224],[-281,-170],[-178,243],[-264,159],[-60,92],[-636,104],[-304,124],[-127,177],[-215,58],[-321,4],[-177,-158],[-241,-104],[-191,185],[-384,-93],[-532,81],[110,768],[231,104],[140,131],[101,644],[-536,85],[57,332],[-197,30],[-34,282],[41,278],[378,-58],[90,617],[-402,65],[27,197],[-221,35],[51,347],[-174,-73],[-315,119],[-207,-42],[-114,227],[-151,31],[-214,355],[10,104],[-234,351],[-217,162],[-131,-81],[-298,-31],[-180,186],[63,358],[-378,139],[74,474],[-285,47],[-137,100],[-194,35],[-64,-409],[-204,220],[-120,-733],[-345,320],[-207,-266],[-131,-66],[-83,197],[-188,116],[-398,-100],[-421,77],[76,235],[-655,119],[-7,124],[-221,92],[-117,178],[-53,644],[-195,150],[-277,16],[-251,-189],[-151,235],[-70,220],[-221,-100],[-187,77],[-248,15],[-77,97],[-492,61],[-80,236],[-134,142],[-177,35],[-251,262],[-33,178],[107,100],[-168,401],[50,100],[-87,155],[-217,185],[-261,162],[-97,-31],[-311,77],[-60,112],[20,235],[200,216],[-70,155],[4,266],[-118,-12],[673,833],[-27,46],[392,486],[154,1212],[-81,77],[-114,297],[-16,177],[87,116],[-338,46],[70,170],[-30,274]],[[82908,3753],[124,31],[43,-205],[-194,8],[27,166]]],"transform":{"scale":[0.000029887298872988675,0.000025927259272592732],"translate":[150.3691,-26.9848]},"objects":{"qld_north_coast_ldmg_boundaries_gda2020_simp200m":{"type":"GeometryCollection","geometries":[{"arcs":[[0,1,2]],"type":"Polygon","properties":{"LGA Code":"1820","Abbreviated Name":"Bundaberg","LGA Name":"Bundaberg Regional","Area Sq Km":12403.99881,"LDMG Name":"Bundaberg","Police Region Name":"North Coast Region","Police Region Code":"NCR","Police Region Short Name":"North Coast","Region Slug":"north_coast","Layer Id":"qld_north_coast_ldmg_boundaries_gda2020_simp200m","Layer Group":"per-region","Layer Kind":"ldmg","Source":"Local government area boundaries - Queensland, Department of Natural Resources and Mines, Manufacturing and Regional and Rural Development; ASGS Edition 3 (2021) Local Government Areas, Australian Bureau of Statistics","Source URL":"https://www.data.qld.gov.au/dataset/local-government-area-boundaries-queensland","Licence":"CC BY 4.0","Licence URL":"https://creativecommons.org/licenses/by/4.0/","Dataset Date":"extract of 11/05/2026","Simplification Tolerance M":200,"Coordinate Precision Decimals":4,"CRS":"GDA2020 (EPSG:7844)","Generated":"2026-09-13"},"id":"1820"},{"arcs":[[3]],"type":"Polygon","properties":{"LGA Code":"2330","Abbreviated Name":"Cherbourg Aboriginal","LGA Name":"Cherbourg Aboriginal Shire","Area Sq Km":31.7648,"LDMG Name":"Cherbourg","Police Region Name":"North Coast Region","Police Region Code":"NCR","Police Region Short Name":"North Coast","Region Slug":"north_coast","Layer Id":"qld_north_coast_ldmg_boundaries_gda2020_simp200m","Layer Group":"per-region","Layer Kind":"ldmg","Source":"Local government area boundaries - Queensland, Department of Natural Resources and Mines, Manufacturing and Regional and Rural Development; ASGS Edition 3 (2021) Local Government Areas, Australian Bureau of Statistics","Source URL":"https://www.data.qld.gov.au/dataset/local-government-area-boundaries-queensland","Licence":"CC BY 4.0","Licence URL":"https://creativecommons.org/licenses/by/4.0/","Dataset Date":"extract of 11/05/2026","Simplification Tolerance M":200,"Coordinate Precision Decimals":4,"CRS":"GDA2020 (EPSG:7844)","Generated":"2026-09-13"},"id":"2330"},{"arcs":[[-3,4,5,6]],"type":"Polygon","properties":{"LGA Code":"3220","Abbreviated Name":"Fraser Coast","LGA Name":"Fraser Coast Regional","Area Sq Km":7995.76593,"LDMG Name":"Fraser Coast","Police Region Name":"North Coast Region","Police Region Code":"NCR","Police Region Short Name":"North Coast","Region Slug":"north_coast","Layer Id":"qld_north_coast_ldmg_boundaries_gda2020_simp200m","Layer Group":"per-region","Layer Kind":"ldmg","Source":"Local government area boundaries - Queensland, Department of Natural Resources and Mines, Manufacturing and Regional and Rural Development; ASGS Edition 3 (2021) Local Government Areas, Australian Bureau of Statistics","Source URL":"https://www.data.qld.gov.au/dataset/local-government-area-boundaries-queensland","Licence":"CC BY 4.0","Licence URL":"https://creativecommons.org/licenses/by/4.0/","Dataset Date":"extract of 11/05/2026","Simplification Tolerance M":200,"Coordinate Precision Decimals":4,"CRS":"GDA2020 (EPSG:7844)","Generated":"2026-09-13"},"id":"3220"},{"arcs":[[-6,7,8,9,10,11,12]],"type":"Polygon","properties":{"LGA Code":"3620","Abbreviated Name":"Gympie","LGA Name":"Gympie Regional","Area Sq Km":6936.26533,"LDMG Name":"Gympie","Police Region Name":"North Coast Region","Police Region Code":"NCR","Police Region Short Name":"North Coast","Region Slug":"north_coast","Layer Id":"qld_north_coast_ldmg_boundaries_gda2020_simp200m","Layer Group":"per-region","Layer Kind":"ldmg","Source":"Local government area boundaries - Queensland, Department of Natural Resources and Mines, Manufacturing and Regional and Rural Development; ASGS Edition 3 (2021) Local Government Areas, Australian Bureau of Statistics","Source URL":"https://www.data.qld.gov.au/dataset/local-government-area-boundaries-queensland","Licence":"CC BY 4.0","Licence URL":"https://creativecommons.org/licenses/by/4.0/","Dataset Date":"extract of 11/05/2026","Simplification Tolerance M":200,"Coordinate Precision Decimals":4,"CRS":"GDA2020 (EPSG:7844)","Generated":"2026-09-13"},"id":"3620"},{"arcs":[[-9,13,14]],"type":"Polygon","properties":{"LGA Code":"5740","Abbreviated Name":"Noosa","LGA Name":"Noosa Shire","Area Sq Km":870.10279,"LDMG Name":"Noosa","Police Region Name":"North Coast Region","Police Region Code":"NCR","Police Region Short Name":"North Coast","Region Slug":"north_coast","Layer Id":"qld_north_coast_ldmg_boundaries_gda2020_simp200m","Layer Group":"per-region","Layer Kind":"ldmg","Source":"Local government area boundaries - Queensland, Department of Natural Resources and Mines, Manufacturing and Regional and Rural Development; ASGS Edition 3 (2021) Local Government Areas, Australian Bureau of Statistics","Source URL":"https://www.data.qld.gov.au/dataset/local-government-area-boundaries-queensland","Licence":"CC BY 4.0","Licence URL":"https://creativecommons.org/licenses/by/4.0/","Dataset Date":"extract of 11/05/2026","Simplification Tolerance M":200,"Coordinate Precision Decimals":4,"CRS":"GDA2020 (EPSG:7844)","Generated":"2026-09-13"},"id":"5740"},{"arcs":[[-1,-7,-13,15,16]],"type":"Polygon","properties":{"LGA Code":"5760","Abbreviated Name":"North Burnett","LGA Name":"North Burnett Regional","Area Sq Km":19670.52276,"LDMG Name":"North Burnett","Police Region Name":"North Coast Region","Police Region Code":"NCR","Police Region Short Name":"North Coast","Region Slug":"north_coast","Layer Id":"qld_north_coast_ldmg_boundaries_gda2020_simp200m","Layer Group":"per-region","Layer Kind":"ldmg","Source":"Local government area boundaries - Queensland, Department of Natural Resources and Mines, Manufacturing and Regional and Rural Development; ASGS Edition 3 (2021) Local Government Areas, Australian Bureau of Statistics","Source URL":"https://www.data.qld.gov.au/dataset/local-government-area-boundaries-queensland","Licence":"CC BY 4.0","Licence URL":"https://creativecommons.org/licenses/by/4.0/","Dataset Date":"extract of 11/05/2026","Simplification Tolerance M":200,"Coordinate Precision Decimals":4,"CRS":"GDA2020 (EPSG:7844)","Generated":"2026-09-13"},"id":"5760"},{"arcs":[[-12,17,-16],[-4]],"type":"Polygon","properties":{"LGA Code":"6630","Abbreviated Name":"South Burnett","LGA Name":"South Burnett Regional","Area Sq Km":8378.58755,"LDMG Name":"South Burnett","Police Region Name":"North Coast Region","Police Region Code":"NCR","Police Region Short Name":"North Coast","Region Slug":"north_coast","Layer Id":"qld_north_coast_ldmg_boundaries_gda2020_simp200m","Layer Group":"per-region","Layer Kind":"ldmg","Source":"Local government area boundaries - Queensland, Department of Natural Resources and Mines, Manufacturing and Regional and Rural Development; ASGS Edition 3 (2021) Local Government Areas, Australian Bureau of Statistics","Source URL":"https://www.data.qld.gov.au/dataset/local-government-area-boundaries-queensland","Licence":"CC BY 4.0","Licence URL":"https://creativecommons.org/licenses/by/4.0/","Dataset Date":"extract of 11/05/2026","Simplification Tolerance M":200,"Coordinate Precision Decimals":4,"CRS":"GDA2020 (EPSG:7844)","Generated":"2026-09-13"},"id":"6630"},{"arcs":[[[-10,-15,18]],[[19]]],"type":"MultiPolygon","properties":{"LGA Code":"6720","Abbreviated Name":"Sunshine Coast","LGA Name":"Sunshine Coast Regional","Area Sq Km":2286.58942,"LDMG Name":"Sunshine Coast","Police Region Name":"North Coast Region","Police Region Code":"NCR","Police Region Short Name":"North Coast","Region Slug":"north_coast","Layer Id":"qld_north_coast_ldmg_boundaries_gda2020_simp200m","Layer Group":"per-region","Layer Kind":"ldmg","Source":"Local government area boundaries - Queensland, Department of Natural Resources and Mines, Manufacturing and Regional and Rural Development; ASGS Edition 3 (2021) Local Government Areas, Australian Bureau of Statistics","Source URL":"https://www.data.qld.gov.au/dataset/local-government-area-boundaries-queensland","Licence":"CC BY 4.0","Licence URL":"https://creativecommons.org/licenses/by/4.0/","Dataset Date":"extract of 11/05/2026","Simplification Tolerance M":200,"Coordinate Precision Decimals":4,"CRS":"GDA2020 (EPSG:7844)","Generated":"2026-09-13"},"id":"6720"}]}}}