{"type":"Topology","arcs":[[[38363,58034],[0,0],[-1891,184],[-216,-2360],[251,-23],[-363,-4265],[374,-33],[-83,-960],[25,-2],[-100,-1176],[-121,-24],[-23,3],[-28,-265],[32,-3],[-49,-591],[-36,4],[-207,-451],[446,-47],[-71,-697],[-199,22],[-84,-838],[-158,17],[-83,-1007],[-740,67],[-33,-212],[322,-30],[-128,-1395],[274,-21],[-45,-605],[-768,13],[-833,166],[-86,-71],[752,-902],[-613,-514],[230,-24],[-94,-963],[-350,-289],[295,-29],[-14,-158]],[[33948,40555],[-22,-583],[-39,4],[-2,-37],[39,-18],[-25,-795],[-149,-1075],[-2563,223],[-12,-145],[-1330,118],[28,329],[-621,55],[-206,-1775],[-1445,68],[-162,-349],[-16,-54],[-32,-45],[-2,-192],[55,-127],[-19,-22],[35,-42],[-12,-13],[-1,-91],[-8,-24],[29,-82],[5,-71],[-797,61],[-132,-1768],[381,-442],[210,-215],[-67,-126],[-1382,-1185],[993,-1200],[-444,-326],[-98,110],[-358,27],[-10,-90],[19,-83],[25,-42],[65,-438],[121,-115],[46,-424],[-20,-27],[-50,-203],[65,-273],[-1025,-854],[-6,7],[-88,10],[-1,22],[-13,-2],[-9,-18],[4,-13],[36,-21],[-5,-41],[16,-18],[-22,-11],[-4,-41],[289,-101],[196,-222],[-559,-474],[-455,-406],[187,-213],[-1039,-853],[60,-79],[1414,-1637],[5,-17],[17,-9],[246,-281],[20,-3],[111,83],[899,766],[718,-861],[166,-172],[295,-339],[30,-52],[47,-38],[592,-692],[59,10],[70,-32],[-37,-31],[563,-650],[627,-771],[1235,-146],[8,133],[1236,-8],[1324,-132],[12,127],[1297,-77],[-371,-3589],[-398,-348],[-240,-312],[-871,1004],[-945,-887],[1324,-1420],[-355,-295],[66,-85],[-554,-460],[891,-1063],[-29,-26],[-19,-48],[-18,-19],[-55,-36],[-64,-20],[-100,-19],[-48,8],[-22,-6],[-32,-32],[-131,-70],[-8,-16],[-50,-44],[-189,-36],[-46,-37],[-14,-39],[-30,-43],[-46,-34],[-34,-78],[-15,-15],[-112,-67],[-28,-37],[-24,-5],[-32,-34],[-28,-9],[-58,-77],[-77,-57],[-136,-23],[-23,-19],[-32,11],[-76,-20],[-39,2],[-27,-11],[-27,-42],[-58,-33],[-25,11],[-32,-6],[-85,15],[-96,-23],[-29,-29],[-1732,483],[2,40],[-44,15],[-732,857],[-454,5],[-120,-1330],[-1018,-874],[30,356],[-1315,108],[-1023,5],[-1023,43],[-17,-234],[386,-34],[-91,-1336],[-509,40],[-72,-1324],[638,-58],[-183,-2126],[-1184,113],[-114,34],[-194,-2335],[809,-70],[419,-461],[21,28],[92,215],[-14,31],[3,9],[58,52],[153,59],[38,51],[61,26],[6,25],[46,26],[253,-519],[-121,-1404],[215,-15],[-15,-310],[140,-13],[-235,-2552],[-24232,-4],[-2,18393],[-35,67684],[79,-80],[109,-69],[66,-58],[32,-34],[-5,-29],[7,-11],[82,-31],[41,-29],[54,-64],[84,-164],[16,4],[137,-110],[19,-25],[-10,-28],[9,-16],[37,2],[229,-236],[16,-21],[-3,-21],[8,-9],[30,12],[17,-10],[143,-101],[120,-61],[30,-24],[5,-15],[-13,-15],[5,-42],[16,-12],[23,30],[11,-4],[64,-51],[152,-93],[223,-100],[204,-67],[267,-68],[159,-139],[55,-31],[145,-46],[29,-33],[52,5],[48,19],[4,38],[-13,19],[10,12],[22,-3],[6,-24],[29,-3],[15,22],[35,-27],[26,-5],[23,7],[121,-8],[272,-132],[44,-27],[98,-83],[100,-58],[45,0],[46,18],[118,3],[28,-5],[44,-48],[63,-8],[123,-52],[37,6],[7,30],[38,8],[162,-19],[168,-5],[54,-19],[16,34],[11,6],[281,21],[55,-15],[24,14],[143,30],[56,-3],[15,10],[58,2],[23,14],[60,8],[23,20],[17,-2],[23,-25],[121,-29],[39,-20],[94,-123],[48,-39],[93,-51],[158,-69],[231,-77],[22,-16],[4,-16],[44,-5],[121,-52],[15,-9],[36,-59],[5,10],[20,-4],[115,-61],[107,-41],[299,-80],[50,-40],[4,-24],[32,-10],[44,-43],[73,-33],[290,-74],[101,-8],[131,12],[162,-57],[113,-27],[274,-23],[18,-19],[32,13],[16,-24],[76,-21],[58,-62],[17,47],[26,-3],[35,-14],[153,-105],[86,-29],[13,-15],[-7,-41],[-29,-22],[-32,-60],[18,-18],[7,-66],[37,-93],[72,-93],[100,-66],[23,-28],[63,-40],[27,-40],[33,-18],[-26,-13],[25,-58],[50,-82],[63,-69],[3,-17],[13,-12],[45,-5],[148,-86],[285,-83],[55,-38],[-31,-110],[-52,-95],[-22,-71],[-29,-147],[-4,-103],[38,-179],[-5,-31],[15,-1],[6,-54],[7,-5],[14,-60],[-4,-19],[-21,-19],[25,2],[19,-52],[41,-336],[32,-77],[2,-45],[54,-114],[5,-58],[18,-10],[38,-103],[-6,-17],[30,-40],[49,-94],[45,-129],[93,-178],[20,-55],[20,-120],[41,-46],[65,-127],[21,1],[14,-28],[138,-142],[365,-237],[29,-39],[61,-15],[93,-57],[21,-20],[-8,-30],[43,22],[122,-38],[109,-55],[14,-34],[10,22],[11,3],[223,-3],[160,18],[209,-7],[239,-133],[65,-56],[118,-29],[88,-39],[178,-132],[88,-98],[8,-20],[28,-4],[176,-93],[67,-67],[102,-123],[-6,-10],[-58,-2],[-35,-17],[12,-23],[25,-3],[70,-40],[88,-24],[21,-32],[48,6],[27,-30],[44,11],[66,-34],[39,-46],[24,-83],[25,-52],[40,-38],[-3,-36],[27,-5],[4,14],[13,-1],[23,-49],[29,-34],[28,-24],[129,-58],[41,-48],[64,-53],[70,-7],[138,-49],[57,2],[151,-35],[14,-12],[28,5],[6,-17],[12,18],[33,-4],[8,-11],[-4,-31],[-17,-34],[31,-1],[6,34],[36,-20],[-5,18],[14,17],[22,7],[42,-22],[-17,-21],[14,12],[13,22],[34,-31],[20,-1],[30,-49],[30,-12],[30,-32],[8,-27],[24,19],[17,-11],[21,24],[16,-1],[16,-39],[-16,-55],[34,-6],[19,17],[137,21],[84,-11],[54,-42],[37,6],[45,60],[18,5],[32,-15],[11,-21],[15,24],[82,35],[50,-37],[14,-42],[37,-54],[17,4],[42,-55],[-3,-23],[-43,-41],[-8,-45],[5,-35],[97,2],[-13,32],[-17,1],[1,9],[15,43],[32,-3],[285,-135],[325,-105],[153,-88],[51,-64],[-8,-15],[-78,-43],[30,-21],[-8,-54],[4,-47],[55,-121],[108,-134],[51,-49],[75,-66],[165,-111],[118,-39],[197,-47],[495,-17],[282,39],[153,44],[107,19],[39,-16],[17,20],[100,27],[78,4],[51,21],[128,26],[45,-5],[55,-38],[102,44],[167,43],[75,9],[40,-12],[48,21],[75,10],[49,-5],[20,16],[211,46],[155,8],[174,23],[132,49],[183,45],[316,164],[67,66],[98,34],[46,36],[20,6],[21,-12],[10,-22],[26,-5],[152,18],[68,12],[317,113],[159,99],[126,122],[52,28],[52,5],[94,35],[51,-1],[70,54],[43,12],[42,37],[89,55],[184,137],[126,122],[68,92],[110,96],[19,43],[43,18],[63,50],[94,27],[58,65],[20,4],[86,-41],[47,3],[15,-22],[19,-3],[33,14],[12,-8],[45,125],[127,128],[89,52],[-16,18],[16,17],[167,47],[161,73],[40,3],[109,60],[60,89],[97,103],[45,125],[148,231],[27,37],[19,9],[73,99],[4,64],[41,79],[-6,7],[9,47],[34,98],[1,58],[49,177],[5,201],[13,-1],[9,39],[17,-3],[2,57],[16,25],[-2,17],[-17,4],[3,60],[22,16],[-5,25],[12,11],[17,124],[-8,45],[6,46],[14,16],[-4,41],[19,108],[81,155],[17,48],[-17,21],[-3,30],[9,29],[61,100],[65,33],[0,110],[65,172],[8,0],[17,34],[-11,65],[53,363],[1,38],[-21,6],[1,24],[25,63],[-11,18],[2,52],[-10,75],[-31,106],[10,50],[-70,-48],[-55,17],[-33,-33],[-19,3],[43,50],[28,2],[23,-10],[13,-7],[4,-18],[66,44],[2,61],[-15,19],[-14,1],[-10,21],[-2,62],[38,178],[65,194],[45,66],[82,165],[84,90],[139,122],[158,177],[188,250],[85,133],[131,229],[44,107],[25,87],[11,201],[36,115],[20,10],[55,-26],[45,9],[4,48],[-55,-2],[-5,35],[10,29],[18,-10],[-4,-26],[29,-4],[119,56],[221,198],[139,152],[162,197],[64,85],[160,265],[33,30],[114,231],[45,133],[31,245],[62,247],[10,102],[23,59],[45,46],[0,26],[28,71],[53,86],[52,22],[50,-6],[17,-16],[-2,-36],[7,-11],[12,1],[36,68],[2,86],[154,353],[95,185],[22,97],[6,77],[-8,96],[-10,49],[-46,109],[-75,89],[-26,53],[2,122],[26,82],[68,52],[12,94],[145,280],[23,61],[47,163],[-1,32],[83,283],[2,35],[47,125],[50,297],[11,19],[-16,-2],[-14,11],[-3,38],[19,87],[49,115],[305,514],[82,124],[76,148],[117,249],[57,148],[20,98],[-20,100],[-93,162],[-26,81],[-47,96],[-136,502],[2,60],[-9,-13],[-48,170],[-64,180],[-6,55],[42,39],[53,28],[33,77],[0,23],[55,107],[61,164],[34,148],[28,218],[32,347],[45,668],[44,224],[47,309],[42,148],[125,572],[140,550],[55,149],[43,56],[10,-3],[10,-3],[4,2],[32,24],[1,53],[14,29],[1,3],[31,24],[16,-1],[1,-1],[25,-33],[2,-24],[40,-7],[17,-13],[-18,-5],[12,-4],[-12,-14],[-24,2],[-41,-54],[-49,-39],[-10,-26],[1,-15],[8,-44],[23,-8],[5,61],[0,6],[47,31],[23,-15],[21,-53],[-5,-12],[-36,-16],[3,-27],[12,-14],[44,-12],[31,24],[21,-30],[22,-1],[9,-28],[17,-9],[53,0],[-5,49],[-33,-11],[-12,13],[1,96],[13,2],[27,-25],[35,-6],[6,21],[-9,15],[-2,3],[2,3],[11,12],[12,13],[4,-3],[20,-12],[-14,-19],[10,-28],[20,23],[38,-15],[49,14],[3,1],[8,-6],[14,-9],[-3,-33],[11,-23],[6,9],[46,6],[14,-16],[-14,-20],[-15,3],[4,-63],[-30,-27],[-12,-23],[4,-28],[25,-19],[19,10],[-3,12],[-23,2],[-3,10],[12,40],[23,-3],[2,-27],[30,-13],[19,39],[27,-13],[5,17],[16,14],[-16,28],[21,46],[10,7],[31,-24],[-20,-3],[-1,-32],[43,0],[8,22],[-10,10],[21,30],[17,5],[7,-18],[25,-10],[8,7],[9,-12],[28,15],[24,-38],[15,4],[10,-44],[45,-56],[23,-2],[24,20],[10,-21],[26,-17],[26,11],[29,-20],[22,1],[23,-18],[10,-32],[51,21],[95,0],[17,8],[18,-11],[2693,-247],[189,1053],[-29,53],[-66,49],[-15,46],[-76,76],[-32,62],[-34,26],[-60,15],[-19,69],[-17,23],[-78,30],[-32,59],[0,63],[31,41],[104,55],[88,193],[0,29],[72,-18],[70,-43],[97,-21],[138,-75],[55,-59],[47,6],[571,1716],[1223,-2119],[3414,-340],[144,1357],[2539,-198],[-106,-1331],[-470,43],[-106,-1319],[-921,59],[-81,-1268],[-531,43],[-87,-1355],[-544,-527],[-71,-568],[31,-6],[43,-28],[47,-66],[39,-92],[63,-110],[80,-81],[55,-35],[126,-60],[154,-9],[62,-33],[41,-48],[74,-66],[187,-209],[-1,-23],[-360,-556],[-514,371],[-342,-530],[-412,-3344],[-322,-3769],[-721,-1049],[51,-44],[10,-34],[43,-20],[17,-24],[35,-3],[42,-35],[51,-7],[38,-23],[25,-70],[29,-20],[-6,-37],[17,-22],[25,-13],[15,-41],[77,-76],[68,-30],[9,-32],[19,-16],[49,-22],[34,-43],[25,-15],[25,-38],[25,-15],[39,-75],[56,-11],[19,-33],[110,-14],[46,12],[-1158,-1636],[-508,628],[-1378,-1330],[77,-50],[75,-24],[105,-17],[94,5],[68,-34],[35,-56],[75,-52],[51,-4],[55,-45],[9,-27],[55,-50],[33,-85],[40,-61],[-1,-41],[-744,-677],[-1004,1201],[-379,-336],[-953,1278],[-936,-834],[428,-547],[-925,118],[26,333],[-1269,114],[-30,-346],[-1253,133],[-130,-1512],[-204,17],[-33,-624],[500,-29],[-44,-633],[-163,-111],[-77,-16],[-27,22],[-19,37],[-43,33],[-45,13],[-42,4],[-39,-13],[-32,6],[-103,-31],[-23,10],[-1,87],[-69,15],[-101,-11],[-53,57],[-20,42],[-14,3],[-95,-32],[-104,-1476],[1364,-105],[-18,-259],[-607,38],[-41,-654],[31,5],[26,18],[43,1],[-42,-484],[-945,95],[17,214],[-698,71],[-65,-891],[-377,26],[-53,-20],[1,-19],[-22,-25],[-14,-44],[-18,-27],[0,-35],[15,-30],[-12,-17],[3,-31],[34,-66],[4,-42],[31,-69],[-7,-34],[15,-49],[-52,-123],[-7,-83],[15,-22],[48,-39],[4,15],[19,9],[84,-28],[44,-78],[44,8],[17,-31],[43,-17],[50,-39],[0,-32],[29,-32],[1,-23],[18,-19],[-9,-14],[6,-32],[31,-32],[3,-46],[-16,-39],[11,-46],[30,-52],[60,9],[28,-21],[12,-61],[31,-11],[10,-15],[6,-53],[-6,-35],[21,-41],[-20,-34],[19,-23],[-6,-28],[63,-57],[-13,-26],[22,-34],[-24,-13],[17,-57],[-22,-54],[27,-19],[11,-28],[-15,-25],[26,-20],[-1,-46],[21,4],[6,-17],[27,-7],[17,-32],[27,6],[24,-11],[18,-70],[16,-25],[65,-38],[1,-29],[26,-58],[-6,-15],[18,-21],[61,-11],[36,-32],[11,-83],[43,-81],[18,-18],[56,-22],[20,-64],[-11,-63],[11,-27],[-27,-72],[3,-14],[19,0],[51,-36],[25,-33],[69,-12],[11,-11],[5,-17],[-11,-72],[29,-94],[-33,-23],[2,-50],[-51,-36],[0,-18],[13,-15],[-22,-38],[24,-26],[16,-47],[-48,-40],[13,-37],[-13,-9],[24,-44],[30,-28],[-3,-32],[-11,-29],[-61,-5],[-1,-20],[-20,-4],[-26,-23],[1,-29],[13,-9],[-11,-24],[10,-43],[-22,-17],[21,-38],[-5,-64],[22,-102],[-1,-48],[35,-19],[13,-26],[17,-8],[13,-33],[10,-5],[1,-35],[13,-28],[-19,-40],[-10,1],[-1,16],[-27,0],[-15,-6],[-7,-18],[3,-11],[17,-5],[3,-45],[-12,-24],[20,-67],[13,-19],[28,-6],[5,-47],[17,-18],[-4,-65],[9,-39],[-15,-7],[-19,-37],[42,-11],[16,-23],[78,-48],[458,-46],[-50,-509],[2151,-239],[580,-54],[-199,-2331],[-266,24],[-133,-1342],[-94,10],[4,-60],[32,-38],[1,-16],[-16,-23],[12,-34],[-13,-27],[12,-24],[33,-6],[1,-18],[-12,-21],[14,-18],[8,9],[25,-17],[2,-24],[20,-4],[0,-17],[28,4],[17,-16],[18,1],[15,-27],[23,-8],[32,9],[54,-28],[101,5],[29,-23],[22,12],[38,-7],[81,33],[62,-16],[46,8],[21,-25],[26,-8],[6,-21],[51,-76],[40,-19],[18,-33],[37,-24],[112,0],[46,-45],[38,-10],[59,-69],[59,-5],[31,14],[15,-9],[28,8],[74,1034],[1333,-105],[86,1012],[1542,-136],[21,217],[395,-23],[-143,-1546],[630,-69],[11,123],[964,-104],[13,227],[391,-36],[-220,-2493],[175,-17],[11,126],[1733,-134],[-106,-1305],[145,-11],[-60,-658]],[[30441,99424],[4,-85],[161,-201],[27,-58],[100,7],[9,11],[3,51],[25,22],[38,12],[26,-4],[30,-24],[6,-61],[31,25],[26,-13],[0,-28],[38,27],[39,-5],[23,-33],[-6,-33],[-16,-6],[-51,12],[-14,-14],[-5,-21],[26,-25],[13,1],[41,37],[28,1],[11,-10],[6,-34],[-28,-50],[19,-104],[5,-6],[40,0],[25,-22],[22,9],[31,-2],[25,18],[20,-15],[28,13],[1,1],[17,-11],[1,-25],[9,-11],[27,30],[-3,33],[19,10],[26,-15],[39,5],[14,-33],[20,-6],[25,17],[31,-14],[19,13],[39,-1],[30,-18],[22,-41],[14,1],[12,23],[28,-3],[60,27],[22,-3],[0,38],[33,6],[27,19],[29,5],[13,17],[18,1],[38,-34],[66,26],[9,17],[57,17],[30,21],[9,16],[39,-18],[33,10],[47,-1],[18,-11],[16,17],[34,8],[42,-11],[23,32],[44,23],[17,-1],[21,-10],[16,20],[90,40],[16,-14],[25,11],[19,-14],[50,15],[17,-8],[5,24],[15,16],[41,8],[53,-9],[33,-30],[36,6],[106,139],[27,16],[10,-6],[15,27],[22,-7],[22,24],[39,-7],[29,19],[21,-5],[44,31],[80,-7],[76,42],[28,-26],[61,-6],[122,87],[39,5],[40,33],[13,-2],[59,33],[36,-25],[21,-2],[31,28],[99,24],[5,10],[1,41],[18,21],[32,0],[63,49],[18,4],[17,22],[31,9],[43,45],[6,34],[28,45],[20,14],[3,39],[53,56],[15,24],[3,26],[28,14],[9,27],[40,57],[21,-10],[-11,-58],[16,-33],[-122,-124],[6,-13],[-9,-42],[-103,-70],[-64,-98],[-12,-8],[-24,8],[-33,-21],[-54,-77],[-56,-21],[-12,-28],[-27,-29],[-37,6],[-74,-17],[-34,5],[-38,-27],[-38,-12],[-12,6],[-53,-49],[-31,-6],[-13,-11],[8,-23],[-110,-22],[-44,14],[-48,57],[-53,-29],[-49,-43],[-56,-20],[-35,-29],[-46,-16],[-42,-33],[-86,-17],[-41,2],[-32,-50],[-28,-20],[-44,-6],[-25,33],[-84,3],[-25,-47],[-18,9],[-49,-13],[-24,14],[-22,-14],[-18,14],[-38,-12],[-29,-23],[-17,1],[-22,-24],[-23,14],[-52,-23],[-27,-35],[-44,14],[-49,-24],[-71,10],[-29,-11],[-13,6],[-4,6],[-13,-3],[-7,10],[-2,-12],[-44,-30],[-31,-5],[-28,-23],[-62,-31],[-18,5],[-28,32],[-22,-18],[-34,-2],[-24,-22],[-30,-8],[4,-22],[-8,-16],[-28,1],[-56,-24],[-24,5],[-14,-25],[-28,7],[-13,32],[-19,16],[-42,7],[-2,-10],[-20,-10],[-24,17],[-31,-22],[-22,3],[-20,34],[0,-18],[-22,-5],[0,27],[-20,-14],[3,-19],[-16,-5],[0,-9],[-5,8],[-15,-5],[-12,-23],[-23,11],[-8,29],[-11,9],[-11,-8],[2,-66],[-16,-17],[-30,3],[-25,38],[-60,4],[-8,7],[1,25],[-58,18],[-15,33],[0,27],[-14,-8],[5,35],[-17,21],[-12,-4],[32,34],[-5,24],[-70,2],[-24,29],[4,28],[17,24],[58,5],[-13,21],[-24,-2],[-34,-20],[-13,6],[-15,36],[-18,-16],[-23,1],[-11,21],[4,28],[-16,22],[-24,11],[-49,-15],[-13,-19],[-3,-36],[-17,-20],[-98,-14],[-13,7],[-50,79],[-65,68],[-100,65],[-29,81],[16,76],[0,1],[45,13],[1,-29]],[[8805,82894],[46,30],[33,-49],[52,-20],[32,-97],[-23,-4],[-36,51],[-40,4],[-22,13],[0,23],[-26,15],[-3,22],[-13,12]],[[8847,83061],[55,52],[11,-9],[-2,-31],[12,-25],[-60,-42],[-16,55]],[[9148,83560],[14,20],[36,4],[167,67],[57,25],[41,32],[27,-24],[29,-85],[24,-23],[40,-17],[8,-31],[22,-16],[3,-17],[-17,0],[-29,-42],[-42,15],[-47,-1],[-28,17],[-54,-31],[29,47],[-10,2],[-30,-49],[-23,15],[-37,-51],[-17,4],[-75,-33],[-47,-56],[1,-29],[8,2],[-8,-26],[-28,24],[-5,38],[-24,48],[6,47],[-12,21],[36,80],[-15,23]],[[9370,83153],[5,-12],[-1,-2],[-1,1],[-3,13]],[[9479,83781],[1,2],[0,-3],[-1,1]],[[9526,83793],[3,-1],[-9,0],[6,1]],[[9579,84660],[52,71],[161,135],[90,-18],[49,-50],[-16,-110],[-35,-62],[-2,-31],[32,-101],[-1,-47],[10,-12],[-12,-29],[-12,3],[-29,-47],[-28,-13],[-41,1],[-70,-59],[-19,-27],[-7,-34],[16,-67],[-105,4],[-78,-59],[-2,48],[22,43],[35,130],[-21,91],[-30,43],[-7,34],[1,32],[38,68],[9,63]],[[9536,84079],[21,18],[40,-55],[-28,-10],[-28,3],[-8,17],[3,27]],[[9600,83467],[1,-2],[-2,0],[1,2]],[[9706,85430],[67,62],[55,38],[75,78],[135,97],[81,76],[61,123],[-3,14],[-28,22],[-5,29],[64,98],[-3,20],[-20,13],[137,90],[57,66],[17,92],[-17,33],[59,28],[59,45],[68,23],[224,144],[37,45],[27,49],[46,43],[49,23],[37,5],[95,-40],[64,-8],[120,32],[71,41],[9,-27],[23,-27],[29,-13],[14,-32],[11,4],[-12,40],[44,-42],[38,12],[-22,26],[-98,35],[-12,13],[18,41],[22,17],[192,4],[114,39],[155,19],[148,-28],[161,6],[69,17],[84,40],[6,15],[-5,13],[84,44],[10,14],[-2,18],[107,54],[187,71],[118,67],[24,46],[-9,50],[45,14],[35,32],[6,23],[18,-3],[11,10],[20,-32],[46,-25],[116,-26],[172,-18],[90,-24],[91,-126],[8,-29],[72,-48],[72,-64],[82,-111],[93,-51],[58,-6],[93,7],[49,-20],[23,-46],[-21,-59],[-39,5],[-14,6],[-14,25],[-5,-8],[27,-33],[56,-8],[6,-34],[48,20],[35,-7],[22,-78],[41,-18],[30,-93],[-25,-71],[11,-80],[-9,-23],[4,-26],[-15,-36],[1,-36],[17,8],[25,-3],[52,-29],[9,-22],[-6,-39],[20,-27],[-6,-14],[-64,-19],[-40,9],[-90,-11],[-8,16],[-4,69],[-17,34],[-24,21],[-68,14],[-135,-12],[-41,-50],[-87,-22],[-27,-43],[-40,8],[-51,-19],[-36,-37],[-67,-29],[-142,-112],[-34,-15],[-19,42],[12,31],[-24,35],[-23,16],[10,56],[-5,26],[-25,23],[-50,14],[-9,17],[2,47],[-23,48],[8,23],[27,21],[-1,45],[-38,51],[-104,42],[-39,33],[4,26],[-8,19],[43,40],[-12,5],[13,27],[-6,44],[24,20],[-24,-4],[-9,28],[-23,23],[-13,-18],[31,-48],[-1,-55],[-165,-77],[5,-18],[-18,-56],[32,43],[3,-23],[-43,-38],[-9,-25],[-57,-51],[-5,-24],[26,-19],[-18,-46],[-96,13],[-51,-8],[-15,8],[-17,29],[-39,2],[-39,-26],[-56,-75],[-29,-5],[-31,7],[-14,-17],[-7,15],[-18,-7],[-11,8],[11,8],[-2,14],[-37,6],[-19,-19],[-16,-1],[14,-23],[-4,-10],[-25,0],[-3,-18],[-28,-14],[-2,-18],[53,-4],[52,-59],[19,-48],[18,-15],[63,-15],[27,15],[35,-6],[47,18],[71,-1],[13,-16],[11,-92],[-13,-31],[2,-16],[-30,-22],[-39,-56],[4,-70],[-47,16],[-12,41],[-32,35],[-6,44],[-20,22],[-32,16],[-73,-8],[-69,-30],[-52,-38],[-43,-46],[-20,-5],[-25,-77],[81,-12],[48,-27],[10,-19],[1,-22],[-28,-92],[-15,-14],[0,-19],[2,-24],[50,-81],[-15,-50],[-47,-80],[-48,-6],[-36,19],[-61,-3],[-99,-32],[14,-8],[-8,-29],[31,-4],[11,-21],[1,-26],[42,-37],[28,-56],[-10,-46],[22,-38],[-15,14],[-6,-8],[-1,-40],[-12,1],[11,-24],[-75,-26],[-13,-35],[-11,-7],[-7,20],[-29,19],[-151,-2],[-2,18],[19,32],[-1,21],[-29,33],[-11,0],[-18,47],[0,26],[-25,54],[-27,13],[2,12],[8,0],[-7,13],[-24,29],[-58,18],[-19,31],[6,6],[-45,6],[-13,12],[25,16],[-15,22],[-15,15],[-40,-7],[14,26],[-28,5],[32,42],[30,-6],[2,8],[25,3],[16,16],[1,23],[-21,-16],[-45,7],[-107,84],[-26,5],[-25,-11],[-5,-17],[11,-26],[80,-67],[-10,-19],[13,-14],[-47,-9],[26,-63],[4,-158],[15,-36],[36,-28],[28,-48],[-32,-47],[-74,-72],[-28,-62],[18,-58],[51,-33],[-25,-9],[-23,4],[-24,16],[-1,22],[-24,9],[-43,47],[-40,19],[-27,-4],[-16,7],[-2,-13],[-21,-8],[22,-12],[39,-48],[-16,-64],[-123,-102],[-57,-64],[-28,-5],[-66,-119],[-2,-40],[-37,-29],[-56,55],[-24,-2],[-37,-18],[-89,-75],[-57,27],[-8,-10],[-38,-4],[-54,14],[-37,59],[-41,8],[-70,0],[-63,-13],[-88,-51],[-34,-2],[-18,41],[-12,81],[-24,51],[-35,30],[-71,17],[19,87],[22,19],[60,17],[15,19],[-48,-9],[-12,10],[1,16],[37,28],[-18,17],[-91,-95],[-22,-100],[-27,2],[-16,14],[9,-21],[-10,-5],[-36,119],[3,59],[15,34],[-9,21],[-1,55],[-27,65],[-26,22],[27,25],[-61,-31],[-51,-8],[-54,18],[-67,-12],[-22,15],[-16,26],[-16,46],[-3,85],[-17,28],[-18,62],[-34,42],[94,128],[3,29],[-11,67]],[[9629,83853],[-5,-6],[2,3],[3,3]],[[9644,83925],[5,5],[16,3],[-2,-3],[-19,-5]],[[9716,84240],[11,0],[7,-33],[21,-32],[-33,39],[-6,26]],[[9994,81942],[40,4],[17,-28],[-16,10],[-41,14]],[[10085,81820],[11,8],[42,-4],[49,-71],[54,-33],[35,-53],[106,-72],[28,-63],[39,-49],[117,-93],[15,-45],[-35,-2],[-16,31],[-69,-10],[0,52],[-25,39],[-70,2],[-34,-14],[-27,17],[-39,50],[-12,43],[-24,39],[-37,0],[-35,-22],[-2,55],[-16,52],[-24,32],[-19,9],[3,13],[-21,49],[6,40]],[[10467,88888],[15,-2],[-5,-23],[-11,16],[1,9]],[[10540,81965],[29,31],[4,-14],[27,-10],[12,5],[32,-23],[25,6],[28,-33],[-37,14],[-10,-33],[-21,-14],[-2,-25],[-21,25],[-40,-2],[-12,-14],[-5,14],[8,45],[-17,28]],[[10630,88538],[29,-1],[15,9],[-12,34],[14,4],[-4,-27],[12,-21],[-33,-68],[-10,48],[-11,22]],[[10703,88587],[7,-9],[-7,-2],[0,11]],[[10772,84209],[8,6],[10,-29],[41,-29],[1,-25],[-19,-2],[-16,31],[-23,9],[-2,39]],[[11377,82297],[8,4],[16,-17],[-4,-16],[-20,7],[0,22]],[[11409,81248],[78,7],[93,-38],[14,-21],[21,6],[-17,-7],[-43,-3],[-114,20],[-28,14],[-4,22]],[[11457,81861],[43,-43],[-1,-9],[-23,7],[-19,45]],[[11513,81597],[26,11],[14,50],[28,4],[-26,-5],[-14,-50],[-21,-12],[-7,2]],[[11521,85154],[30,51],[2,-43],[13,-26],[-13,-5],[-6,-29],[-23,-21],[-11,22],[16,22],[-8,29]],[[11650,81128],[134,-18],[115,50],[42,48],[-3,7],[47,42],[2,19],[75,36],[85,76],[22,95],[-10,34],[24,60],[-11,11],[11,13],[69,4],[38,-8],[1,-13],[25,6],[19,29],[62,19],[57,59],[34,53],[-6,42],[16,66],[13,9],[-34,35],[14,58],[-30,91],[4,15],[26,-8],[32,-35],[46,-15],[17,-60],[26,-43],[84,-101],[100,-87],[58,-63],[41,-61],[60,-36],[51,11],[-15,-51],[-12,-1],[-12,-44],[-16,-14],[14,-93],[72,-161],[88,-77],[23,-50],[40,-53],[-17,0],[-21,19],[-48,-14],[-13,9],[-58,-23],[-63,-43],[-20,9],[-86,-5],[-151,-44],[-43,-38],[-11,-39],[14,-11],[-12,-14],[-17,15],[-24,-15],[31,-33],[-47,-13],[-40,17],[-6,12],[-40,-1],[-23,20],[-65,-9],[-25,-25],[-13,4],[8,6],[-11,13],[-12,0],[-5,-18],[-10,22],[-10,-7],[6,27],[-7,8],[-10,-4],[-13,46],[19,71],[-8,22],[-22,21],[8,23],[-197,-42],[-103,-33],[-46,5],[-16,-25],[-11,9],[-16,-8],[8,-23],[-26,-16],[8,-12],[-5,-21],[-36,-62],[-5,-31],[35,-39],[-42,0],[-19,13],[-23,-12],[-37,32],[-8,79],[-39,43],[-36,19],[0,62],[-17,17],[-1,22],[-22,33],[-19,86]],[[12066,84770],[35,18],[22,33],[36,27],[6,-3],[-9,-18],[10,-17],[10,47],[39,8],[33,30],[12,1],[16,-22],[23,8],[29,-55],[6,-38],[-34,-24],[-34,-59],[-30,-102],[-102,-67],[-10,8],[-54,3],[-32,20],[3,57],[-25,14],[48,94],[2,37]],[[12142,84935],[43,-20],[-4,-14],[-29,5],[-10,29]],[[12183,84891],[9,6],[4,-4],[-4,-3],[-9,1]],[[12315,85423],[5,-2],[-4,-3],[-1,5]],[[12972,80835],[9,9],[23,-23],[28,15],[11,-5],[-16,-39],[-34,-36],[8,-6],[-16,-5],[0,-60],[-22,12],[-16,-9],[4,10],[-12,11],[12,13],[-8,23],[38,45],[-9,45]],[[13328,80861],[44,-4],[43,10],[73,47],[7,25],[-10,21],[13,14],[-18,59],[46,52],[5,22],[15,17],[-1,20],[31,24],[5,55],[-16,47],[15,39],[7,8],[23,-7],[41,-31],[42,-71],[6,-35],[-26,5],[-26,-57],[-1,-25],[-35,-39],[-133,-257],[-9,-47],[16,-35],[-2,-55],[14,-10],[-7,-43],[-41,20],[-46,-12],[2,16],[-11,20],[-54,16],[14,33],[-7,54],[6,20],[-11,66],[-14,18]],[[14209,86657],[58,25],[32,52],[5,77],[43,65],[69,-8],[32,-26],[5,-16],[-13,-51],[11,-96],[11,-25],[30,-28],[-17,-58],[7,-63],[-12,-86],[-18,-5],[-10,26],[-18,10],[-6,41],[-19,15],[-30,8],[-55,-14],[-36,14],[-47,76],[-22,67]],[[15057,86538],[9,4],[51,-36],[19,3],[8,-18],[-35,-12],[-20,-28],[1,29],[-37,40],[4,18]],[[15098,86406],[6,11],[7,-11],[-7,-1],[-6,1]],[[15244,84578],[53,52],[59,-7],[6,-13],[-63,-31],[-55,-1]],[[15380,84527],[1,0],[-3,-7],[2,7]],[[15388,84547],[4,1],[-4,-11],[0,10]],[[15428,84936],[41,27],[65,-1],[54,19],[21,32],[-12,64],[15,20],[16,5],[25,6],[18,-38],[87,-40],[-69,-29],[-35,-55],[-20,-9],[-42,4],[-59,-39],[-13,-40],[-30,-48],[4,33],[-10,23],[-37,55],[-19,11]],[[38363,58034],[-13,-140],[5403,-495],[59,73],[21,4],[39,-29],[51,-88],[17,-16],[24,-4],[39,21],[62,63],[11,27],[9,132],[74,122],[61,154],[41,56],[54,44],[132,67],[30,40],[21,64],[23,37],[35,17],[44,-6],[136,-76],[43,-10],[85,11],[93,144],[-3,184],[10,13],[24,-1],[41,46],[85,53],[32,-25],[72,18],[18,18],[52,-19],[82,-7],[29,66],[53,26],[37,84],[31,16],[37,45],[196,83],[96,59],[66,76],[32,97],[-17,126],[-29,69],[51,36],[181,74],[117,-43],[131,-82],[120,-103],[29,-42],[61,-52],[124,-210],[113,-270],[230,-217],[257,-121],[40,1],[274,106],[158,-42],[346,-144],[177,-107],[229,-117],[228,-60],[610,57],[107,31],[79,49],[68,22],[97,-9],[77,-22],[228,15],[86,58],[122,155],[132,130],[68,107],[5,3],[15,8],[7,5],[23,-6],[50,-14],[200,-54],[122,-13],[76,32],[37,40],[57,-1],[127,57],[64,-1],[83,-17],[127,-81],[21,-109],[44,-54],[221,-85],[48,-58],[118,-79],[42,26],[61,67],[76,131],[59,78],[56,24],[95,64],[52,-1],[38,14],[97,73],[57,629],[353,-38],[57,706],[148,-56],[149,-6],[528,-95],[164,-61],[57,701],[945,-121],[58,593],[163,-17],[13,135],[29,80],[60,80],[1003,980],[175,-217],[501,408],[-62,27],[-112,9],[-51,-13],[-82,-45],[-168,130],[-491,1193],[-130,106],[-3,12],[-11,72],[79,546],[115,134],[574,457],[-374,482],[525,441],[-10,11],[3,36],[-24,25],[0,16],[17,24],[-7,45],[-35,13],[-9,12],[0,17],[16,19],[0,12],[-87,101],[-25,3],[-19,-10],[-77,-61],[-101,111],[-62,0],[-12,8],[-8,22],[-38,1],[-49,30],[-10,85],[25,45],[-43,44],[377,377],[-191,208],[-936,108],[69,527],[135,1322],[13,1023],[528,-59],[160,-354],[90,-10],[24,-12],[51,8],[163,-12],[94,-75],[21,-3],[30,-36],[44,24],[101,3],[74,-27],[51,20],[46,0],[-29,-277],[-58,-73],[-59,-291],[31,-113],[-38,-371],[364,-38],[-19,-187],[382,-45],[-35,57],[20,90],[-4,49],[245,-26],[-3,23],[-14,5],[-19,31],[3,23],[34,53],[12,43],[4,23],[-15,43],[12,21],[16,-2],[17,-75],[9,3],[22,-27],[19,6],[14,36],[-12,28],[-1,47],[44,34],[27,-25],[-4,-26],[39,-109],[-4,-29],[12,-17],[38,-13],[8,-45],[-10,-77],[547,-57],[39,-44],[-10,-91],[21,-22],[-7,-51],[27,-33],[-9,-30],[-14,9],[9,-62],[35,-4],[6,-18],[44,-30],[41,9],[58,-7],[19,-48],[17,-9],[54,6],[45,-62],[28,13],[27,-15],[23,2],[27,23],[26,4],[70,58],[16,0],[16,14],[39,-17],[27,2],[16,-12],[-4,-12],[16,-2],[22,-43],[-1,-36],[-23,-33],[16,-49],[13,5],[13,29],[26,2],[0,12],[14,1],[-1,69],[68,111],[67,68],[5,65],[121,159],[14,49],[46,48],[29,-4],[14,144],[-87,9],[6,22],[-20,28],[50,80],[63,-6],[-31,70],[3,212],[-19,23],[24,129],[7,5],[-26,32],[-20,9],[-6,22],[-45,16],[-4,20],[-21,8],[-41,48],[-20,72],[7,37],[-15,29],[24,41],[-17,16],[-3,24],[-55,-18],[-21,10],[-5,-16],[-16,-3],[-46,17],[-8,12],[-30,-2],[-12,26],[-31,26],[-12,50],[1,16],[20,5],[-27,62],[18,78],[25,-5],[12,8],[2,8],[-12,7],[19,20],[80,-68],[27,12],[24,-6],[19,17],[-6,42],[5,21],[18,19],[-10,17],[20,8],[9,20],[14,-10],[23,29],[231,-26],[7,16],[605,-66],[-67,-658],[221,-24],[-60,-87],[188,-142],[-42,-81],[504,-653],[218,-313],[55,47],[870,-104],[56,1043],[1790,-242],[-3,28],[-14,15],[1,31],[-53,86],[38,27],[21,-5],[42,11],[41,-10],[1,19],[28,5],[5,4],[27,32],[-26,75],[21,-5],[36,-30],[24,65],[26,-9],[17,6],[24,46],[66,64],[9,31],[-12,38],[26,13],[-2,32],[21,18],[-40,82],[5,62],[111,-12],[-80,61],[-4,3],[-1,18],[-9,39],[-2,2],[-1,1],[0,0],[0,0],[19,16],[7,0],[10,1],[4,0],[10,-11],[53,-41],[22,13],[27,-7],[35,20],[12,25],[10,-2],[44,-74],[38,-9],[24,20],[2,13],[-15,20],[6,13],[-9,27],[12,11],[-8,18],[37,-2],[13,22],[58,16],[-17,48],[16,24],[16,4],[6,-11],[16,5],[16,-14],[21,-34],[0,-21],[30,-9],[-9,-76],[-19,-24],[29,-54],[51,-29],[28,2],[4,24],[28,18],[50,-37],[74,14],[26,-12],[49,3],[72,13],[2,18],[45,-2],[3,18],[18,5],[30,-22],[-1,-26],[22,-20],[27,23],[30,3],[39,42],[50,22],[95,88],[1,24],[50,56],[60,24],[42,49],[25,14],[29,-8],[116,56],[120,-275],[112,-21],[38,14],[32,-17],[51,14],[18,16],[75,2],[31,21],[29,-1],[26,25],[58,-9],[33,12],[12,-17],[31,-15],[68,38],[65,-50],[7,-23],[19,-9],[23,37],[94,-54],[30,-5],[71,-36],[105,16],[3,1],[2,-8],[56,-87],[64,-33],[4,-12],[-26,-48],[9,-53],[24,-46],[-49,-59],[-18,-9],[-16,-75],[18,-26],[53,1],[35,-21],[25,-88],[15,-17],[14,-40],[27,-28],[32,-2],[20,-15],[-26,-1],[-25,-24],[0,-8],[36,-18],[29,-41],[-11,-26],[-33,-19],[5,-17],[-17,-32],[15,-17],[0,-42],[24,-44],[15,-16],[37,-1],[33,-24],[61,-15],[77,-43],[78,-16],[39,13],[29,-3],[26,18],[12,-24],[89,-58],[5,-39],[22,-28],[20,1],[17,-13],[-7,30],[38,16],[-2,43],[45,31],[27,-15],[63,49],[29,75],[114,129],[48,41],[66,-20],[111,-6],[215,-46],[168,-9],[5861,0],[0,-759],[4982,0],[53,-134],[48,-57],[30,-59],[912,-412],[1077,-315],[132,-52],[490,-427],[88,-34],[88,-57],[40,-120],[244,-271],[390,-175],[296,-215],[425,23],[386,-144],[1510,-703],[293,-201],[9,-25],[306,-175],[15,4],[52,-15],[59,-67],[1071,-393],[31,-31],[1126,-402],[1790,-319],[61,-77],[332,-587],[28,-30],[438,-87],[53,-27],[43,-47],[558,-123],[2692,-1089],[1844,-1129],[80,-34],[1744,-1332],[42,-67],[39,-11],[67,-64],[590,-225],[278,-331],[180,-118],[-19045,-7],[-387,-858],[-66,-167],[-510,106],[-213,-31],[-80,-57],[-9,9],[-4,-11],[-14,4],[-16,-9],[-67,-7],[-15,-13],[-37,6],[-17,-7],[-4,-19],[-38,9],[-15,-21],[-19,-7],[-6,-18],[15,3],[2,-23],[-17,2],[-10,-25],[3,-17],[15,-5],[-9,-8],[11,-7],[3,-59],[-13,-3],[-5,-17],[-17,0],[-1,13],[-16,-14],[-9,2],[-30,-36],[-42,-15],[-26,-36],[-14,0],[-13,-21],[-54,-30],[6,-31],[-15,-13],[-2,-17],[33,-5],[-9,-141],[-154,19],[-49,-475],[18,-2],[-7,-64],[-16,0],[-6,-11],[-43,-451],[8,-1],[-107,-1039],[-675,79],[47,94],[-4,45],[-19,24],[-80,23],[-142,69],[-34,4],[-87,-23],[-83,34],[-80,17],[-66,32],[-55,113],[-92,62],[-18,27],[-3,8],[-4,14],[-3,9],[1,33],[38,61],[-11,13],[-5,1],[-130,-51],[-61,-52],[-47,-22],[100,-161],[71,-170],[7,-39],[-17,-58],[-75,-140],[-4,-9],[-68,-231],[-4,-48],[2,-24],[10,-25],[141,-269],[11,-29],[5,-15],[3,-7],[45,-177],[17,-119],[41,-146],[14,-92],[14,-445],[-22,-141],[-73,-197],[1,-96],[53,-138],[55,-205],[38,-88],[50,-80],[57,-59],[110,-74],[33,-43],[4,-28],[-22,-150],[-34,-104],[-49,-40],[-127,-39],[-94,-45],[-67,-53],[-22,-29],[-28,-83],[-33,-148],[1,-33],[9,-34],[77,-156],[1,-60],[-15,-38],[-90,-89],[-30,-62],[-14,-107],[-28,-69],[-10,-97],[-34,-24],[-63,-6],[-24,-17],[-189,-224],[-57,3],[-55,24],[-45,45],[-25,11],[-22,0],[-20,-13],[-41,-95],[-111,-60],[-21,-49],[-21,-24],[-43,-20],[-16,16],[-37,-23],[-11,-39],[-3,-87],[-41,-32],[-38,-52],[-32,-67],[-26,-103],[-45,-48],[-62,-1],[-130,98],[-74,31],[-103,17],[-51,-9],[-37,-19],[-124,-121],[-35,-10],[-27,4],[-47,36],[-49,131],[-43,67],[-34,13],[-36,-5],[-46,-38],[-20,-5],[-79,15],[-85,60],[-32,55],[-9,66],[-9,12],[-44,17],[-69,-12],[-255,-110],[-28,-36],[0,-84],[40,-120],[64,-96],[7,-53],[-12,-43],[-33,-37],[-39,-22],[-92,-22],[-29,-76],[-4,-39],[31,-124],[9,-111],[-6,-62],[-22,-72],[0,-65],[-9,-35],[-25,-28],[-138,-91],[-118,-18],[-58,-20],[-29,-37],[-19,-149],[-40,-80],[-72,-33],[-102,-4],[-93,-86],[-27,-14],[-41,7],[-31,37],[-36,4],[-45,-64],[-33,-71],[5,-71],[38,-88],[8,-72],[37,-97],[-15,-115],[-40,-71],[-2,-22],[83,-144],[-31,-82],[11,-37],[-4,-28],[-74,-90],[-6,-65],[25,-68],[72,-145],[15,-115],[79,-207],[-4,-55],[9,-42],[19,-39],[37,-43],[-4,-47],[-19,-47],[-98,-117],[-45,-40],[-29,-54],[-4,-88],[27,-64],[-17,-101],[5,-30],[-16,-36],[-44,-31],[-6,-16],[15,-56],[-10,-32],[5,-32],[-16,-36],[-7,-55],[-28,-58],[3,-17],[101,-134],[12,-184],[78,-120],[8,-78],[80,-98],[-4,-28],[-118,-92],[-17,-43],[0,-28],[89,-146],[75,-95],[44,-37],[47,-19],[87,-3],[67,-24],[96,-48],[45,-57],[47,-8],[81,5],[20,-8],[61,-66],[28,-48],[-6,-95],[34,-71],[19,-76],[-24,-146],[-33,-51],[-22,-15],[-83,-23],[-104,-98],[-33,-50],[-47,-15],[-28,-24],[-28,-3],[-58,-85],[-13,-55],[-33,-48],[-6,-39],[-39,-39],[-46,-29],[-97,-39],[-35,-68],[31,-33],[-55,-85],[-3,-96],[24,-62],[3,-31],[30,-71],[26,-21],[49,-82],[39,-21],[22,-91],[54,-14],[40,-44],[17,-116],[-24,-49],[-2,-37],[-25,-47],[-11,2],[-43,-45],[-33,-18],[10,-16],[-142,-145],[-45,-65],[-15,-42],[-19,-11],[-6,-24],[-21,-18],[-3,-30],[19,-35],[4,-16],[-9,-13],[20,-49],[-26,-21],[-7,-22],[-22,-6],[-40,-32],[-40,-83],[-37,-25],[-2,-63],[-19,-64],[-98,-114],[-3,-55],[29,-48],[3,-25],[-15,-17],[-38,-140],[21,-86],[-8,-35],[21,-45],[-16,-90],[19,-29],[-21,-59],[-17,-6],[-657,67],[-841,286],[-12,69],[-31,10],[76,119],[-1369,143],[-17,-180],[23,-19],[-37,-532],[-9,-26],[-29,-277],[-310,113],[-409,44],[-470,847],[48,474],[-1634,165],[-151,-127],[-324,37],[-69,-805],[-132,-1915],[478,-41],[-134,-737],[849,-58],[-85,-913],[-7,-61],[-1078,93],[-43,-265],[-228,29],[-72,-736],[39,-7],[-39,6],[-1255,178],[3,41],[-926,126],[5,173],[-1270,96],[84,1024],[812,-126],[84,100],[-409,104],[90,367],[97,-10],[169,544],[-690,176],[145,714],[88,-2],[39,465],[-1212,90],[-30,-396],[-784,89],[-138,-1403],[-1302,161],[-64,316],[-735,80],[-17,-172],[172,-149],[-35,-280],[96,-184],[1,-55],[-50,-78],[-6,-42],[-25,-12],[12,-53],[-9,-29],[24,-27],[-277,29],[2,17],[-647,68],[-8,-76],[85,-97],[-17,-295],[-1049,112],[-82,-883],[8,0],[-11,-30],[-25,-259],[-1183,125],[-38,-483],[-367,33],[-104,-1064],[-136,87],[-52,-15],[-665,76],[-1139,89],[10,187],[-866,74],[42,398],[92,136],[28,333],[-1238,126],[13,139],[-55,321],[-692,71],[47,690],[16,-1],[5,49],[-16,3],[-19,-47],[-607,63],[3,41],[-161,26],[-292,6],[-154,33],[48,586],[-919,75],[-40,19],[-1227,81],[-2,-27],[-1066,130],[-19,12],[-37,-6],[-135,15],[153,1422],[-1659,166],[-14,-15],[-752,78],[-2,17],[-241,21],[256,2638],[-1023,99],[-2,-17],[-403,40],[-1503,-1273],[-4,-47],[-42,-34],[-30,15],[-377,-346],[-89,109],[-669,-576],[-388,477],[-1012,-866],[204,-247],[-557,-480],[42,521],[-1340,113],[-37,-420],[-1321,72],[24,265],[-892,99],[30,413],[-570,70],[-761,23]]],"transform":{"scale":[0.00012010630106301045,0.00010987989879898802],"translate":[137.99465,-25.99686]},"objects":{"qld_northern_ddmg_boundaries_gda2020_simp20":{"type":"GeometryCollection","geometries":[{"arcs":[[[0,1]],[[2]],[[3]],[[4]],[[5]],[[6]],[[7]],[[8]],[[9]],[[10]],[[11]],[[12]],[[13]],[[14]],[[15]],[[16]],[[17]],[[18]],[[19]],[[20]],[[21]],[[22]],[[23]],[[24]],[[25]],[[26]],[[27]],[[28]],[[29]],[[30]],[[31]],[[32]],[[33]],[[34]],[[35]],[[36]],[[37]],[[38]],[[39]],[[40]],[[41]]],"type":"MultiPolygon","properties":{"District Name":"Mount Isa","DDMG Name":"Mount Isa","Police Region Name":"Northern Region","Police Region Code":"NR","Police Region Short Name":"Northern"}},{"arcs":[[-1,42]],"type":"Polygon","properties":{"District Name":"Townsville","DDMG Name":"Townsville","Police Region Name":"Northern Region","Police Region Code":"NR","Police Region Short Name":"Northern"}}]}}}