{"type":"Topology","arcs":[[[96758,88124],[-312,81],[-100,3],[-185,-92],[-1135,-641],[-832,-708],[-417,-416],[-430,-637],[-118,-202],[-172,-227],[-6,-7],[-15,-20],[-770,-854],[-170,-260],[-217,-452],[29,-84],[69,-16],[284,108],[223,4],[430,-155],[20,-7],[222,-158],[284,-202],[26,-18],[115,-127],[383,-422],[56,-62],[308,-494],[154,-247],[50,-79],[527,-1029],[473,-815],[48,-84],[46,-157],[109,-370],[24,-84],[12,-182],[5,-69],[3,-49],[-30,-395],[-15,-68],[-200,-908],[10,-332],[-201,-555],[-694,-1336],[-1041,-1589],[-5,-7],[-306,-407],[-1031,-1122],[-48,-42],[-1862,-1638],[-518,-347],[-838,-417],[-205,-198],[-13412,21],[-333,73],[-152,175],[-108,63],[-262,39],[-351,-36],[-336,179],[-174,34],[-191,-48],[-165,-108],[-150,-158],[-118,-223],[-328,-252],[-75,-214],[176,-223],[25,-223],[-28,-55],[-239,-139],[-52,-71],[-90,23],[-76,-42],[-104,73],[-150,13],[-53,-188],[-227,-231],[-196,117],[-46,97],[64,109],[-64,134],[-48,21],[-165,1],[-68,-74],[-262,43],[-375,-286],[-300,14],[-169,65],[-64,-23],[-84,-158],[-170,-156],[-288,-174],[19,-89],[-1189,-2300],[-206,-865],[-111,-842],[-718,-835],[-167,23],[-6,-50],[-244,147],[-65,-105],[108,-56],[-16,-221],[-89,-37],[-200,17],[-180,-115],[-150,14],[-109,-186],[-97,-85],[-11,-80],[-450,-283],[72,-130],[-87,-133],[53,-109],[-292,-365],[-100,1],[-92,-101],[-41,-125],[-140,5],[-115,78],[-30,-49],[-414,-59],[-16,-80],[-205,-206],[-63,-16],[-8,-54],[-596,-573],[-413,-1143],[115,-328],[-39,-31],[-16,-205],[218,-202],[105,5],[59,-59],[35,-177],[65,-110],[-190,28],[-70,-527],[191,-39],[-55,-70],[21,-62],[-37,-56],[-4,-126],[-93,-105],[22,-223],[-32,-58],[-557,51],[-138,66],[-25,95],[-91,-18],[-180,93],[-105,-80],[-26,58],[-74,30],[-99,-165],[-45,27],[-55,157],[-410,60],[24,-274],[-192,-34],[-98,90],[-195,-41],[-94,47],[-160,-27],[-71,-84],[-99,-28],[-67,41],[-236,-78],[-3,-236],[-60,-101],[-43,-5],[-21,-146],[-74,-113],[-154,-129],[-94,-248],[-69,-182],[-29,-254],[36,-25],[-27,-111],[43,-429],[-202,-197],[-144,-140],[-44,-7],[-236,-40],[-79,64],[-106,-102],[-19,-67],[-342,-23],[16,-132],[-168,-45],[-27,-142],[-86,23],[-108,-99],[-96,40],[-135,-63],[-52,-195],[75,-288],[124,-171],[-44,-68],[27,-231],[-112,-141],[-111,32],[-150,-117],[-263,-57],[-125,-74],[-64,-156],[-106,26],[-160,117],[-12,17],[-175,239],[-178,104],[-12,48],[-270,18],[-103,-91],[-31,-86],[-117,-49],[-97,339],[-75,29],[0,48],[66,33],[-68,93],[-135,75],[-11,-164],[-64,28],[-98,-172],[10,-230],[-71,-249],[-47,-412],[-103,-40],[-178,59],[-51,-75],[-42,-244],[-58,-16],[-88,-136],[-133,-111],[-3,-67],[-129,-158],[-31,6],[-45,-83],[-45,3],[8,-191],[36,-55],[-51,-101],[226,-269],[-81,-195],[37,-145],[-47,-98],[29,-73],[-31,-299],[23,-68],[-52,-191],[-307,-349],[-62,-2],[-213,243],[-254,-79],[-26,-45],[-243,59],[36,-83],[13,-332],[28,-15],[-32,-180],[-68,-21],[-3,-149],[504,-144],[78,-368],[47,-50],[-86,-111],[7,-173],[-32,-83],[58,-280],[-36,-76],[42,-155],[4,-7]],[[54447,46818],[-2,2],[1,-6],[-92,-103],[-106,35],[-51,-35],[-41,-141],[-91,-47],[88,-178],[-137,-289],[42,-401],[-79,-90],[-35,-178],[-85,-27],[-46,-185],[-58,3],[-129,105],[-42,-68],[1,-153],[-109,-248],[43,-40],[-49,-90],[54,-162],[-242,-134],[-121,34],[-137,-364],[-147,-114],[-89,-203],[-129,-3],[-131,-106],[-91,-95],[-103,-259],[-138,-8],[-67,-176],[-240,-15],[-285,-178],[-319,84],[-207,138],[-78,188],[-90,113],[17,138],[-48,130],[46,117],[-36,168],[-77,86],[-167,-41],[-64,53],[-53,283],[-117,62],[62,79],[4,107],[-92,28],[-187,340],[53,4],[75,135],[-31,60],[-225,139],[-112,-55],[-93,14],[64,164],[-8,86],[-60,56],[-47,-126],[-118,38],[-83,-54],[-87,74],[-39,-27],[-121,63],[-185,218],[-133,74],[-158,-10],[-86,81],[-8,375],[-79,74],[-270,-157],[-179,75],[-13,98],[34,92],[-28,165],[-47,189],[-101,162],[72,168],[-338,208],[-24,-64],[-47,-16],[-224,66],[-54,-47],[-17,-111],[58,-243],[-18,-120],[-79,-57],[-290,-48],[-149,-167],[63,-158],[126,-160],[1,-128],[-167,-13],[-274,90],[-157,-430],[-171,-105],[-33,-67],[63,-102],[174,-11],[36,-172],[243,-38],[84,-113],[-103,-276],[-181,-77],[-49,-92],[68,-267],[-15,-257],[116,-147],[22,-168],[-114,-265],[14,-75],[71,-32],[-9,-98],[116,-85],[30,-99],[64,-324],[1,-201],[-52,-241],[51,-161],[114,-114],[47,-103],[-39,-237],[-110,-218],[11,-253],[88,-112],[61,-3],[73,69],[66,-39],[-8,-75],[-53,-33],[-135,-39],[-86,26],[40,-120],[-18,-64],[-148,-110],[-95,-136],[-198,-97],[-36,-49],[-4,-136],[-67,-44],[-58,-32],[-201,38],[5,34],[-106,80],[-209,32],[-246,-199],[-69,3],[-117,127],[-509,115],[-204,107],[-603,452],[-784,187],[-366,35],[151,587],[-135,146],[71,166],[-322,281],[107,329],[-285,9],[-113,139],[-107,-73],[-104,-5],[-107,102],[-132,295],[-277,51],[-118,93],[-44,117],[-356,-48],[-89,-74],[-36,-123],[-378,-180],[-154,27],[-199,206],[-201,-1],[-101,47],[-166,-18],[-159,55],[-201,-82],[-63,13],[-85,137],[-105,22],[-247,-72],[-90,90],[-83,5],[-181,-89],[-129,50],[-92,-43],[-61,20],[-82,-63],[-298,-2027],[-33,-2],[-7,-47],[-83,70],[-29,-64],[-149,17],[-59,152],[-106,43],[16,265],[-82,15],[11,59],[-54,67],[-134,23],[-22,-79],[-147,-187],[15,-93],[227,-129],[78,-130],[-21,-101],[-99,-65],[-31,-69],[34,-138],[89,-14],[193,87],[245,-109],[34,-165],[-196,-681],[107,-244],[-9,-94],[-201,-329],[-276,-190],[71,-321],[-39,-60],[-167,-67],[22,-110],[-101,-394],[-65,-22],[-118,60],[-79,-16],[-31,-112],[22,-384],[-157,-50],[-2892,-238],[-903,139],[-224,-236],[-279,12],[-537,-536],[33,-164],[191,-210],[-10,-138],[54,-94],[-185,-85],[-362,-460],[-90,-57],[-149,-346],[-330,-289],[-367,190],[-30,-55],[-258,12],[-161,104],[-194,41],[-4234,604],[-250,128],[-810,158],[9,-208],[-71,-550],[-242,-312],[-33,-181],[221,-157],[325,110],[-59,-34],[25,-97],[-37,-40],[37,-66],[-87,-200],[58,-115],[-1190,-227]],[[23724,34254],[-33,33],[-133,23],[-216,386],[-375,-197],[-64,62],[-472,43],[-254,97],[-555,308],[-185,229],[-46,135],[-16,311],[-216,386],[32,243],[-304,466],[-158,615],[-193,145],[19,142],[-729,-233],[-413,147],[-378,-99],[-186,38],[-14,-57],[-190,50],[-215,262],[-213,36],[-270,-163],[13,-170],[-81,-258],[-1817,-1427],[-1998,289],[-43,222],[-89,140],[-166,426],[25,94],[126,141],[19,144],[-95,117],[-134,15],[-111,116],[32,146],[23,-7],[-128,397],[-108,134],[25,91],[-22,44],[-118,10],[-10,125],[-56,42],[-45,199],[-1131,55],[-140,-32],[-199,-160],[-176,12],[-413,421],[-679,144],[-300,24],[59,244],[-47,232],[-128,309],[-14,253],[355,546],[38,232],[121,210],[25,122],[2,336],[-38,131],[-138,144],[-50,184],[2,164],[56,242],[239,142],[197,268],[56,294],[132,337],[-54,189],[-66,24],[-547,766],[-233,130],[-46,252],[-424,261],[-283,401],[255,90],[-427,570],[78,286],[126,175],[321,35],[222,370],[-34,77],[101,134],[-160,24],[-26,491],[33,68],[13,402],[-490,252],[-216,406],[112,402],[177,253],[150,48],[8,201],[236,307],[7,119],[-165,96],[-98,217],[-59,513],[-1828,272],[-275,1],[-198,356],[-503,203],[-579,-131],[-238,48],[-183,-31],[-541,-163],[-235,179],[-447,183],[-276,293],[-386,855],[-1265,282],[-174,-102],[-130,-188],[-353,142],[-377,56],[-34,161],[-127,39],[-113,-12],[-166,-85],[-35,193],[94,382],[139,135],[150,488],[-77,238],[-231,372],[-22,396],[57,166],[-407,219],[71,181],[-82,262],[366,474],[-36,168],[-133,107],[-285,-97],[-129,39],[82,281],[-79,264],[-290,-96],[-70,42],[45,254],[-197,81],[-32,172],[187,169],[29,405],[744,540],[231,616],[-171,130],[-294,355],[94,100],[275,86],[-92,432],[178,199],[-299,278],[382,458],[164,66],[72,182],[119,-12],[13,96],[-355,181],[-28,123],[300,217],[132,257],[-49,107],[17,424],[-64,199],[338,265],[363,-56],[170,186],[-57,133],[253,544],[-78,178],[9,231],[-140,151],[46,255],[359,34],[142,117],[-213,555],[71,235],[246,27],[113,337],[-13,241],[229,292],[101,56],[22,74],[41,357],[-146,733],[-67,148],[71,114],[-27,205],[215,-10],[288,-162],[530,90],[-141,234],[341,501],[149,79],[195,40],[418,217],[680,5],[204,120],[3,216],[146,153],[3,250],[-100,140],[-81,315],[134,262],[157,118],[160,331],[291,113],[-429,431],[-230,157],[-88,119],[-5,138],[52,100],[8,177],[-78,147],[-52,268],[-187,487],[-11,329],[55,525],[-75,1097],[186,892],[-231,342],[-226,643],[94,68],[529,1365],[-55,342],[68,581],[743,2014],[159,-23],[16,94],[191,10],[98,271],[116,99],[178,1334],[82,100],[-139,342],[-511,2244],[830,765],[360,93],[494,-5],[48,354],[117,163],[470,105],[242,-368],[123,-38],[432,183],[325,-133],[334,12],[324,-60],[520,82],[114,108],[146,35],[227,-44],[252,-133],[432,-52],[239,-141],[253,-260],[128,-78],[412,165],[1274,-235],[866,-223],[128,55],[225,-77],[163,115],[132,10],[79,200],[-27,90],[116,498],[-121,72],[-17,100],[105,274],[119,42],[71,277],[-13,101],[147,41],[59,-38],[158,362],[76,39],[-31,102],[67,6],[147,130],[190,321],[98,46],[19,65],[-346,311],[-38,155],[-48,57],[48,145],[-67,99],[-265,-50],[-233,257],[-506,-226],[-338,210],[-64,106],[-140,20],[-79,92],[-178,5],[-167,65],[-89,128],[-343,278],[-28,81],[-195,59],[238,1898],[44,30],[65,-45],[14,-188],[131,15],[124,70],[45,-63],[195,-98],[88,81],[59,336],[59,77],[60,-94],[19,-160],[81,-99],[204,-55],[189,-5],[126,166],[55,12],[209,-52],[55,178],[887,-307],[74,-66],[107,13],[1047,-325],[577,-258],[79,19],[181,-102],[125,86],[25,60],[-32,88],[-92,110],[-26,329],[26,341],[164,129],[224,-9],[-291,479],[-162,129],[18,156],[-63,100],[-19,238],[-73,230],[46,160],[-47,79],[10,56],[197,173],[-3,203],[29,52],[120,20],[175,154],[-1,322],[-28,70],[141,99],[26,82],[-49,48],[22,122],[91,90],[24,252],[37,43],[44,230],[-32,126],[11,231],[171,163],[32,713],[-10,201],[-65,96],[10,204],[30,61],[211,141],[40,274],[121,89],[25,78],[396,-94],[131,64],[33,60],[219,-12],[43,75],[246,3],[78,-34],[71,-117],[101,65],[39,-67],[75,-217],[-110,-187],[26,-245],[138,-163],[61,-11],[38,-108],[82,-2],[86,-283],[119,55],[78,-49],[32,-79],[74,-26],[14,-67],[93,-27],[76,-206],[598,-120],[55,-101],[58,5],[161,-261],[57,-315],[211,-156],[30,-298],[225,-166],[39,-4],[58,227],[51,65],[145,-50],[54,60],[294,76],[42,41],[-20,100],[70,29],[75,185],[321,-183],[52,35],[145,-45],[28,-186],[148,-121],[190,-272],[83,-31],[79,-100],[-10,-213],[-153,-86],[-89,-250],[-6,-216],[-88,-41],[-23,-174],[-90,-122],[11,-99],[-57,-99],[61,-345],[-97,-74],[-24,-128],[67,-201],[-45,-216],[131,-136],[-17,-137],[38,-85],[138,-116],[128,-22],[118,34],[153,165],[173,52],[11,40],[685,125],[31,234],[54,95],[121,3],[116,-60],[316,68],[91,54],[175,-17],[92,90],[14,-118],[-59,-75],[14,-175],[-134,-1039],[44,-166],[-71,-125],[-72,0],[-99,-145],[73,-157],[-37,-162],[57,-31],[-72,-17],[-14,-42],[385,-1613],[-80,-31],[-142,37],[-251,124],[-195,-35],[-83,33],[-110,-126],[-204,-75],[-171,-203],[51,-288],[55,-31],[96,-23],[114,97],[126,43],[-6,82],[108,27],[53,80],[82,-17],[126,75],[95,2],[139,-185],[110,39],[89,-53],[26,-271],[170,-169],[42,-110],[195,-53],[23,61],[65,31],[50,-56],[4,-109],[207,-365],[68,136],[284,98],[41,178],[52,58],[173,-91],[50,3],[38,88],[77,-11],[29,-62],[108,37],[354,-108],[186,-391],[166,-23],[142,67],[-21,168],[40,51],[-6,115],[114,51],[-34,159],[58,101],[61,5],[83,94],[77,-33],[121,37],[-4,52],[55,62],[140,-50],[193,24],[111,-21],[191,-151],[117,116],[-2,109],[50,100],[254,325],[118,72],[20,208],[95,67],[70,192],[99,121],[23,123],[57,60],[57,-9],[25,66],[93,-24],[66,-122],[94,-15],[89,44],[107,148],[211,-245],[134,-8],[100,-86],[141,23],[46,51],[111,-7],[57,92],[-30,123],[91,185],[10,324],[168,61],[294,-29],[201,82],[88,80],[293,534],[14,33],[-116,78],[-107,146],[-74,294],[179,19],[64,-71],[277,-117],[126,-101],[141,-5],[50,181],[174,227],[12,105],[75,135],[-18,96],[93,307],[-75,150],[145,110],[85,-30],[146,53],[202,-92],[105,-106],[57,-132],[21,-133],[-70,-26],[-62,-138],[107,-201],[-6,-85],[57,-65],[-54,-36],[68,-139],[129,-48],[138,-156],[-45,-47],[34,-156],[236,-69],[110,-132],[31,-181],[-94,-93],[-51,-186],[102,-100],[89,-28],[98,-141],[123,72],[99,-56],[192,-20],[336,-369],[-16,-158],[53,9],[176,-129],[-5,-126],[-61,-132],[60,-253],[-53,-56],[-73,-334],[109,-185],[-103,-95],[-99,-244],[-76,-47],[-29,-187],[-157,-29],[-34,-257],[-78,80],[-200,52],[-74,-49],[0,-71],[-54,-86],[52,-149],[121,-87],[28,-208],[118,-122],[81,-207],[-2,-78],[158,-170],[60,21],[307,-122],[48,-66],[303,88],[271,-186],[152,-284],[130,12],[233,317],[132,-90],[508,173],[198,-76],[155,-133],[95,17],[-1,-85],[90,-72],[98,5],[184,-186],[128,-200],[67,-32],[32,-99],[264,-116],[150,-203],[202,43],[230,181],[-11,322],[-32,35],[-115,-48],[-76,34],[-1,44],[200,222],[102,67],[229,-10],[152,70],[104,98],[105,193],[184,99],[82,-60],[99,-176],[95,-293],[445,-174],[446,-648],[131,-128],[135,-54],[72,-383],[209,-399],[499,-397],[66,-233],[185,1385],[1273,-187],[402,-213],[102,-142],[71,-227],[181,-133],[95,-264],[369,-97],[42,-63],[-26,-49],[66,-22],[12,-61],[49,-21],[59,34],[236,-128],[20,-74],[85,-26],[9,-105],[-74,-314],[105,-76],[110,49],[104,164],[449,14],[87,84],[-2,148],[58,96],[119,18],[53,63],[111,-23],[295,286],[134,398],[191,180],[-28,152],[-93,145],[76,135],[68,28],[80,-93],[66,-6],[451,155],[261,11],[99,55],[-138,233],[10,162],[308,757],[461,45],[174,100],[177,21],[18,96],[293,-33],[-3,230],[-40,51],[-39,241],[30,55],[-15,262],[45,79],[-32,100],[1011,-170],[114,940],[-263,39],[38,278],[263,-40],[26,196],[-257,32],[-183,-45],[-389,151],[-293,-46],[-109,35],[40,386],[134,-78],[43,318],[-150,311],[-98,15],[-1,77],[99,50],[-43,174],[857,-111],[101,773],[-986,153],[153,81],[77,162],[87,23],[-18,152],[70,88],[-60,138],[17,62],[183,221],[79,243],[242,131],[-73,158],[90,-57],[85,63],[27,200],[-92,22],[5,67],[92,58],[118,-51],[50,24],[2,10],[1,7],[4,22],[-63,56],[-7,0],[-128,4],[-35,72],[106,71],[77,-72],[118,11],[36,53],[-188,285],[69,102],[0,109],[109,76],[87,176],[402,71],[204,-83],[335,-477],[158,-66],[625,183],[220,148],[174,209],[38897,-1],[1245,-6343],[67,-765],[-47,13]],[[54447,46818],[130,-50],[51,-167],[138,-127],[29,-101],[346,-154],[86,-98],[270,75],[327,-122],[-12,-128],[-109,-65],[34,-121],[-60,-88],[48,-123],[-250,-302],[27,-303],[81,-41],[6,-49],[-16,-156],[-84,-135],[87,-290],[-18,-137],[55,-52],[-12,-55],[-95,-76],[-27,-188],[152,-83],[114,-6],[61,42],[204,-45],[25,47],[130,-23],[53,-150],[-92,-254],[66,-206],[-94,-7],[-62,-109],[-12,-115],[-58,-54],[141,-135],[338,-170],[48,-133],[317,55],[87,54],[-29,81],[76,58],[14,99],[261,93],[32,73],[112,65],[171,-55],[115,67],[77,-23],[146,150],[65,142],[-4,76],[145,-8],[231,199],[52,-15],[15,-78],[55,-24],[8,-73],[-74,-109],[24,-79],[-33,-93],[44,-113],[54,-17],[-47,-79],[18,-67],[92,-87],[13,-106],[66,-14],[39,-154],[141,-24],[96,33],[30,223],[-29,83],[107,165],[110,-27],[21,-121],[201,-118],[97,-130],[214,-11],[235,206],[326,-125],[3,-212],[2066,-278],[7,38],[3317,-535],[90,595],[248,-58],[159,1168],[983,-143],[85,-266],[114,-38],[192,89],[39,214],[-37,153],[831,-110],[-24,-171],[392,-61],[-62,-425],[846,-135],[3,-238],[92,40],[489,-81],[43,-188],[303,-28],[63,-145],[-28,-90],[735,-113],[138,96],[169,-24],[-7,-52],[1323,-196],[38,-146],[101,-55],[33,-92],[-64,-370],[59,-59],[249,-34],[59,440],[284,-36],[-27,-106],[-123,-142],[69,-193],[76,-10],[-40,-362],[1129,-174],[-9,-59],[68,-11],[-44,-219],[446,-70],[-108,-630],[359,-56],[-26,-259],[1134,-179],[70,228],[-28,79],[293,-44],[94,681],[204,-33],[47,336],[-187,32],[85,572],[535,-86],[209,165],[-3,119],[320,205],[-1,168],[117,145],[19,123],[258,77],[71,-41],[75,114],[298,-24],[203,45],[42,76],[78,42],[-8,267],[103,120],[-12,70],[102,58],[-30,98],[26,182],[154,87],[62,-58],[45,30],[-21,297],[-27,55],[-127,65],[28,68],[-104,-18],[-95,-106],[-9,-102],[-28,-4],[-55,236],[-148,45],[-14,124],[89,104],[-15,61],[-86,-73],[-53,39],[-109,-51],[-43,168],[-295,404],[199,228],[-173,50],[-238,-11],[0,4],[8,59],[65,45],[-68,25],[59,90],[6,-2],[131,-44],[353,-117],[238,-123],[-27,193],[8571,-1517],[25,9],[88,108],[340,97],[466,360],[242,260],[343,163],[42,77],[26,290],[-123,502],[-17,334],[177,663],[152,259],[633,4],[404,-60]],[[90470,45611],[-187,-353],[97,-213],[127,-1393],[169,-910],[188,-600],[117,-253],[543,-844],[342,-418],[383,-333],[323,-193],[335,-133],[371,-66],[337,22],[215,119],[-21,38],[255,679],[131,39],[160,-213],[-6,-151],[-139,-6],[-252,-522],[-1265,-3062],[-933,-2809],[-580,-2023]],[[91180,32013],[-4102,681],[-44,-312],[71,-76],[-93,-681],[-79,12],[-117,-386],[-30,-221],[-144,-58],[-3,-145],[-113,-172],[-320,-36],[-82,-45],[-42,-182],[-139,-62],[-202,68],[-376,-81],[10,-417],[-621,94],[-23,-163],[-200,31],[-47,-333],[-167,27],[44,74],[-260,361],[-280,230],[-220,75],[3,-58],[-565,91],[-100,-770],[-639,88],[-22,-170],[-168,-118],[81,-591],[-165,-35],[88,-325],[-579,-1972],[-53,-355],[-110,-232],[-19,-126],[-103,-18],[-38,-255],[-40,2],[-153,-1022],[-388,74],[-298,144],[-3,65],[-37,7],[-112,-726],[-78,15],[-74,-490],[77,101],[100,-14],[18,49],[-49,10],[48,4],[64,-58],[-76,-498],[66,-10],[-47,-314],[338,-54],[-41,-275],[27,-42],[95,-37],[137,49],[124,-12],[137,-129],[-26,-67],[142,-275],[-17,-130],[-106,72],[-70,-561],[165,-16],[-249,-1575],[-689,108],[-27,72],[46,146],[-104,39],[-35,-222],[-227,35],[20,-107],[-58,-117],[70,-52],[69,44],[137,-28],[64,-99],[-52,-68],[15,-115],[-124,-32],[-14,-137],[-120,-30],[-174,-134],[-101,-245],[-157,-56],[9,-100],[-42,-47],[42,-61],[-59,-82],[1,-64],[623,-98],[-76,-554],[118,-21],[83,-51],[52,-16],[11,-22],[33,-71],[27,-58],[-3,-37],[-3,-28],[-5,-52],[-31,-44],[-66,-89],[-77,-106],[-66,155],[-122,-8],[-109,-213],[101,10],[20,-38],[-101,-136],[10,-92],[-48,-35],[-13,1],[-47,3],[-24,2],[-6,8],[-68,81],[-112,-101],[-45,9],[-250,362],[-142,-106],[-166,232],[-460,-362],[-81,5],[-23,-248],[-37,6],[-30,-64],[33,-93],[-71,-128],[-61,2],[-196,-207],[-194,-103],[23,-98],[-30,-52],[8,-147],[-299,-56],[-79,-68],[-35,-126],[-45,-17],[54,-262],[-49,-62],[-31,-263],[-352,62],[-324,-38],[-224,165],[-31,99],[-147,96],[-328,82],[-15,42],[-74,-22],[-211,52],[-128,69],[-233,-90],[-183,56],[-230,-55],[-15,177],[-105,68],[-278,-262],[-180,88],[-36,104],[-289,-43],[-71,-96],[-22,-31],[-34,10],[-9,-1]],[[73752,15461],[-193,56],[-150,-47],[-152,71],[-212,360],[-1422,194],[122,-393],[240,-339],[-82,-78],[-2105,292],[53,383],[-318,47],[60,438],[-355,58],[38,34],[-2,131],[53,81],[22,166],[-90,13],[145,70],[59,232],[51,10],[38,271],[-205,117],[-28,-101],[17,-94],[-147,-90],[-18,-126],[-52,-4],[-26,41],[-13,526],[51,132],[65,18],[24,102],[-24,229],[91,168],[109,88],[110,798],[-87,-36],[-2,-65],[-208,31],[137,1001],[-222,4],[-53,-118],[-118,-66],[-50,31],[-170,-17],[-129,-116],[-290,115],[-148,-167],[-14,-99],[-150,-108],[-129,119],[-222,-112],[-79,-86],[-120,145],[-325,-2],[-16,83],[-116,71],[-22,204],[-269,-7],[-126,-121],[-152,42],[-165,-97],[-35,-62],[-204,54],[-112,-52],[-47,-90],[-160,-45],[-136,-97],[-161,3],[-75,-63],[-123,-7],[-64,-137],[-75,-9],[-138,324],[-230,138],[26,77],[-23,29],[-132,64],[-106,-22],[3,88],[-113,152],[-170,81],[-121,145],[-228,9],[-65,-55],[-97,22],[-25,-415],[-170,-178],[-192,1],[-83,-98],[-16,-196],[-103,-78],[-98,-229],[-48,-35],[-73,37],[-135,-46],[-58,-91],[-84,9],[-120,-66],[-90,24],[-194,-149],[94,-100],[21,-85],[-31,-115],[28,-141],[-57,-119],[-76,-35],[-247,162],[-105,-91],[-94,-231],[-57,-31],[-234,75],[-52,138],[-253,282],[-89,178],[-178,135],[-169,234],[-92,60],[-83,-12],[-166,120],[-85,136],[-104,25],[-74,109],[-127,-5],[-78,-116],[-97,97],[-66,10],[-51,-206],[-80,-5],[-64,-91],[-285,155],[-103,-1],[-78,-52],[-107,-292],[106,-131],[16,-154],[-73,-122],[-3,-80],[-140,-173],[-128,-65],[-3,-108],[69,-62],[-10,-294],[143,-129],[-52,-201],[-105,-38],[-22,-132],[134,-149],[4,-61],[-71,-57],[1,-145],[51,-111],[2,-129],[68,-63],[23,-261],[104,-151],[1,-215],[-110,-151],[-55,-182],[30,-156],[183,-144],[15,-208],[183,-177],[-46,-91],[-72,36],[-60,-92],[-248,-150],[-11,-76],[81,-102],[112,-356],[-253,-494],[57,-175],[-8,-179],[35,-96],[-42,-55],[-94,87],[-238,22],[-47,-235],[-68,6],[-29,-62],[-142,-82],[-127,-27],[-50,-111],[-190,-95],[-48,-25],[-293,-10],[-100,-49],[-171,-91],[-98,-155],[-146,-112],[-24,-64],[-3,-20],[70,-454],[-5,-250],[239,-152],[18,-213],[23,-57],[30,-47],[207,-134],[331,-102],[12,-67],[-53,26],[-21,-48],[157,-128],[-50,-26],[337,131],[40,-30],[188,-280],[151,-120],[145,-217],[50,-182],[149,-108],[1,-54],[-147,-92],[107,-268],[155,80],[216,35],[48,55],[16,101],[-183,162],[-7,68],[69,41],[166,-49],[181,16],[-64,-483],[440,-61],[-58,-157],[-61,-40],[-43,-101],[-80,-45],[-39,-89],[95,-141],[-78,-115],[-7,-342],[228,-245],[45,-16],[143,101],[97,-157],[183,-106],[81,-153],[-120,29],[-43,-66],[13,-281],[-49,-64],[19,-64],[-105,-59],[89,-157],[-30,-78],[138,-236],[-69,-258],[-7,-220],[534,-83],[-80,-552],[-173,25],[-50,-359],[107,-178],[-27,-558],[27,-207],[157,-177],[-10,-68],[-534,82],[-106,120],[32,177],[-114,18],[-64,-136],[-187,-123],[-170,1],[-251,-211],[-185,-330],[-116,-441],[-3,-31],[-67,-235],[-366,227],[-120,10],[-46,-74],[-181,-63],[-217,15],[-190,-306],[-328,-107],[-28,-90],[-121,-35],[17,-71],[-256,-118],[-42,46],[-65,-119],[-221,-125],[-223,18],[-223,246],[-224,50],[-1,1],[67,319],[143,35],[52,188],[122,43],[44,124],[130,86],[-27,373],[35,185],[-27,97],[-69,21],[-73,161],[120,99],[69,118],[-1,87],[254,306],[-684,92],[-56,38],[-43,104],[-101,14],[-100,-72],[-163,52],[-129,-101],[-106,77],[-43,205],[65,61],[174,-20],[52,207],[223,-53],[139,140],[23,13],[31,18],[139,79],[96,130],[21,37],[-8,39],[-66,162],[-18,45],[-5,12],[102,132],[43,152],[159,33],[66,-94],[69,122],[30,157],[-43,138],[-61,73],[-115,1],[-25,33],[-29,39],[-36,48],[-4,23],[-13,68],[-7,38],[-128,138],[143,72],[-22,178],[73,187],[-53,358],[-408,54],[48,394],[-180,-109],[-39,-163],[-241,-3],[-140,-163],[-71,27],[-29,-200],[-401,62],[13,83],[-66,31],[-94,-39],[-270,377],[-331,-251],[-40,-276],[-266,-19],[-68,48],[-245,-163],[-61,-447],[-96,15],[-38,-315],[-1348,175],[-246,-351],[-5,-189],[-121,-248],[-102,-45],[-103,-169],[-334,-162],[21,-14],[-153,-200],[6,-173],[-134,-179],[17,-112],[-55,-76],[56,-162],[-62,-421],[-136,-69],[-169,-206],[-52,-168],[13,-64],[-1448,-706],[-20,-209],[0,-4],[-153,-141],[-142,-234],[-2,-3],[-306,-268],[-182,-318],[-5,-9],[-238,-139],[-107,43],[-227,-165],[-300,176],[-237,-283],[-143,-90],[-762,-273],[-203,-16],[-235,87],[-260,-57],[-183,105],[-243,-140],[-36,5],[-53,7],[-13,2],[-281,123],[-289,228],[-165,-5],[-174,239],[-99,26],[-80,197],[-262,184],[-116,-12],[-135,79],[-31,74],[-108,55],[-126,239],[-66,14],[-154,-146],[-229,-38],[-27,-5],[-72,48],[-64,35],[-99,73],[-83,144],[-118,15],[-292,311],[-267,-75],[-69,20],[-32,62],[-73,-8],[-3,91],[-164,158],[-136,-21],[-37,55],[-100,19],[-115,104],[-45,111],[-217,32],[-111,-34],[-68,67],[-21,99],[-146,75],[-165,-22],[-171,392],[-31,348],[-117,99],[8,187],[-185,63],[-133,214],[-90,245],[-214,159],[-37,107],[6,128],[-97,73],[-57,142],[-145,163],[-119,-28],[-168,91],[-89,244],[-143,38],[-166,383],[-86,68],[173,223],[-17,73],[-123,128],[-30,212],[57,105],[-14,289],[76,170],[-9,54],[-167,38],[-142,-58],[-139,15],[-68,143],[-162,32],[-65,-42],[-129,17],[-126,215],[-246,113],[-100,-99],[-121,-6],[-74,-129],[-155,15],[-156,-71],[-169,81],[-123,-14],[-182,83],[-327,52],[-143,86],[-62,84],[-94,3],[-169,155],[-43,-13],[-55,88],[-94,7],[-60,214],[-28,445],[-164,141],[132,310],[-19,110],[-75,47],[-17,105],[77,107],[62,196],[-34,176],[-210,42],[-101,96],[-82,-29],[-255,148],[-110,244],[-82,29],[512,396],[68,513],[-38,146],[-2,10],[-175,215],[-119,224],[-153,149],[3,99],[-58,39],[-145,-21],[-131,71],[-55,122],[-151,143],[-250,-92],[-52,46],[51,115],[-81,137],[-176,25],[-187,189],[-198,59],[-69,347],[-262,47],[-285,205],[-24,36],[31,91],[-111,202],[-62,-27],[-89,67],[-44,195],[-58,47],[-154,-177],[-85,19],[-62,-42],[-128,250],[12,74],[-95,26],[-87,87],[-117,352],[-217,157],[-240,352],[-30,136],[24,345],[-120,44],[-19,49],[-136,-47],[-53,35],[-38,-94],[-168,-142],[-86,22],[-101,-60],[-278,64],[-111,153],[-153,74],[-88,217],[36,116],[-14,224],[-36,53],[-120,-45],[-175,194],[-83,-34],[-38,-81],[-152,-57],[-75,106],[-187,117],[17,121],[-122,28],[-217,136],[-204,398],[-53,25],[-13,78],[130,247],[-156,218],[8,121],[160,196],[-23,74],[-4359,626],[1274,3206],[700,4488],[-2335,321],[-1666,-58],[-115,2475],[166,-17],[151,-113],[1688,881],[106,417],[551,94],[232,-36],[-38,401],[574,347],[158,-81],[69,-209],[90,-61],[12,-56],[454,-299],[104,-24],[155,75],[101,-69],[292,197],[108,193],[-44,291],[-41,95],[-72,44],[-27,90],[1,90],[84,73],[-39,99],[55,326],[-261,375],[-2,130],[-60,89],[-233,55],[-184,-144],[-67,8],[-32,86],[-273,-356],[-81,30],[-109,-154],[-173,-38],[-142,233],[-102,-3],[-29,54],[-115,-14],[-55,51],[-145,-14],[-41,86],[-122,87],[-162,42],[-115,196],[-85,18],[-112,114]],[[96758,88124],[86,-33],[38,-172],[-6,-366],[-169,-2158],[-74,-1860],[54,-1252],[111,-817],[111,-526],[128,-436],[88,-144],[168,-544],[177,-400],[222,-417],[255,-328],[579,-544],[296,-183],[318,-78],[242,-13],[33,43],[129,-18],[81,37],[18,85],[31,-36],[-17,-25],[61,-134],[-44,-31],[-21,-475],[44,-37],[-31,-207],[61,-97],[-42,-71],[28,-198],[102,-321],[73,-63],[111,23],[-79,-109],[-73,-385],[-148,-445],[-949,-2124],[-622,-1574],[-93,-153],[-45,-184],[-1086,-2739],[-333,-729],[-964,-2350],[-167,-373],[-57,-36],[-15,-140],[-1009,-2441],[-1642,-4309],[-1027,-2899],[-400,-1315],[-35,-28],[-320,-1236],[-256,-1280],[-130,-905],[-22,-498],[50,-908],[109,-708],[195,-815],[13,-489],[-226,-923],[-174,-318],[-24,-304]],[[91180,32013],[-580,-2344],[-398,-2058],[-167,-1216],[-20,-1179],[66,-594],[149,-557],[187,-429],[224,-358],[158,-111],[56,19],[61,-65],[142,-45],[271,271],[159,-7],[66,96],[143,-82],[135,110],[124,-107],[-21,-38],[-85,-3],[-33,-95],[-4,-255],[149,-54],[-44,-44],[15,-35],[-68,13],[8,-138],[-65,6],[-43,-144],[-385,-1963],[-278,-2173],[-22,-412],[-55,-11],[44,-56],[-16,-493],[111,-146],[15,-145],[205,-276],[-69,-283],[-69,-594],[-32,-1027],[39,-368],[111,-415],[-20,-927],[72,-277],[58,-551],[123,-339],[125,-72],[353,-363],[235,-67],[117,79],[-63,59],[13,65],[76,-78],[32,35],[114,0],[-51,-98],[-27,-212],[-74,-1635],[96,-1127],[-42,-184],[17,-384],[60,-175],[6,-143],[93,-132],[-17,-107],[257,-113],[-1,-225],[78,-177],[-27,-41],[-160,17],[-66,-43],[-17,29],[-270,-291],[-58,96],[-37,-70],[59,-198],[-144,-862],[-21,-319],[104,-1367],[508,-2181],[-2003,-561],[-9,-107],[-115,-145],[-134,-75],[18,-359],[-67,-237],[-385,-304],[-209,144],[-162,-24],[-83,210],[-105,4],[-229,215],[-813,120],[-31,-236],[10,-99],[42,-47],[-56,-34],[18,-48],[-36,-26],[-176,3],[-289,-224],[-377,10],[-109,54],[-110,-62],[-157,110],[-162,-108],[-50,90],[135,81],[-104,227],[-280,-171],[-137,225],[-313,177],[-41,85],[-202,-15],[-244,105],[-41,-20],[-78,48],[-261,36],[-125,81],[-67,-22],[-59,198],[-83,31],[-452,31],[-177,-159],[-243,-105],[-189,185],[-385,-91],[-533,81],[90,780],[97,43],[143,-35],[12,84],[146,126],[94,649],[-535,85],[58,330],[-196,33],[40,271],[-75,12],[40,277],[378,-59],[90,618],[-401,64],[28,199],[-221,34],[50,346],[28,13],[-183,29],[-18,-117],[-137,22],[-179,99],[-218,-54],[-7,121],[-94,118],[-153,33],[-153,216],[-58,137],[-2,150],[-182,204],[-6,111],[-151,13],[-42,33],[11,70],[-71,38],[-130,-83],[-298,-30],[-27,75],[-152,112],[-9,73],[68,89],[51,186],[-47,10],[25,129],[-167,-109],[-119,93],[-123,18],[79,480],[-102,61],[-181,-16],[-138,102],[-194,37],[-64,-412],[-205,219],[-120,-730],[-62,31],[-28,14],[-156,191],[-74,14],[-24,69],[-186,28],[52,-153],[-74,-143],[-130,-64],[-53,22],[-37,72],[9,105],[-148,179],[-41,-67],[-386,-98],[-434,76],[-31,47],[86,91],[23,99],[-641,117],[-22,124],[-78,34],[-87,37],[-57,36],[-24,106],[-90,57],[-40,194],[25,103],[-39,349],[-195,148],[-241,37],[-106,-124],[-226,-90],[-27,128],[-77,112],[36,116],[-107,105],[-125,-16],[-96,-84],[-187,78],[-185,-21],[-137,132],[-210,35],[-47,-32],[-23,52],[-215,7],[-78,234],[-74,101],[-237,76],[-251,262],[-34,178],[152,91],[-119,101],[-10,143],[-58,50],[-27,108],[53,108],[-89,155],[-70,8],[-37,112],[-370,227],[-129,-23],[-112,35],[-27,71],[-77,-95],[-37,62],[-79,-43],[14,385],[95,64],[116,217],[-81,90],[22,260],[-85,-45],[-51,39],[671,832],[-27,50],[393,486],[153,1210],[-129,17],[48,59],[-134,444],[93,148],[-339,47],[34,95],[50,29],[-44,318],[5,2],[-4,1]],[[82836,3754],[101,8],[58,64],[54,-24],[-67,-121],[60,-127],[-231,31],[25,169]],[[91723,14299],[37,16],[82,-51],[-42,-27],[-77,62]]],"transform":{"scale":[0.00002991249912499123,0.00002592735927359274],"translate":[150.36912,-26.98479]},"objects":{"qld_north_coast_ddmg_boundaries_gda2020_simp20":{"type":"GeometryCollection","geometries":[{"arcs":[[0,1,2]],"type":"Polygon","properties":{"District Name":"Bundaberg","DDMG Name":"Bundaberg","Police Region Name":"North Coast Region","Police Region Code":"NCR","Police Region Short Name":"North Coast"}},{"arcs":[[-2,3,4,5,6]],"type":"Polygon","properties":{"District Name":"Gympie","DDMG Name":"Gympie","Police Region Name":"North Coast Region","Police Region Code":"NCR","Police Region Short Name":"North Coast"}},{"arcs":[[-1,7,-4]],"type":"Polygon","properties":{"District Name":"Maryborough","DDMG Name":"Maryborough","Police Region Name":"North Coast Region","Police Region Code":"NCR","Police Region Short Name":"North Coast"}},{"arcs":[[[-6,8]],[[9]],[[10]]],"type":"MultiPolygon","properties":{"District Name":"Sunshine Coast","DDMG Name":"Sunshine Coast","Police Region Name":"North Coast Region","Police Region Code":"NCR","Police Region Short Name":"North Coast"}}]}}}