{"type":"Topology","arcs":[[[99309,7223],[-47,-2],[-62,-28],[-90,-13],[-47,15],[-21,35],[-3,27],[-21,34],[-53,33],[-7,35],[-28,3],[-46,-19],[-39,15],[-26,-3],[-23,-18],[-32,23],[1,37],[-18,46],[-30,2],[-102,-30],[-63,6],[-37,-15],[-61,-34],[-48,-10],[-29,2],[-43,37],[-11,41],[-32,0],[-7,20],[-31,2],[-9,19],[11,46],[-18,78],[-110,12],[-1,10],[-52,6],[7,16],[-104,11],[0,-10],[-200,21],[-9,20],[-83,9],[-41,-6],[-28,12],[-6,21],[-55,-1],[13,54],[38,-4],[14,58],[-20,18],[-48,15],[-12,14],[-74,37],[-24,21],[-211,22],[-9,-39],[-104,10],[-30,-124],[-41,3],[-6,-18],[24,-11],[-19,-44],[5,-65],[-118,-35],[-59,4],[-58,-29],[-120,14],[-26,-29],[-139,17],[-13,-3],[-94,13],[-124,40],[-34,36],[-48,18],[-66,4],[-93,25]],[[96059,7750],[19,20],[-67,68],[-40,11],[-65,31],[-23,-10],[-67,0],[-46,23],[-28,41],[-97,66],[-43,-6],[-41,-73],[-18,-12],[-27,10],[-3,67],[-40,83],[2,55],[22,50],[-18,41],[-30,44],[21,11],[-52,51],[8,32],[15,13],[-16,56],[-27,17],[-59,7],[-40,15],[-28,25],[-27,13],[-24,30],[-2,53],[19,14],[32,1],[36,21],[-7,27],[31,26],[-10,35],[17,30],[-28,43],[-45,23],[-23,0],[-34,24],[-14,-10],[-47,58],[-149,17],[-7,42],[7,22],[-28,46],[-30,13],[-28,26],[1,25],[-17,15],[19,47],[25,17],[34,7],[1,30],[-25,30],[-57,38],[-25,8],[0,19],[-39,25],[-20,22],[28,15]],[[94835,9338],[5,-32],[88,-10],[28,14],[97,-23],[114,-20],[37,-32],[32,-10],[65,11],[76,-28],[18,9],[41,-5],[39,21],[23,-2],[29,18],[77,17],[34,-17],[16,74],[35,-5],[26,69],[44,-4],[35,20],[60,6],[34,-17],[63,-8],[19,-16],[66,-2],[56,-7],[56,-26],[236,-25],[19,14],[53,-5],[-14,22],[-25,11],[3,37],[47,8],[10,-14],[47,16],[-3,18],[13,42],[32,-23],[58,-30],[36,0],[20,27],[-3,49],[28,16],[37,-1],[-4,21],[37,12],[86,-4],[9,34],[-41,24],[20,24],[41,0],[15,-14],[39,-14],[858,-252],[3,-3],[802,1334]],[[98607,10657],[422,88],[305,46],[44,3],[28,-23],[43,0],[15,-11],[-3,-29],[-26,-39],[-32,-62],[-71,-180],[-16,-35],[-37,-102],[-22,-51],[-27,-81],[-46,-157],[-22,-108],[-18,-120],[-5,-79],[2,-118],[10,-64],[22,-90],[17,-48],[67,-107],[77,-68],[2,-102],[-92,-178],[37,18],[94,1],[40,-24],[69,-65],[66,-45],[75,-21],[120,5],[50,-21],[37,-8],[51,10],[65,-14],[-6,-33],[24,-24],[-37,-16],[-219,-364],[-243,-560],[-85,-329],[-17,-120],[14,-46],[-31,-50],[-39,-13]],[[90420,23304],[-8,-13],[29,-18],[-44,-22],[-60,16],[-11,-13],[-35,-7],[-69,6],[-43,-4],[-56,64],[-43,18],[-34,-14],[-35,0],[-42,-24],[-14,-25],[33,-29],[-4,-17],[-30,-1],[-18,-18],[-9,-47],[-12,-20],[-51,-18],[-14,-30],[-31,-22],[2,-34],[-42,-54],[-28,-11],[188,-18],[-19,-100],[-166,14],[9,-40],[29,-41],[-9,-41],[-25,10],[-9,-46],[22,-8],[57,5],[79,-20],[27,6],[53,-4],[-5,-25],[-51,5],[-7,-36],[51,-5],[-23,-122],[-82,11],[-112,11],[-5,-64],[18,-58],[-9,-12],[-49,7],[-72,-28],[-67,-2],[-26,-19],[-30,-36],[-24,-47],[-2,-21],[26,-31],[-69,-8],[-33,-11],[-66,-9],[-29,9],[-14,-18],[23,-38],[-37,-23],[-26,-52],[-56,-38],[-55,-7],[-11,-32],[-27,-13],[-76,1],[-20,-22],[-41,4],[14,41],[-21,26],[-46,17],[-39,23],[-70,14],[-18,35],[-34,17],[-14,29],[-36,27],[-36,8],[-27,22],[-18,-5],[-226,18],[-37,-171],[-11,21],[-97,52],[-39,51],[-10,45],[-55,29],[-17,21],[-46,35],[-24,28],[-70,15],[-21,14],[-12,31],[-25,32],[-50,-14],[-30,-32],[-34,-13],[-58,1],[-43,-31],[-7,-14],[48,-9],[2,-29],[-45,-28],[-39,-6],[-27,25],[-51,15],[-61,57],[-37,9],[-65,36],[-51,9],[-85,-22],[-25,12],[-45,-41],[-25,-2],[-24,32],[-57,29],[-57,-13],[-70,26],[-11,-3],[-39,39],[-7,20],[-22,16],[-6,27],[-33,31],[24,27],[39,-7],[21,23],[30,3],[40,62],[19,13],[-21,24],[25,62],[-12,21],[13,34],[-34,16],[-21,34],[-64,37],[-78,9],[-44,23],[28,36],[-6,23],[-21,18],[-51,16],[8,19],[-51,26],[-13,42],[-21,27],[25,21],[-14,34],[-59,26],[-45,-3],[-25,-14],[12,-20],[-31,-83],[-34,-30],[-9,-23],[-27,0],[-90,38],[-35,-3],[14,-38],[43,-29],[-58,-73],[-56,-21],[-57,3],[-32,-7],[-6,-53],[-19,-41],[-57,-9],[-45,12],[-41,32],[-20,-19],[-35,-4],[-13,16],[-45,-12],[-36,-57],[-18,-8],[-3,-23],[-49,2],[-99,-9],[-10,-25],[17,-46],[-59,-1],[-27,7],[-33,-20],[-15,4],[-37,-26],[6,-19],[-29,-29],[4,-22],[-27,-9],[-33,3],[-35,51],[-53,12],[-57,7],[-17,-12],[-33,12],[-18,-31],[-54,-13],[-13,-17],[-40,47],[-65,16],[-45,52],[-1,20],[-38,2],[-27,23],[-84,-19],[-4,-13],[-46,-18],[-29,7],[-6,38],[29,26],[39,9],[22,17],[53,0],[48,-16],[43,-1],[-74,209],[13,33],[-14,20],[33,19],[14,24],[-9,14],[26,135],[-23,13],[-38,6],[-141,-38],[-86,-6],[-65,-16],[-29,-22],[-45,-3],[-28,17],[-4,29],[-25,17],[9,28],[-13,27],[22,26],[-12,45],[8,25],[39,44],[1,28],[18,32],[29,11],[2,28],[-96,68],[-5,24],[-63,8],[-37,17],[-25,-41],[-74,-22],[-28,6],[-21,-38],[-51,22],[-5,39],[-41,20],[-11,41],[-53,46],[-115,16],[-14,26],[-56,32],[-23,-7],[-17,37],[-16,0],[-45,37],[-1,40],[17,15],[-22,38],[-95,10],[-8,-9],[-42,1],[-32,-16],[-76,12],[-28,-21],[-8,-36],[-41,-18],[-7,-34],[14,-39],[-6,-92],[-33,-21],[4,-47],[-15,-35],[-5,-33],[-17,-11],[0,-33],[-22,-22],[0,-42],[-34,-20],[-23,-2],[-11,-41],[-33,-22],[0,-31],[14,-30],[12,-64],[31,-17],[56,-62],[-43,1],[-31,-17],[-6,-44],[6,-43],[19,-33],[-25,-11],[-160,44],[-76,13],[-331,76],[-10,-23],[-51,5],[-25,-22],[-75,8],[-19,34],[-23,2],[-5,-29],[-23,-25],[-45,20],[-51,-10],[-24,22],[-47,-240],[27,-6],[101,-67],[66,-9],[43,-14],[12,-14],[65,-27],[97,29],[45,-33],[51,6],[3,-32],[17,-27],[66,-40],[-22,-15],[-36,-41],[-50,-36],[-25,-36],[-39,-7],[-17,-54],[-23,-5],[-20,-36],[26,-22],[-17,-76],[-22,-29],[-50,-13],[-43,9],[-25,-7],[-165,29],[-54,6],[-6,15],[-37,24],[-148,-13],[-47,-11],[-50,-34],[-166,89],[-94,9],[-47,12],[-21,-13],[-99,-11],[-63,8],[-64,-2],[-63,17],[-83,-23],[-23,5],[-46,46],[-92,-12],[-23,-22],[-9,-46],[-94,1],[-69,-12],[-157,-95],[-3,-5],[98,-291],[27,-44],[-16,-13],[-34,-173],[-22,-13],[-19,-35],[-70,-11],[-143,-261],[-13,-75],[10,-44],[-101,-177],[-18,-9],[43,-84],[45,-44],[-32,-98],[-3,-50],[8,-26],[4,-119],[-9,-33],[2,-43],[36,-63],[10,-35],[15,-19],[-11,-54],[17,-15],[44,-20],[83,-56],[-56,-15],[-31,-43],[-30,-15],[-26,-34],[15,-41],[20,-18],[0,-33],[-29,-19],[0,-28],[-39,-16],[-132,-1],[-80,-28],[-66,-15],[-65,-65],[27,-31],[-102,-11],[-55,21],[-42,1],[6,-26],[-15,-15],[14,-19],[28,-95],[-13,-57],[-19,-7],[-44,-38],[3,-31],[-22,-44],[-48,-3],[-13,-31],[41,-72],[-28,-15],[-68,-4],[-9,-33],[27,-20],[-2,-30],[15,-23],[-43,-68],[1,-23],[-28,-21],[-71,7],[-64,-34],[12,-26],[-3,-55],[9,-13],[-25,-34],[-58,-28],[5,-16],[69,-23],[-26,-11],[-14,-24],[-31,-8],[-73,-60],[57,-36],[-34,-26],[18,-56],[-53,-11],[-18,-13],[55,-47],[33,-17],[-44,-78],[-142,-71],[-6,-52],[-36,-22],[6,-23]],[[79536,18500],[-68,-35],[-71,-11],[-105,72],[-67,42],[-89,25],[-105,78],[-12,53],[-37,-4],[-50,17],[-25,-12],[-45,4],[-42,48],[-58,89],[-48,10],[-25,-36],[-24,-10],[44,-18],[-25,-16],[-24,8],[-9,-41],[-25,-19],[20,-24],[-29,-21],[34,-7],[-2,-17],[-49,1],[-33,-19],[-52,-8],[-8,40],[-45,11],[-15,16],[-35,5],[27,37],[-57,44],[-19,47],[-25,13],[-21,-22],[-35,2],[-27,-15],[-46,-4],[7,45],[-6,22],[-30,37],[-14,29],[23,30],[77,2],[38,6],[42,23],[6,25],[-15,44],[-34,15],[-66,12],[-18,20],[6,17],[-20,67],[1,15],[49,62],[-10,41],[-67,37],[48,63],[35,30],[79,30],[54,28],[30,25],[-10,15],[-37,10],[-31,-14],[-53,-12],[-38,-2],[-17,25],[-63,16],[-17,21],[4,23],[18,14],[101,57],[14,19],[30,12],[26,-7],[75,33],[34,-7],[23,23],[-25,45],[3,55],[-33,25],[-7,40],[-54,42],[-493,42],[-804,68],[-41,3],[-58,28],[-36,-2],[-7,-19],[-68,10],[-307,23],[-305,28],[-10,16],[-43,24],[35,25],[49,85],[81,100],[-18,62],[-50,1],[-38,17],[-37,25],[-7,35],[-32,27],[-7,17],[-61,-3],[-36,19],[-99,110],[-13,-11],[-41,17],[-43,30],[-35,-1],[-24,21],[-23,-16],[-39,18],[-67,-12],[-43,1],[-1,-16],[-69,16],[-24,-1],[-53,18],[-11,-10],[-39,12],[-64,36],[-19,31],[-40,32],[2,35],[32,1],[0,19],[-254,22],[-45,52],[-68,25],[7,36],[-103,2],[0,38],[-158,33],[-50,35],[-68,-10],[-99,22],[-14,108],[-16,161],[-27,293],[-19,241],[-100,-2],[-16,39],[-61,-3],[-109,-13],[-2,-27],[-51,-69],[2,-18],[-63,10],[-31,-11],[-31,-29],[-36,-90],[8,-31],[-12,-70],[-123,-52],[-69,-49],[-25,-3],[-29,-155],[-27,-46],[-13,-12],[-57,-18],[5,-25],[30,-35],[17,-52],[23,-13],[-35,-16],[16,-34],[-25,-25],[40,-23],[-10,-14],[22,-25],[7,-79],[-50,-48],[-20,-26],[2,-38],[-51,-13],[-27,11],[-57,7],[-32,-14],[-45,-7],[-35,-20],[-27,5],[-46,37],[-4,21],[-83,17],[-126,55],[-32,19],[-34,-33],[-40,8],[-95,-24],[5,-24],[-22,-49],[-45,-34],[-17,-32],[-40,-8],[-46,50],[-44,7],[-66,18],[-68,-28],[-13,-20],[13,-31],[-17,-26],[22,-54],[-3,-29],[12,-67],[-20,-37],[-47,-17],[-56,17],[-117,21],[-39,28],[-63,8],[-71,81],[6,29],[-24,48],[-35,12],[-34,-2],[-18,10],[-55,4],[-59,20],[-21,16],[17,-73],[17,-14],[5,-32],[34,-32],[-37,-12],[-25,-31],[-10,-36],[28,-45],[-20,-7],[-43,-55],[-41,8],[-12,-20],[-3,-56],[18,-20],[-16,-23],[-42,-25],[-8,-30],[-29,-22],[-52,4],[-34,-38],[-29,-23],[-107,-40],[-27,-35],[-89,-4],[-53,16],[-10,29],[32,7],[-39,33],[-106,27],[-30,22],[25,26],[-1,22],[96,38],[6,21],[30,31],[-10,36],[8,10],[-8,64],[7,17],[-55,48],[-19,35],[-20,14],[36,45],[17,44],[-19,35],[12,26],[-44,18],[-32,-3],[-60,23],[1,54],[-41,14],[-31,32],[-21,47],[6,20],[-25,60],[-24,29],[11,44],[-43,40],[-7,68],[56,10],[-11,43],[-36,5],[-7,26],[-23,2],[-31,47],[24,31],[8,43],[-127,-12],[-31,2],[-93,28],[-37,6],[-21,14],[-23,40],[-51,10],[-25,11],[-16,50],[-220,53],[-492,-285],[69,4],[27,-29],[8,-50],[-20,-22],[-36,-13],[-6,-22],[-38,-37],[-58,-21],[-28,21],[-26,-26],[-42,-13],[-44,-77],[5,-10],[-29,-36],[3,-43],[23,-32],[-42,-68],[34,-18],[-18,-29],[1,-20],[-85,-43],[-1,-37],[15,-15],[1,-39],[12,-31],[-31,-49],[12,-26],[-4,-23],[13,-23],[6,-58],[76,-88],[-10,-10],[26,-24],[9,-36],[25,-35],[29,-26],[10,-28],[25,-26],[52,-27],[26,-54],[55,4],[10,-16],[32,-17],[-10,-18],[-66,-7],[-21,-16],[-3,-34],[15,-55],[2,-31],[11,-16],[36,-9],[47,-51],[29,-22],[9,-24],[-15,-22],[31,-33],[-30,-61],[10,-4],[263,-17],[51,-36],[22,-27],[-33,-20],[5,-38],[-27,-29],[37,-31],[18,-1],[35,-24],[-2,-16],[44,-13],[66,-5],[55,-104],[30,-17],[24,2],[18,-28],[24,-8],[-14,-34],[-54,-20],[-85,-8],[-33,-26],[13,-48],[97,-15],[39,-26],[-1,-13],[33,-36],[-12,-33],[11,-48],[-28,-61],[-24,-9],[-22,-25],[-5,-26],[-22,-18],[-37,-9],[-14,-66],[37,15],[25,-7],[-27,-83],[9,-10],[-18,-57],[-21,-11],[-13,-57],[-34,-7],[-62,-4],[-23,-32],[-44,9],[-57,-22],[-76,1],[-13,-20],[-30,-5],[-152,13],[-26,43],[-59,-17],[-194,24],[-57,32],[-62,8],[-16,30],[9,13],[-30,16],[-31,-1],[-41,-23],[-44,32],[-48,16],[-50,5],[-7,16],[-60,37],[-24,34],[-114,21],[-45,17],[-72,45],[-7,52],[-38,17],[50,222],[42,24],[2,21],[35,30],[54,17],[-2,28],[36,28],[42,11],[-42,69],[-47,86],[-45,8],[-20,-7],[13,-26],[-60,-13],[-43,6],[-34,25],[-50,16],[-37,-29],[-54,-5],[-62,21],[-11,-37],[-25,-18],[-9,-45],[-42,-39],[-26,-10],[-37,19],[-76,73],[-34,39],[-42,24],[-75,-2],[-81,17],[-15,9],[-44,2],[-47,25],[1,14],[-33,25],[-69,32],[-34,2],[-43,25],[-76,-18],[-58,7],[-30,25],[-80,14],[-38,-2],[-56,7],[-37,-15],[-48,7],[-97,-9],[-42,17],[-75,-8],[-131,-59],[-60,16],[-66,10],[-26,13],[-32,-4],[-45,-52],[-38,8],[-2,20],[-52,52],[-42,5],[-60,-12],[-32,27],[-1,21],[-63,21],[-52,-17],[-20,18],[-37,9],[-27,46],[-69,11],[-70,37],[-88,-12],[-45,4],[6,42],[-63,75],[-24,34],[9,20],[-14,14],[17,46],[-22,23],[-44,12],[-52,29],[4,21],[-51,25],[-50,41],[-35,10],[-24,31],[-26,10],[-75,56],[3,20],[-13,49],[-36,10],[-24,19],[-76,42],[-22,31],[-26,5],[-46,-13],[-70,3],[-43,9],[-38,-24],[-27,-4],[-65,5],[-70,114],[-32,0],[-19,31],[-49,60],[-60,-4],[-23,10],[-33,96],[-23,9],[-89,13],[-20,9],[-28,39],[-41,33],[-55,105],[-8,25],[10,47],[-27,33],[-5,19],[21,42],[-9,24],[-60,36],[-14,17],[-1,43],[-28,18],[-32,48],[-48,8],[-68,-15],[-32,4],[-104,64],[-60,9],[-59,-13],[-33,14],[-37,34],[-70,42],[-24,-6],[-51,8],[-62,-11],[-36,35],[5,16],[-35,14],[5,13],[-29,30],[-25,4],[-55,43],[-53,22],[-21,47],[36,68],[-31,27],[-35,20],[-55,5],[7,17],[-21,24],[-41,22],[-39,40],[-80,31],[-60,8],[-65,32],[-40,73],[-54,35],[-13,18],[-48,0],[-13,14],[5,44],[-29,39],[-45,1],[-37,-11],[-55,19],[-10,-8],[-65,21],[-51,-15],[-43,-26],[-32,7],[-9,22],[-46,21],[-41,3],[-32,-11],[-38,9],[-69,-8],[-31,-13],[-38,-40],[-29,-10],[-25,-36],[-36,-16],[-36,1],[-18,-36],[-55,-4],[-43,-18],[-32,-42],[-16,-3],[-38,18],[-48,-5],[-93,0],[-31,-11],[-15,-19],[9,-51],[24,-7],[-6,-32],[-22,-26],[-72,-6],[-19,-12],[-88,-5],[-34,-14],[-25,-20],[-103,-33],[-59,-47],[-2,-21],[-26,-21],[-50,1],[-74,14],[-6,69],[-51,-9],[-51,17],[-15,-27],[-38,-2],[-66,-28],[-33,-6],[-78,35],[0,-29],[15,-29],[-29,-18],[-20,-31],[-31,-12],[-31,-93],[-20,-40],[-17,-11],[-61,-12],[-129,-2],[-142,-11],[-94,-3],[-124,10],[-26,16],[-20,-12],[-20,25],[-58,14],[-55,-5],[-17,-25],[-42,-1],[-14,9],[-73,-1],[-53,21],[-102,-9],[-23,13],[-23,-11],[7,-49],[-21,-9],[-70,-4],[-9,-23],[-41,-13],[-18,-22],[-4,-29],[-68,-83],[-27,-1],[-20,-30],[7,-75],[35,-48],[-29,-35],[-49,-1],[-37,-20],[-14,-30],[-55,-42],[-105,-54],[-32,-4],[-39,34],[-38,-1],[-95,-54],[-159,-8],[-90,18],[-41,35],[-36,3],[27,43],[-4,39],[-21,11],[-56,6],[-75,17],[-26,-5],[-28,-21],[-49,-19],[-18,-30],[-30,-25],[-10,-21],[11,-38],[-20,-26],[-77,-34],[-65,6],[-37,17],[-31,28],[-43,11],[-29,0],[-39,-34],[221,-363],[-28,-4],[-264,23],[-107,-61],[-153,12],[-30,-160],[29,-24],[-9,-26],[-25,-132],[-5,-48],[-356,26],[-47,-309],[-257,10],[-122,-66],[-105,-145],[-43,-55],[-46,-32],[-33,-36],[-3,-23],[-302,-179],[-345,-194],[-23,-5],[-7,34],[54,340],[40,242],[33,217],[-704,60],[-401,34],[-70,-25],[-48,-327],[38,-40],[-25,-151],[-28,-153],[-47,5],[-12,-15],[-201,16],[-2,-2],[-167,14],[26,-24],[58,-129],[-940,82],[25,139],[-112,10],[-8,-4],[-306,28],[-69,10],[-209,16],[-283,24],[-31,-178],[-24,-151],[-44,-250],[65,-5],[-17,-64],[-2,-54],[-102,-456],[-58,5],[-39,-234],[-28,-182],[-236,12],[-9,2],[-236,11],[-168,14],[-645,54],[14,97],[-1,115],[5,63],[17,134],[-244,1],[13,-17],[11,-42],[-22,-140],[4,-31],[-30,-157],[213,-353],[-25,-13],[27,-160],[5,-155],[-34,-49],[-118,-49],[-99,9],[-64,24],[-342,36],[-305,30],[-95,10],[-317,30],[-59,6],[-6,50],[-23,39],[49,291],[-456,35],[-22,-147],[-472,-592],[-699,51],[61,390],[4,254],[33,-24],[129,-8],[67,102],[34,266],[23,159],[13,8],[4,37],[-563,30],[-18,-1],[-38,17],[-39,4],[-42,36],[-79,3],[-25,7],[-115,-24],[-70,117],[-295,112],[-59,6],[20,135],[50,279],[-435,38],[-517,44],[-523,46],[-62,20],[-74,-16],[-82,13],[-229,19],[21,38],[-2,20],[23,38],[5,47],[-12,14],[-69,35],[72,31],[17,20],[1,41],[-181,13],[-7,7],[-119,2],[-56,12],[-37,-5],[-102,8],[-62,-8],[-62,34],[-211,11],[-229,9],[-40,3],[-45,14],[-14,-13],[-69,2],[395,225],[63,19],[-11,58],[44,26],[76,13],[16,14],[59,11],[99,612],[71,274],[-36,-21],[-37,-11],[-56,-34],[-66,-25],[-36,-29],[-115,-11],[-54,7],[-48,-7],[-87,9],[-53,-28],[-37,-3],[-56,46],[-7,27],[-26,19],[-65,2],[-79,99],[-99,48],[-12,29],[25,47],[5,28],[25,49],[25,64],[6,49],[-35,51],[49,39],[-415,30],[51,363],[-678,48],[94,611],[23,132],[-224,17],[23,150],[-216,-68],[-156,-1525],[-936,-554],[-130,237],[-399,-503],[-113,94],[-831,-486],[-178,-229],[-56,-45],[-97,-124],[-184,-226],[-95,-118],[-13,-64],[38,-22],[46,-95],[-43,-89],[-75,-106],[-185,-49],[-10,-24],[6,-26],[22,-36],[4,-22],[-31,-48],[-56,-23],[18,-104],[-11,-20],[-46,-33],[7,-21],[-65,-41],[-37,-55],[-40,-3],[-79,-38],[-9,-81],[-166,-79],[-37,-27],[-29,-11],[-214,-2],[-4,-6],[-173,156],[-332,289],[-639,47],[-2,-13],[-476,28],[-6,-40],[-42,29],[3,39],[24,35],[12,3],[126,-7],[77,41],[14,41],[51,10],[-142,254],[-96,91],[4,18],[-115,86],[-123,29],[-61,18],[-27,17],[-8,28],[-132,73],[-18,22],[-59,11],[-38,29],[-76,23],[-33,25],[-44,10],[-68,-33],[-43,-7],[-20,11],[-18,30],[-43,27],[-98,84],[-302,-176],[-460,-268],[-211,13],[-27,-27],[-8,-47],[21,-17],[-29,-170],[7,-1],[-38,-299],[-28,-30],[29,-45],[-14,-22],[-66,-473],[234,-15],[-38,-272],[-330,21],[-24,-14],[-30,17],[-83,29],[-47,-3],[-27,16],[-568,40],[-419,30],[-29,-201],[-47,-363],[-981,70],[-400,29],[-77,-524],[-557,43],[66,415],[45,309],[-1118,85],[-27,5],[-50,23],[38,20],[18,-6],[59,18],[12,58],[23,40],[-956,58],[-423,-257],[-77,-52],[-4,-36],[-87,-34],[-109,-51],[-4,-11],[-159,-64],[-85,-43],[-49,-32],[-48,-1],[-75,-20],[-60,-4],[-24,-15],[-144,-30],[-17,-57],[-99,-24],[-37,7],[-129,-16],[-121,-36],[-28,-24],[-74,-36],[-102,-28],[-70,1],[-304,-199],[-91,-42],[-103,1],[-29,-141],[-133,11],[-81,-457],[-110,-732],[115,-515],[-25,-27],[-7,-20],[-65,-48],[-21,-7],[-26,-41],[-16,-2],[-40,-81],[-5,-22],[-23,-30],[-12,-34],[14,-23],[-24,-29],[-39,-34],[-19,-60],[-23,-27],[7,-25],[-30,-25],[-46,-20],[-21,-27],[1,-20],[-28,-59],[-47,-54],[-21,-16],[-3,-87],[-11,-45],[-29,-83],[-99,52],[-5,-32],[-1075,74],[2,41],[-599,40],[-5,-36],[-505,35],[-10,-43],[-32,-37],[-37,-61],[-15,-40],[22,-59],[-5,-21],[29,-61],[-2,-38],[-29,-10],[-1,-24],[34,-25],[30,-49],[-10,-28],[-21,2],[25,-80],[19,-5],[22,-85],[40,-12],[9,-34],[24,5],[21,-31],[-12,-15],[42,-45],[-9,-23],[19,-7],[-20,-49],[30,-20],[-9,-21],[65,-70],[38,1],[17,-13],[-13,-20],[21,-30],[43,-33],[13,-38],[35,-16],[1,-24],[43,-40],[11,-48],[32,-3],[0,-24],[27,-19],[30,-54],[36,-15],[11,-21],[31,-4],[10,-22],[-10,-50],[-16,-8],[3,-26],[-29,-53],[42,-23],[18,-19],[-10,-49],[32,-48],[21,-4],[13,-45],[29,11],[41,-6],[31,-15],[-1,-19],[-45,-48],[33,-11],[14,-20],[-13,-16],[-28,-3],[18,-37],[-23,-14],[16,-24],[-22,-14],[-31,2],[-13,-21],[12,-17],[-340,29],[-105,22],[-197,16],[-103,-4],[-43,-7],[-38,14],[-32,-4],[-63,6],[-63,12],[-63,23],[-52,-15],[-455,36],[-260,226],[-947,71],[-909,-4],[-230,0],[-28,-203],[-519,37],[-70,-393],[-793,66]],[[19312,12092],[0,474],[0,730],[0,582],[0,655],[0,1388],[-578,0]],[[18734,15921],[103,792],[78,610],[-108,7],[12,171],[-166,8],[94,772],[-179,261],[-18,25],[-35,-14],[-5,-15],[-48,-14],[-30,-27],[-108,-31],[-55,-31],[8,-23],[-27,-50],[-57,-83],[-324,253],[-624,39],[54,441],[96,843],[88,-19],[913,-62],[85,696],[57,472],[-492,32],[17,191],[38,537],[393,-22],[70,735],[-298,18],[13,128],[790,-23],[790,-3],[1015,-59],[-23,-196],[538,327],[247,153],[93,732],[351,-3],[565,-471],[34,-9],[-2,-21],[1191,-237],[146,-29],[22,16],[75,13],[109,-11],[44,18],[21,22],[99,16],[36,-5],[17,10],[94,8],[71,36],[45,42],[65,26],[21,21],[74,31],[24,14],[15,31],[47,30],[34,46],[36,20],[92,9],[54,10],[44,34],[47,21],[54,17],[42,21],[37,-4],[78,10],[49,11],[56,31],[15,26],[22,14],[-688,585],[427,252],[-50,47],[274,162],[-215,162],[-545,418],[-262,201],[730,487],[671,-552],[186,172],[307,191],[73,503],[62,425],[88,604],[50,355],[13,86],[-894,34],[-107,8],[-8,-70],[-1023,73],[-954,4],[-6,-73],[-486,40],[-468,41],[-483,423],[-435,357],[29,17],[-55,18],[-46,-6],[-456,381],[-37,21],[-23,28],[-227,187],[-128,94],[-555,474],[-694,-422],[-52,19],[-332,276],[-79,-45],[-195,167],[-741,608],[-46,43],[802,469],[-44,39],[-100,78],[351,223],[432,261],[-153,122],[-30,7],[-44,48],[-77,70],[791,469],[-50,150],[38,112],[16,15],[-36,232],[-85,55],[-8,8],[-51,242],[-19,23],[-15,45],[8,50],[53,0],[224,-15],[75,-61],[343,179],[-440,381],[-326,279],[473,291],[594,361],[51,69],[-162,118],[-294,243],[102,971],[615,-33],[-4,39],[-22,45],[7,63],[-18,31],[14,12],[-42,69],[2,106],[25,25],[12,29],[125,192],[1115,-37],[159,975],[480,-30],[-22,-181],[1026,-64],[10,79],[1278,-79],[701,-43],[58,305],[56,286],[9,220],[11,216],[-30,10],[1,21],[30,-2],[6,87],[12,239],[96,-8],[491,-11],[440,-38],[-24,-227],[283,-22],[403,-32],[-5,-44],[-14,-5],[-9,-97],[533,-20],[499,-20],[29,231],[446,-28],[0,5],[588,-39],[-34,-299],[277,170],[398,243],[11,-1],[29,267],[340,210],[137,-123],[163,-140],[504,309],[12,8],[70,-60],[301,196],[12,-4],[45,27],[-8,7],[497,300],[662,399],[311,-21],[1,9],[790,-54],[-63,-454],[-64,-468],[289,-44],[20,-86],[-119,-81],[29,-336],[-3,-9],[481,-36],[11,8],[516,-36],[513,-37],[239,-16],[-44,-321],[-74,-464],[515,-41],[465,-43],[16,5],[83,-1],[823,-39],[53,-12],[703,-40],[-35,-313],[131,-19],[71,2],[154,-5],[124,-14],[-2,-23],[469,-35],[11,-2],[-18,-206],[-19,-174],[393,-28],[140,-8],[44,-179],[-10,-76],[956,-69],[-26,-183],[-71,-74],[-32,-219],[3,-10],[681,-41],[-9,-103],[281,-15],[52,1],[536,-28],[177,-12],[336,-30],[39,9],[106,-46],[85,588],[279,-21],[29,265],[913,-68],[48,342],[37,302],[809,-61],[14,161],[-66,54],[6,42],[500,-38],[31,214],[4,0],[51,355],[568,-44],[49,-174],[696,-60],[309,-28],[106,771],[606,-49],[22,218],[937,-50],[-30,-255],[-69,1],[-111,-393],[-34,-482],[-67,5],[-18,-157],[-64,-563],[980,-53],[-4,-95],[714,-69],[-2,-23],[813,-80],[156,-17],[56,405],[176,-17],[33,145],[637,-38],[196,-12],[63,496],[-597,38],[52,438],[-369,23],[46,474],[51,519],[6,59],[52,443],[250,-21],[117,70],[1261,-90],[-37,-261],[363,-465],[316,-24],[239,-63],[22,153],[7,14],[12,136],[17,156],[-19,11],[15,100],[1056,-79],[-31,-49],[-17,-36],[16,-49],[128,-29],[149,-29],[69,-25],[93,-2],[70,-28],[80,-6],[98,-22],[27,4],[446,-33],[15,4],[15,32],[-15,16],[6,29],[-13,48],[8,18],[-13,43],[38,102],[-23,27],[3,31],[62,49],[28,49],[-1,27],[26,17],[24,29],[6,121],[93,140],[74,-4],[80,54],[32,33],[31,9],[20,46],[20,32],[-15,59],[-31,26],[-40,7],[-18,50],[-30,14],[-58,54],[-27,50],[-27,34],[12,13],[0,47],[42,43],[-22,14],[26,42],[74,21],[67,39],[6,25],[23,22],[11,30],[40,39],[42,12],[46,5],[13,14],[53,32],[19,26],[30,5],[13,17],[55,7],[49,42],[14,63],[-2,23],[-25,55],[-25,26],[5,29],[-32,46],[-47,36],[-114,6],[-35,31],[-74,27],[-52,13],[-67,2],[-36,10],[-34,21],[-93,89],[-20,45],[-3,24],[37,28],[71,32],[-12,21],[-54,42],[-14,53],[-60,65],[-5,22],[-1,73],[-14,20],[-40,33],[-29,37],[21,31],[18,51],[4,35],[-11,25],[47,41],[0,26],[12,56],[-19,35],[3,49],[22,30],[34,22],[85,75],[12,54],[-31,25],[-11,32],[1,29],[-24,60],[-35,66],[0,29],[-17,42],[-50,63],[-20,40],[9,31],[42,35],[15,30],[-9,18],[23,35],[2,18],[-60,61],[5,33],[36,54],[20,-22],[35,5],[35,-10],[-1,22],[-39,-4],[-46,46],[5,15],[-28,21],[-11,21],[27,22],[53,22],[67,3],[28,6],[35,-7],[4,17],[32,47],[42,14],[28,-17],[11,-26],[52,-1],[-4,15],[-54,14],[-23,25],[67,35],[52,-17],[-24,40],[-56,1],[28,36],[43,11],[12,12],[-21,35],[6,15],[-28,43],[42,36],[21,-18],[42,-3],[14,28],[47,8],[-8,-27],[-24,3],[-4,-33],[21,-65],[29,11],[-4,30],[36,-10],[-5,-18],[47,-38],[-30,-27],[24,-18],[49,-58],[47,2],[-11,30],[8,20],[65,-31],[89,-26],[0,13],[-38,17],[-52,7],[-2,23],[-115,17],[14,26],[-44,35],[-17,34],[17,19],[-17,41],[36,20],[35,-5],[61,-22],[-4,40],[-52,18],[38,41],[71,-18],[40,26],[-34,27],[108,20],[-7,10],[-49,-7],[-29,21],[35,41],[38,-13],[28,30],[-12,10],[-32,-11],[-14,31],[17,24],[-22,21],[-59,-38],[-6,31],[6,23],[-48,-12],[-26,21],[-1,38],[29,12],[37,3],[35,-24],[51,2],[46,-26],[25,27],[-25,18],[52,10],[-58,44],[-19,20],[-56,25],[-10,13],[19,80],[-10,18],[8,22],[36,16],[21,-10],[49,9],[75,-28],[19,-14],[29,-3],[-13,-21],[25,-35],[23,15],[21,-4],[41,51],[28,-26],[32,13],[15,-17],[12,-52],[-67,-68],[-30,-24],[0,-38],[27,8],[21,-9],[35,21],[27,40],[17,14],[35,7],[-16,23],[22,21],[36,-11],[2,-36],[-8,-46],[41,27],[13,35],[25,-1],[18,14],[29,2],[-2,22],[-19,5],[-41,-8],[8,23],[54,5],[69,23],[31,21],[7,18],[80,-12],[-9,-17],[-40,5],[-45,-13],[-14,-27],[5,-25],[47,37],[38,-7],[41,11],[17,24],[55,4],[67,-32],[43,-3],[28,8],[26,27],[23,37],[5,28],[46,53],[28,17],[-1,56],[16,21],[30,-4],[36,9],[31,46],[75,23],[24,17],[21,41],[29,8],[37,-33],[52,-17],[44,1],[31,13],[36,38],[55,44],[35,33],[88,18],[14,14],[7,50],[26,51],[2,39],[34,47],[64,46],[14,50],[-73,102],[7,49],[35,93],[47,33],[62,25],[134,33],[25,13],[34,30],[14,71],[13,38],[-1,35],[-25,38],[-87,33],[-4,9],[-49,25],[-40,50],[-34,71],[-16,54],[-50,88],[-5,32],[19,64],[29,42],[18,38],[-1,39],[11,43],[-5,72],[2,59],[-8,48],[-1,62],[-36,100],[-22,98],[-51,121],[-62,78],[-44,60],[-13,33],[4,26],[23,58],[44,83],[47,55],[20,36],[-3,26],[-55,91],[-5,28],[-29,17],[-45,47],[8,12],[62,35],[84,28],[35,-11],[-36,-42],[10,-30],[21,-17],[62,-28],[35,-57],[30,-14],[74,-13],[61,-20],[31,-1],[56,13],[46,-6],[87,-31],[56,-11],[24,-20],[5,-30],[-39,-49],[31,-5],[485,-39],[82,571],[79,547],[119,-10],[-3,37],[13,90],[46,24],[12,15],[32,8],[22,20],[37,1],[13,11],[-3,29],[-16,23],[38,48],[31,-4],[13,13],[127,12],[61,32],[164,17],[37,-5],[358,-53],[4,14]],[[62145,46876],[46,77],[299,471],[166,9],[149,3],[460,-10],[1046,-2],[1199,-2],[1251,-1],[1242,1],[0,-1499],[318,0],[1037,-1],[669,0],[711,0],[3213,1],[5785,18],[24,-146],[267,-223],[473,-272],[272,-216],[258,-432],[179,-231],[396,-344],[213,-210],[252,-264],[368,-333],[194,-159],[239,-117],[247,-104],[224,-75],[284,-144],[180,-86],[363,-112],[297,-96],[335,-107],[280,-129],[335,-150],[225,-132],[266,-149],[250,-169],[267,-98],[325,-99],[230,-103],[251,-161],[199,-131],[247,-78],[303,-110],[292,-72],[253,-114],[251,-213],[150,-144],[123,-182],[265,-128],[352,-48],[323,-14],[299,25],[340,104],[159,137],[-28,169],[-145,198],[-134,162],[-140,199],[-66,148],[-8,269],[22,202],[79,130],[124,36],[104,16],[171,-127],[197,-124],[230,-160],[337,-127],[258,-52],[212,-51],[276,-53],[311,-57],[327,-22],[330,-28],[300,-24],[298,-36],[275,-88],[88,-104],[70,-111],[83,-163],[10,-167],[-47,-182],[-48,-137],[-60,-97],[-88,-76],[-81,-63],[-85,-77],[-25,-36],[-40,-8],[-21,-18],[-36,-62],[-40,-54],[-2,-43],[-11,-62],[15,-161],[-10,-24],[11,-107],[-17,-128],[-5,-97],[-29,-89],[-28,-125],[-32,-37],[-45,-16],[18,-81],[-8,-66],[4,-76],[-44,-63],[-38,-38],[24,-401],[12,-147],[48,-102],[53,-90],[64,-65],[77,-109],[40,-66],[54,-54],[45,-14],[78,-89],[40,-54],[39,-32],[27,-45],[28,-24],[18,-33],[9,-67],[-9,-34],[21,-68],[28,-44],[86,-178],[373,-497],[10,-38],[-11,-34],[38,-176],[11,-29],[54,-177],[11,-126],[56,-102],[27,-17],[12,-54],[-16,-141],[13,-100],[-24,-57],[20,-141],[8,-23],[-6,-37],[-29,-35],[-26,-53],[-51,-51],[-37,-30],[-30,-15],[-10,-131],[6,-28],[-21,-49],[-8,-80],[-68,-65],[-14,-31],[944,-3139],[263,-869],[854,-2834],[663,-2208],[519,-1715],[-2192,4],[-5141,-4],[-144,0],[9,-22]],[[53358,53413],[-294,44],[-62,0],[-74,14],[-37,-23],[-89,-70],[-22,-42],[-48,-26],[-26,3],[-32,-13],[2,-22],[-47,-21],[-19,13],[-6,25],[-30,17],[-64,20],[-58,-7],[-55,8],[-59,23],[-106,23],[-29,33],[-11,31],[8,29],[34,25],[-22,22],[-28,10],[-1,28],[-43,46],[-20,49],[-20,10],[-47,0],[-16,18],[14,38],[52,38],[-21,31],[-3,28],[16,28],[-50,18],[-49,54],[-69,-13],[-139,42],[-22,12],[-18,-20],[-62,42],[-66,-18],[-38,12],[-64,3],[-11,-12],[-51,-12],[-57,-1],[-54,-16],[-21,8],[-40,-2],[-79,7],[-94,151],[-89,-31],[-26,4],[-67,-43],[-16,1],[-50,-36],[0,-14],[-68,-44],[-45,-15],[-29,-24],[-45,-14],[-13,21],[-26,16],[-17,-12],[-34,1],[-57,-17],[-58,5],[-57,-8],[-39,21],[-46,-25],[-44,19],[-17,26],[14,14],[7,42],[-52,43],[-29,0],[-12,-12],[13,-27],[-84,-20],[-1,-37],[11,-19],[-19,-11],[-30,5],[-34,41],[-44,-24],[-43,-2],[-43,27],[-16,0],[-9,-29],[8,-17],[62,-31],[-86,7],[-5,-31],[32,-48],[-15,-28],[-21,-8],[3,-37],[-51,-35],[-18,-25],[-30,2],[-22,-36],[-44,19],[20,-42],[-27,-21],[-85,-12],[-45,-12],[41,-47],[2,-43],[-585,59],[-796,73],[-36,-573],[-667,60],[-41,-27],[-168,169],[-388,360],[-15,-40],[15,-21],[-10,-12],[-17,-70],[-32,-55],[43,-61],[-17,-34],[7,-35],[-37,-33],[-31,-61],[52,-99],[-66,-67],[-54,6],[-27,-27],[-13,-31],[-22,-17],[-7,-22],[-73,-74],[-35,-14],[-50,-51],[-60,-16],[-68,-10],[-79,11],[-101,51],[-45,-4],[-27,-24],[-22,-35],[-61,-23],[-75,-11],[-74,1],[-37,12],[-44,-11],[-64,-29],[-23,-34],[-14,12],[-61,-25],[-23,-21],[2,-21],[-78,-49],[-29,-38],[-58,1],[-42,-42],[-54,4],[-27,-27],[-27,5],[9,24],[-74,39],[-124,-33],[-48,17],[-72,15],[-221,116],[12,96],[-255,246],[-123,24],[-4,53],[-270,299],[-207,2],[-40,-27],[-94,0],[-112,-30],[-12,8],[-12,34],[-173,19],[-124,-83],[-63,22],[-11,-6],[6,-77],[-1,-83],[22,-97],[-16,-26],[-49,-35],[-26,-12],[-29,-31],[1,-30],[16,-31],[40,-48],[-3,-13],[28,-46],[-1,-41],[8,-31],[-19,-45],[-47,-34],[-12,-15],[-4,-31],[-23,-58],[-27,-25],[-69,-9],[-279,-59],[-30,-11],[-33,-32],[-48,-80],[-26,-16],[-105,-38],[-46,-35],[-17,-27],[-12,-51],[-17,-28],[-72,-74],[0,-38],[-14,-32],[-28,-34],[-10,-26],[-1,-32],[-41,-27],[-28,-49],[-21,-51],[-8,-32],[-49,-61],[3,-58],[-53,-41],[-51,4],[-23,-5],[-65,-33],[-57,1],[-31,-12],[-155,-183],[-51,-43],[-4,-15],[25,-58],[-11,-30],[-100,-247],[-65,-55],[-21,-46],[15,-89],[-16,-48],[32,-37],[-23,-62],[1,-38],[-21,-23],[-16,-36],[-4,-31],[-3,-143],[17,-94],[-8,-77],[-73,-83],[-26,-7],[-61,14],[-213,-54],[-43,-34],[-172,-90],[-43,2],[-16,-10],[-69,-107],[-16,-65],[-25,-60],[0,-54],[9,-15],[50,-19],[12,-18],[4,-71],[22,-57],[-21,-53],[-19,-18],[-43,-17],[-22,-52],[-45,-45],[-8,-68],[-28,-135],[24,-48],[-21,-87],[-9,-10],[-147,-88],[-41,-48],[-111,-58],[-113,-103],[-8,-15],[-34,-104],[16,-100],[-6,-15],[-60,-94],[-20,-44],[-54,-34],[-13,-16],[-42,-156],[7,-65],[-27,-108],[-6,-8],[-90,43],[-38,32],[-61,20],[-64,12],[-45,15],[-34,30],[-16,59],[-98,45],[-64,9],[-50,1],[-98,-32],[-44,1],[-28,-22],[-59,-18],[-94,8],[-109,18],[-73,19],[-41,1],[-61,-65],[-102,-71],[-95,-86],[-66,-32],[-23,-4],[-78,2],[-75,-6],[-59,12],[-74,5],[-53,-12],[-61,-27],[-83,-17],[-187,-16],[-284,-15],[-176,33],[-176,64],[-137,59],[-153,47],[-114,32],[-122,23],[-212,-58],[-30,-1],[-151,48],[-47,19],[-178,119],[-11,14],[-77,134],[-31,43],[-65,72],[-47,29],[-21,23],[-94,57],[-101,45],[-90,24],[-78,-21],[-62,-20],[-39,-20],[22,-38],[14,-69],[-25,-53],[-51,-42],[-74,-33],[-152,-45],[-28,-25],[-25,-9],[-28,-46],[-41,-14],[-22,-36],[-63,3],[-27,11],[-83,-20],[-24,14],[-66,-29],[-32,-25],[-25,-7],[4,-49],[-3,-52],[-72,-79],[-66,-7],[-33,6],[-104,42],[-34,3],[-27,-9],[-34,-56],[-24,-22],[-101,-37],[-42,-24],[-31,-31],[-48,-85],[-56,-66],[-8,-73],[-19,-27],[-67,-34],[-32,11],[-29,38],[-25,21],[-32,3],[-45,-40],[-335,22],[-1077,71],[-357,22],[-1162,75],[-1240,82],[57,439],[-112,6],[81,717],[-280,15],[-1057,59],[-9,-69],[-134,9],[56,445],[113,925],[-302,20],[-9,-125],[-745,58],[-9,-68],[-486,38],[110,849],[-305,13],[-15,-119],[-1191,74],[-66,-556],[-1029,58],[-57,-569],[-58,-7],[-56,8],[-34,33],[-30,5],[-35,25],[-87,0],[-42,32],[-31,10],[-49,56],[-39,17],[-28,-6],[-48,9],[-62,-18],[-69,10],[-92,0],[-28,12],[-24,-5],[-47,26],[-31,0],[-15,23],[-39,16],[9,21],[-25,4],[-10,39],[12,29],[-20,15],[-7,39],[72,-6],[103,737],[205,-13],[86,718],[68,564],[-447,30],[-414,34],[-1247,97],[38,279],[-353,26],[-102,53],[24,21],[-8,17],[4,35],[-15,32],[-34,18],[-16,36],[9,14],[-12,43],[32,3],[23,13],[-10,34],[-41,40],[-27,11],[1,26],[-18,56],[5,35],[-17,21],[13,19],[-5,48],[36,26],[47,3],[10,33],[-41,40],[-1,25],[38,23],[-31,39],[17,21],[-3,25],[32,13],[-1,28],[25,12],[-22,52],[8,40],[-12,15],[-53,7],[-20,18],[-56,27],[20,32],[-8,22],[8,35],[-14,35],[-43,12],[-35,34],[-13,21],[-8,45],[-28,18],[-47,6],[-34,71],[-48,16],[-25,50],[-43,6],[-8,15],[-46,13],[-7,51],[-29,25],[17,31],[-13,33],[0,48],[-37,20],[-10,27],[14,18],[-15,22],[2,26],[-12,34],[-21,5],[-8,32],[-25,12],[-43,-5],[-25,31],[-8,28],[13,22],[-6,26],[-21,12],[2,28],[-36,39],[0,18],[-73,30],[-17,17],[-23,-6],[-21,13],[-21,32],[-53,14],[-25,-12],[-41,21],[-14,18],[9,48],[34,45],[5,20],[-12,27],[6,15],[-21,31],[-4,24],[-27,41],[7,26],[-13,36],[16,15],[26,48],[42,12],[291,-15],[50,490],[539,-39],[-13,-118],[729,-52],[33,266],[-33,0],[-44,-13],[24,294],[7,65],[469,-21],[14,143],[-1053,57],[80,810],[73,18],[67,-57],[60,7],[60,-5],[12,-10],[-2,-41],[20,-6],[80,17],[55,4],[66,-9],[32,-18],[37,-33],[61,9],[55,29],[20,5],[50,29],[34,348],[-386,16],[26,343],[157,-10],[45,376],[56,455],[966,-73],[24,190],[979,-63],[-20,-182],[714,-65],[-330,300],[678,430],[65,-37],[94,-44],[621,-593],[293,185],[775,-660],[574,372],[1,23],[-31,33],[-26,47],[-42,27],[-7,15],[-43,25],[-39,2],[-58,29],[-27,30],[-53,19],[-72,-3],[-81,10],[-58,13],[-60,27],[1064,732],[392,-346],[640,643],[261,263],[-43,-10],[-82,9],[-20,18],[-34,4],[-29,37],[-38,31],[-60,40],[-41,12],[-7,16],[-70,30],[-50,39],[-6,19],[-24,14],[5,20],[-25,15],[-14,38],[-48,18],[-38,5],[-25,15],[-22,-1],[-37,18],[-48,47],[-14,3],[553,573],[97,805],[152,1265],[-36,0],[-93,15],[-46,15],[-58,5],[-101,-10],[-80,-21],[-42,-1],[-60,10],[-39,13],[-148,29],[-90,10],[-74,-6],[-62,-19],[-48,2],[-80,-13],[-42,-1],[-136,-31],[-111,2],[-33,9],[-41,26],[-49,2],[-136,35],[-116,10],[-82,23],[-118,24],[-41,16],[-43,0],[-78,-17],[-133,-1],[-60,-7],[-43,-10],[-71,-3],[-45,8],[-93,43],[-61,7],[-34,-13],[-49,-3],[-115,-39],[-34,-4],[-40,-15],[-60,0],[-44,-6],[-77,34],[-65,4],[-49,9],[-73,-13],[-67,-2],[-49,-6],[-25,-14],[-27,3],[-26,28],[-98,-5],[-67,43],[-27,52],[-71,40],[-8,15],[-30,19],[-18,32],[-5,44],[-22,16],[-65,2],[-54,25],[-27,5],[-62,-1],[-32,5],[-25,15],[-120,-2],[-47,6],[-45,14],[-28,1],[-43,-13],[-25,4],[-54,34],[-48,10],[-71,-2],[-38,24],[-30,-3],[-24,-21],[-86,1],[-30,-4],[-40,26],[-76,17],[-22,25],[-68,34],[-22,31],[-61,14],[-40,-8],[-20,-23],[-100,-6],[-120,-21],[-254,-2],[-94,-16],[-81,-31],[-120,-26],[-303,2],[-5,26],[-50,15],[-15,17],[-77,35],[-29,9],[-51,-3],[-66,9],[-84,23],[-27,45],[-49,7],[-48,37],[-31,11],[-43,4],[-40,-5],[-52,-19],[-30,-21],[-32,-10],[-84,12],[-23,18],[-4,21],[-31,44],[-25,9],[-97,-16],[-57,-22],[-38,-2],[-75,-15],[-30,9],[-28,38],[4,21],[23,24],[-9,47],[-21,26],[-40,9],[-28,-14],[-19,-28],[-2,-24],[-28,-7],[-8,24],[-27,11],[-34,-9],[-37,-26],[-18,1],[-24,27],[-29,19],[-45,-6],[-29,-33],[-17,-3],[-41,47],[-40,3],[-20,-12],[-82,-84],[-31,-16],[-36,4],[-60,40]],[[21193,63947],[42,80],[43,33],[3,30],[47,47],[38,60],[65,171],[19,40],[20,74],[23,46],[38,160],[-16,31],[-3,29],[16,42],[101,154],[112,127],[48,82],[70,61],[186,275],[7,47],[-3,43],[-9,38],[-127,165],[-27,88],[-88,204],[0,36],[-17,34],[1,43],[-85,129],[147,158],[81,159],[61,400],[17,293],[57,227],[10,88],[52,84],[21,114],[189,562],[127,133],[296,579],[21,72],[42,100],[97,95],[32,56],[64,449],[47,100],[212,133],[91,68],[35,86],[-79,139],[103,189],[101,192],[-20,185],[-121,144],[-170,250],[-148,282],[-25,182],[-59,170],[-54,61],[-18,270],[-84,383],[5,304],[-38,92],[-124,377],[52,256],[148,405],[167,280],[113,260],[14,154],[-63,270],[-3,27],[39,84],[3,46],[-23,110],[-25,64],[-54,81],[-64,69],[-64,80],[-79,63],[-174,115],[-215,200],[-132,232],[-27,258],[101,426],[57,133],[67,148],[23,162],[24,195],[30,163],[46,148],[52,152],[184,359],[84,48],[107,92],[130,176],[68,162],[117,189],[155,149],[75,80],[59,50],[41,43],[35,51],[26,53],[25,70],[-19,95],[-12,38],[-223,173],[-177,222],[-7,12],[-99,333],[29,163],[-4,47],[-198,159],[-38,103],[10,348],[8,31],[26,4],[233,-1],[24,35],[50,46],[35,-8],[276,115],[445,272],[40,39],[30,52],[6,30],[19,29],[17,54],[1,30],[27,27],[100,210],[16,23],[24,85],[26,70],[7,85],[-41,-14],[-188,-35],[-372,-66],[-19,16],[-1,130],[8,10],[105,56],[175,86],[256,129],[182,89],[7,18],[-32,49],[-36,21],[-83,-5],[-35,15],[-9,18],[-76,23],[-24,13],[-58,50],[14,36],[-29,6],[-18,28],[21,26],[-30,18],[-55,10],[-31,-4],[-47,19],[-3,13],[-34,19],[-35,2],[-54,14],[-55,20],[-40,-6],[-31,-44],[30,-51],[1,-28],[-49,-61],[-26,-23],[-131,-2],[-97,-14],[-26,-12],[3,-38],[-21,-16],[-70,-4],[-54,-28],[-19,0],[-41,38],[-34,16],[-74,9],[-64,24],[-23,23],[4,13],[103,159],[19,68],[58,120],[109,159],[25,54],[101,174],[54,101],[45,98],[108,221],[33,103],[53,136],[10,78],[61,86],[20,71],[12,13],[52,10],[28,28],[49,35],[32,40],[90,150],[91,165],[133,248],[58,81],[17,32],[30,80],[43,56],[45,70],[16,8],[33,36],[62,52],[21,26],[10,32],[25,49],[27,38],[53,45],[66,67],[61,42],[52,21],[45,-6],[103,-2],[6,-37],[19,-16],[33,-11],[90,24],[35,30],[40,153],[14,87],[8,125],[25,149],[20,103],[66,154],[56,96],[36,53],[66,35],[66,30],[7,22],[0,91],[24,73],[39,102],[24,128],[17,21],[36,18],[11,17],[-2,61],[121,313],[22,78],[32,93],[46,78],[40,32],[21,61],[35,74],[45,84],[39,100],[16,29],[45,15],[11,15],[-3,71],[15,36],[49,140],[6,28],[26,60],[24,70],[29,52],[-11,49],[7,53],[22,93],[10,96],[-16,44],[-11,195],[-15,179],[20,10],[37,-8],[19,38],[30,17],[30,48],[37,132],[26,203],[13,33],[18,14],[11,31],[-9,50],[-40,48],[-9,24],[30,33],[-23,79],[-21,52],[7,71],[-11,49],[-56,122],[-29,84],[-140,0],[-642,-3],[-3367,-11],[-1479,-4],[-1620,-3],[9,3140],[5,14],[752,357],[3473,1644],[2187,1036],[375,50],[0,2474],[312,241],[229,82],[188,-10],[278,50],[133,-17],[246,-193],[455,-182],[964,-500],[193,23],[212,-63],[216,94],[668,89],[232,7],[476,70],[56,-11],[52,-19],[47,-25],[46,-37],[33,-35],[28,-48],[23,-62],[6,-40],[-5,-76],[0,-1404],[964,42],[536,584],[817,0],[789,0],[1072,750],[671,58],[1257,109],[1142,-263],[1750,-404],[8,-5],[-46,-921],[7,-73],[-13,-39],[5,-112],[15,-71],[0,-31],[-25,-37],[-103,-94],[-30,-17],[-30,-35],[-77,-46],[-18,-42],[0,-28],[49,-66],[-29,-42],[35,-101],[-67,-59],[-45,-46],[-122,28],[-62,4],[-48,-8],[-44,-28],[-42,-51],[-84,-130],[0,-40],[-28,-80],[-11,-72],[-84,-109],[-42,-44],[-77,-37],[-45,-31],[-44,-39],[-30,-39],[-15,-37],[-48,-99],[-38,-43],[-40,-31],[-39,-45],[-59,-52],[-34,-35],[-99,-76],[-60,-39],[-50,-38],[-41,-42],[-25,-103],[-13,-27],[-2,-45],[32,-29],[-8,-35],[-33,-71],[-54,-70],[-7,-47],[6,-122],[-37,-65],[-45,-71],[-25,-116],[-23,-47],[-7,-41],[12,-31],[-16,-71],[-5,-63],[16,-26],[-2,-33],[7,-40],[-2,-45],[-52,-56],[-12,-41],[-6,-49],[4,-79],[-7,-40],[-13,-21],[-46,-48],[20,-67],[-17,-82],[-29,-18],[-14,-27],[-27,-20],[10,-44],[-7,-22],[-26,-26],[13,-54],[2,-68],[-7,-33],[9,-36],[-15,-16],[23,-151],[-22,-102],[21,-64],[-4,-45],[23,-42],[27,-32],[24,-72],[8,-39],[-30,-50],[-4,-24],[24,-57],[-2,-32],[-12,-27],[-51,-35],[7,-51],[28,-77],[35,-42],[72,-69],[28,-37],[72,-72],[40,-31],[33,-43],[63,-36],[17,-20],[24,-48],[28,-77],[40,-146],[41,-86],[36,-110],[60,-151],[21,-62],[12,-53],[-11,-47],[8,-78],[18,-63],[26,-70],[15,-62],[4,-75],[-8209,0],[-97,0],[12,-36],[27,-18],[-8,-17],[-7,-62],[-8,-10],[38,-33],[7,-36],[63,-25],[19,-31],[-19,-23],[56,-45],[30,13],[7,-31],[38,-29],[17,-58],[-11,-23],[23,-62],[-11,-25],[6,-41],[-13,-49],[33,-31],[-6,-42],[22,-22],[-1,-23],[21,-16],[6,-51],[-24,-80],[-6,-77],[-31,-54],[-13,-59],[-19,-27],[18,-27],[9,-59],[38,-63],[0,-44],[7,-60],[18,-56],[47,-33],[82,13],[15,-9],[52,-99],[19,-14],[55,-14],[39,-58],[57,-67],[-2,-35],[11,-31],[44,-22],[-13,-56],[13,-34],[38,-29],[-28,-41],[-170,-176],[-35,-42],[-5,-37],[-23,-67],[-11,-122],[24,-22],[16,-30],[41,-17],[3,-41],[-23,-61],[-3,-70],[7,-29],[-11,-83],[2,-50],[55,-83],[29,-8],[27,-49],[-1,-84],[3,-82],[40,-64],[0,-113],[-6,-58],[13,-25],[1,-112],[-10,-117],[6,-81],[17,-79],[-17,-34],[2,-48],[-39,-84],[-12,-80],[1,-58],[11,-22],[-11,-56],[6,-59],[35,-41],[49,-25],[20,-3],[12,-48],[15,-16],[70,-34],[38,-4],[21,14],[37,-4],[25,-32],[7,-21],[45,-49],[39,-15],[28,16],[32,-2],[92,-33],[42,-24],[74,-68],[10,-18],[51,-50],[43,-9],[23,22],[30,-3],[36,-18],[65,-14],[98,1],[134,15],[70,19],[83,30],[42,23],[107,40],[60,35],[12,22],[-8,26],[44,-3],[32,-20],[17,-41],[28,15],[29,-18],[12,12],[75,-33],[42,-2],[11,-31],[52,-7],[-1,-53],[10,-63],[13,-22],[30,-23],[22,1],[23,-20],[13,-49],[41,-37],[19,11],[24,-6],[156,39],[28,4],[22,34],[91,8],[28,-18],[96,-2],[46,6],[68,19],[25,23],[38,-3],[2,-14],[-54,-41],[25,-60],[71,-74],[-6,-15],[-40,-14],[-44,4],[-26,-7],[-32,-29],[-24,-7],[-56,-1],[-32,14],[-59,15],[-77,31],[1,54],[-22,4],[-52,-17],[-89,-44],[-29,-20],[-49,-105],[-41,-53],[-33,-32],[-8,-30],[-29,-44],[-59,-46],[6,-10],[-59,-94],[-31,-32],[-3,-25],[-77,-68],[-16,-21],[-21,-53],[-32,-28],[-107,-164],[-62,-51],[60,-27],[-16,-45],[9,-31],[-35,-40],[-9,-35],[43,-3],[-9,-38],[36,-39],[-53,-70],[-28,-59],[5,-33],[57,-24],[1,-31],[-34,-39],[-63,-137],[-1,-62],[-14,-55],[14,-27],[-15,-51],[30,-45],[193,40],[56,-29],[261,-19],[34,14],[87,5],[43,-41],[36,9],[53,-31],[36,-28],[42,1],[97,-106],[46,-9],[86,7],[20,-52],[95,-9],[5,-48],[16,0],[28,-23],[-28,-135],[16,-15],[40,-9],[5,-48],[-25,-90],[3,-10],[-5,-129],[-14,-75],[22,-23],[30,-4],[48,-36],[12,-45],[43,7],[22,-79],[55,-46],[104,-7],[103,-48],[74,16],[50,-42],[183,-114],[79,-11],[41,40],[58,2],[199,-51],[183,-159],[111,-443],[302,-489],[191,-220],[-6,-481],[229,-793],[-155,-1198],[-5,-105],[22,-95],[-3,-22],[32,-60],[31,-12],[21,-67],[-8,-15],[-1,-82],[-76,-168],[-6,-60],[-19,-23],[-9,-76],[18,-32],[1,-44],[27,-33],[-4,-77],[-30,-39],[-54,-54],[-52,-72],[-36,-54],[-16,-60],[-34,-87],[-8,-36],[1,-30],[-23,-62],[5,-23],[-6,-37],[0,-124],[-7,-32],[-2,-68],[-10,-69],[-20,-63],[-44,-61],[-13,-38],[-1,-42],[13,-38],[36,-36],[10,-68],[11,-37],[58,-91],[39,-26],[11,-17],[77,-43],[32,-43],[28,-64],[53,-29],[23,-29],[52,-112],[-4,-85],[5,-41],[48,-65],[25,-51],[25,-90],[28,-52],[42,-55],[53,-51],[99,-48],[54,-47],[99,-40],[36,-35],[15,-36],[6,-94],[10,-46],[28,-65],[30,-42],[2351,215],[2027,493],[234,-26],[48,-48],[83,-36],[133,-63],[99,-37],[174,3],[259,-2],[203,61],[33,22],[111,139],[112,71],[299,-22],[67,-86],[42,-19],[25,-28],[9,-52],[43,-20],[85,-66],[4,-55],[52,-2],[21,-15],[97,-9],[74,4],[45,-41],[141,-35],[41,4],[68,-6],[61,-44],[6,-30],[-49,-56],[-2,-69],[-22,-30],[92,-190],[64,-78],[64,-88],[43,-26],[83,-19],[62,-35],[98,-108],[52,-69],[132,-77],[165,1],[45,-35],[112,23],[86,-39],[12,-32],[33,-22],[38,-44],[39,-13],[191,1],[28,3],[39,-11],[81,-6],[79,-27],[93,-10],[23,10],[49,1],[51,-19],[66,-35],[23,-30],[38,-17],[67,-18],[99,-15],[90,-40],[77,-46],[88,-18],[58,8],[82,-17],[30,-20],[115,-35],[167,-25],[95,-23],[54,-7],[81,-43],[53,-76],[30,-9],[41,-37],[67,3],[19,-11],[20,-38],[174,-15],[92,13],[80,-43],[118,-37],[25,-34],[158,-46],[58,-32],[13,-64],[84,-160],[44,-22],[157,7],[105,2],[76,-14],[66,-44],[80,-78],[200,-52],[76,-65],[51,-38],[18,-45],[50,-36],[88,-86],[34,9],[78,-57],[13,-38],[29,-31],[46,-6],[63,-80],[5,-55],[49,-39],[53,-36],[9,-49],[-14,-17],[18,-60],[35,-55],[23,-24],[63,-11],[30,-46],[13,-61],[76,-64],[14,-63],[30,-19],[39,-4],[18,-64],[21,-5],[68,-43],[26,-34],[7,-65],[25,-30],[2,-72],[16,-23],[29,-7],[18,-110],[18,-43],[7,-43],[40,-140],[-3,-35],[21,-33],[-4,-41],[33,-91],[9,-70],[-3,-80],[-31,-82],[-23,-65],[-50,-45],[-80,-161],[44,-80],[31,-15],[27,-55],[-83,-90],[-8,-36],[-16,-22],[18,-97],[24,-28],[54,-29],[-6,-41],[13,-37],[32,-41],[4,-59],[-52,-70],[-24,-105],[49,-111],[16,-20],[-20,-65],[10,-31],[40,-29],[3,-38],[-17,-26],[-7,-38],[9,-38],[20,-21],[61,-26],[-3,-23],[-22,-50],[2,-64],[-7,-12],[-1,-110],[27,-28],[30,-68],[5,-52],[27,-63],[32,-30],[5,-41],[78,-104],[20,-66],[2,-48],[15,-51],[5,-35],[24,-138],[65,-97],[9,-40],[-7,-60],[-13,-27],[-3462,-39],[65,-33],[-4,-51],[52,-13],[10,-54],[22,-51],[29,2],[21,-23],[-12,-24],[-70,-87],[-4,-91],[9,-16],[45,-13],[26,-32],[11,-32],[32,-12],[47,11],[16,28],[20,3],[42,-30],[10,-26],[57,-42],[-5,-27],[17,-24],[-13,-34],[27,-17],[25,0],[16,-31],[-13,-14],[4,-43],[-45,14],[-37,-18],[-9,-24],[31,-99],[-46,-44],[13,-44],[70,-25],[57,-32],[-4,-19],[14,-23],[-1,-55],[29,-29],[77,-48],[37,-70],[64,-169],[10,-74],[-15,-86],[-59,-74],[-22,-66],[18,-27],[10,-93],[84,-8],[44,-35],[2,-42],[-42,-37],[-39,-66],[-36,-92],[-25,-44],[0,-46],[12,-35],[28,-34],[68,-33],[29,11],[37,-13],[61,-67],[70,-4],[78,-62],[7,-34],[81,-74],[-6,-50],[46,-51],[-5,-32],[94,-59],[10,-60],[17,-35],[53,-35],[0,-60],[6,-22],[-4,-56],[39,-53],[29,9],[16,-27],[-11,-19],[-32,-10],[-18,-24],[0,-35],[-9,-34],[-48,-53],[3,-78],[-17,-8],[-71,-125],[0,-50],[23,-10],[-4,-23],[-36,-13],[-4,-34],[4,-43],[15,-45],[21,-9],[31,11],[44,-21],[70,-6],[32,-60],[-8,-80],[83,-35],[-15,-110],[35,-52],[604,-603],[-796,-196],[-215,-209],[91,4],[47,-32],[105,3],[26,-20],[-15,-98],[6,-38],[11,-28],[33,-28],[6,-19],[29,-36],[43,-39],[8,-26],[87,-53],[23,-42],[56,-56],[-9,-18],[14,-31],[45,-5],[7,-72],[31,-18],[21,-37],[93,-47],[133,-122],[36,-65],[7,-38],[72,-106],[40,-3],[275,-59],[2363,-3],[76,-366],[-221,-116],[-1360,-333],[35,-16],[35,-49],[5,-37],[-77,-32],[-14,-42],[9,-32],[131,2],[63,-14],[21,-12],[63,7],[6,23],[61,19],[18,17],[7,33],[54,24],[38,34],[52,11],[16,28],[41,-24],[5,-21],[30,-20],[42,-62],[-20,-21],[2,-17],[78,-16],[72,9],[15,20],[34,14],[-1,16],[-26,57],[20,10],[24,-9],[7,-23],[47,-40],[44,32],[32,33],[-21,23],[9,21],[-20,33],[25,24],[90,-14],[41,-42],[63,-45],[16,-32],[15,6],[36,-17],[16,-27],[331,-114],[-7,-36],[-29,-54],[-52,-40],[-47,-8],[-48,18],[-307,-33],[-45,-18],[-87,-85],[-54,-58],[-13,-41],[-7,-48],[24,-34],[-22,-35],[-43,-117],[2,-118],[36,-31],[83,-86],[46,-8],[36,-118],[108,-71],[41,-24],[29,-53],[-1,-44],[298,-33],[48,5],[47,-32],[-25,-23],[-1,-49],[277,-8],[329,-113],[-33,-360],[-572,-158],[47,-106],[40,-65],[60,-63],[58,-37],[57,-80],[17,-18],[27,-6],[53,1],[96,-78],[0,-58],[-34,-197],[0,-67],[14,-34],[52,-46],[14,-23],[-2,-134],[-4,-20],[-64,-18],[3,-18],[55,-76],[11,-30],[55,-59],[-4,-45],[73,-36],[80,-55],[55,-53],[50,-61],[331,2],[66,-559],[-126,-454],[-518,-17],[65,-52],[1,-18],[-35,-86],[19,-36],[37,2],[80,-63],[-92,-72],[-32,-69],[60,-1],[-8,-111],[3,-74],[54,24],[604,15],[0,-459],[-3,-279],[1,-18],[-269,1],[-338,333],[-184,5],[-117,-190],[-147,-281],[-126,-199],[1,-161],[574,158],[1456,35],[307,-1555],[-178,-343],[-416,3],[-55,-3]],[[94835,9338],[34,15],[5,43],[-27,27],[-44,10],[-40,-1],[-27,-17],[-112,21],[-29,16],[-38,-13],[-22,9],[11,22],[-6,45],[-91,13],[-23,-2],[-21,16],[-13,39],[1,49],[36,25],[34,39],[-11,26],[60,29],[13,19],[-11,33],[23,55],[-16,23],[12,25],[56,53],[26,10],[15,20],[28,11],[39,36],[28,13],[-28,34],[66,65],[-27,40],[-30,85],[-15,20],[13,17],[1,48],[21,7],[6,26],[-53,-5],[-52,5],[-65,30],[-79,7],[-38,10],[-42,-12],[-26,2],[-20,29],[69,29],[-8,57],[-30,54],[-31,25],[-60,11],[-39,-8],[-16,-17],[-47,6],[-12,-55],[-65,11],[-110,13],[-24,21],[-51,-3],[-63,7],[0,-46],[-19,-38],[-62,-43],[-12,1],[-34,37],[-17,0],[-21,-62],[-33,-24],[-127,13],[7,34],[-96,-51],[-70,8],[-14,35],[-26,24],[-30,54],[15,11],[-24,31],[-30,23],[-7,53],[28,39],[-14,27],[7,21],[-47,66],[26,13],[4,23],[53,26],[-16,39],[-29,2],[-31,14],[-92,3],[-39,11],[-43,2],[11,32],[-81,10],[-22,16],[-44,16],[10,21],[23,95],[-102,11],[-20,-36],[-104,11],[3,15],[-122,13],[-9,-37],[-91,10],[-49,-12],[-60,-5],[-41,-25],[2,-29],[34,-11],[-6,-15],[-94,16],[-17,10],[-69,6],[-34,-26],[-81,-32],[-38,-62],[-31,0],[-27,-19],[-11,26],[-37,16],[-17,-19],[5,-30],[-40,-24],[24,-19],[-53,-20],[-31,-3],[-48,-23],[-28,24],[-19,-13],[8,-18],[-11,-20],[-22,-7],[2,-30],[-29,-22],[-17,6],[-4,31],[-58,-35],[-55,1],[-11,-10],[16,-57],[-14,-18],[-52,-22],[-35,5],[29,-40],[-37,-8],[-209,21],[27,145],[-44,3],[5,21],[166,-17],[14,20],[-21,20],[-20,-3],[-60,22],[-42,5],[-2,26],[-77,8],[14,64],[-88,9],[10,20],[55,17],[-10,33],[-31,12],[-62,-7],[-7,43],[-43,-13],[-34,10],[-29,-9],[-9,28],[-74,4],[-42,15],[-27,58],[2,28],[72,69],[31,16],[-9,50],[7,33],[38,32],[-17,27],[-26,-7],[-28,28],[16,32],[26,28],[120,43],[46,9],[36,-2],[49,9],[-6,88],[-15,34],[9,47],[34,-3],[15,71],[-103,11],[15,62],[-36,63],[25,22],[-3,37],[16,24],[-36,14],[-18,20],[-27,-13],[-53,34],[-1,73],[9,18],[33,22],[11,21],[-85,8],[-4,49],[-55,11],[1,-14],[31,-14],[-24,-27],[-63,-11],[-21,37],[28,19],[-29,14],[-9,23],[-28,29],[-29,15],[-44,40],[-52,-16],[-32,18],[11,13],[-77,17],[-38,29],[-2,24],[-44,17],[-1,37],[-16,50],[11,25],[39,27],[58,21],[55,1],[46,15],[10,14],[76,26],[4,25],[44,-2],[22,32],[-11,23],[49,64],[-35,69],[68,27],[10,18],[-25,11],[-9,33],[-35,19],[-7,20],[31,43],[-4,28],[-16,19],[-4,34],[-13,8],[-11,50],[14,8],[-27,27],[25,22],[9,24],[-28,18],[2,38],[-13,24],[25,8],[27,22],[16,32],[-25,31],[24,36],[19,8],[35,-4],[33,-16],[28,13],[5,23],[36,-10],[16,15],[30,-4],[40,185],[-11,9],[-7,46],[-27,26],[2,30],[-41,1],[-20,24],[-28,10],[-32,35],[-50,-21],[-2,24],[-34,20],[-58,8],[-29,15],[14,42],[-24,4],[5,31],[-54,1],[-78,21],[-23,-3],[-52,39],[-27,13],[-73,21],[-24,-118],[-17,7],[-112,11],[13,22],[-21,74],[17,31],[52,51],[27,1],[41,71],[4,22],[25,32],[13,93],[30,26],[-12,48],[-35,16],[-16,28],[-27,4],[-5,55],[-24,67],[-1,41],[-60,29],[-77,-40],[-52,48],[-16,-4],[-59,55],[-73,-15],[-27,65],[20,17],[20,37],[-3,29],[-48,25],[-5,29],[-73,62],[-95,10],[20,100],[-17,25],[-8,77],[-68,10],[-51,13],[-26,59],[49,11],[44,-4],[38,28],[34,8],[39,47],[-316,35],[32,149],[-32,17],[0,21],[51,13],[28,45],[-25,22],[-32,44],[3,49],[-165,17],[-8,-11],[-279,28],[-13,-1],[-181,21],[-35,-70],[-143,13],[2,17],[27,15],[14,36],[-73,6],[49,247],[-318,32],[-63,13],[-15,43],[-22,22],[-34,4],[-47,-26],[-69,25],[-64,7],[-83,33],[-72,40],[-170,26],[-52,2],[30,76],[-27,19],[14,22],[-62,36],[21,43],[-55,1],[-22,18],[-40,-10],[-21,13],[-25,39],[-53,6],[-45,24],[-55,-3],[-24,-25],[-73,-24],[-29,4],[-27,22],[-132,15],[-39,-10],[-48,22],[-48,-9],[-17,11],[-51,-11],[-25,7],[-45,-11],[-58,-264],[-59,-3],[-31,25],[-1,37],[-39,18],[-32,-28],[0,-17],[46,-17],[14,-24],[-26,-18],[1,-21],[48,12],[52,-15],[9,-29],[-26,-70],[-10,-12],[19,-45],[-30,-37],[-44,-28],[-17,-3],[13,-43],[-40,-17],[-3,-50],[-16,-18],[-39,7],[-14,-13],[4,-49],[-34,-9],[-556,-31],[-174,18],[-43,-31],[-53,2],[-104,-70],[7,-21],[36,-27],[-5,-34],[-108,-74],[-26,-47],[-62,-37],[-75,26],[-55,-5],[-32,13],[-167,18],[-623,63],[-61,3],[-48,16],[-155,21],[2,-27],[-13,-72],[-47,-40],[-6,-23],[42,-20],[50,4],[6,-21],[-38,-47],[-196,-24],[-33,8],[-41,50],[-53,-15],[-69,-3],[-54,6],[-49,12],[-107,40],[-36,30],[-12,58],[-41,50],[6,31],[-58,60],[-30,80],[-38,19],[4,17],[-139,-30],[-80,19],[-106,-16],[-43,8],[-41,33],[-39,5],[-52,-22],[2,-20],[-16,-33],[-349,-185],[-383,37],[-60,102],[29,31],[4,18],[-66,32],[13,19],[-25,51],[-43,36],[-22,48],[-43,4],[-115,-2],[-59,5],[-27,-4],[-38,-21],[-34,1],[-79,55],[-73,7],[-58,12],[-57,3],[11,32],[-9,30],[-25,40],[-2,32],[68,71],[7,31],[28,43],[-7,60],[-26,19],[-9,45],[10,31],[46,19],[38,35],[11,38],[25,38],[-23,33],[-105,99],[-45,17],[-9,33],[-81,34],[-55,52],[50,11],[-83,74],[15,37],[25,23],[61,5],[43,47],[-18,31],[-5,64],[9,61],[-94,32],[-42,53],[22,52],[34,33],[29,6],[1,27],[46,39],[1,16],[-32,12],[-21,34],[-9,61],[-351,35],[-54,0],[-38,46],[-96,27],[-58,-6],[-53,-11],[-46,6],[-53,-7],[-86,-18],[-45,23],[-86,24],[-54,38],[-74,111],[-12,4],[-231,32],[-33,-13],[-26,-24],[-67,18],[-73,7],[-6,21],[-47,4],[-32,-11],[-6,25],[18,49],[27,18],[29,63],[-15,31],[-44,48],[-4,51],[12,21],[-80,29],[13,24],[-15,34],[70,61],[-7,22],[-25,14],[-56,-13],[-24,5],[15,37],[-14,34],[-56,-13],[-14,6],[9,33],[-38,10]],[[90420,23304],[41,-23],[42,-56],[113,-131],[32,-21],[18,-38],[157,-91],[54,-70],[201,-148],[149,-55],[93,-15],[92,-54],[112,-58],[124,-105],[122,-74],[94,-39],[121,-37],[75,-19],[148,-24],[32,16],[86,7],[117,3],[89,-64],[63,-43],[-2,-36],[37,2],[50,-8],[22,-28],[26,-61],[47,-14],[69,-49],[11,-30],[26,-26],[75,-13],[58,-63],[21,-10],[-14,-41],[14,-29],[32,-32],[40,-28],[-11,-32],[33,-48],[-2,-36],[7,-36],[34,-52],[-10,-28],[1,-28],[19,-29],[-4,-20],[9,-39],[40,-42],[5,-34],[-25,-41],[-8,-83],[31,-144],[93,-151],[141,-172],[91,-101],[23,-61],[22,-32],[26,-60],[40,-43],[62,-47],[103,-66],[174,-68],[74,-27],[46,-34],[-30,-38],[-32,-71],[-5,-38],[2539,-2],[67,43],[186,64],[75,40],[219,132],[153,95],[180,132],[120,120],[171,191],[74,96],[47,90],[-7,34],[28,58],[24,124],[-8,49],[-18,45],[-218,271],[-66,73],[-63,52],[-93,65],[-93,42],[-68,14],[-41,-2],[-39,-15],[-28,5],[0,26],[22,48],[62,58],[124,92],[46,39],[35,42],[71,66],[209,132],[121,52],[107,34],[45,21],[110,3],[16,-27],[0,-59],[-19,-168],[-19,-228],[-5,-108],[5,-154],[36,-171],[39,-88],[46,-86],[70,-107],[52,-45],[103,-66],[35,-18],[51,-14],[58,-7],[50,4],[29,16],[15,-45],[-7,-51],[10,-82],[20,-42],[35,-12],[-19,-21],[-23,-63],[-56,-95],[-317,-523],[-142,-231],[-64,-112],[-327,-529],[-127,-215],[-313,-553],[-57,-98],[-165,-302],[-103,-237],[-81,-218],[-26,-150],[3,-90],[89,-286],[-68,-211],[-49,-43],[-18,-43],[18,-30],[2,-66],[13,-121],[57,-154],[28,-53],[153,-147],[82,-59],[59,-32],[72,-17],[84,-5],[55,4],[23,10],[43,67],[2,18],[48,8],[43,-28],[-1,-34],[-36,-6],[-59,-95],[-168,-255],[-27,-85],[-57,-88],[-67,-138],[-32,-45],[-27,-63],[-28,-50],[-30,-78],[-78,-181],[-74,-185],[-62,-169],[-37,-112],[-42,-171],[-19,-129],[-1,-119],[14,-77],[22,-60],[25,-40],[42,-53],[41,-29],[52,-12],[50,37],[62,2],[38,12],[-8,-52],[26,-21],[-24,-27],[-12,-34],[-52,-180],[-40,-172],[1,-22],[-23,-126],[-10,-115],[-8,-32],[38,-19],[-4,-10],[41,-43],[-25,-47],[-16,-105],[2,-120],[33,-86],[-11,-67],[2,-43],[20,-87],[21,-57],[26,-14],[59,-45],[26,-10],[52,20],[24,-18],[-11,-151],[-4,-129],[16,-103],[-8,-33],[2,-36],[27,-76],[45,-13],[12,-62],[-51,-1],[-47,-36],[52,-65],[-34,-283],[88,-242],[82,-234],[79,-186],[185,-235],[39,-116],[810,169]],[[18734,15921],[-973,0],[-1033,-1],[-1033,0],[-1034,0],[-1033,0],[-517,0],[-1034,0],[-516,0],[-1033,0],[-517,0],[-517,-1],[-516,1],[-517,0],[-659,0],[-890,-1],[-1033,0],[-1033,0],[-1033,0],[-1033,0],[-1033,0],[-1032,0],[-686,-1],[-1,364],[0,727],[0,726],[0,364],[0,726],[0,727],[0,726],[0,727],[0,726],[0,364],[-1,726],[0,363],[0,727],[0,363],[0,727],[0,727],[0,726],[-1,719],[0,372],[0,727],[-1,363],[-1,727],[0,726],[0,509],[-1,320],[-1,625],[0,436],[0,654],[0,363],[-1,654],[0,363],[0,452],[-1,711],[-1,727],[0,463],[0,700],[0,435],[-2,583],[0,364],[0,727],[-1,363],[-1,727],[0,728],[0,726],[-1,414],[-1,677],[0,728],[0,727],[-1,727],[0,728],[-1,727],[0,728],[-1,363],[0,728],[-1,728],[-1,727],[1,414],[1,483],[0,558],[-1,726],[-1,728],[0,727],[0,363],[-1,727],[-1,582],[0,509],[0,727],[-1,728],[-1,727],[0,363],[-1,728],[0,363],[0,680],[-1,411],[0,437],[-1,654],[0,364],[0,727],[-1,784],[62,-44],[83,-38],[70,-45],[8,-28],[62,-17],[33,-16],[41,-35],[68,-81],[115,-62],[99,-75],[171,-110],[226,-97],[40,-39],[174,-78],[273,-94],[235,-40],[34,-9],[85,-61],[65,-31],[64,-16],[29,-3],[45,-18],[13,3],[79,40],[34,0],[45,-19],[25,3],[79,-2],[83,-19],[34,-17],[64,-21],[69,-29],[139,-74],[34,-7],[52,16],[101,-5],[86,-15],[25,-11],[46,-1],[29,-24],[33,1],[20,12],[45,2],[76,-10],[70,1],[120,-3],[25,9],[85,6],[37,13],[55,2],[69,-9],[80,18],[106,16],[94,3],[41,19],[29,-21],[39,-2],[22,-11],[88,-19],[13,-32],[43,-33],[46,-28],[177,-62],[79,-14],[16,-9],[72,-11],[57,-24],[60,-11],[61,-31],[31,-22],[126,-45],[84,-20],[187,-36],[42,-13],[82,-56],[77,-22],[151,-22],[131,-11],[46,6],[63,-3],[61,-18],[166,-31],[43,5],[70,-1],[45,-5],[111,-7],[74,-23],[73,-14],[128,-61],[52,-16],[11,-20],[-40,-64],[8,-7],[22,-71],[25,-39],[114,-67],[77,-38],[31,-43],[-10,-16],[17,-26],[79,-65],[36,-12],[71,-37],[76,-27],[153,-33],[84,-16],[9,-26],[-28,-33],[-65,-106],[-26,-118],[21,-96],[38,-99],[52,-225],[32,-99],[180,-312],[59,-79],[47,-106],[86,-90],[196,-122],[176,-77],[200,-78],[201,-44],[166,-6],[217,19],[90,-6],[174,-63],[85,-45],[59,-12],[102,-35],[94,-56],[131,-69],[86,-54],[70,-26],[45,-30],[48,-48],[17,-26],[-3,-35],[54,-11],[85,-26],[39,-6],[69,-24],[28,-20],[9,-42],[25,-40],[22,-14],[30,5],[38,-61],[15,-13],[133,-52],[6,-12],[58,-35],[56,-12],[57,-4],[47,-15],[77,-11],[123,-8],[28,-26],[26,10],[48,1],[133,-48],[24,6],[48,-17],[41,-26],[52,-8],[77,1],[44,-19],[88,14],[74,18],[57,-4],[50,-42],[16,-25],[41,-21],[20,-22],[125,-41],[49,-21],[32,-5],[67,-22],[47,-8],[66,-26],[33,1],[68,-10],[85,-19],[55,-36],[51,-65],[-31,-28],[3,-26],[22,-44],[28,-29],[109,-95],[91,-49],[13,-13],[75,-41],[100,-34],[37,-3],[213,-34],[91,2],[70,-3],[33,5],[50,-7],[141,9],[118,15],[187,37],[92,4],[63,13],[33,0],[54,18],[69,11],[55,-5],[34,-22],[48,22],[33,1],[57,16],[88,11],[51,-7],[111,20],[106,11],[58,14],[83,6],[50,8],[86,1],[36,9],[92,6],[90,12],[88,17],[128,45],[117,45],[51,36],[76,19],[35,19],[38,3],[46,-19],[146,15],[124,29],[121,33],[122,54],[97,67],[41,16],[40,2],[72,19],[40,0],[53,30],[34,7],[32,20],[69,30],[142,75],[107,79],[43,39],[85,53],[14,24],[34,9],[48,28],[55,9],[34,15],[28,26],[29,3],[50,-20],[53,-2],[13,-8],[40,11],[29,56],[99,70],[40,19],[28,29],[129,26],[124,40],[31,2],[83,31],[65,65],[65,49],[33,57],[51,59],[31,53],[53,60],[40,28],[2,55],[23,25],[7,33],[33,69],[12,9],[-6,53],[9,34],[25,39],[13,79],[14,9],[11,83],[12,40],[26,34],[-10,23],[16,22],[-1,103],[12,28],[0,37],[72,91],[-6,30],[6,36],[23,31],[48,29],[63,151],[25,30],[3,94],[31,81],[0,67],[24,94],[-29,80],[4,55],[-30,36],[-5,71],[44,125],[37,53],[36,36],[63,91],[50,40],[94,56],[83,61],[137,122],[51,49],[90,93],[62,69],[46,65],[30,50],[17,45],[7,57],[0,53],[40,95],[34,6],[18,28],[48,-19],[24,4],[108,52],[113,77],[59,51],[45,32],[40,36],[29,39],[105,82],[99,117],[19,30],[30,16],[89,127],[28,72],[8,109],[-2,27],[41,87],[2,72],[29,53],[48,52],[20,56],[21,14],[69,29],[68,-1],[6,32],[48,79],[3,29],[31,36],[33,71],[41,49],[24,40],[34,104],[3,51],[-5,38],[-25,45],[-58,49],[-17,32],[-4,36],[6,33],[33,57]],[[53358,53413],[-4,-31],[45,-36],[61,-30],[31,14],[57,-24],[6,18],[39,-3],[7,-13],[326,18],[-7,-19],[-303,-15],[11,-15],[-16,-19],[49,-81],[21,-47],[-39,-26],[19,-48],[-3,-40],[-20,-71],[-11,-91],[-7,-13],[14,-40],[-13,-52],[-83,-117],[-94,-175],[-61,-135],[-45,-121],[-34,-121],[-25,-73],[-18,-42],[-23,-71],[-13,-106],[0,-54],[6,-51],[12,-27],[-16,-45],[59,-61],[7,-48],[10,-20],[61,-46],[18,-25],[49,-29],[29,-34],[38,-9],[91,-117],[10,-52],[16,-26],[39,-18],[78,0],[57,-40],[23,-50],[31,-51],[31,-32],[46,-23],[53,6],[27,-5],[47,-46],[22,-9],[28,-46],[52,-41],[14,-26],[41,-31],[48,-56],[74,-78],[43,-37],[18,-8],[56,3],[51,-13],[96,-72],[72,-29],[61,3],[75,-24],[60,-31],[37,-36],[29,-7],[33,-22],[54,-72],[44,-38],[65,-18],[99,8],[70,-12],[127,-77],[66,-31],[84,-25],[68,-11],[76,-45],[64,-24],[119,-27],[29,-15],[47,0],[-6,18],[74,29],[35,4],[16,31],[40,-3],[57,7],[78,-3],[58,-9],[27,-11],[36,1],[51,-24],[3,-50],[10,-65],[21,-59],[28,-43],[48,-45],[27,-8],[17,18],[62,10],[26,-29],[44,-31],[9,9],[51,-6],[28,37],[42,-19],[16,17],[57,-53],[-93,-89],[62,-6],[37,-16],[41,-34],[24,-11],[7,-22],[72,-51],[48,-23],[42,-10],[79,-1],[84,22],[56,-3],[48,29],[54,15],[28,1],[61,-12],[28,3],[13,16],[44,25],[62,20],[92,91],[62,64],[19,40],[-18,21],[2,17],[38,47],[64,27],[38,44],[-39,40],[11,15],[-15,32],[-23,21],[-10,22],[6,21],[33,16],[37,-34],[22,-36],[46,-36],[62,-32],[40,-110],[-13,-34],[39,-18],[11,-30],[23,-12],[33,-49],[-20,-19],[24,-97],[-29,-5],[-44,17],[-16,-17],[-12,-55],[14,-40],[43,-93],[63,-92],[42,-49],[48,-47],[47,-37],[169,-91],[20,-36],[-17,-38],[42,-59],[53,2],[11,17],[56,0],[63,-11],[78,1],[51,-10],[83,0],[188,-65],[84,19],[65,2],[60,-66],[51,-8],[49,32],[84,24],[65,3],[67,50],[63,19],[66,0],[33,-7],[63,-24],[121,-18],[99,-4],[114,4],[51,5],[46,-6],[94,-36],[96,4],[85,18],[67,73],[19,46],[-4,39],[-54,45],[5,42],[-22,30],[-59,34],[-17,24],[-42,29],[-9,35],[-38,36],[4,35],[-18,21],[-46,32],[-72,30],[-79,12],[10,25],[53,-3],[72,-29],[42,-7],[61,-27],[50,-32],[38,-32],[23,-32],[35,-33],[69,-102],[44,-56],[22,-43],[31,-38],[33,-77],[25,-96],[5,-38],[39,-106],[25,-30],[11,-35],[23,-31],[55,-47],[69,-29],[13,-24],[28,-14],[40,-48],[49,-71],[37,-40],[29,19],[47,-29],[83,-123],[50,-99],[17,-48],[18,-81],[3,-46],[15,-30],[17,-68],[-27,-36],[36,-18],[29,-32],[63,-15],[34,-30],[45,-59],[-19,-137],[-27,-44],[-28,-32],[2,-33],[-24,-13],[-28,1],[-22,-32],[61,-54],[23,-73],[33,-62],[26,-29],[86,-68],[66,-44],[206,-105]],[[12476,62625],[-24,-74],[-58,-71],[-89,-61],[-88,-57],[-148,-75],[-441,-171],[-189,-70],[-265,-75],[-265,-97],[-182,-145],[-60,-136],[-94,-202],[-35,-167],[0,-176],[76,-180],[132,-152],[51,-98],[41,-101],[12,-137],[-17,-52],[-65,-66],[-83,-53],[-106,-44],[-464,-14],[-88,-18],[-84,6],[-59,23],[-113,-14],[-139,33],[-39,-7],[-70,7],[-59,21],[-11,-44],[-64,-55],[-89,-23],[-135,24],[-112,56],[-103,77],[-55,68],[-70,123],[-97,56],[-142,17],[-390,15],[-175,29],[-136,50],[-213,118],[-72,46],[-46,38],[-16,41],[-7,47],[1,44],[-16,83],[-46,70],[-90,84],[-76,38],[-145,61],[-178,44],[-96,30],[-150,66],[-79,30],[-54,69],[4,62],[79,100],[77,47],[87,16],[6,81],[30,74],[54,57],[66,26],[135,33],[34,40],[-23,65],[-1,69],[28,61],[18,18],[-26,35],[-16,64],[25,89],[46,75],[39,46],[20,12],[3,71],[-39,94],[9,70],[41,48],[9,58],[61,77],[184,109],[101,48],[6,62],[29,80],[50,55],[96,44],[18,56],[51,51],[109,57],[43,42],[49,90],[44,173],[28,206],[-18,167],[-36,62],[-8,51],[11,36],[-71,34],[-54,72],[-2,57],[-24,77],[-10,75],[7,38],[81,54],[77,11],[92,-21],[41,-19],[50,-59],[10,-32],[42,-103],[10,-31],[-4,-27],[90,-21],[124,-92],[123,-71],[152,-71],[130,-40],[217,-44],[299,-30],[420,-36],[113,1],[146,-49],[106,2],[113,-17],[77,-34],[76,-86],[100,-62],[62,-53],[99,4],[178,-35],[100,0],[105,25],[159,56],[74,9],[73,-22],[124,-90],[185,-195],[39,-63],[492,-621],[59,-62],[59,-110],[12,-75]],[[55970,52118],[-23,-37],[-19,-10],[-143,-55],[-67,-23],[-341,-96],[-257,-75],[-52,-41],[-21,-42],[-3,-42],[-26,-39],[-63,-17],[-44,7],[-55,32],[-56,45],[-45,31],[-16,31],[-13,79],[-13,53],[-8,114],[4,173],[-4,57],[-27,117],[-13,34],[6,104],[-16,20],[-51,-19],[-21,4],[-35,55],[-10,63],[7,55],[36,63],[-2,11],[-44,44],[-20,35],[-10,35],[4,61],[-8,62],[9,30],[9,66],[29,39],[-3,82],[34,29],[77,3],[35,-21],[26,-29],[0,-47],[-9,-34],[-24,-25],[-33,-20],[-9,-22],[25,-41],[9,-47],[29,-31],[13,-32],[-13,-52],[44,-47],[-15,-47],[2,-34],[-11,-61],[21,-26],[146,8],[74,37],[37,-13],[114,-87],[28,-27],[29,-12],[108,-12],[45,-42],[0,-31],[11,-11],[66,-15],[60,-32],[93,-75],[23,-33],[22,-76],[51,-7],[187,59],[39,0],[38,-13],[25,-19],[28,-121]],[[57148,50352],[-18,-20],[12,-12],[-17,-19],[15,-21],[-40,-19],[-7,-40],[-22,-40],[-1,-29],[-34,-12],[-19,14],[-37,-23],[-19,-30],[-41,0],[-23,-60],[17,-11],[-3,-22],[-35,-4],[-12,14],[-44,-17],[-87,65],[-50,21],[-37,27],[-16,26],[-31,19],[-44,10],[-13,47],[-60,20],[-34,22],[-2,25],[17,20],[37,22],[17,25],[66,10],[47,-16],[54,0],[69,24],[28,34],[51,-1],[41,-44],[25,-13],[46,-5],[36,9],[-16,33],[5,27],[48,9],[17,-6],[29,-32],[61,-4],[24,-23]],[[55457,50760],[-38,-32],[-63,10],[-35,-13],[-27,27],[1,16],[26,9],[22,-11],[45,8],[5,19],[46,-10],[18,-23]],[[99309,7223],[16,-23],[5,-44],[-30,-77],[-35,-188],[-31,-139],[-27,-140],[-17,-93],[-7,-108],[0,-54],[40,-121],[15,-10],[-20,-28],[-5,-172],[3,-110],[10,-58],[25,-110],[44,-148],[25,-68],[37,-70],[48,-10],[9,-40],[52,-80],[46,-52],[48,-2],[105,-115],[56,-45],[81,-39],[49,-5],[41,13],[11,-12],[77,24],[19,-19],[-81,-27],[-44,-43],[-22,12],[-291,91],[-28,-6],[-30,7],[-28,-25],[-26,-3],[-64,-63],[-9,-27],[-29,-3],[-108,-31],[-74,-53],[-41,-14],[-19,-34],[-59,-18],[-52,-39],[-43,-45],[-3,-24],[-19,-19],[-98,-31],[-49,-24],[-47,-9],[-73,4],[-44,-11],[-46,23],[-14,46],[-26,5],[-57,-13],[-15,6],[-63,-12],[-28,8],[-27,21],[-62,-8],[-60,6],[-19,-19],[-33,-3],[-33,-24],[-59,-9],[-33,-11],[-37,1],[-53,-47],[-18,-43],[-90,9],[-74,52],[-50,-18],[-73,46],[-74,-11],[-33,-48],[0,-22],[20,-25],[3,-28],[-89,-28],[34,-27],[-9,-13],[26,-27],[-31,-24],[-60,9],[-14,-29],[-62,-13],[0,-38],[-48,0],[-18,-27],[-46,1],[-6,-33],[34,-32],[-22,-29],[-40,-29],[-24,2],[-8,-31],[-28,-43],[-22,-11],[-90,15],[-126,17],[-22,22],[-35,18],[-104,11],[-27,15],[-44,-22],[-48,18],[-54,9],[-78,-17],[-44,8],[-46,-1],[-40,17],[-40,-8],[-35,22],[-32,10],[-91,-9],[-53,0],[-36,-11],[-38,5],[-32,-15],[-70,31],[-38,3],[-72,26],[-39,1],[-71,51],[-71,18],[-79,-9],[-40,10],[-31,-6],[-34,8],[-37,-42],[-32,-13],[-47,12],[-50,-46],[-3,-33],[-29,3],[-60,-36],[-1,-42],[-31,-15],[-70,-2],[-76,36],[-27,4],[-113,-33],[-11,-13],[24,-16],[-34,-26],[-36,-2],[-29,16],[-40,8],[-21,20],[-39,14],[-50,41],[-19,-6],[-45,19],[-31,-14],[-63,43],[-39,-5],[-26,10],[-13,28],[-44,-7],[-36,21],[-2,42],[-43,32]],[[94298,4340],[-6,23],[-25,25],[-57,14],[-24,40],[-8,33],[23,58],[30,24],[51,17],[88,8],[26,27],[15,-10],[48,-8],[55,73],[52,22],[18,14],[64,14],[5,22],[-32,3],[18,72],[33,91],[74,-9],[18,21],[20,-2],[19,38],[12,50],[-17,21],[7,28],[-123,118],[33,13],[36,-13],[58,29],[-70,19],[-51,44],[32,16],[-91,10],[182,94],[16,60],[-12,2],[43,150],[104,-14],[40,16],[-58,55],[84,42],[24,-21],[206,103],[-121,116],[-17,-2],[-94,91],[51,4],[20,-23],[78,-13],[22,28],[33,13],[21,-3],[42,14],[99,27],[28,2],[23,15],[77,-7],[50,18],[21,39],[51,15],[51,5],[49,30],[31,56],[-13,27],[28,52],[33,16],[-46,19],[0,57],[-10,28],[-93,9],[-214,16],[-80,-22],[-80,-10],[-55,3],[-22,-12],[-88,17],[-33,22],[18,46],[-27,16],[7,29],[19,-2],[8,31],[-65,7],[6,27],[43,-1],[11,43],[-34,19],[23,95],[44,-5],[17,15],[9,35],[65,-6],[15,63],[64,-8],[0,38],[-14,69],[-38,43],[-45,-8],[-52,4],[31,137],[22,19],[69,-8],[5,22],[33,-3],[7,29],[34,-4],[-4,-25],[13,-15],[48,2],[86,-10],[8,32],[99,-12],[8,35],[52,-6],[51,219],[169,-18],[42,0],[51,204],[-37,40],[14,19],[46,39],[24,31],[14,54]],[[94298,4340],[-50,8],[-69,-17],[-56,6],[-28,25],[-45,18],[-27,26],[-13,26],[9,21],[-17,25],[-22,7],[-9,54],[-82,-37],[-24,-23],[-15,-38],[13,-44],[16,-36],[-32,-31],[-49,-62],[-25,-12],[-37,-54],[-32,25],[-14,37],[-54,16],[-65,-4],[7,27],[-37,-12],[-33,12],[-33,38],[-35,3],[-49,24],[-1,21],[23,19],[-2,57],[25,35],[0,36],[24,32],[-49,21],[-47,5],[-37,45],[-42,13],[-54,-16],[-52,-9],[-32,5],[-26,-23],[-51,-2],[-18,6],[-62,-11],[-24,-28],[10,-25],[-21,-13],[-19,-30],[-19,-2],[-42,-33],[-19,-34],[10,-25],[-54,-12],[-31,11],[-60,-10],[-31,13],[-23,-24],[5,-28],[-21,-16],[-1,-50],[45,-56],[-12,-23],[-35,-27],[-59,-28],[-14,-25],[-34,-26],[-12,-25],[-42,-32],[-43,16],[-24,-7],[-61,4],[-56,25],[-94,-34],[-40,7],[-24,-9],[-34,8],[-40,-1],[-30,17],[-41,4],[-13,-31],[-86,-51],[-22,-19],[-9,-32],[-17,-15],[-31,-2],[-96,10],[-41,-50],[-29,-13],[-44,-41],[-63,-32],[-7,-28],[-46,-30],[-15,-37],[-19,-1],[-26,-38],[-29,-22],[-20,16],[-43,11],[-17,28],[-62,10],[-31,11],[-25,-23],[-139,30],[-53,-10],[-12,-17],[-53,-7],[-28,-15],[-42,-49],[-48,-9],[-40,-34],[-64,-18],[-33,6],[-101,-26],[-46,-2],[-26,-9],[-64,10],[-7,-40],[-12,-11],[2,-33],[-48,-28],[-29,1],[-61,-23],[-12,-20],[-52,-41],[-107,-53],[6,-16],[-21,-20],[-104,-14],[-56,16],[-19,-4],[-28,44],[8,29],[-20,39],[-61,-9],[-22,-22],[-92,-49],[18,-39],[-26,-36],[-6,-28],[20,-15],[-12,-53],[25,-26],[-10,-23],[17,-17],[27,-5],[20,-25],[60,-4],[63,-43],[15,-50],[25,-14],[-19,-33],[11,-41],[18,-24],[-23,-31],[6,-20],[61,-58],[12,-20],[-3,-52],[27,-15],[18,-28],[34,-33],[42,10],[70,-12],[48,8],[37,-18],[-2,-24],[51,-46],[69,14],[31,-28],[-22,-28],[12,-31],[35,-40],[26,-17],[-30,-34],[-59,-16],[-53,-37],[-75,-31],[25,-11],[10,-32],[-44,-36],[2,-26],[-30,-20],[9,-80],[-15,-22],[32,-17],[-17,-32],[-23,-10],[3,-23],[20,-19],[-17,-32],[8,-35],[-12,-22],[-8,-65],[-42,-18],[-25,4],[-12,-28],[-27,-7],[9,-32],[-22,-29],[53,-23],[19,-17],[23,16],[51,17],[9,-15],[-22,-19],[13,-30],[-48,-28],[8,-20],[-20,-13],[-30,-71],[-43,-20],[-40,-60],[-58,-9],[-12,25],[10,19],[-21,22],[-21,-17],[-74,-40],[-70,-17],[-25,-33],[-48,-12],[-31,10],[-29,-12],[-94,-12],[-61,-16],[-30,-15],[-42,-6],[5,23],[-22,23],[-40,15],[-76,18],[-19,-9],[-72,19],[-17,-9],[-64,-2],[-22,22],[-36,13],[-81,-9],[-48,-22],[-18,-36],[3,-17],[-15,-43],[31,-53],[-25,-29],[-3,-42],[-32,-24],[-32,-12],[-79,21],[-11,21],[19,25],[-49,27],[-87,-21],[-27,-20],[-41,-3],[-35,-16],[-44,7],[21,40],[-3,49],[-68,15],[-29,26],[-6,20],[-23,16],[-43,7],[-7,30],[-42,70],[9,19],[-27,9],[-2,19],[-30,54],[13,13],[1,35],[-48,23],[-24,-8],[-21,-24],[-40,-11],[-14,22],[-29,-3],[-25,-33],[-3,-19],[-41,-32],[-60,-2],[-8,-21],[-47,-35],[-19,-38],[-57,11],[-48,-32],[-54,-29],[-38,2],[-46,-25],[-2,-24],[-22,-16],[-47,32],[-58,-12],[-35,14],[-41,-9],[-10,-11],[-97,-23],[-62,-60],[-54,-1],[-24,13],[-120,-56],[-21,-2],[-5,-38],[-19,-46],[-33,-28],[10,-19],[-35,-28],[-56,-22],[-14,-31],[-31,-6],[-43,-41],[-23,-9],[-21,-45],[-32,-25],[1,-24],[-18,-23],[14,-60],[-21,-26],[-24,-49],[43,-28],[35,-13],[2,-22],[-60,-10],[-40,-79],[-16,-10],[-52,-8],[-88,-35],[-33,-94],[-23,-37],[-43,-32],[-97,-46],[-19,-31],[-30,-14],[-54,-1],[-42,-23],[-28,-45],[-20,-15],[-2,-27],[-43,-30],[-50,11],[-49,-10],[-138,24],[-34,-17],[-94,-18],[-24,22],[-81,41],[-43,3],[-24,24],[2,19],[-17,19],[-2,35],[15,18],[42,23],[-35,40],[-54,47],[-20,35],[-40,7],[-20,-7],[-28,27],[-29,17],[-25,31],[-6,73],[-23,13],[4,27],[68,58],[0,37],[16,2],[15,30],[-29,15],[-7,63],[-55,-1],[-30,25],[15,30],[61,36],[4,53],[-6,21],[-29,29],[-14,61],[30,26],[-60,34],[9,25],[48,19],[5,74],[-36,32],[-8,21],[-46,12],[-27,21],[-35,-1],[-50,30],[-42,10],[-20,22],[-12,52],[-26,23],[-33,-20],[-56,10],[-37,12],[-51,30],[-1,32],[-47,38],[-100,31],[-36,-11],[-39,2],[-7,13],[-53,36],[-12,24],[-61,0],[-55,26],[-21,-15],[-51,15],[-43,48],[-63,0],[-43,39],[-21,-10],[-13,41],[-48,-8],[-27,12],[-58,6],[-72,-34],[0,-18],[-81,-7],[-33,-17],[-5,24],[-42,-2],[-18,26],[-28,18],[24,17],[-37,26],[-1,40],[31,18],[-6,22],[2,70],[-21,1],[-30,19],[-52,0],[7,48],[-13,34],[-32,16],[13,16],[50,8],[-19,72],[-15,14],[-82,44],[-8,13],[-49,3],[-82,21],[-47,3],[-17,15],[-53,4],[-51,-30],[-17,10],[-53,-5],[-32,15],[-10,25],[-52,-9],[4,21],[-32,15],[-16,88],[-43,35],[-30,-9],[-53,26],[-22,33],[-20,7],[-69,-6],[-24,-34],[-38,2],[2,21],[-36,6],[-31,-24],[-33,44],[-35,-13],[-74,40],[-15,29],[-41,12],[-24,-3],[-51,24],[-79,3],[-20,17],[18,29],[-29,2],[-66,20],[-67,-5],[-74,46],[-65,2],[-26,29],[-91,-2],[-14,25],[-51,1],[-111,-7],[-17,-26],[-72,-20],[-26,-15],[4,-21],[-52,-16],[-56,8],[-31,-22],[-49,-16],[-47,54],[-18,-16],[-75,-26],[-104,-30],[-22,-13],[-39,-46],[-38,20],[-3,18],[-42,-1],[-9,-20],[-52,9],[-64,2],[-4,31],[-111,44],[-58,-13],[-31,3],[-58,-17],[-25,38],[-38,-9],[-10,-19],[39,-23],[-19,-36],[-87,3],[-24,-7],[-43,15],[-14,14],[50,23],[39,10],[-49,21],[-45,6],[-24,-8],[-10,-20],[-35,-11],[-63,5],[-30,9],[-46,1],[-38,9],[-15,-24],[-27,-9],[-41,17],[-49,-28],[-36,-13],[-17,23],[-29,-9],[-69,9],[-32,14],[-26,27],[-34,19],[-45,10],[-42,-9],[-15,21],[24,12],[1,50],[-45,7],[-43,34],[-34,-9],[-34,-25],[-43,9],[14,29],[-53,-2],[-57,29],[-9,38],[5,18],[-32,5],[-4,16],[27,23],[-29,18],[-7,43],[-54,0],[-30,30],[5,40],[-55,-1],[-77,15],[-42,27],[-18,48],[-42,7],[-28,25],[-54,10],[-52,55],[-24,2],[-36,-24],[-44,1],[-27,11],[-31,-5],[-41,-21],[-40,-5],[-40,-32],[-88,-13],[27,-14],[-82,-55],[-46,10],[-45,-8],[7,-26],[-67,2],[-33,29],[-40,3],[-84,16],[26,21],[-82,-7],[-7,22],[-22,12],[-81,-17],[-7,31],[-28,-10],[-29,-44],[-27,7],[-16,-17],[-76,11],[-36,-1],[-19,-24],[-36,-17],[-78,31],[-46,-7],[15,-60],[-40,-17],[-46,-2],[-18,-12],[-34,22],[-51,8],[-37,-8],[-4,-23],[-38,-8],[-19,-21],[-26,12],[-51,5],[-39,29],[-23,6],[-22,-16],[-68,-7],[-27,-37],[-70,-22],[-22,5],[-10,-32],[-34,-3],[-55,-35],[-75,-7],[-30,-13],[-53,20],[-72,-27],[-7,-23],[-33,15],[-2,18],[-42,-2],[-32,15],[-107,-6],[-22,-43],[-38,-5],[-62,6],[-18,19],[-56,15],[-22,26],[-41,-3],[-23,23],[-26,-22],[-63,6],[-5,-15],[-33,-8],[-36,34],[-55,-1],[-25,-25],[-57,-24],[-24,28],[-70,3],[-36,-14],[-72,-7],[-16,-13],[-27,21],[-27,-15],[-74,-7],[-56,15],[-57,-2],[-18,-29],[-44,10],[-39,-7],[-33,10],[24,22],[-29,7],[-45,-13],[-24,-23],[-29,18],[-40,-30],[24,-19],[-25,-17],[22,-20],[-28,-18],[-35,11],[-110,-6],[-67,11],[22,20],[-22,32],[-39,15],[4,25],[-27,13],[-20,-23],[-58,10],[-19,24],[5,16],[-28,25],[-31,5],[-42,17],[-65,-8],[-55,-23],[-5,18],[-31,-4],[4,32],[-21,27],[-34,-10],[1,48],[-29,14],[-56,7],[-30,10],[-32,-7],[-15,11],[-75,-19],[-28,-16],[-44,11],[-75,8],[-39,-9],[-18,12],[-25,-26],[-36,-8],[-51,26],[-51,-10],[-46,-1],[-40,-33],[-28,13],[-26,-11],[-11,-29],[-31,-18],[-83,3],[-42,-11],[-27,-44],[-25,-2],[-57,-35],[0,-21],[22,-26],[-46,-25],[-34,-2],[-6,-29],[14,-29],[-13,-13],[-4,-30],[-14,-14],[-49,-4],[1,-19],[-38,-41],[-3,-22],[-46,-44],[-42,3],[-39,-37],[9,-19],[-16,-27],[-24,-14],[-44,22],[-35,-14],[-28,24],[-51,-7],[-8,21],[-26,4],[-35,-32],[-32,-1],[-13,-28],[-62,-9],[-32,5],[7,-26],[-27,-13],[-51,-5],[-24,-25],[-35,-6],[-61,11],[-49,-6],[-4,-16],[-41,-37],[7,-17],[-34,-16],[-18,-18],[-57,-13],[13,-28],[-44,-14],[-26,38],[-68,-25],[-32,6],[-44,-48],[-46,-3],[-27,-34],[-5,-29],[-49,-17],[-6,13],[-53,-24],[-26,4],[-27,-19],[-50,-2],[-39,-31],[25,-16],[-40,-8],[5,-23],[-18,-16],[17,-24],[-43,-19],[-63,-39],[-63,-23],[-60,17],[-41,-4],[-33,7],[0,-27],[21,-27],[-2,-33],[-23,-19],[-53,-8],[-18,-30],[-43,20],[-21,-8],[-31,16],[-27,-16],[-36,-6],[-36,13],[-67,-31],[-8,-20],[-39,-8],[0,-73],[-30,-5],[-20,-23],[-10,-39],[-27,-6],[-19,-29],[-25,-3],[-30,-26],[9,-14],[47,-1],[-51,-75],[14,-10],[3,-33],[-22,-5],[-25,-28],[-20,3],[-5,-40],[-27,-8],[17,-31],[-35,-48],[-23,-7],[-13,-46],[-22,-22],[-20,14],[-65,-20],[-43,14],[-3,-22],[-29,1],[-20,-42],[-36,-21],[-30,4],[-132,-33],[-8,-35],[-37,-29],[-16,-27],[-30,-13],[-648,0],[-907,0],[-797,0],[-1087,0],[-736,0],[-518,0],[-956,0],[-530,0],[-955,-1],[-670,0],[-1134,0],[-531,1],[-942,0],[-649,0],[-530,0],[-1061,0],[-955,0],[-588,0],[-1121,0],[-519,0],[-1062,0],[-849,0],[-743,0],[-1061,0],[-1061,0],[-1061,0],[-563,0],[-1030,0],[-1079,0],[-1044,0],[-602,0],[-1073,0],[-978,0],[-531,0],[-669,0],[-1019,0],[-1071,0],[-869,-1],[-629,1],[-1049,0],[-560,0],[-951,0],[-930,0],[-843,0],[-1126,1],[-579,-1],[-712,0],[-643,0],[-642,0],[-643,0],[-643,0],[-643,0],[-642,0],[-634,0],[-530,0],[-764,0],[-643,0],[-643,0],[-702,0],[-583,0],[-811,0],[-1117,0],[-573,0],[-717,0],[0,883],[0,509],[1,911],[0,1940],[0,728],[1,654],[0,1034],[0,421],[0,510],[0,655],[0,291],[0,583],[-1,364],[0,946],[0,762]]],"transform":{"scale":[0.00015559555595555968,0.00019991399913999139],"translate":[137.9946,-29.1792]},"objects":{"qld_qps_regions_gda94_simp200m":{"type":"GeometryCollection","geometries":[{"arcs":[[0,1,2,3]],"type":"Polygon","properties":{"QPS Region":"Brisbane","Layer Id":"qld_qps_regions_gda94_simp200m","Layer Group":"official","Layer Kind":"qps_regions","Source":"QPS Regions, Queensland Police Service","Source URL":"https://www.data.qld.gov.au/dataset/qps-regions","Licence":"CC BY 3.0","Licence URL":"https://creativecommons.org/licenses/by/3.0/au/","Dataset Date":"09/03/2022","Simplification Tolerance M":200,"Coordinate Precision Decimals":4,"CRS":"GDA94 (EPSG:4283)","Generated":"2026-09-13"},"id":"Brisbane"},{"arcs":[[4,5,6,7,8]],"type":"Polygon","properties":{"QPS Region":"Central","Layer Id":"qld_qps_regions_gda94_simp200m","Layer Group":"official","Layer Kind":"qps_regions","Source":"QPS Regions, Queensland Police Service","Source URL":"https://www.data.qld.gov.au/dataset/qps-regions","Licence":"CC BY 3.0","Licence URL":"https://creativecommons.org/licenses/by/3.0/au/","Dataset Date":"09/03/2022","Simplification Tolerance M":200,"Coordinate Precision Decimals":4,"CRS":"GDA94 (EPSG:4283)","Generated":"2026-09-13"},"id":"Central"},{"arcs":[[9,10]],"type":"Polygon","properties":{"QPS Region":"Far Northern","Layer Id":"qld_qps_regions_gda94_simp200m","Layer Group":"official","Layer Kind":"qps_regions","Source":"QPS Regions, Queensland Police Service","Source URL":"https://www.data.qld.gov.au/dataset/qps-regions","Licence":"CC BY 3.0","Licence URL":"https://creativecommons.org/licenses/by/3.0/au/","Dataset Date":"09/03/2022","Simplification Tolerance M":200,"Coordinate Precision Decimals":4,"CRS":"GDA94 (EPSG:4283)","Generated":"2026-09-13"},"id":"Far Northern"},{"arcs":[[-3,11,-5,12]],"type":"Polygon","properties":{"QPS Region":"North Coast","Layer Id":"qld_qps_regions_gda94_simp200m","Layer Group":"official","Layer Kind":"qps_regions","Source":"QPS Regions, Queensland Police Service","Source URL":"https://www.data.qld.gov.au/dataset/qps-regions","Licence":"CC BY 3.0","Licence URL":"https://creativecommons.org/licenses/by/3.0/au/","Dataset Date":"09/03/2022","Simplification Tolerance M":200,"Coordinate Precision Decimals":4,"CRS":"GDA94 (EPSG:4283)","Generated":"2026-09-13"},"id":"North Coast"},{"arcs":[[[-8,13,-10,14]],[[15]],[[16]],[[17]],[[18]]],"type":"MultiPolygon","properties":{"QPS Region":"Northern","Layer Id":"qld_qps_regions_gda94_simp200m","Layer Group":"official","Layer Kind":"qps_regions","Source":"QPS Regions, Queensland Police Service","Source URL":"https://www.data.qld.gov.au/dataset/qps-regions","Licence":"CC BY 3.0","Licence URL":"https://creativecommons.org/licenses/by/3.0/au/","Dataset Date":"09/03/2022","Simplification Tolerance M":200,"Coordinate Precision Decimals":4,"CRS":"GDA94 (EPSG:4283)","Generated":"2026-09-13"},"id":"Northern"},{"arcs":[[-1,19,20]],"type":"Polygon","properties":{"QPS Region":"South Eastern","Layer Id":"qld_qps_regions_gda94_simp200m","Layer Group":"official","Layer Kind":"qps_regions","Source":"QPS Regions, Queensland Police Service","Source URL":"https://www.data.qld.gov.au/dataset/qps-regions","Licence":"CC BY 3.0","Licence URL":"https://creativecommons.org/licenses/by/3.0/au/","Dataset Date":"09/03/2022","Simplification Tolerance M":200,"Coordinate Precision Decimals":4,"CRS":"GDA94 (EPSG:4283)","Generated":"2026-09-13"},"id":"South Eastern"},{"arcs":[[-2,-21,21,-6,-12]],"type":"Polygon","properties":{"QPS Region":"Southern","Layer Id":"qld_qps_regions_gda94_simp200m","Layer Group":"official","Layer Kind":"qps_regions","Source":"QPS Regions, Queensland Police Service","Source URL":"https://www.data.qld.gov.au/dataset/qps-regions","Licence":"CC BY 3.0","Licence URL":"https://creativecommons.org/licenses/by/3.0/au/","Dataset Date":"09/03/2022","Simplification Tolerance M":200,"Coordinate Precision Decimals":4,"CRS":"GDA94 (EPSG:4283)","Generated":"2026-09-13"},"id":"Southern"}]}}}