{"type":"Topology","arcs":[[[96884,88112],[-254,92],[-204,12],[-519,-262],[-676,-394],[-251,-181],[-863,-748],[-291,-313],[-264,-354],[-278,-483],[-171,-223],[-773,-853],[-170,-258],[-214,-455],[194,-77],[277,100],[181,-19],[358,-131],[271,-159],[305,-243],[287,-285],[322,-397],[458,-748],[522,-1003],[442,-745],[160,-362],[90,-332],[34,-397],[-54,-571],[-194,-860],[-23,-316],[-131,-429],[-438,-890],[-291,-525],[-759,-1126],[-308,-498],[-285,-382],[-766,-802],[-268,-320],[-545,-451],[-234,-236],[-385,-324],[-408,-385],[-642,-502],[-372,-216],[-682,-331],[-204,-197],[-824,12],[-4011,0],[-2680,0],[-5909,11],[-331,73],[-154,174],[-241,100],[-532,-23],[-284,170],[-301,8],[-231,-132],[-147,-158],[-121,-223],[-328,-251],[-73,-216],[194,-266],[-20,-236],[-459,-227],[-267,73],[-30,-158],[-255,-247],[-167,97],[7,227],[-71,143],[-207,11],[-94,-73],[-237,43],[-355,-278],[-321,4],[-167,65],[-318,-335],[-291,-174],[-54,-196],[-268,-587],[-843,-1600],[-210,-872],[-111,-841],[-719,-837],[-412,124],[20,-386],[-287,-19],[-181,-116],[-151,15],[-251,-347],[-414,-285],[70,-131],[-87,-135],[53,-108],[-291,-363],[-100,0],[-134,-227],[-401,42],[-298,-66],[-17,-81],[-873,-848],[-352,-1034],[-60,-112],[114,-327],[-54,-236],[218,-200],[164,-54],[33,-178],[-123,-81],[-71,-528],[137,-108],[-20,-247],[-93,-104],[-10,-282],[-184,43],[-375,11],[-435,236],[-204,7],[-97,-165],[-101,185],[-411,58],[23,-274],[-190,-35],[-101,93],[-194,-43],[-254,23],[-475,-150],[0,-235],[-124,-255],[-227,-239],[-104,-208],[-91,-479],[51,-563],[-345,-339],[-281,-46],[-204,-105],[-341,-23],[16,-131],[-170,-46],[-27,-143],[-425,-96],[-50,-197],[73,-289],[124,-170],[-16,-297],[-111,-143],[-110,31],[-151,-116],[-388,-131],[-64,-154],[-267,143],[-221,281],[-385,151],[-294,-232],[-107,448],[-228,112],[-147,-255],[-107,-887],[-281,15],[-94,-316],[-281,-266],[-207,-301],[-50,-343],[220,-239],[-77,-224],[37,-147],[-77,-729],[-144,-192],[-227,-159],[-211,243],[-281,-123],[-207,-23],[10,-528],[-74,-170],[505,-143],[81,-370],[-41,-158],[41,-779]],[[54490,46816],[-91,-105],[-157,0],[-127,-185],[83,-181],[-117,-216],[-26,-189],[46,-285],[-244,-479],[-187,108],[-40,-219],[-111,-251],[50,-289],[-244,-135],[-120,34],[-137,-366],[-148,-112],[-87,-204],[-130,-4],[-221,-201],[-104,-258],[-140,-8],[-67,-177],[-238,-16],[-287,-177],[-318,85],[-251,196],[-124,243],[-33,266],[46,120],[-113,255],[-231,11],[-54,282],[-113,61],[-27,213],[-134,281],[74,201],[-399,320],[-562,112],[-184,216],[-378,146],[-10,374],[-77,74],[-271,-155],[-177,74],[20,189],[-77,354],[-100,162],[73,128],[-157,158],[-184,92],[-348,-61],[37,-328],[-77,-197],[-308,-54],[-137,-224],[181,-262],[0,-127],[-168,-12],[-274,89],[-174,-455],[-154,-81],[-3,-139],[227,-73],[17,-139],[268,-54],[56,-96],[-100,-278],[-161,-66],[-73,-150],[70,-220],[-13,-258],[113,-147],[11,-235],[-94,-147],[70,-254],[114,-85],[94,-359],[3,-266],[-54,-243],[51,-158],[163,-216],[-40,-239],[-100,-170],[0,-301],[60,-92],[-30,-297],[-244,-247],[-198,-97],[-40,-185],[-197,-65],[-268,146],[-170,27],[-248,-200],[-361,196],[-335,50],[-432,255],[-374,305],[-884,204],[-267,16],[150,586],[-137,146],[74,166],[-325,282],[107,332],[-284,7],[-114,139],[-211,-77],[-107,100],[-130,297],[-278,50],[-231,182],[-287,-20],[-124,-196],[-382,-182],[-154,27],[-137,174],[-689,116],[-201,-81],[-251,169],[-247,-69],[-91,89],[-264,-85],[-130,50],[-235,-85],[-297,-2029],[-305,-19],[-164,189],[14,193],[-121,216],[-134,23],[-154,-220],[-16,-123],[271,-174],[30,-204],[-137,-205],[80,-85],[241,89],[247,-108],[34,-162],[-198,-682],[97,-340],[-200,-328],[-278,-231],[54,-320],[-188,-85],[-30,-417],[-114,-112],[-197,43],[-30,-112],[27,-366],[-164,-66],[-2891,-239],[-907,139],[-221,-236],[-281,12],[-535,-536],[30,-162],[191,-212],[-37,-243],[-104,-73],[-458,-583],[-144,-281],[-328,-290],[-368,193],[-288,-42],[-164,100],[-873,143],[-3239,482],[-317,23],[-251,127],[-810,158],[3,-208],[-67,-551],[-241,-313],[-33,-177],[221,-158],[271,81],[20,-213],[-80,-235],[53,-77],[-1191,-227]],[[23745,34254],[-167,57],[-214,386],[-275,-116],[-361,-19],[-278,43],[-254,96],[-555,308],[-184,232],[-64,443],[-217,386],[33,243],[-304,467],[-158,617],[-194,143],[20,142],[-729,-235],[-415,150],[-579,-119],[-191,50],[-214,262],[-210,35],[-271,-162],[13,-170],[-84,-258],[-1816,-1427],[-1995,289],[-304,787],[151,235],[20,147],[-94,116],[-248,131],[57,138],[-130,398],[-221,277],[-114,367],[-224,35],[-599,-16],[-308,35],[-140,-31],[-198,-162],[-177,15],[-412,421],[-381,58],[-298,85],[-301,23],[57,247],[-47,231],[-127,309],[-13,250],[354,548],[37,231],[147,332],[4,336],[-178,277],[-46,347],[53,243],[241,143],[197,266],[57,293],[131,301],[-121,251],[-545,764],[-234,131],[-47,250],[-425,263],[-284,401],[257,89],[-428,570],[80,286],[124,177],[321,35],[224,370],[-93,235],[-27,490],[47,471],[-492,251],[-214,408],[110,401],[178,251],[150,50],[7,201],[237,305],[7,119],[-167,97],[-107,258],[-47,471],[-1412,212],[-696,61],[-197,355],[-502,205],[-305,-47],[-274,-85],[-241,47],[-268,-50],[-455,-143],[-234,181],[-448,181],[-278,294],[-385,856],[-67,31],[-1201,250],[-170,-100],[-131,-189],[-355,139],[-378,58],[-33,162],[-241,27],[-167,-85],[-34,193],[94,382],[141,135],[150,486],[-77,239],[-231,370],[-23,397],[57,166],[-408,220],[73,181],[-84,263],[365,474],[-33,166],[-134,108],[-284,-97],[-131,39],[84,281],[-81,263],[-291,-93],[-70,39],[47,254],[-198,81],[-33,174],[187,170],[30,405],[743,540],[234,613],[-174,131],[-291,355],[94,100],[274,85],[-93,432],[180,200],[-301,278],[382,459],[164,66],[73,181],[131,85],[-355,181],[-27,123],[301,216],[131,259],[-50,104],[20,424],[-67,201],[338,262],[365,-54],[170,185],[-27,155],[225,524],[-81,178],[10,231],[-140,150],[47,255],[358,35],[143,115],[-214,556],[71,235],[247,27],[114,336],[-13,243],[227,293],[104,54],[60,432],[-144,732],[-67,147],[71,116],[-27,204],[214,-11],[288,-162],[532,92],[-141,232],[338,501],[345,120],[418,219],[682,4],[204,120],[4,216],[147,154],[0,247],[-100,143],[-81,312],[134,262],[157,120],[161,332],[291,111],[-428,432],[-231,155],[-87,119],[54,417],[-77,146],[-54,266],[-187,490],[-10,328],[46,255],[-16,922],[-44,200],[14,382],[167,756],[-234,339],[-224,644],[93,70],[529,1365],[-54,340],[67,582],[746,2013],[365,81],[97,270],[117,101],[178,1334],[83,100],[-140,344],[-512,2241],[16,38],[817,729],[358,93],[495,-8],[47,355],[117,166],[465,100],[248,-367],[123,-34],[432,181],[325,-131],[337,11],[322,-61],[522,81],[214,142],[194,-15],[331,-158],[432,-54],[241,-139],[307,-309],[188,-7],[298,142],[1274,-235],[867,-223],[127,50],[227,-74],[261,101],[114,223],[87,590],[-137,170],[104,278],[120,42],[91,409],[200,58],[131,274],[261,278],[187,320],[117,112],[-344,312],[-87,208],[-20,247],[-265,-50],[-231,254],[-508,-223],[-338,208],[-64,108],[-221,112],[-344,69],[-525,517],[-141,46],[244,1852],[127,-174],[265,77],[231,-154],[120,197],[27,220],[120,-16],[101,-258],[391,-62],[127,166],[265,-39],[56,178],[1720,-587],[395,-96],[836,-343],[128,85],[-101,258],[-23,332],[23,339],[164,131],[224,-11],[-291,478],[-160,131],[-64,494],[-74,231],[0,236],[174,173],[57,312],[121,20],[174,154],[0,324],[113,166],[0,254],[91,89],[23,251],[81,274],[-21,358],[171,162],[34,714],[-77,297],[40,266],[214,139],[40,274],[144,169],[395,-96],[167,123],[217,-11],[44,77],[495,-85],[114,-289],[-90,-116],[6,-312],[238,-282],[83,0],[84,-285],[121,58],[291,-251],[77,-204],[598,-120],[275,-359],[57,-312],[210,-158],[31,-297],[264,-170],[107,289],[147,-46],[388,174],[127,316],[191,-135],[328,-58],[27,-185],[502,-525],[-10,-212],[-154,-89],[-91,-250],[-6,-216],[-201,-336],[-44,-196],[61,-348],[-121,-200],[67,-201],[-47,-216],[131,-139],[23,-219],[154,-128],[231,23],[151,166],[341,128],[528,88],[87,328],[238,-54],[405,120],[224,-120],[13,-173],[-133,-1042],[50,-108],[-77,-181],[-171,-147],[74,-154],[-67,-254],[385,-1613],[-225,8],[-250,123],[-278,-3],[-111,-128],[-204,-73],[-154,-197],[34,-293],[150,-54],[241,139],[20,100],[439,147],[140,-181],[198,-16],[3,-154],[238,-397],[337,-124],[205,-366],[70,135],[284,100],[91,235],[173,-92],[91,92],[291,-50],[278,-92],[184,-394],[167,-23],[140,70],[14,331],[114,54],[-34,158],[201,201],[80,-35],[171,151],[140,-50],[305,3],[191,-150],[321,536],[214,185],[23,208],[94,66],[191,436],[234,92],[67,-119],[180,27],[108,150],[210,-247],[238,-92],[294,65],[101,321],[30,405],[167,61],[294,-31],[292,162],[304,567],[-224,224],[-70,293],[177,19],[468,-285],[141,-8],[50,182],[174,227],[161,644],[-61,151],[131,108],[231,23],[308,-197],[80,-266],[-134,-162],[107,-201],[67,-327],[264,-205],[-36,-142],[264,-128],[107,-135],[33,-177],[-147,-282],[231,-173],[405,-70],[331,-289],[110,-258],[178,-128],[-67,-258],[60,-162],[-127,-482],[110,-185],[-103,-93],[-204,-478],[-158,-31],[-110,-177],[-201,54],[-127,-209],[171,-235],[30,-208],[117,-124],[37,-154],[200,-297],[61,19],[354,-189],[305,89],[301,-224],[120,-247],[131,12],[234,316],[134,-88],[438,169],[268,-73],[338,-270],[194,-77],[314,-436],[265,-116],[150,-204],[201,42],[251,240],[-7,208],[-247,123],[301,286],[231,-8],[254,166],[107,193],[184,100],[181,-235],[63,-240],[111,-111],[368,-116],[120,-216],[238,-270],[87,-162],[291,-224],[47,-343],[207,-397],[502,-398],[60,-158],[191,1312],[1238,-182],[358,-158],[180,-204],[74,-228],[181,-131],[93,-266],[372,-96],[201,-182],[237,-127],[114,-204],[-74,-317],[214,-27],[104,166],[395,-4],[140,101],[57,243],[285,57],[294,290],[134,397],[191,177],[-121,301],[77,135],[147,-69],[348,69],[171,81],[358,66],[-137,235],[10,162],[127,367],[157,273],[134,147],[351,15],[372,216],[254,-50],[47,89],[-91,451],[27,494],[579,-85],[432,-85],[117,941],[-265,39],[37,278],[265,-39],[23,197],[-278,27],[-134,-43],[-414,151],[-295,-47],[-117,66],[47,359],[134,-78],[43,317],[-150,312],[-40,316],[856,-111],[100,771],[-983,143],[130,77],[188,212],[43,208],[-33,232],[170,200],[87,251],[245,131],[100,166],[67,347],[-84,154],[291,-4],[44,70],[-204,281],[90,213],[184,239],[402,73],[204,-85],[274,-401],[221,-143],[512,135],[334,197],[174,208],[750,0],[26763,27],[11416,-27],[1244,-6344],[67,-764]],[[54490,46816],[133,-47],[51,-166],[167,-227],[344,-154],[114,-108],[244,84],[328,-123],[-123,-193],[23,-331],[-231,-247],[7,-359],[87,-89],[-101,-293],[91,-289],[23,-243],[-97,-77],[-23,-189],[150,-81],[174,34],[362,-19],[50,-150],[-117,-467],[-134,-281],[140,-132],[338,-169],[51,-135],[404,108],[61,239],[261,92],[143,139],[171,-54],[338,193],[60,216],[147,-4],[231,197],[131,-189],[-84,-282],[70,-277],[171,-205],[40,-154],[234,8],[4,308],[107,162],[130,-146],[201,-120],[97,-127],[214,-12],[234,205],[328,-124],[4,-212],[1211,-154],[856,-127],[10,38],[1064,-158],[2252,-374],[90,594],[248,-58],[161,1169],[983,-143],[84,-266],[114,-39],[194,89],[103,366],[730,-108],[-24,-173],[392,-58],[-64,-428],[847,-135],[97,-197],[488,-81],[44,-189],[264,-11],[74,-251],[736,-112],[117,96],[184,-77],[1321,-196],[174,-340],[-63,-324],[308,-92],[57,439],[284,-34],[-147,-247],[144,-205],[-41,-362],[1131,-174],[57,-69],[-43,-220],[438,-69],[-100,-633],[361,-54],[-27,-258],[1134,-182],[71,232],[264,34],[94,679],[204,-31],[50,336],[-187,31],[83,571],[536,-85],[207,166],[0,119],[318,205],[0,169],[124,247],[415,170],[301,-23],[204,42],[117,120],[-7,266],[164,347],[27,181],[261,58],[-50,355],[-201,112],[-338,69],[-30,216],[-144,-23],[-351,582],[160,209],[-134,69],[-244,-4],[24,162],[174,-4],[361,-104],[238,-123],[-27,193],[3088,-548],[442,-85],[5035,-887],[127,120],[341,100],[465,359],[241,258],[345,162],[67,370],[-121,502],[-16,331],[70,351],[104,313],[154,262],[632,4],[405,-62]],[[90544,45612],[-157,-312],[93,-440],[37,-632],[131,-1003],[143,-625],[148,-455],[123,-266],[138,-166],[307,-532],[168,-240],[307,-354],[466,-378],[428,-205],[294,-77],[358,-23],[204,35],[154,142],[224,575],[154,147],[168,-220],[-4,-135],[-177,-77],[-331,-729],[-502,-1173],[-509,-1284],[-425,-1165],[-368,-1169],[-428,-1299],[-435,-1539]],[[91253,32013],[-4105,682],[-44,-312],[74,-77],[-94,-679],[-184,-332],[-43,-262],[-127,-42],[-17,-143],[-141,-193],[-378,-81],[-30,-170],[-144,-73],[-207,69],[-378,-81],[10,-420],[-623,96],[-23,-162],[-197,31],[-47,-335],[-124,100],[-261,363],[-281,231],[-783,108],[-97,-771],[-642,88],[-20,-169],[-171,-120],[84,-590],[-168,-46],[91,-313],[-579,-1975],[-57,-354],[-231,-374],[-77,-255],[-154,-1022],[-318,54],[-368,166],[-154,-656],[-77,15],[4,-389],[177,-12],[-73,-493],[20,-324],[338,-54],[-41,-274],[121,-81],[261,38],[137,-131],[100,-470],[-97,46],[-77,-536],[138,-31],[-225,-1558],[-1037,177],[4,-270],[257,-15],[7,-239],[-134,-66],[-308,-297],[-103,-247],[-151,-58],[-37,-343],[616,-92],[-81,-556],[258,-88],[70,-151],[-77,-235],[-127,-54],[-164,89],[-10,-290],[-184,-227],[-97,100],[-157,-93],[-248,363],[-143,-108],[-164,231],[-462,-358],[-77,4],[-60,-402],[-328,-331],[-198,-104],[4,-297],[-301,-54],[-168,-267],[64,-208],[-80,-324],[-352,62],[-324,-39],[-224,166],[-34,101],[-298,154],[-264,42],[-341,120],[-231,-89],[-218,50],[-197,-50],[-13,177],[-114,70],[-234,-239],[-111,-12],[-144,181],[-287,-46],[-138,-119]],[[73811,15459],[-190,57],[-151,-46],[-154,73],[-210,359],[-1426,193],[124,-393],[241,-340],[-84,-77],[-2104,293],[50,382],[-318,46],[60,440],[-351,50],[311,1015],[-204,119],[-30,-216],[-131,-69],[-117,250],[10,186],[141,250],[-23,232],[197,254],[110,799],[-87,-101],[-210,31],[140,995],[-224,12],[-54,-120],[-338,-54],[-127,-115],[-291,115],[-164,-266],[-150,-108],[-127,120],[-302,-197],[-120,143],[-325,0],[-133,154],[-77,224],[-214,-27],[-128,-124],[-150,43],[-201,-158],[-204,54],[-157,-143],[-298,-143],[-361,-65],[-138,-147],[-137,324],[-231,139],[27,77],[-267,177],[-104,135],[-171,81],[-157,162],[-355,-42],[-26,-417],[-168,-177],[-194,0],[-83,-96],[-14,-197],[-104,-77],[-97,-228],[-257,-46],[-57,-89],[-295,-35],[-194,-150],[94,-96],[17,-344],[-104,-150],[-264,162],[-87,-54],[-124,-270],[-264,19],[-94,181],[-238,263],[-90,177],[-241,212],[-100,151],[-348,173],[-261,270],[-208,-119],[-187,81],[-27,-182],[-144,-96],[-174,123],[-291,-19],[-107,-293],[131,-235],[-84,-251],[-271,-239],[67,-170],[-10,-293],[144,-127],[-54,-201],[-127,-173],[141,-209],[-74,-57],[57,-386],[67,-62],[23,-262],[81,-147],[23,-220],[-164,-331],[30,-155],[184,-146],[47,-258],[134,-85],[-164,-189],[-248,-151],[184,-532],[-254,-494],[57,-177],[-107,-243],[-241,23],[-20,-201],[-391,-196],[-71,-124],[-217,-108],[-288,-7],[-301,-159],[-204,-208],[-54,-193],[81,-389],[6,-282],[231,-135],[7,-181],[197,-224],[402,-135],[-57,-100],[167,-139],[271,127],[228,-308],[154,-120],[143,-216],[51,-185],[150,-108],[-147,-142],[107,-270],[338,104],[77,189],[-134,84],[47,159],[331,-27],[-60,-482],[438,-62],[-57,-158],[-174,-170],[-43,-139],[3,-563],[275,-262],[143,104],[94,-158],[184,-108],[-80,-189],[13,-282],[-130,-173],[190,-482],[-76,-479],[535,-85],[-80,-551],[-171,27],[-54,-359],[84,-266],[27,-679],[147,-247],[-535,85],[-107,120],[33,177],[-368,-243],[-171,0],[-247,-208],[-188,-332],[-113,-474],[-71,-232],[-217,155],[-271,81],[-228,-135],[-217,15],[-191,-308],[-328,-105],[-130,-196],[-586,-317],[-224,16],[-221,247],[-227,38],[67,332],[144,35],[40,162],[150,85],[164,212],[-23,621],[-141,204],[121,104],[60,178],[258,324],[-680,96],[-103,135],[-201,-58],[-164,54],[-127,-92],[-131,127],[47,208],[174,-23],[67,212],[208,-54],[304,208],[147,232],[-103,208],[150,309],[281,-4],[40,224],[-103,208],[-114,4],[-107,239],[-14,397],[74,185],[-54,359],[-408,54],[47,393],[-181,-108],[-100,-139],[-164,-30],[-184,-166],[-70,-166],[-402,62],[-150,77],[-268,374],[-331,-251],[-40,-278],[-335,31],[-244,-162],[-60,-447],[-94,-12],[-40,-289],[-1285,181],[-57,-4],[-254,-354],[-7,-189],[-120,-247],[-204,-212],[-315,-178],[-154,-200],[7,-174],[-134,-177],[-37,-189],[54,-162],[-60,-421],[-148,-81],[-170,-212],[-27,-216],[-1449,-706],[-13,-200],[-161,-151],[-137,-231],[-298,-258],[-187,-336],[-251,-147],[-110,43],[-228,-166],[-298,177],[-267,-308],[-455,-212],[-422,-128],[-247,-3],[-191,77],[-261,-58],[-234,89],[-245,-128],[-331,139],[-288,228],[-164,-4],[-177,239],[-97,27],[-80,197],[-264,185],[-114,-12],[-275,209],[-127,235],[-221,-131],[-254,-43],[-140,77],[-178,224],[-117,16],[-294,308],[-268,-73],[-341,324],[-137,-23],[-251,177],[-44,112],[-328,0],[-73,154],[-164,85],[-147,-35],[-188,405],[-33,347],[-117,101],[10,185],[-184,65],[-134,213],[-90,246],[-215,159],[-30,235],[-301,378],[-117,-27],[-171,89],[-87,246],[-143,39],[-168,382],[-83,69],[170,220],[-140,201],[-30,212],[56,108],[-13,285],[67,228],[-167,34],[-281,-42],[-67,143],[-382,19],[-144,239],[-204,77],[-220,-104],[-74,-127],[-311,-58],[-475,150],[-328,51],[-204,169],[-362,236],[-93,7],[-61,212],[-26,444],[-164,143],[130,308],[-110,262],[137,305],[-33,174],[-392,112],[-258,146],[-110,243],[-80,31],[512,397],[67,513],[-41,154],[-445,587],[-331,189],[-207,266],[-218,-97],[-113,305],[-178,23],[-187,189],[-198,58],[-93,367],[-238,27],[-308,243],[30,92],[-110,201],[-154,38],[-100,243],[-154,-177],[-147,-23],[-64,169],[-234,266],[-117,355],[-218,155],[-241,354],[-30,135],[24,344],[-275,46],[-257,-201],[-188,-38],[-261,81],[-210,204],[-161,224],[23,339],[-157,8],[-174,193],[-274,-170],[-261,224],[-107,147],[-218,138],[-267,502],[130,247],[-157,216],[7,123],[160,193],[-23,73],[-863,131],[-3500,498],[-3,11],[1271,3182],[204,1331],[428,2816],[77,354],[-2338,321],[-1667,-58],[-113,2476],[164,-19],[150,-112],[1690,879],[107,417],[552,96],[231,-38],[-37,401],[575,347],[158,-81],[170,-324],[455,-301],[258,50],[104,-65],[291,196],[107,193],[-44,289],[-113,139],[-27,181],[100,498],[-261,374],[-60,220],[-234,54],[-184,-143],[-101,93],[-271,-355],[-190,-123],[-174,-39],[-141,231],[-301,89],[-147,-11],[-161,169],[-164,43],[-114,196],[-197,132]],[[96884,88112],[77,-193],[-7,-366],[-70,-787],[-97,-1369],[-57,-1238],[-17,-621],[44,-1154],[87,-694],[94,-544],[177,-640],[57,-73],[201,-583],[177,-432],[160,-320],[318,-428],[392,-378],[358,-285],[441,-139],[245,-12],[251,66],[40,-147],[-7,-740],[80,-509],[171,-332],[-127,-559],[-208,-506],[-264,-547],[-579,-1339],[-291,-763],[-160,-359],[-1365,-3452],[-238,-509],[-318,-810],[-672,-1570],[-91,-243],[-565,-1292],[-291,-775],[-295,-694],[-525,-1343],[-388,-1049],[-251,-632],[-659,-1740],[-134,-401],[-355,-960],[-682,-2041],[-368,-1265],[-285,-1168],[-133,-698],[-121,-779],[-30,-760],[47,-691],[63,-513],[131,-678],[110,-413],[24,-440],[-234,-972],[-178,-316],[-23,-305]],[[91253,32013],[-177,-664],[-402,-1678],[-177,-836],[-301,-1725],[-87,-713],[-30,-976],[67,-744],[197,-718],[211,-439],[160,-243],[161,-108],[271,-85],[258,266],[154,-12],[87,97],[291,-112],[-67,-266],[83,-108],[-73,-239],[-338,-1705],[-147,-833],[-134,-1234],[-84,-502],[-50,-675],[0,-297],[100,-243],[231,-320],[-67,-289],[-70,-594],[-33,-933],[30,-398],[120,-478],[-27,-285],[10,-641],[64,-293],[60,-520],[114,-336],[227,-181],[218,-239],[281,-101],[241,62],[-67,-914],[-33,-934],[13,-350],[80,-776],[-40,-185],[90,-686],[81,-263],[244,-104],[0,-224],[74,-192],[-292,-51],[-244,-266],[-180,-1033],[-24,-224],[50,-621],[10,-471],[64,-478],[244,-1072],[248,-999],[-2008,-563],[-6,-108],[-251,-231],[20,-348],[-81,-254],[-374,-286],[-235,147],[-140,-19],[-60,177],[-124,31],[-228,216],[-813,120],[-53,-494],[-177,4],[-288,-224],[-489,66],[-110,-62],[-234,173],[-104,224],[-281,-170],[-177,243],[-265,159],[-60,92],[-636,104],[-304,124],[-127,177],[-214,58],[-322,4],[-177,-158],[-241,-104],[-191,185],[-384,-93],[-532,81],[110,768],[231,104],[141,131],[100,644],[-535,85],[56,332],[-197,30],[-33,282],[40,278],[378,-58],[90,617],[-401,65],[26,197],[-220,35],[50,347],[-174,-73],[-315,119],[-207,-42],[-114,227],[-150,31],[-215,355],[10,104],[-234,351],[-217,162],[-131,-81],[-297,-31],[-181,186],[63,358],[-378,139],[74,474],[-284,47],[-138,100],[-194,35],[-63,-409],[-204,220],[-121,-733],[-344,320],[-208,-266],[-130,-66],[-84,197],[-187,116],[-398,-100],[-422,77],[77,235],[-656,119],[-7,124],[-220,92],[-117,178],[-54,644],[-194,150],[-278,16],[-251,-189],[-150,235],[-71,220],[-220,-100],[-188,77],[-247,15],[-77,97],[-492,61],[-80,236],[-134,142],[-178,35],[-250,262],[-34,178],[107,100],[-167,401],[50,100],[-87,155],[-217,185],[-261,162],[-97,-31],[-312,77],[-60,112],[20,235],[201,216],[-70,155],[3,266],[-117,-12],[672,833],[-26,46],[391,486],[154,1212],[-80,77],[-114,297],[-17,177],[87,116],[-338,46],[71,170],[-31,274]],[[82905,3753],[124,31],[44,-205],[-194,8],[26,166]]],"transform":{"scale":[0.000029888298882988806,0.000025927259272592732],"translate":[150.3691,-26.9848]},"objects":{"qld_north_coast_ddmg_boundaries_gda2020_simp200m":{"type":"GeometryCollection","geometries":[{"arcs":[[0,1,2]],"type":"Polygon","properties":{"District Name":"Bundaberg","DDMG Name":"Bundaberg","Police Region Name":"North Coast Region","Police Region Code":"NCR","Police Region Short Name":"North Coast"}},{"arcs":[[-2,3,4,5,6]],"type":"Polygon","properties":{"District Name":"Gympie","DDMG Name":"Gympie","Police Region Name":"North Coast Region","Police Region Code":"NCR","Police Region Short Name":"North Coast"}},{"arcs":[[-1,7,-4]],"type":"Polygon","properties":{"District Name":"Maryborough","DDMG Name":"Maryborough","Police Region Name":"North Coast Region","Police Region Code":"NCR","Police Region Short Name":"North Coast"}},{"arcs":[[[-6,8]],[[9]]],"type":"MultiPolygon","properties":{"District Name":"Sunshine Coast","DDMG Name":"Sunshine Coast","Police Region Name":"North Coast Region","Police Region Code":"NCR","Police Region Short Name":"North Coast"}}]}}}