{"type":"FeatureCollection","name":"qld_brisbane_ddmg_boundaries_gda2020_simp20","crs":{"type":"name","properties":{"name":"urn:ogc:def:crs:EPSG::7844"}},"features":[{"type":"Feature","geometry":{"type":"MultiPolygon","coordinates":[[[[152.75052,-27.32041],[152.74859,-27.31866],[152.74722,-27.31709],[152.7485,-27.31875],[152.74485,-27.31901],[152.73917,-27.32334],[152.73117,-27.32322],[152.7301,-27.32414],[152.72331,-27.32207],[152.71955,-27.32346],[152.71906,-27.32776],[152.7173,-27.33062],[152.71019,-27.33255],[152.69566,-27.34286],[152.69198,-27.34278],[152.68605,-27.34908],[152.68419,-27.34879],[152.67969,-27.37226],[152.6864,-27.37322],[152.68704,-27.36965],[152.69051,-27.37012],[152.69225,-27.36002],[152.69952,-27.36099],[152.70034,-27.35615],[152.70693,-27.35699],[152.70782,-27.3518],[152.7239,-27.35397],[152.72201,-27.36509],[152.73324,-27.36663],[152.73218,-27.37267],[152.73685,-27.37335],[152.73295,-27.39599],[152.7415,-27.3911],[152.74176,-27.39312],[152.74337,-27.39472],[152.74236,-27.3981],[152.74065,-27.39876],[152.74077,-27.40255],[152.74137,-27.40617],[152.74722,-27.40708],[152.74582,-27.41523],[152.74812,-27.41554],[152.74805,-27.42183],[152.74709,-27.42378],[152.74287,-27.42543],[152.74095,-27.42741],[152.74419,-27.42785],[152.74272,-27.43638],[152.74604,-27.43686],[152.74541,-27.44058],[152.7474,-27.44086],[152.74412,-27.46013],[152.73826,-27.45933],[152.73787,-27.46099],[152.73784,-27.46465],[152.73925,-27.46729],[152.73832,-27.46901],[152.73923,-27.47089],[152.73797,-27.47248],[152.74265,-27.47143],[152.74134,-27.47196],[152.74061,-27.47576],[152.74337,-27.47617],[152.74264,-27.47983],[152.74032,-27.47949],[152.73947,-27.48296],[152.7406,-27.48657],[152.74232,-27.48807],[152.73933,-27.4876],[152.73801,-27.4946],[152.73016,-27.49562],[152.73052,-27.49672],[152.73878,-27.50406],[152.73893,-27.50433],[152.7393,-27.50497],[152.74482,-27.51461],[152.75113,-27.51758],[152.76083,-27.51761],[152.76305,-27.52166],[152.76294,-27.52185],[152.76109,-27.52513],[152.75371,-27.52352],[152.75318,-27.52353],[152.75186,-27.52399],[152.75009,-27.52478],[152.74875,-27.52625],[152.74807,-27.52712],[152.74361,-27.54317],[152.74174,-27.55218],[152.74025,-27.56417],[152.7428,-27.56674],[152.74462,-27.56713],[152.74609,-27.56711],[152.74846,-27.56492],[152.75096,-27.56757],[152.75381,-27.56832],[152.75451,-27.56629],[152.7564,-27.56619],[152.76735,-27.556],[152.77052,-27.55646],[152.77264,-27.55948],[152.7816,-27.55933],[152.78278,-27.55663],[152.78516,-27.55679],[152.784,-27.553],[152.78264,-27.55219],[152.78512,-27.55034],[152.78648,-27.55036],[152.78847,-27.55412],[152.79363,-27.55597],[152.79597,-27.5549],[152.79727,-27.55496],[152.79847,-27.55502],[152.79945,-27.55507],[152.80325,-27.55587],[152.80517,-27.5575],[152.80794,-27.55754],[152.81447,-27.55675],[152.81978,-27.55599],[152.82048,-27.55562],[152.82217,-27.55414],[152.82363,-27.55111],[152.82421,-27.54991],[152.82424,-27.54984],[152.82626,-27.54991],[152.83601,-27.54598],[152.83622,-27.54589],[152.84006,-27.54563],[152.84147,-27.54436],[152.84014,-27.54002],[152.8307,-27.53704],[152.83037,-27.53472],[152.83145,-27.53313],[152.8388,-27.53066],[152.8445,-27.53164],[152.84775,-27.53338],[152.85251,-27.54241],[152.85267,-27.54271],[152.85239,-27.54794],[152.84914,-27.55659],[152.84898,-27.56466],[152.85486,-27.5787],[152.85692,-27.59668],[152.85716,-27.597],[152.86015,-27.59799],[152.86223,-27.59725],[152.86992,-27.58098],[152.87219,-27.57942],[152.87245,-27.57941],[152.87366,-27.57936],[152.87497,-27.5793],[152.87526,-27.57953],[152.89054,-27.59179],[152.89641,-27.60142],[152.9008,-27.60244],[152.90339,-27.60561],[152.9071,-27.60441],[152.90893,-27.60638],[152.91263,-27.60641],[152.91553,-27.605],[152.9213,-27.60616],[152.92177,-27.60625],[152.92762,-27.61078],[152.93394,-27.6139],[152.93426,-27.61406],[152.94071,-27.62343],[152.93976,-27.62847],[152.94088,-27.62864],[152.94391,-27.62903],[152.94413,-27.62912],[152.94427,-27.62914],[152.94989,-27.63298],[152.96963,-27.63666],[152.97322,-27.63916],[152.97883,-27.64638],[152.99553,-27.65354],[152.99865,-27.65459],[153.03722,-27.66022],[153.04003,-27.65402],[153.05875,-27.6568],[153.06766,-27.65106],[153.06945,-27.65293],[153.07232,-27.65097],[153.07776,-27.65196],[153.0954,-27.64505],[153.09443,-27.64287],[153.09684,-27.64203],[153.09645,-27.6396],[153.09457,-27.63933],[153.09616,-27.63034],[153.09488,-27.63003],[153.09461,-27.63178],[153.09099,-27.62893],[153.09146,-27.62631],[153.09673,-27.62712],[153.09748,-27.62289],[153.09582,-27.62111],[153.09372,-27.62081],[153.0947,-27.61717],[153.10113,-27.61793],[153.10584,-27.59319],[153.10592,-27.5932],[153.12187,-27.59535],[153.12307,-27.58771],[153.12399,-27.58722],[153.14024,-27.58962],[153.1423,-27.59131],[153.14736,-27.59056],[153.15636,-27.59184],[153.15984,-27.59577],[153.17144,-27.60328],[153.17328,-27.60604],[153.18083,-27.60912],[153.18376,-27.61259],[153.18173,-27.62431],[153.17575,-27.62347],[153.17384,-27.63425],[153.18361,-27.63471],[153.18321,-27.63829],[153.18761,-27.63978],[153.18755,-27.64075],[153.19356,-27.64158],[153.19392,-27.63947],[153.207,-27.64122],[153.20611,-27.64394],[153.20851,-27.64517],[153.23878,-27.64922],[153.23888,-27.64736],[153.25492,-27.64958],[153.25452,-27.65281],[153.26245,-27.65398],[153.26276,-27.65605],[153.28068,-27.658],[153.28024,-27.66308],[153.28228,-27.66694],[153.28235,-27.66708],[153.28105,-27.66917],[153.28175,-27.6715],[153.28047,-27.67256],[153.28082,-27.67392],[153.28265,-27.67419],[153.28098,-27.68318],[153.283,-27.68348],[153.28224,-27.68711],[153.28572,-27.68662],[153.29025,-27.68774],[153.29033,-27.68776],[153.28993,-27.68864],[153.28639,-27.68782],[153.28775,-27.68899],[153.28769,-27.69021],[153.2876,-27.69198],[153.28759,-27.6922],[153.28749,-27.69226],[153.2873,-27.69275],[153.28685,-27.69295],[153.2868,-27.69337],[153.28667,-27.69435],[153.28946,-27.69243],[153.29252,-27.69203],[153.29402,-27.70011],[153.30103,-27.70874],[153.30462,-27.71045],[153.30886,-27.71055],[153.31714,-27.70769],[153.32067,-27.70512],[153.32776,-27.69583],[153.34007,-27.69683],[153.35447,-27.69087],[153.3584,-27.69085],[153.35908,-27.69157],[153.36191,-27.69995],[153.36196,-27.7084],[153.36642,-27.71231],[153.36862,-27.71224],[153.37152,-27.70827],[153.37533,-27.70851],[153.38168,-27.7113],[153.38481,-27.7103],[153.38764,-27.70745],[153.39172,-27.70772],[153.39303,-27.71466],[153.39311,-27.71507],[153.39531,-27.71656],[153.40071,-27.72106],[153.40293,-27.72479],[153.4038,-27.7266],[153.40507,-27.73385],[153.4059,-27.73567],[153.40826,-27.74085],[153.41244,-27.74313],[153.41334,-27.74362],[153.41447,-27.74353],[153.42525,-27.74266],[153.43929,-27.73575],[153.44674,-27.7352],[153.44769,-27.72922],[153.45059,-27.72792],[153.45217,-27.72551],[153.45379,-27.71857],[153.45446,-27.69707],[153.45851,-27.67161],[153.47207,-27.60954],[153.48117,-27.57978],[153.50027,-27.52704],[153.52652,-27.46202],[153.54187,-27.43672],[153.54377,-27.43718],[153.54251,-27.43606],[153.54316,-27.43579],[153.54578,-27.43687],[153.54641,-27.43583],[153.54446,-27.43462],[153.54636,-27.43491],[153.54635,-27.43405],[153.54271,-27.4305],[153.54407,-27.42557],[153.54289,-27.42433],[153.53914,-27.425],[153.53505,-27.42347],[153.53402,-27.42547],[153.52872,-27.42588],[153.5277,-27.42684],[153.52133,-27.42497],[153.5144,-27.42073],[153.51024,-27.42202],[153.49808,-27.42103],[153.48452,-27.41632],[153.47529,-27.41034],[153.46398,-27.39612],[153.4553,-27.38989],[153.45601,-27.38871],[153.45388,-27.3881],[153.44885,-27.38975],[153.44868,-27.39068],[153.44855,-27.38972],[153.4442,-27.38932],[153.21773,-27.4484],[153.21659,-27.46824],[153.20343,-27.46804],[153.20989,-27.46685],[153.21049,-27.4652],[153.20536,-27.46601],[153.19874,-27.46042],[153.19752,-27.45869],[153.19938,-27.45869],[153.19993,-27.45697],[153.19674,-27.4548],[153.19558,-27.45152],[153.19242,-27.45186],[153.19328,-27.45757],[153.19037,-27.46007],[153.18887,-27.45935],[153.18878,-27.45618],[153.18853,-27.45859],[153.18684,-27.45678],[153.18713,-27.45371],[153.18868,-27.45414],[153.18932,-27.45242],[153.19198,-27.45066],[153.19254,-27.44868],[153.19768,-27.446],[153.19721,-27.44364],[153.19008,-27.44512],[153.18529,-27.44436],[153.18066,-27.4413],[153.17667,-27.43383],[153.17744,-27.43228],[153.18085,-27.43354],[153.1823,-27.43027],[153.18374,-27.42944],[153.18064,-27.42217],[153.18161,-27.4219],[153.18481,-27.42588],[153.19282,-27.4219],[153.19482,-27.42516],[153.19662,-27.42466],[153.18863,-27.41313],[153.18936,-27.41092],[153.18839,-27.40829],[153.18195,-27.40012],[153.17719,-27.39976],[153.1761,-27.39849],[153.1647,-27.40045],[153.16459,-27.40013],[153.16557,-27.39994],[153.16839,-27.39379],[153.18344,-27.39991],[153.1892,-27.40575],[153.19354,-27.41562],[153.19694,-27.41624],[153.19881,-27.41243],[153.19632,-27.40508],[153.19643,-27.39832],[153.19388,-27.39519],[153.19256,-27.3899],[153.1975,-27.38513],[153.1964,-27.38445],[153.19229,-27.38666],[153.19447,-27.38212],[153.19431,-27.37971],[153.19075,-27.37406],[153.18826,-27.37283],[153.20218,-27.35289],[153.18884,-27.34546],[153.17385,-27.36691],[153.15499,-27.3631],[153.15116,-27.35648],[153.14407,-27.35154],[153.12924,-27.3534],[153.12505,-27.35016],[153.12299,-27.35081],[153.11273,-27.3465],[153.11051,-27.34414],[153.08927,-27.33026],[153.08964,-27.3282],[153.08667,-27.32334],[153.07801,-27.31838],[153.07449,-27.31448],[153.07002,-27.30399],[153.06899,-27.28836],[153.0668,-27.2815],[153.04958,-27.27867],[153.04182,-27.27943],[153.0408,-27.27953],[153.03966,-27.28046],[153.03775,-27.28204],[153.03629,-27.28324],[153.03562,-27.28515],[153.03528,-27.28612],[153.03509,-27.28667],[153.03629,-27.29453],[153.0362,-27.29504],[153.03418,-27.2982],[153.02916,-27.2979],[153.02298,-27.29309],[153.01917,-27.29144],[153.0158,-27.2875],[153.0146,-27.2885],[153.01212,-27.29658],[153.00862,-27.29791],[153.01402,-27.30221],[153.00726,-27.30245],[153.00744,-27.30129],[153.00484,-27.30125],[153.00618,-27.2998],[153.00492,-27.29921],[153.00214,-27.30204],[152.99726,-27.30207],[152.99585,-27.31059],[152.9995,-27.31227],[152.99829,-27.30868],[152.99914,-27.30826],[153.0026,-27.31666],[153.00249,-27.31956],[153.00087,-27.32001],[153.00022,-27.3229],[152.99733,-27.32399],[152.99474,-27.32858],[152.99345,-27.33496],[152.98828,-27.33628],[152.98488,-27.33968],[152.98313,-27.34007],[152.98251,-27.34072],[152.98329,-27.34163],[152.98146,-27.34216],[152.98049,-27.34399],[152.98114,-27.346],[152.97888,-27.34685],[152.98051,-27.34855],[152.97913,-27.34969],[152.98218,-27.3512],[152.98232,-27.35315],[152.98523,-27.3528],[152.98713,-27.35409],[152.98694,-27.35608],[152.98854,-27.35761],[152.98724,-27.35869],[152.98775,-27.35952],[152.98167,-27.35863],[152.98068,-27.3641],[152.98371,-27.36454],[152.98308,-27.36812],[152.98056,-27.36777],[152.98035,-27.37519],[152.98123,-27.38021],[152.98389,-27.3847],[152.9806,-27.38815],[152.97674,-27.38979],[152.97529,-27.39204],[152.97808,-27.39459],[152.97641,-27.40101],[152.97593,-27.4012],[152.97201,-27.39834],[152.96547,-27.39687],[152.96055,-27.39876],[152.9605,-27.39878],[152.95971,-27.39961],[152.95922,-27.40012],[152.9592,-27.40014],[152.95904,-27.40273],[152.95267,-27.4058],[152.9521,-27.40764],[152.95165,-27.40782],[152.94913,-27.40864],[152.94751,-27.40803],[152.94738,-27.40796],[152.9478,-27.40653],[152.94093,-27.40442],[152.93595,-27.39985],[152.93358,-27.39923],[152.93207,-27.39672],[152.93012,-27.39689],[152.92686,-27.39347],[152.92316,-27.39443],[152.91695,-27.39418],[152.91504,-27.40572],[152.89931,-27.40356],[152.89723,-27.41728],[152.8769,-27.41436],[152.87452,-27.41137],[152.86479,-27.41792],[152.86312,-27.41766],[152.86262,-27.422],[152.85943,-27.42153],[152.85303,-27.4206],[152.85173,-27.42191],[152.84931,-27.42195],[152.84407,-27.41797],[152.83679,-27.41886],[152.83116,-27.41695],[152.8257,-27.41228],[152.8194,-27.40926],[152.81538,-27.40526],[152.81415,-27.40212],[152.81246,-27.40145],[152.80613,-27.40095],[152.80232,-27.39915],[152.80178,-27.3989],[152.80159,-27.39881],[152.79975,-27.40007],[152.79865,-27.40511],[152.77561,-27.40169],[152.77469,-27.40068],[152.77459,-27.39295],[152.77652,-27.38868],[152.77448,-27.38746],[152.77238,-27.38303],[152.7729,-27.37905],[152.76974,-27.37894],[152.76649,-27.37697],[152.762,-27.37115],[152.7629,-27.36734],[152.76001,-27.36389],[152.7623,-27.35992],[152.7629,-27.35461],[152.76667,-27.35138],[152.77203,-27.34988],[152.771,-27.3475],[152.77193,-27.34423],[152.77207,-27.34373],[152.77189,-27.34338],[152.77165,-27.34292],[152.76752,-27.33489],[152.76449,-27.33551],[152.75948,-27.33027],[152.7557,-27.32822],[152.75467,-27.33314],[152.74884,-27.3323],[152.75052,-27.32041]]],[[[153.23581,-27.33474],[153.23592,-27.34133],[153.23712,-27.34507],[153.23939,-27.34499],[153.24395,-27.34741],[153.2449,-27.34961],[153.25472,-27.35018],[153.26023,-27.34514],[153.26488,-27.33342],[153.26412,-27.33205],[153.25985,-27.33098],[153.25879,-27.3289],[153.2558,-27.32802],[153.25464,-27.3291],[153.24771,-27.32333],[153.24498,-27.3264],[153.24155,-27.32799],[153.238,-27.3341],[153.23581,-27.33474]]],[[[153.22474,-27.41899],[153.23173,-27.42767],[153.23398,-27.43393],[153.23849,-27.43794],[153.24086,-27.43731],[153.24117,-27.41957],[153.23895,-27.41788],[153.22474,-27.41899]]],[[[153.22341,-27.39023],[153.225,-27.39421],[153.2358,-27.40127],[153.23902,-27.40022],[153.24105,-27.39805],[153.24304,-27.38955],[153.2409,-27.37924],[153.23737,-27.37687],[153.23691,-27.373],[153.23493,-27.37204],[153.2345,-27.3739],[153.23041,-27.37762],[153.22678,-27.38442],[153.22781,-27.38818],[153.22624,-27.38791],[153.22341,-27.39023]]],[[[153.36329,-27.06281],[153.36341,-27.06601],[153.36692,-27.0734],[153.36987,-27.08914],[153.37034,-27.10257],[153.36902,-27.1134],[153.36194,-27.13604],[153.36969,-27.15834],[153.36971,-27.16302],[153.37169,-27.16647],[153.37327,-27.17522],[153.37231,-27.18067],[153.36706,-27.19209],[153.3654,-27.20002],[153.37498,-27.2192],[153.3776,-27.23659],[153.3838,-27.25028],[153.39831,-27.27465],[153.40549,-27.29464],[153.40496,-27.29995],[153.42245,-27.33236],[153.42398,-27.33956],[153.41845,-27.3533],[153.4203,-27.35691],[153.42383,-27.35818],[153.4267,-27.36082],[153.42295,-27.36114],[153.42044,-27.35841],[153.41847,-27.35722],[153.42425,-27.36263],[153.42939,-27.36201],[153.43065,-27.35048],[153.43497,-27.3418],[153.43878,-27.3372],[153.43694,-27.32824],[153.44146,-27.33189],[153.43251,-27.31896],[153.42618,-27.30449],[153.41969,-27.27837],[153.41727,-27.2594],[153.41693,-27.23807],[153.41943,-27.20429],[153.42813,-27.15324],[153.44562,-27.09165],[153.44482,-27.09023],[153.44627,-27.08955],[153.45139,-27.0712],[153.45261,-27.07018],[153.46258,-27.04241],[153.4646,-27.03854],[153.46597,-27.03919],[153.46661,-27.03835],[153.46591,-27.03617],[153.46778,-27.03459],[153.46797,-27.02779],[153.46221,-27.02823],[153.45955,-27.02711],[153.4592,-27.02538],[153.45437,-27.02354],[153.45601,-27.02274],[153.4541,-27.02156],[153.45257,-27.02474],[153.44472,-27.02969],[153.43345,-27.03399],[153.41906,-27.03429],[153.40216,-27.03704],[153.37716,-27.0477],[153.37288,-27.05348],[153.36482,-27.06004],[153.36329,-27.06281]]]]},"properties":{"District Name":"Brisbane","DDMG Name":"Brisbane","Police Region Name":"Brisbane Region","Police Region Code":"BR","Police Region Short Name":"Brisbane"}},{"type":"Feature","geometry":{"type":"Polygon","coordinates":[[[153.0668,-27.2815],[153.08055,-27.26331],[153.08091,-27.26143],[153.08455,-27.25836],[153.08698,-27.2596],[153.09315,-27.25597],[153.10123,-27.2593],[153.10374,-27.26344],[153.1077,-27.26176],[153.11043,-27.25503],[153.10961,-27.25319],[153.11178,-27.24404],[153.11525,-27.23479],[153.1178,-27.23332],[153.11715,-27.23007],[153.1152,-27.22722],[153.11527,-27.22357],[153.117,-27.22018],[153.11662,-27.21589],[153.11947,-27.21242],[153.11635,-27.20924],[153.11709,-27.2043],[153.11551,-27.20148],[153.11668,-27.19825],[153.11494,-27.19172],[153.11342,-27.19059],[153.11111,-27.19206],[153.10666,-27.19102],[153.10478,-27.19165],[153.10389,-27.19325],[153.10769,-27.19195],[153.11015,-27.19258],[153.10658,-27.19555],[153.10482,-27.1936],[153.1036,-27.19405],[153.10523,-27.19744],[153.10312,-27.19991],[153.09708,-27.20316],[153.09266,-27.20426],[153.08871,-27.20286],[153.08929,-27.2062],[153.08518,-27.20535],[153.08222,-27.20347],[153.05741,-27.19751],[153.04985,-27.19436],[153.04234,-27.19694],[153.03817,-27.19703],[153.03204,-27.18936],[153.02952,-27.18107],[153.03049,-27.17383],[153.03542,-27.16725],[153.03542,-27.16258],[153.03947,-27.15921],[153.04219,-27.15869],[153.04149,-27.15379],[153.04455,-27.14831],[153.04851,-27.14419],[153.05479,-27.12953],[153.06255,-27.11743],[153.06373,-27.11384],[153.06702,-27.11009],[153.07249,-27.10658],[153.09869,-27.09231],[153.10286,-27.09171],[153.10438,-27.08856],[153.11454,-27.08567],[153.12028,-27.085],[153.12253,-27.08659],[153.13003,-27.08692],[153.13302,-27.08594],[153.16677,-27.09988],[153.17538,-27.1003],[153.18156,-27.09818],[153.19008,-27.0984],[153.19449,-27.09726],[153.1983,-27.09371],[153.20123,-27.08778],[153.20604,-27.08417],[153.20725,-27.08175],[153.20647,-27.07346],[153.20236,-27.06249],[153.1802,-27.02773],[153.16752,-27.00241],[153.15762,-26.97422],[153.14695,-26.93733],[153.08703,-26.95188],[153.08675,-26.95467],[153.08332,-26.95841],[153.07931,-26.96036],[153.07986,-26.96968],[153.07784,-26.97583],[153.06634,-26.98371],[153.06009,-26.97997],[153.05523,-26.98059],[153.05274,-26.97515],[153.04962,-26.97505],[153.04276,-26.96946],[153.01845,-26.96636],[153.01752,-26.97247],[153.0178,-26.97505],[153.01907,-26.97626],[153.01739,-26.97715],[153.01794,-26.97838],[153.01685,-26.97907],[153.01159,-26.97899],[153.00296,-26.98479],[152.99166,-26.98453],[152.98842,-26.98313],[152.98513,-26.98473],[152.98042,-26.98188],[152.97559,-26.98468],[152.97409,-26.98236],[152.97813,-26.98026],[152.97501,-26.97438],[152.96663,-26.97881],[152.96253,-26.97296],[152.95318,-26.96837],[152.95195,-26.96617],[152.94589,-26.96657],[152.9386,-26.96385],[152.93737,-26.96437],[152.93504,-26.96312],[152.92724,-26.96218],[152.92351,-26.96009],[152.9215,-26.96064],[152.91973,-26.95551],[152.91726,-26.95471],[152.90372,-26.9539],[152.89843,-26.95803],[152.89116,-26.96075],[152.88551,-26.95595],[152.874,-26.95832],[152.85806,-26.95621],[152.86073,-26.936],[152.86364,-26.93489],[152.86791,-26.93578],[152.86828,-26.93362],[152.87264,-26.93033],[152.87545,-26.91352],[152.85946,-26.9113],[152.86118,-26.90275],[152.85533,-26.9019],[152.85652,-26.89488],[152.85427,-26.89457],[152.85549,-26.88738],[152.86678,-26.88892],[152.86948,-26.87288],[152.85747,-26.87123],[152.85833,-26.86608],[152.8517,-26.8652],[152.85319,-26.85622],[152.85404,-26.85587],[152.84856,-26.85513],[152.84804,-26.85816],[152.84394,-26.85759],[152.83858,-26.85503],[152.83206,-26.85643],[152.83185,-26.85328],[152.82904,-26.85022],[152.82447,-26.84938],[152.81988,-26.84376],[152.81814,-26.84021],[152.81809,-26.83634],[152.81264,-26.83103],[152.81247,-26.82815],[152.80795,-26.82782],[152.80669,-26.82696],[152.80702,-26.82516],[152.8049,-26.82417],[152.80101,-26.82632],[152.79209,-26.82709],[152.79127,-26.82516],[152.78673,-26.82226],[152.78647,-26.82036],[152.7885,-26.81806],[152.79003,-26.81323],[152.78861,-26.81297],[152.78937,-26.80963],[152.78437,-26.81246],[152.78081,-26.81004],[152.77713,-26.80956],[152.77949,-26.79713],[152.77646,-26.79554],[152.77103,-26.79595],[152.76692,-26.79332],[152.7611,-26.79236],[152.75918,-26.80305],[152.75307,-26.79735],[152.74948,-26.8163],[152.74761,-26.81548],[152.74678,-26.81512],[152.74212,-26.81016],[152.73988,-26.8098],[152.73917,-26.80803],[152.73362,-26.8073],[152.73516,-26.81125],[152.73296,-26.81496],[152.72907,-26.81663],[152.72747,-26.81605],[152.72638,-26.81419],[152.72663,-26.81147],[152.72223,-26.80682],[152.72099,-26.80856],[152.70944,-26.81111],[152.69645,-26.80913],[152.69552,-26.80792],[152.69812,-26.80555],[152.69879,-26.80298],[152.67962,-26.79995],[152.67998,-26.80163],[152.67805,-26.80435],[152.67791,-26.80701],[152.67877,-26.80878],[152.68132,-26.80994],[152.67902,-26.81643],[152.67514,-26.81834],[152.674,-26.81821],[152.67265,-26.81869],[152.67214,-26.81937],[152.67314,-26.82195],[152.67781,-26.82091],[152.67908,-26.82219],[152.67638,-26.82604],[152.67847,-26.82861],[152.67846,-26.83035],[152.67545,-26.83249],[152.67358,-26.83381],[152.67274,-26.83441],[152.67155,-26.83478],[152.66726,-26.83682],[152.66679,-26.84027],[152.67106,-26.84488],[152.66975,-26.84751],[152.67012,-26.85044],[152.66839,-26.85192],[152.66989,-26.85294],[152.67161,-26.85767],[152.67425,-26.85636],[152.67524,-26.85733],[152.67528,-26.86038],[152.67766,-26.86343],[152.67626,-26.86679],[152.68021,-26.86938],[152.68444,-26.87562],[152.6864,-26.87581],[152.68567,-26.87912],[152.68401,-26.87952],[152.68773,-26.88102],[152.68729,-26.88641],[152.68934,-26.88889],[152.68985,-26.89146],[152.68854,-26.89262],[152.68861,-26.89692],[152.67894,-26.89559],[152.67856,-26.89778],[152.6675,-26.89626],[152.66792,-26.90021],[152.66653,-26.90649],[152.66042,-26.90986],[152.68744,-26.91373],[152.68232,-26.91516],[152.6825,-26.91736],[152.67789,-26.91867],[152.67827,-26.92028],[152.67651,-26.92356],[152.67315,-26.92262],[152.67314,-26.9244],[152.66996,-26.92744],[152.66966,-26.92936],[152.67174,-26.93318],[152.67033,-26.93362],[152.67004,-26.93713],[152.67103,-26.93822],[152.6676,-26.94011],[152.66684,-26.94286],[152.66762,-26.94361],[152.66422,-26.94321],[152.66408,-26.94731],[152.66224,-26.94597],[152.6631,-26.94804],[152.66186,-26.94925],[152.66023,-26.94789],[152.65912,-26.94988],[152.65609,-26.94777],[152.65358,-26.94877],[152.65126,-26.95533],[152.65755,-26.95392],[152.6577,-26.95637],[152.66325,-26.95869],[152.66593,-26.95776],[152.66772,-26.95907],[152.66809,-26.96102],[152.66628,-26.9637],[152.6626,-26.96565],[152.66277,-26.96662],[152.66452,-26.9668],[152.66475,-26.96905],[152.67145,-26.96526],[152.67674,-26.96608],[152.68021,-26.96414],[152.68519,-26.96572],[152.68407,-26.9668],[152.68431,-26.96875],[152.68206,-26.96962],[152.68237,-26.97044],[152.68021,-26.97198],[152.68125,-26.97503],[152.67951,-26.97706],[152.68224,-26.98047],[152.6867,-26.97892],[152.6862,-26.98454],[152.68927,-26.98455],[152.68801,-26.98753],[152.68483,-26.98699],[152.68503,-26.98998],[152.68382,-26.99053],[152.68335,-26.99278],[152.6886,-26.99908],[152.69151,-27.00509],[152.69699,-27.00915],[152.69553,-27.01239],[152.69762,-27.01352],[152.69729,-27.01606],[152.7008,-27.01828],[152.70023,-27.02273],[152.7035,-27.02481],[152.70152,-27.02646],[152.70325,-27.02878],[152.70244,-27.03094],[152.69845,-27.0317],[152.69746,-27.03347],[152.69812,-27.03955],[152.69674,-27.04096],[152.69818,-27.04232],[152.69584,-27.04243],[152.69273,-27.04633],[152.68915,-27.04828],[152.68927,-27.05102],[152.69087,-27.05307],[152.68922,-27.05505],[152.6925,-27.05605],[152.69277,-27.0576],[152.69491,-27.05559],[152.6958,-27.0573],[152.69515,-27.05904],[152.67768,-27.05696],[152.68423,-27.06729],[152.68562,-27.07201],[152.68399,-27.07471],[152.68567,-27.07657],[152.68712,-27.08237],[152.68225,-27.08609],[152.67683,-27.08793],[152.67657,-27.08833],[152.67852,-27.09332],[152.67899,-27.09418],[152.68164,-27.09515],[152.68975,-27.09279],[152.69581,-27.09488],[152.70209,-27.09481],[152.70796,-27.09628],[152.71178,-27.09783],[152.71199,-27.09893],[152.7183,-27.10038],[152.71806,-27.10223],[152.72621,-27.10322],[152.72649,-27.10138],[152.73446,-27.10234],[152.73351,-27.10743],[152.731,-27.10763],[152.73032,-27.10875],[152.72945,-27.1159],[152.73022,-27.11806],[152.7281,-27.12194],[152.7307,-27.12628],[152.73082,-27.13047],[152.73309,-27.13426],[152.73482,-27.14168],[152.73396,-27.14259],[152.73668,-27.14395],[152.73793,-27.15051],[152.73933,-27.15093],[152.73685,-27.15527],[152.72982,-27.16155],[152.72906,-27.16377],[152.73356,-27.17151],[152.72976,-27.17249],[152.72955,-27.17271],[152.72968,-27.17506],[152.72849,-27.17686],[152.72618,-27.17658],[152.72297,-27.18047],[152.7186,-27.18275],[152.71631,-27.18664],[152.71227,-27.18874],[152.71119,-27.19215],[152.70895,-27.19224],[152.70218,-27.20201],[152.70169,-27.20302],[152.70357,-27.20741],[152.70414,-27.20852],[152.70412,-27.2087],[152.70385,-27.21078],[152.70361,-27.21268],[152.70353,-27.21287],[152.70046,-27.2198],[152.70222,-27.22635],[152.70022,-27.23023],[152.69545,-27.23399],[152.69307,-27.23423],[152.69087,-27.23595],[152.69246,-27.24171],[152.69249,-27.24182],[152.69242,-27.24193],[152.68741,-27.24899],[152.68149,-27.25482],[152.6812,-27.26273],[152.68375,-27.26669],[152.68367,-27.27237],[152.6862,-27.27453],[152.69036,-27.2745],[152.69102,-27.2745],[152.69108,-27.2745],[152.69154,-27.2746],[152.70473,-27.2773],[152.70492,-27.27734],[152.70529,-27.2788],[152.70552,-27.27969],[152.70555,-27.27982],[152.7044,-27.28262],[152.70556,-27.28608],[152.70368,-27.29065],[152.70424,-27.29254],[152.71359,-27.2895],[152.71726,-27.29263],[152.72712,-27.29476],[152.73204,-27.29716],[152.7357,-27.29668],[152.73886,-27.29374],[152.74566,-27.29331],[152.74879,-27.29512],[152.7536,-27.29501],[152.75322,-27.29698],[152.75684,-27.30066],[152.75654,-27.30719],[152.75556,-27.30785],[152.75629,-27.30871],[152.75584,-27.30921],[152.75482,-27.31036],[152.75395,-27.31134],[152.74912,-27.31322],[152.74863,-27.3169],[152.74722,-27.31709],[152.74859,-27.31866],[152.75052,-27.32041],[152.74884,-27.3323],[152.75467,-27.33314],[152.7557,-27.32822],[152.75948,-27.33027],[152.76449,-27.33551],[152.76752,-27.33489],[152.77165,-27.34292],[152.77189,-27.34338],[152.77207,-27.34373],[152.77193,-27.34423],[152.771,-27.3475],[152.77203,-27.34988],[152.76667,-27.35138],[152.7629,-27.35461],[152.7623,-27.35992],[152.76001,-27.36389],[152.7629,-27.36734],[152.762,-27.37115],[152.76649,-27.37697],[152.76974,-27.37894],[152.7729,-27.37905],[152.77238,-27.38303],[152.77448,-27.38746],[152.77652,-27.38868],[152.77459,-27.39295],[152.77469,-27.40068],[152.77561,-27.40169],[152.79865,-27.40511],[152.79975,-27.40007],[152.80159,-27.39881],[152.80178,-27.3989],[152.80232,-27.39915],[152.80613,-27.40095],[152.81246,-27.40145],[152.81415,-27.40212],[152.81538,-27.40526],[152.8194,-27.40926],[152.8257,-27.41228],[152.83116,-27.41695],[152.83679,-27.41886],[152.84407,-27.41797],[152.84931,-27.42195],[152.85173,-27.42191],[152.85303,-27.4206],[152.85943,-27.42153],[152.86262,-27.422],[152.86312,-27.41766],[152.86479,-27.41792],[152.87452,-27.41137],[152.8769,-27.41436],[152.89723,-27.41728],[152.89931,-27.40356],[152.91504,-27.40572],[152.91695,-27.39418],[152.92316,-27.39443],[152.92686,-27.39347],[152.93012,-27.39689],[152.93207,-27.39672],[152.93358,-27.39923],[152.93595,-27.39985],[152.94093,-27.40442],[152.9478,-27.40653],[152.94738,-27.40796],[152.94751,-27.40803],[152.94913,-27.40864],[152.95165,-27.40782],[152.9521,-27.40764],[152.95267,-27.4058],[152.95904,-27.40273],[152.9592,-27.40014],[152.95922,-27.40012],[152.95971,-27.39961],[152.9605,-27.39878],[152.96055,-27.39876],[152.96547,-27.39687],[152.97201,-27.39834],[152.97593,-27.4012],[152.97641,-27.40101],[152.97808,-27.39459],[152.97529,-27.39204],[152.97674,-27.38979],[152.9806,-27.38815],[152.98389,-27.3847],[152.98123,-27.38021],[152.98035,-27.37519],[152.98056,-27.36777],[152.98308,-27.36812],[152.98371,-27.36454],[152.98068,-27.3641],[152.98167,-27.35863],[152.98775,-27.35952],[152.98724,-27.35869],[152.98854,-27.35761],[152.98694,-27.35608],[152.98713,-27.35409],[152.98523,-27.3528],[152.98232,-27.35315],[152.98218,-27.3512],[152.97913,-27.34969],[152.98051,-27.34855],[152.97888,-27.34685],[152.98114,-27.346],[152.98049,-27.34399],[152.98146,-27.34216],[152.98329,-27.34163],[152.98251,-27.34072],[152.98313,-27.34007],[152.98488,-27.33968],[152.98828,-27.33628],[152.99345,-27.33496],[152.99474,-27.32858],[152.99733,-27.32399],[153.00022,-27.3229],[153.00087,-27.32001],[153.00249,-27.31956],[153.0026,-27.31666],[152.99914,-27.30826],[152.99829,-27.30868],[152.9995,-27.31227],[152.99585,-27.31059],[152.99726,-27.30207],[153.00214,-27.30204],[153.00492,-27.29921],[153.00618,-27.2998],[153.00484,-27.30125],[153.00744,-27.30129],[153.00726,-27.30245],[153.01402,-27.30221],[153.00862,-27.29791],[153.01212,-27.29658],[153.0146,-27.2885],[153.0158,-27.2875],[153.01917,-27.29144],[153.02298,-27.29309],[153.02916,-27.2979],[153.03418,-27.2982],[153.0362,-27.29504],[153.03629,-27.29453],[153.03509,-27.28667],[153.03528,-27.28612],[153.03562,-27.28515],[153.03629,-27.28324],[153.03775,-27.28204],[153.03966,-27.28046],[153.0408,-27.27953],[153.04182,-27.27943],[153.04958,-27.27867],[153.0668,-27.2815]],[[152.84695,-26.88747],[152.84997,-26.88725],[152.8517,-26.88559],[152.85332,-26.88622],[152.85131,-26.88934],[152.85312,-26.89264],[152.84621,-26.89184],[152.84695,-26.88747]]]},"properties":{"District Name":"Moreton","DDMG Name":"Moreton","Police Region Name":"Brisbane Region","Police Region Code":"BR","Police Region Short Name":"Brisbane"}}]}