{"type":"Topology","arcs":[[[58595,14420],[-4,-5],[-273,60],[-206,290],[-517,282],[-309,307],[-224,36],[-245,166],[-451,420],[-944,126],[-565,-77],[-229,176],[-1817,252],[-102,-51],[-133,-803],[-1780,235],[-538,-2608],[-718,80],[-109,-383],[233,-32],[187,-187],[-84,-443],[-589,84],[-53,-276],[404,-298],[30,183],[144,-33],[-178,-945],[210,-28],[-63,-27],[107,-227],[-270,-90],[110,-229],[-1972,-726],[-607,104],[-321,-206],[-201,196],[-994,-603],[-2091,292],[-315,-651],[-2562,337],[-250,-14],[-1040,183],[-427,76],[-143,25],[-915,310],[-1185,537],[-326,278],[-302,481],[-401,263],[-366,119],[-1035,82],[-805,186],[-642,405],[-25,10],[-338,42],[-125,17],[106,531],[-281,474],[-468,522],[-714,332],[-703,486],[-191,35],[-372,19],[-85,68],[-323,-149],[-414,4],[-204,207],[-96,-98],[-318,-28],[-291,333],[-452,80],[-21,3],[-10,10],[-95,99],[-111,118],[-456,809],[-1605,1253],[-73,33],[-208,21],[-135,-6],[-284,-165],[-648,-1410],[-210,-300],[-232,-76],[-316,78],[-22,27],[-91,115],[-162,1806],[-657,1477],[18,847],[363,910],[29,514],[-7,52],[-542,963],[-362,183],[-636,103],[-385,-65],[-436,-194],[-122,-167],[38,-244],[1053,-313],[144,-198],[5,-258],[-157,-133],[-430,-28],[-620,-177],[-491,-246],[-242,0],[-169,-407],[-276,-227],[-1251,-169],[-420,5],[-214,172],[-629,105],[-445,-116],[-576,196],[-153,144],[-69,250],[-154,2],[-277,-195],[152,-85],[130,-397],[-265,17],[-132,-285],[-1002,-16],[-235,319],[-355,47],[-534,-415],[-184,-251],[-287,-140],[-219,-264],[-210,-12],[-78,-213],[-320,79],[-279,278],[-91,-10],[0,-127],[-42,-35],[-41,-35],[-27,-22],[-26,0],[-201,-2],[-159,-2],[-53,45],[-199,167],[-55,47],[-2,27],[-17,252],[-13,205],[18,84],[591,2699],[263,669],[202,243],[347,147],[373,5],[556,-163],[42,33],[104,120],[32,88],[17,108],[-84,299],[-152,131],[-1084,3],[-705,312],[-18,22],[-369,471],[-282,601],[-476,448],[-424,256],[-6,15],[-62,183],[176,64],[198,-37],[67,93],[434,-12],[148,735],[335,-49],[-193,159],[-126,378],[96,365],[258,-35],[81,384],[-308,44],[81,398],[137,-11],[11,67],[-390,-26],[-133,-85],[141,168],[-102,197],[104,181],[-157,279],[3,383],[43,176],[655,-85],[367,2025],[-224,29],[72,391],[-371,51],[164,896],[-363,47],[214,209],[495,216],[26,11],[3,44],[27,315],[37,453],[-257,32],[156,856],[-654,96],[-111,628],[31,152],[192,69],[111,355],[-178,168],[35,148],[-65,64],[-235,-163],[-240,-29],[-314,-298],[-167,-24],[436,2381],[-521,71],[118,634],[-1254,163],[210,1168],[-1796,228],[-100,-546],[-736,90],[-90,-510],[-813,103],[-195,-1063],[-387,50],[-71,-375],[-750,100],[502,2467],[209,-30],[18,92],[130,10],[514,561],[411,-8],[1624,1082],[793,203],[197,302],[55,451],[419,147],[760,-218],[118,96],[894,-13],[360,190],[276,265],[407,28],[-143,174]],[[10720,44846],[154,-165],[214,-184],[-187,-1250],[652,-88],[115,517],[422,-215],[317,-388],[243,-162],[337,64],[240,-593],[250,-312],[12,-260],[-112,-160],[115,-250],[-277,-127],[-322,-31],[-116,-165],[-306,-175],[-93,-169],[27,-389],[-257,-417],[324,-363],[-101,-400],[502,-612],[111,15],[251,-222],[354,-11],[-59,-419],[235,-464],[87,17],[142,-147],[-90,-58],[-127,-390],[68,-545],[-56,-268],[103,-105],[2574,-359],[122,529],[220,119],[112,-105],[382,-107],[523,-38],[373,-84],[136,-331],[384,-391],[228,-181],[541,-166],[212,-250],[398,-241],[630,-200],[813,93],[130,-130],[225,-39],[231,-249],[270,4],[144,137],[589,-39],[318,-147],[165,39],[56,456],[186,-26],[1088,688],[265,-315],[2271,-307],[234,1442],[1757,-226],[212,1212],[448,37],[247,-63],[227,116],[185,-14],[365,-360],[217,18],[170,-264],[264,-66],[494,-345],[65,-133],[2,-5],[167,11],[222,-173],[375,-57],[-50,-149],[2,-1],[13,-7],[148,-74],[33,11],[67,20],[265,80],[2,6],[63,191],[713,323],[19,277],[147,139],[479,102],[73,98],[731,-155],[264,-253],[74,-24],[84,-29],[59,-20],[75,70],[122,650],[-313,269],[163,237],[431,171],[368,363],[-83,269],[-215,204],[-98,527],[23,779],[281,-37],[71,377],[-338,47],[110,574],[679,-94],[-57,89],[145,112],[-36,125],[-141,36],[20,209],[-211,137],[-326,-38],[-16,206],[-340,158],[154,119],[-183,180],[252,88],[-72,212],[109,192],[205,56],[-87,90],[69,75],[195,40],[89,173],[291,185],[295,15],[282,123],[134,269],[11,401],[210,237],[79,247],[323,113],[73,304],[180,49],[-58,97],[71,207],[-236,446],[5,222],[-157,214],[-93,-44],[171,-288],[-36,-89],[-102,-24],[-108,158],[-198,42],[101,157],[-124,57],[129,77],[59,217],[-7,388],[544,3],[215,282],[96,15],[141,-61],[-150,-152],[291,-4],[-20,-123],[755,25],[-154,157],[-348,134],[-101,162],[391,140],[276,848],[135,105],[376,-414],[426,-173],[690,-505],[561,-32],[198,186],[69,365],[-142,700],[17,119],[32,71],[148,214],[114,110],[97,62],[320,145],[868,80],[1923,-297]],[[46423,48587],[245,-721],[114,-1643],[134,-450],[365,-653],[394,-409],[967,-522],[332,-511],[-40,-215],[2373,-1460],[247,-248],[1146,-453],[231,68],[468,-340],[1263,200],[393,-5],[378,-179],[415,-339],[322,-400],[106,-296],[2107,-401],[1674,2254],[1491,-781],[-1555,-2095],[277,-129],[189,-395],[210,-199],[16,-254],[-213,-293],[-29,-184],[458,232],[123,-70],[-19,-102],[-532,-401],[148,-555],[283,-330],[55,-432],[-66,-278],[278,-772],[-209,-401],[-190,-39],[-189,104],[-486,1037],[-644,614],[-1118,369],[-562,275],[-79,-9],[-236,-637],[-110,-21],[1286,173],[122,-134],[459,-20],[207,-88],[400,-512],[277,-471],[-65,-313],[829,-1010],[64,-203],[-201,-53],[-225,343],[-754,-428],[-140,9],[-166,107],[-192,313],[-108,-29],[217,-629],[129,-136],[-160,-86],[-33,-224],[-129,-121],[-169,-14],[-213,147],[-92,-43],[7,-120],[208,-271],[147,-399],[336,-315],[525,-193],[721,27],[269,122],[135,-61],[37,-145],[-98,-110],[-508,-216],[-62,-208],[-297,-185],[-71,-180],[-193,16],[5,-350],[171,-135],[-43,254],[71,1],[43,-400],[134,-10],[326,264],[-99,597],[302,70],[131,-122],[52,-254],[355,-229],[-60,-181],[-208,0],[135,-182],[281,-145],[459,-442],[526,108],[65,-78],[-85,-119],[-245,-74],[-354,-50]],[[61809,28981],[-526,-72],[-211,-261],[-89,-308],[51,-610],[-57,-127],[-383,-157],[-201,-21],[-275,-85],[-170,-89],[-120,-194],[-14,-33],[96,-449],[442,-115],[132,-289],[-72,-60],[-289,109],[-163,-79],[-244,-334],[61,-220],[-199,-142],[-15,-103],[92,-12],[127,163],[119,24],[45,-180],[-198,-149],[220,32],[380,-265],[-159,-159],[51,-65],[442,-19],[61,-116],[-96,-112],[39,-55],[338,129],[154,-206],[200,13],[25,-23],[35,-36],[33,-31],[-38,-96],[-26,-65],[-8,-20],[-401,-191],[-17,5],[-295,79],[-74,19],[-39,-282],[-447,39],[-127,-55],[-479,-460],[173,-624],[-383,-163],[-228,38],[-507,-393],[-360,-168],[-42,-151],[30,-59],[139,-202],[41,-164],[91,-184],[388,-68],[256,187],[280,-47],[-68,-159],[115,-302],[-130,-388],[774,-248],[105,-490],[181,-179],[15,-123],[-99,-154],[-464,57],[-544,-193],[6,-240],[-246,-554],[306,-417],[-539,-470],[172,-313],[-237,-276],[36,-336],[-193,-59],[-127,-189],[-245,-74],[-58,-96],[44,-181],[209,-83],[37,-106],[-139,-297],[-179,-147],[58,-236],[116,-73],[124,107],[202,-95],[23,-27],[48,-54],[226,-257],[-3,-6],[-55,-101],[-172,24],[-102,-95]],[[65427,38971],[51,-407],[289,-108],[107,-142],[88,-714],[151,-369],[-51,-482],[-163,-400],[-235,-240],[-360,-111],[-529,399],[-678,343],[-179,419],[318,153],[0,90],[175,-27],[-115,395],[114,324],[215,197],[77,193],[247,293],[210,99],[48,194],[220,-99]],[[65604,32144],[-609,542],[-128,509],[-714,750],[-89,126],[59,111],[461,-34],[252,111],[507,-71],[313,64],[309,-252],[-94,-344],[80,-278],[-115,-480],[33,-688],[-265,-66]],[[67416,41368],[-793,113],[-303,-52],[-106,230],[-489,248],[-274,-2],[39,75],[-174,318],[69,322],[-80,371],[243,67],[398,642],[383,168],[305,322],[775,-606],[121,27],[8,86],[334,-92],[119,-218],[287,-124],[190,11],[83,-143],[-234,-395],[-276,-827],[-462,-467],[-163,-74]],[[85916,40662],[-208,403],[80,321],[376,590],[162,508],[-170,757],[-1955,3407],[59,558],[-802,2102],[-1621,2560],[-693,1439],[-86,999],[-205,829],[-287,638],[-672,1045],[-122,374],[195,792],[586,1202],[108,572],[-177,919],[-220,364],[-2,491],[-866,2345],[791,2378],[146,1139],[-52,1411],[-186,964],[-144,691],[-443,953],[187,429],[923,711],[288,479],[672,371],[2395,904],[766,45],[1038,219],[1284,-15],[987,245],[1428,743],[235,363],[194,-122],[-184,-85],[541,-193],[39,-182],[297,-118],[370,-3],[76,98],[194,-44],[-74,-400],[57,-77],[-68,-87],[66,-155],[-208,-166],[23,-117],[76,-6],[-95,-67],[77,-21],[-32,-78],[-196,40],[-225,-407],[-1114,-2919],[-136,-107],[22,-186],[-594,-1743],[-49,-90],[-113,20],[88,-149],[-547,-1597],[-1296,-4697],[-111,-181],[-814,-4243],[-414,-3578],[30,-3510],[257,-1821],[333,-1534],[267,-919],[831,-1812],[1000,-1360],[-504,384],[114,-257],[-30,-368],[121,-318],[-426,-483],[-482,-912],[-118,-1197],[-438,-97],[-232,51],[-573,538],[501,-415],[62,51],[227,-78],[129,60],[-25,57],[-359,255],[-330,100]],[[10720,44846],[158,20],[55,387],[763,360],[38,115],[-82,89],[110,71],[25,520],[28,38],[-24,45],[-91,173],[-43,81],[-267,215],[43,207],[-537,-12],[-351,192],[-765,-52],[-35,-2],[-313,-302],[-372,-45],[-585,247],[-310,6],[-776,212],[-375,328],[-28,-10],[-941,-327],[-95,11],[-29,3],[-65,209],[210,482],[-130,362],[128,294],[-69,261],[-135,86],[-1411,213],[-599,-2],[-229,227],[8,595],[-284,417],[33,882],[659,562],[218,396],[351,359],[17,188],[-146,178],[-53,249],[247,181],[265,26],[533,396],[224,407],[-134,260],[-62,428],[86,327],[254,391],[73,438],[-127,387],[-155,100],[7,163],[326,528],[484,563],[250,9],[121,359],[450,220],[257,410],[488,239],[358,409],[258,-30],[134,191],[-75,189],[175,169],[138,-53],[195,67],[-502,813],[83,235],[787,659],[10,157],[267,299],[-156,44],[15,296],[-155,393],[-304,143],[96,96],[-194,780],[-253,399],[-14,440],[-223,242],[-67,214],[237,409],[-87,226],[105,231],[-8,520],[77,119],[281,20],[106,535],[-892,101],[-31,-194],[-909,105],[27,194],[-363,41],[-280,161],[-62,-49],[-25,115],[-426,164],[-655,153],[-703,-6],[-676,219],[-970,-266],[-196,58],[-314,502],[-29,159],[98,107],[573,145],[520,289],[23,101],[-162,609],[-186,196],[182,284],[-157,497],[-373,545],[8,101],[-348,301],[-19,138],[1953,-218],[72,182],[-100,181],[-238,-213],[-31,163],[-365,105],[183,210],[-179,215],[-13,287],[401,205],[41,140],[144,30],[161,241],[263,10],[-162,143],[154,149],[-80,226],[7,413],[111,186],[446,81],[89,226],[-192,243],[221,175],[-365,219],[64,466],[-394,234],[-34,140],[79,25],[-7,101],[-233,119],[24,187],[138,154],[-611,427],[-293,413],[-34,219],[-162,224],[-212,115],[-211,323],[51,237],[137,57],[-23,314],[101,43],[254,-100],[140,313],[-342,1],[55,591],[-116,-105],[-382,-58],[-238,180],[-67,180],[195,213],[-62,84],[57,116],[-111,120],[240,162],[-34,86],[251,91],[56,88],[-83,118],[127,113],[-558,166],[-386,-204],[-329,-18],[-264,104],[-615,-390],[-132,-8],[-26,237],[-195,19],[-20,101],[120,95],[145,-24],[147,134],[82,231],[120,52],[-41,204],[-200,138],[-299,-98],[-622,243],[-15,258],[-331,-7],[-372,-141],[71,388],[188,301],[279,105],[78,-124],[262,-97],[124,210],[181,-144],[140,127],[-97,217],[206,-140],[66,269],[-51,162],[128,40],[173,-126],[80,44],[-87,78],[84,289],[384,199],[-111,115],[31,369],[52,73],[106,-27],[-233,402],[34,201],[356,320],[2,187],[374,-98],[196,344],[-41,169],[515,138],[-20,231],[363,41],[209,109],[-3019,407],[527,199],[156,155],[155,660],[-47,416],[1236,-160],[41,230],[1082,-140],[-9,452],[147,122],[-58,270],[-228,262],[49,565],[-415,158],[59,69],[126,-27],[107,163],[-25,185],[-220,20],[-472,657],[-441,271],[-36,88],[192,265],[-92,199],[-174,123],[61,150],[-66,169],[-110,102],[-296,-138],[-177,301],[-14,198],[-167,106],[193,155],[-42,308],[146,277],[-477,484],[64,440],[601,177],[267,139],[109,188],[75,-28],[188,128],[1,182],[-234,270],[313,309],[-11,96],[-142,134],[-522,-109],[-147,226],[142,177],[230,-23],[433,200],[256,682],[-33,91],[-252,31],[-96,186],[17,280],[214,286],[-84,185],[2187,-327],[-89,-41],[14,-229],[-291,-248],[103,-129],[1452,-208],[1290,268],[139,184],[491,-490],[-27,-285],[121,-195],[180,-62],[434,177],[246,389],[-172,415],[620,-76],[78,-187],[252,-38],[519,-520],[204,-140],[99,16],[401,1991],[456,-316],[227,-284],[213,1124],[650,-101],[459,-276],[607,43],[116,-116],[224,-51],[-264,-1307],[169,-76],[242,26],[397,-255],[558,298],[-85,-351],[160,-28],[-171,-507],[-227,-242],[29,-200],[507,-305],[91,-202],[998,81],[433,227],[61,-89],[176,-15],[-37,-191],[142,-89],[458,-32],[46,-3],[19,-302],[189,-256],[421,-303],[6,-407],[162,-190],[31,-184],[514,-590],[510,-89],[314,-321],[24,-330],[727,147],[600,-270],[458,-60],[57,319],[612,-77],[-94,-38],[-166,-943],[740,-94],[-96,-541],[1341,-172],[-300,-1687],[-1263,162],[-135,-756],[251,-33],[-133,-737],[653,-90],[-191,-898],[1785,-234],[-313,-1767],[-488,-344],[-41,-228],[-476,93],[-325,-117],[69,-29],[-369,-2094],[1782,-223],[1286,250],[630,-505],[220,132],[593,154],[590,435],[1069,-8],[445,-77],[275,-85],[-20,-114],[219,-425],[224,57],[321,-86],[96,-132],[251,22],[367,-147],[252,25],[286,-135],[113,58],[172,-118],[376,-15],[267,-153],[357,88],[320,-46],[137,-230],[292,-72],[753,-411],[68,-199],[390,-415],[936,464],[241,-548],[107,-70],[-452,-220],[167,-244],[532,259],[535,-263],[368,167],[362,-147],[290,45],[972,-72],[964,609],[588,-8],[122,73],[-62,128],[172,108],[19,12],[-148,128],[-7,58],[83,829],[2716,-326],[766,-588],[349,-11],[277,-570],[543,64],[698,-393],[1286,828],[225,646],[34,550],[-95,430],[481,238],[349,361],[32,293],[6695,1529],[1192,-3878],[1106,-2963],[1416,-2661],[1181,-1862],[889,-1122],[446,-747],[439,-1152],[82,-539],[-90,-433],[-597,-457],[-328,-623],[-459,-390],[-459,-103],[-952,23],[-759,-225],[-893,47],[-3771,1465],[-334,-103],[-838,34],[-252,167],[-641,-70],[-1134,-303],[-114,-152],[89,-41],[-145,-139],[-369,-112],[-97,49],[50,-52],[-2275,-1107],[-483,-305],[-219,-36],[-612,-369],[-367,-393],[-131,-378],[-867,-1272],[-702,-1540],[-443,-434],[-341,-575],[-6,-336],[84,-180],[-304,-55],[-453,-354],[-65,-163],[65,-327],[-311,-273],[-239,-419],[-85,-307],[86,-80],[-109,-132],[-2,-242],[283,-872],[310,-457],[375,-348],[466,9],[838,271],[845,-331],[1923,-505],[848,-121],[332,-198],[459,-90],[-66,351],[441,-147],[494,117],[352,244],[323,97],[237,259],[-105,76],[-78,282],[136,46],[198,-205],[224,99],[173,213],[-275,67],[-423,-137],[99,169],[210,65],[497,-109],[154,164],[105,-10],[168,-119],[3,-272],[192,-414],[-130,-339],[177,-296],[-83,-520],[154,-236],[193,-98],[-317,-365],[-39,-243],[81,-208],[-118,-70],[-76,-286],[-8,-384],[229,-320],[63,-320],[-161,-18],[-124,-137],[-382,-956],[-246,-958],[90,-214],[-306,-707],[-442,-177],[-280,436],[-904,349],[-394,-143],[-294,-238],[-273,131],[-406,-324],[-39,-196],[-1537,-1913]],[[21861,90003],[-83,-460],[772,-84],[-171,146],[-30,201],[87,29],[-22,98],[173,125],[-13,76],[-182,67],[-122,-31],[-70,-145],[-339,-22]],[[61809,28981],[1348,-22],[128,2085],[25300,6210],[486,-42],[14,-100],[19,97],[176,-15],[387,188],[237,-63],[-78,-124],[307,-139],[663,-515],[593,-803],[670,-692],[1030,-629],[1515,-496],[1359,-104],[407,55],[58,81],[775,-446],[711,-195],[113,99],[593,44],[115,210],[456,-160],[402,73],[101,-74],[47,-69],[-118,-138],[-37,-352],[412,-391],[1,-92],[-212,32],[154,-51],[54,-134],[-99,-54],[-262,115],[-66,-29],[141,-117],[-213,48],[-1713,-2659],[-2934,-6834],[-2178,-5672],[-972,-3000],[-1514,-6524],[-495,-3034],[-86,-2247],[-227,-558],[-402,-215],[-105,-629],[-834,-57],[-1070,-573],[-498,-154],[-1075,-116],[-569,106],[-253,200],[-247,463],[-143,415],[-45,496],[-334,647],[-251,275],[-715,483],[-113,703],[-253,83],[-203,-55],[-317,-299],[-349,-105],[-709,293],[-426,25],[-122,-70],[-202,-347],[-246,-7],[-498,411],[-5,888],[-196,762],[-221,218],[-415,-26],[-1608,-625],[-651,115],[-726,-11],[-253,-203],[-539,-774],[-394,-269],[-924,-301],[-475,11],[-401,179],[-783,907],[-110,242],[-57,607],[-343,-42],[-310,-202],[-11,113],[1,1],[163,254],[-37,207],[-146,29],[-1,84],[312,-12],[76,-75],[3,4],[14,21],[37,58],[-15,3],[-503,126],[-388,-52],[84,382],[-226,32],[187,944],[-204,29],[56,48],[-96,95],[143,111],[-77,245],[145,248],[-235,392],[48,534],[-2002,205],[-34,218],[-886,124],[45,338],[-1792,234],[-11,-196],[-3382,426],[-268,130],[98,285],[-1460,184],[-41,-222],[-672,87],[8,102],[-491,157],[-6,188],[96,104],[-46,85],[-313,75],[-421,-89],[-357,61],[212,1133],[669,-88],[227,1233],[-328,365],[-441,240],[-126,27]]],"transform":{"scale":[0.00000895108951089496,0.000009514095140951404],"translate":[152.65127,-27.74375]},"objects":{"qld_brisbane_ldmg_boundaries_gda2020_simp20":{"type":"GeometryCollection","geometries":[{"arcs":[[[0,1,2,3]],[[4]],[[5]],[[6]],[[7]]],"type":"MultiPolygon","properties":{"LGA Code":"1000","Abbreviated Name":"Brisbane","LGA Name":"Brisbane City","Area Sq Km":1378.04081,"LDMG Name":"Brisbane","Police Region Name":"Brisbane Region","Police Region Code":"BR","Police Region Short Name":"Brisbane"}},{"arcs":[[-2,8],[9]],"type":"Polygon","properties":{"LGA Code":"5010","Abbreviated Name":"Moreton Bay","LGA Name":"Moreton Bay City","Area Sq Km":2071.09352,"LDMG Name":"Moreton Bay","Police Region Name":"Brisbane Region","Police Region Code":"BR","Police Region Short Name":"Brisbane"}},{"arcs":[[-4,10]],"type":"Polygon","properties":{"LGA Code":"6250","Abbreviated Name":"Redland","LGA Name":"Redland City","Area Sq Km":907.3914,"LDMG Name":"Redland","Police Region Name":"Brisbane Region","Police Region Code":"BR","Police Region Short Name":"Brisbane"}}]}}}