{"type":"Topology","arcs":[[[82128,33960],[-8,-49],[12,-17],[-6,-30],[-34,-35],[7,-25],[-2,-62],[2,-53],[-41,-56],[-29,-7],[-7,-19],[4,-37],[-11,-56],[-41,-61],[11,-29],[-11,-57],[17,-83],[5,-85],[15,-36],[-5,-56],[25,-37],[14,-9],[69,-172],[-32,-3],[-21,7],[-39,-47],[2,-63],[-8,-59],[8,-49],[-2,-69],[22,-40],[7,-31],[-6,-22],[-29,-30],[-23,11],[-20,25],[-19,-7],[-11,13],[-127,80],[-94,35],[-155,81],[-26,-4],[-18,23],[-211,110],[-13,-63],[-26,16],[-37,-2],[-9,-28],[-21,-32],[-45,3],[-49,19],[-19,36],[-5,57],[-15,29],[-13,-23],[-6,-79],[-17,-66],[-12,-4],[-26,27],[-20,7],[-9,20],[-32,-22],[-31,-6],[-5,72],[-14,12],[-12,-21],[-58,-664],[15,-18],[19,2],[24,-24],[-2,-17],[59,-81],[23,-18],[21,-46],[40,-23],[42,-2],[19,-33],[34,-7],[15,-38],[80,-76],[121,81],[56,-92],[63,18],[16,-35],[-12,-53],[12,-20],[9,-55],[39,-47],[43,-65],[-4,-23],[-24,-17],[-21,-67],[-24,-48],[-9,-1],[-26,-45],[-16,-3],[7,-36],[-18,-14],[-31,-99],[-7,-31],[-14,14],[-27,-3],[-8,-12],[4,-36],[-12,-40],[-5,-60],[-29,-15],[-25,-98],[4,-36],[29,-26],[-5,-54],[-7,-22],[-2,-46],[-13,-56],[6,-33],[-27,-80],[-23,5],[-39,-41],[-54,25],[-30,-17],[-207,80],[-65,15],[-239,69],[-56,-29],[-15,-22],[-27,-8],[-17,10],[-74,111],[-56,51],[-35,9],[-44,2],[-24,7],[-60,48],[-20,10],[-46,5],[-37,-23],[-14,-27],[-29,-9],[-95,-21],[-77,22],[-80,-5],[-77,48],[-103,-66],[-29,14],[-59,131],[-111,-36],[-28,-59],[-11,-127],[-118,2],[-86,-34],[-194,-262],[-4,-12],[122,-805],[33,-123],[-20,-35],[-33,-380],[-9,-99],[-28,-35],[-23,-97],[-45,-4],[-4,-34],[-38,8],[-177,-722],[-17,-208],[14,-123],[-126,-489],[-23,-25],[54,-231],[55,-122],[-40,-270],[-4,-59],[1,-79],[11,-72],[0,-144],[6,-89],[-2,-98],[-11,-91],[2,-118],[45,-174],[12,-96],[19,-53],[-2,-64],[-13,-35],[2,-50],[20,-43],[55,-56],[28,-47],[75,-108],[-70,-40],[-38,-119],[-37,-42],[-32,-94],[19,-113],[24,-50],[-5,-63],[4,-27],[-34,-55],[-1,-77],[-49,-43],[-162,-2],[-100,-78],[-46,-14],[-36,-28],[-81,-180],[34,-84],[-127,-32],[-68,58],[-52,3],[7,-73],[-17,-41],[16,-53],[9,-102],[9,-29],[17,-132],[-10,-128],[-5,-27],[-24,-20],[-38,-79],[-17,-26],[-2,-23],[5,-63],[-8,-54],[-19,-67],[-58,-10],[-17,-84],[50,-199],[-34,-42],[-85,-12],[-11,-91],[33,-55],[-2,-82],[19,-64],[-53,-188],[-8,-7],[14,-48],[-40,-67],[-87,20],[-81,-95],[16,-71],[-4,-152],[11,-38],[-31,-93],[-72,-78],[7,-44],[85,-64],[-4,-35],[-28,4],[-17,-65],[-39,-24],[-91,-164],[71,-100],[-42,-71],[22,-155],[-66,-31],[-22,-36],[17,-34],[53,-93],[41,-47],[-56,-220],[-177,-194],[-7,-145],[-44,-61],[7,-62],[47,-29],[-11,-91],[17,-15],[69,35],[19,-95],[-19,-101],[30,-14],[68,35],[32,-38],[8,-61],[-87,-170],[20,-94],[-17,-65],[97,-78],[-14,-60],[0,-73],[6,-69],[55,-133],[18,-86],[-14,-79],[-22,-96],[-15,-32],[-18,-16],[-22,-137],[8,-69],[39,30],[28,4],[30,-13],[8,-58],[90,-20],[84,-51],[39,-174],[5,-35],[-5,-70],[-44,-483],[-80,-50],[-65,-140],[37,-160],[-8,-100],[99,-551],[-38,-46],[-26,-516],[-65,-206],[-105,-17],[-28,-24],[-48,-50],[-20,-76],[-32,-28],[-16,-34],[15,-120],[-146,-14],[-37,-22],[-41,-18],[-121,11],[-37,39],[-36,343],[-332,140],[-103,21],[-21,-244],[-46,3],[-123,109],[-67,1],[-9,-99],[-41,11],[-51,80],[-105,25],[-77,34],[-53,-5],[-117,26],[-64,21],[-81,16],[48,-206],[1,-141],[-16,0],[-38,-88],[-31,-28],[-41,-19],[-44,-58],[-22,-7],[-26,3],[-41,-17],[-52,-33],[-4,8],[-98,55],[-111,101],[-84,213],[-42,-21],[-19,40],[-33,-98],[-11,-67],[-42,-84],[-235,-14],[-23,-262],[-11,-29],[1,-57],[-22,-33],[-16,-4],[-16,23],[-2,70],[-9,26],[-30,-4],[-31,-51],[-38,-2],[-28,33],[3,47],[-7,13],[-43,-492],[-44,84],[-23,24],[-109,71],[-76,73],[-131,-8],[-23,-9],[-24,-34],[-21,-4],[-29,9],[-15,40],[-22,37],[-20,49],[-32,21],[-58,4],[-43,-10],[-21,12],[-22,-1],[-36,106],[-16,21],[-52,50],[-35,67],[-69,66],[-8,-36],[-16,11],[-34,2],[-6,39],[-14,-20],[-13,-44],[-3,-41],[-11,-4],[-38,35],[-16,6],[-30,-119],[-261,-111],[-19,8],[-73,-7],[-91,120],[-28,6],[-14,-162],[49,-11],[-2,-28],[-30,-50],[-8,-42],[-43,-35],[-32,-15],[-50,17],[-18,16],[-13,30],[-43,3],[-35,-31],[-28,-83],[-21,-21],[-133,81],[-37,-97],[55,-174],[82,-263],[-92,-215],[-26,4],[-15,16],[-98,315],[-150,455],[-347,-269],[-84,-47],[-60,-55],[-18,-41],[-67,-60],[-115,-152],[-513,115],[-5,-4],[-64,-710],[-7,-92],[-783,151],[25,287],[4,29],[23,262],[-642,125],[-12,4],[-22,89],[-5,-1],[-124,-176],[-63,-21],[-78,-104],[-13,-94],[-32,-26],[-27,0],[-2,-41],[-18,-14],[-41,-61],[-19,-56],[-28,-25],[-57,20],[-35,-52],[-6,-24],[-20,-5],[-202,-571],[-418,80],[-192,33],[-486,126],[-211,44],[-2,-25],[-51,-4],[-53,-41],[-25,22],[-86,34],[-36,21],[-33,-1],[-38,-31],[-22,104],[110,927],[-31,95],[-24,42],[-17,9],[-17,30],[-43,17],[-54,69],[-70,139],[-3,12],[-32,4],[-29,12],[-22,52],[-24,5],[-12,49],[-45,82],[-41,9],[30,25],[-8,22],[-70,23],[-4,16],[-98,188],[-36,77],[-14,50],[4,56],[29,155],[17,114],[0,98],[-16,-5],[-26,13],[-34,-12],[-34,-35],[-35,-45],[-44,-24],[-63,-42],[-25,-21],[-49,-9],[-34,-14],[-73,-69],[-68,-30],[-38,-41],[-148,297],[-271,50],[-18,21],[7,67],[-71,15],[184,271],[-20,111],[10,39],[-22,13],[12,46],[45,8],[13,20],[-1,38],[-25,22],[-1,49],[23,58],[5,37],[-20,35],[-6,40],[53,57],[18,-6],[21,17],[-1,16],[25,45],[1,45],[-14,38],[9,36],[25,-3],[54,-101],[48,8],[13,-9],[57,-88],[25,-63],[15,-105],[28,-25],[42,63],[25,5],[116,148],[45,3],[40,26],[25,33],[22,84],[28,74],[29,3],[96,121],[67,-42],[132,82],[-14,21],[-9,55],[4,37],[29,68],[22,72],[32,28],[5,31],[-8,20],[-29,-5],[-60,-54],[-24,18],[-9,42],[-2,36],[10,50],[20,33],[47,43],[19,24],[7,34],[-8,42],[-19,19],[-55,14],[-26,21],[-20,-2],[-7,-17],[4,-58],[-26,-41],[-6,-72],[-23,-24],[-14,-44],[-12,-10],[-18,36],[0,18],[47,94],[-8,44],[-38,19],[-26,57],[-6,26],[-19,31],[-34,8],[-29,22],[-36,42],[-10,29],[13,37],[36,-14],[41,-29],[15,12],[5,23],[-14,36],[-37,43],[-32,7],[-45,20],[-57,-3],[-53,18],[-35,-1],[-16,-41],[1,-33],[13,-56],[29,-63],[-5,-43],[-24,-13],[-28,36],[-23,54],[-1,29],[13,99],[-6,62],[12,62],[1,54],[-20,38],[312,382],[-687,1391]],[[65832,20302],[30,8],[47,1],[43,20],[15,158],[27,30],[23,158],[-12,27],[30,193],[3,38],[-30,18],[-46,-40],[17,181],[46,25],[26,51],[11,46],[-3,26],[20,34],[6,35],[31,24],[25,106],[25,20],[-15,43],[-15,134],[15,91],[-41,100],[2,34],[-48,72],[-48,13],[-73,29],[-8,13],[-7,121],[40,72],[59,9],[8,16],[17,-9],[21,6],[67,56],[17,92],[-30,22],[-21,78],[-31,-4],[-37,46],[-67,287],[-83,15],[-54,36],[3,44],[-44,65],[-23,4],[-18,24],[-28,61],[7,48],[28,33],[-7,104],[6,18],[34,39],[-23,38],[-4,35],[-35,40],[-28,61],[-326,47],[-12,11],[29,122],[8,45],[-7,47],[-23,13],[-8,32],[17,60],[-11,66],[-35,29],[0,32],[-24,56],[-4,22],[-31,64],[-23,20],[-20,3],[-15,45],[-1,85],[-13,95],[2,24],[-9,34],[7,30],[-3,64],[15,7],[12,38],[81,19],[12,51],[-39,45],[-13,46],[-28,-16],[-40,5],[-14,41],[6,20],[-24,88],[-64,73],[-32,72],[1,35],[-13,44],[-11,11],[-9,32],[-17,28],[-15,70],[-14,28],[-3,45],[-9,55],[-16,44],[-16,21],[12,28],[-49,115],[-35,108],[-10,19],[-3,77],[-4,9],[-1,75],[-16,64],[-2,46],[8,19],[-16,72],[17,55],[5,40],[17,41],[-16,85],[-8,13],[12,51],[-4,43],[-19,42],[6,39],[-4,64],[10,105],[8,30],[4,67],[-3,24],[21,-1],[11,-39],[-17,-56],[-5,-107],[5,-53],[12,5],[1,49],[23,63],[15,3],[19,27],[-1,57],[14,16],[8,62],[-37,19],[-5,33],[19,29],[-7,19],[25,70],[16,70],[-16,35],[4,17],[-17,35],[7,34],[-13,67],[2,18],[23,72],[14,27],[-7,28],[18,41],[2,28],[35,144],[13,17],[38,19],[26,-22],[8,41],[-14,5],[-5,47],[19,5],[38,-57],[67,50],[36,77],[26,60],[-1,30],[15,20],[25,13],[20,30],[4,35],[-4,78],[1,89],[-35,52],[-42,-1],[-22,-11],[-24,1],[602,787],[280,-148],[13,-62],[0,-47],[5,-28],[30,-31],[39,-10],[25,-17],[19,-49],[9,-62],[26,-41],[46,-15],[74,-46],[42,-33],[37,-4],[158,34],[-9,-119],[-20,-37],[-10,-49],[15,-49],[1,-33],[22,-48],[29,-7],[8,-25],[0,-46],[45,-13],[9,-54],[4,-65],[-21,-1],[-13,-21],[-35,-7],[10,-188],[36,-63],[26,-79],[-9,-82],[28,-99],[8,-66],[20,-84],[-4,-50],[4,-42],[17,-81],[29,-75],[25,-31],[29,-10],[9,-18],[-3,-148],[18,-27],[78,-18],[48,13],[40,-13],[-19,-48],[-21,-94],[24,-97],[-21,-124],[13,-26],[28,-31],[23,-119],[11,-16],[-12,-89],[46,-120],[-10,-87],[-20,-51],[2,-64],[-18,-40],[17,-58],[-4,-42],[-27,-67],[-11,-17],[-7,-58],[-34,-38],[-40,-28],[-22,-1],[-23,-40],[2,-61],[-32,-72],[27,-20],[11,-39],[36,-25],[95,-52],[-1,-15],[19,-29],[15,-9],[15,9],[16,-10],[11,-37],[21,6],[-5,-41],[-25,0],[-18,35],[-17,-16],[-22,-2],[12,-81],[16,-19],[50,-25],[17,-32],[15,-9],[15,11],[0,42],[44,10],[2,-35],[23,-25],[7,8],[-12,42],[33,95],[64,57],[28,16],[40,38],[37,63],[16,64],[26,41],[26,7],[38,-16],[16,19],[20,41],[10,82],[52,70],[0,35],[20,29],[-8,32],[-14,22],[-4,60],[8,35],[0,60],[14,57],[50,-22],[22,45],[10,57],[22,51],[24,18],[-2,45],[-14,9],[-18,70],[10,60],[2,39],[16,31],[16,54],[18,22],[28,13],[10,26],[-26,12],[-6,26],[-20,25],[-6,44],[0,45],[-22,38],[-6,31],[2,32],[-10,73],[-26,11],[2,38],[17,17],[27,-44],[72,-57],[68,-9],[22,-28],[42,6],[24,-13],[20,-22],[12,-28],[-2,-51],[21,-54],[-8,-47],[0,-32],[12,-45],[32,-57],[10,-44],[24,-66],[10,-13],[50,-6],[28,-16],[26,-48],[22,-28],[77,-25],[68,-35],[24,-19],[22,-28],[24,0],[38,41],[20,6],[14,54],[10,13],[0,35],[-10,25],[8,48],[-8,51],[-4,63],[4,79],[-4,32],[-20,86],[-4,31],[22,73],[0,35],[-17,51],[16,54],[40,41],[45,38],[60,-31],[22,-20],[54,-18],[17,-32],[17,-65],[24,-42],[16,-1],[32,22],[9,21],[13,69],[55,93],[13,41],[15,93],[-6,67],[11,26],[28,-5],[26,23],[32,7],[21,16],[36,-22],[13,-1],[23,22],[19,71],[20,1],[21,-53],[20,-26],[45,-33],[90,-94],[104,-47],[12,-21],[-8,-36],[15,-35],[22,-22],[20,-46],[34,-15],[43,57],[37,22],[19,-3],[19,29],[21,10],[44,-7],[26,-13],[34,-31],[21,23],[18,0],[23,15],[-1,104],[23,70],[44,75],[19,59],[1,66],[-5,57],[1,61],[-6,33],[-26,69],[12,39],[-13,19],[-28,14],[-10,31],[30,51],[2,20],[-25,54],[6,37],[43,47],[-29,34],[-17,81],[-4,65],[-17,66],[-21,29],[-5,69],[30,18],[40,34],[17,32],[15,88],[18,39],[36,429],[14,14],[17,-7],[85,138],[153,144],[15,193],[-10,83],[45,250],[38,80],[38,32],[79,-29],[-3,50],[48,130],[16,61],[1,76],[136,34],[76,11],[19,-109],[125,5],[23,-666],[34,-811],[22,22],[3,41],[43,-13],[16,-69],[60,-34],[59,23],[13,61],[-7,36],[18,72],[17,48],[-20,77],[6,47],[-3,59],[5,35],[-4,106],[-6,110],[-31,156],[-25,115],[-10,147],[-1,163],[10,141],[28,85],[39,57],[39,41],[18,61],[-4,61],[3,40],[121,85],[96,108],[56,94],[20,52],[52,85],[55,145],[40,76],[36,47],[37,22],[36,42],[33,70],[38,102],[41,87],[56,94],[15,39],[59,118],[45,84],[29,96],[33,60],[25,310],[27,7],[36,97],[34,106],[-62,57],[-34,37],[-64,56],[-8,19],[-1,36],[-8,22],[-13,71],[97,557],[7,135],[10,109],[377,-73],[-69,170],[56,-11],[0,105],[-22,34],[-1,51],[-21,55],[-18,4],[-11,45],[37,90],[-13,56],[-31,13],[-7,25],[10,63],[-13,79],[-53,78],[10,58],[-7,127],[-9,73],[-22,30],[1,37],[-36,155],[21,16],[11,50],[-12,55],[-2,230],[-34,112],[2,67],[-45,27],[6,74],[-18,54],[54,129],[-34,203],[2,11],[-42,263],[-38,29],[-8,174],[14,49],[-29,112],[-3,58],[-40,81],[-6,51],[-151,455],[-17,26],[-3,32],[-18,31],[-18,50],[-16,17],[-29,110],[-47,7],[-24,-5],[-14,71],[1,45],[-6,52],[-55,53],[-9,61],[-33,24],[-3,45],[14,147],[25,26],[7,27],[-13,41],[-36,24],[-10,46],[-23,10],[-15,53],[2,38],[-13,45],[17,48],[3,45],[-32,66],[-42,34],[-23,85],[15,61],[-17,75],[-30,19],[-46,107],[24,42],[130,110],[772,-22],[417,-95],[-4,-25],[55,-13],[26,8],[29,50],[12,37],[31,42],[23,18],[4,25],[-39,101],[-2,88],[-25,71],[8,28],[21,33],[9,2],[7,39],[-36,101],[-17,33],[1,23],[11,38],[-17,57],[23,83],[-2,81],[-17,69],[-27,30],[-57,23],[-45,50],[-85,45],[-22,19],[-73,95],[-18,40],[-11,68],[12,122],[14,72],[30,116],[51,152],[20,54],[15,68],[23,70],[77,137],[5,34],[2,72],[22,36],[32,1],[37,-20],[34,-30],[50,-56],[38,8],[12,30],[6,76],[-9,46],[-35,42],[-16,32],[-9,159],[2,53],[12,99],[0,95],[-11,52],[40,20],[12,-2],[14,-25],[18,24],[30,-30],[32,-44],[40,-33],[28,-60],[24,-24],[37,18],[31,-32],[7,9],[-3,66],[18,51],[22,8],[37,-18],[21,11],[11,53],[-4,28],[21,1],[9,30],[22,-11],[33,44],[0,21],[14,40],[12,-2],[36,18],[7,27],[18,31],[0,26],[17,47],[6,47],[-12,33],[-3,60],[11,54],[18,18],[-2,48],[5,36],[31,38],[7,19],[-2,37],[-16,-2],[-2,26],[22,57],[-27,6],[4,78],[31,63],[83,-21],[157,-45],[235,-69],[112,-10],[401,-35],[3,59],[-12,23],[-3,35],[25,38],[6,60],[14,21],[32,-28],[15,5],[42,61],[-18,31],[1,37],[-27,84],[9,138],[-19,43],[-34,16],[-10,54],[-15,48],[1,48],[-5,26],[9,21],[-2,32],[-25,27],[-76,12],[-47,96],[-27,23],[-17,3],[-20,42],[-8,44],[-44,38],[-10,32],[-39,45],[-1,27],[-12,35],[-5,51],[1,140],[-31,48],[-8,25],[-9,61],[-23,40],[7,70],[-54,77],[10,74],[-10,23],[-19,9],[-37,0],[-3,47],[-15,31],[0,32],[-11,40]],[[74181,43886],[16,26],[18,13],[27,-8],[15,18],[8,38],[11,17],[35,11],[6,32],[16,45],[-61,365],[112,-24],[6,81],[78,-15],[94,1],[108,-21],[3,37],[154,-36],[21,279],[19,30],[15,199],[14,5],[22,58],[2,28],[15,35],[14,10],[46,-6],[22,70],[57,42],[32,-11],[56,25],[10,-6],[56,22],[53,58],[47,-52],[14,-2],[9,-31],[22,4],[26,-17],[22,44],[23,24],[5,47],[144,-29],[79,-18],[5,56],[118,-27],[5,65],[90,-20],[-4,-42],[74,-17],[5,52],[110,-23],[2,30],[56,-13],[9,-23],[17,3],[23,-27],[11,20],[29,-66],[41,-10],[18,2],[-6,-35],[11,-10],[-12,-35],[6,-36],[59,-22],[32,-7],[11,-30],[-22,-4],[-51,-36],[-1,-63],[27,-48],[1,-52],[24,-7],[2,-22],[21,-24],[29,-13],[18,-34],[-21,-51],[-11,-47],[-27,8],[-35,-36],[-18,7],[-5,-64],[32,-32],[2,-31],[35,-16],[17,-29],[16,-8],[3,-36],[31,-50],[49,-8],[23,-54],[-24,-106],[28,-31],[22,-7],[13,-39],[-5,-18],[6,-67],[25,-17],[6,-28],[26,-35],[8,-40],[20,-14],[20,-33],[-63,10],[-3,-53],[64,-11],[1,7],[87,-15],[19,-54],[41,-5],[10,-24],[-29,-47],[-10,-109],[17,-20],[-11,-34],[13,-8],[-1,-40],[-18,-7],[-31,-38],[-10,-38],[7,-22],[-20,-31],[80,-15],[-17,-246],[25,-8],[7,-25],[-3,-61],[5,-30],[31,-30],[25,-8],[28,8],[10,31],[20,139],[22,39],[35,22],[13,1],[60,-53],[-7,-78],[4,-15],[33,-37],[53,-15],[18,-28],[28,-6],[12,18],[11,-90],[26,-58],[22,-15],[8,-19],[32,-16],[62,-5],[15,32],[28,17],[10,44],[28,39],[-5,39],[15,54],[20,8],[23,33],[50,10],[19,31],[36,-75],[23,29],[23,-24],[34,18],[22,-2],[13,-17],[24,1],[32,-35],[61,8],[20,-15],[19,-88],[45,-51],[2,-65],[40,-26],[-10,-96],[9,-24],[24,-18],[1,-51],[37,24],[17,56],[25,7],[11,63],[28,8],[24,-28],[18,-50],[5,-32],[55,9],[-5,39],[32,25],[57,-69],[18,31],[36,-8],[92,-52],[27,28],[16,-17],[26,19],[33,4],[12,117],[55,38],[19,4],[2,68],[-11,36],[4,41],[21,8],[7,36],[24,-13],[25,23],[13,0],[24,-30],[14,12],[33,-24],[29,24],[29,-20],[39,-5],[13,-17],[33,-14],[27,48],[23,8],[31,-38],[21,25],[29,-25],[34,-83]],[[79095,42787],[-19,-26],[-6,-24],[6,-64],[-17,-30],[2,-63],[8,-22],[21,-25],[11,-27],[-1,-35],[16,-60],[17,-17],[0,-27],[37,-68],[-4,-47],[18,-63],[18,-29],[16,-72],[3,-45],[-6,-51],[43,-74],[-14,-138],[37,-12],[23,-42],[4,-61],[19,-36],[16,-7],[6,-34],[-10,-28],[25,-24],[12,-31],[24,-14],[10,-25],[53,-44],[49,67],[52,-28],[6,-23],[31,-48],[26,-24],[21,-6],[41,-34],[9,-38],[3,-42],[17,-7],[32,-39],[6,-59],[9,-20],[-6,-37],[5,-38],[23,-44],[7,-63],[-9,-37],[25,-17],[5,-42],[15,-12],[0,-103],[37,-35],[22,-35],[1,-62],[-35,-44],[4,-43],[-10,-35],[2,-25],[-14,-16],[-5,-33],[21,-52],[3,-235],[7,-43],[-5,-29],[8,-53],[-13,-90],[22,5],[13,-83],[23,-51],[0,-54],[-6,-47],[6,-61],[17,2],[9,-23],[32,-43],[11,-28],[-2,-28],[24,-26],[34,-15],[-25,-262],[18,-26],[-14,-72],[8,-27],[0,-30],[-21,-34],[15,-26],[-1,-22],[15,-16],[18,-39],[15,-65],[-18,-40],[-15,-16],[-1,-85],[7,-44],[19,-61],[18,-8],[49,-3],[41,-35],[39,-5],[13,-9],[22,10],[18,-7],[17,-33],[25,-4],[24,21],[25,-12],[45,-46],[39,-25],[20,0],[61,32],[16,18],[-13,-117],[17,-10],[25,24],[31,-95],[30,-25],[20,-81],[40,-38],[6,-22],[32,-16],[28,-38],[5,-32],[24,-63],[-1,-48],[-6,-37],[-24,-38],[12,-59],[-39,-77],[-24,-34],[7,-39],[-6,-32],[6,-46],[-6,-27],[19,-36],[23,-26],[-44,-104],[-9,-45],[1,-63],[-8,-80],[-8,-15],[2,-43],[-17,-45],[7,-55],[0,-38],[-19,-9],[-16,6],[-41,-29],[-29,-48],[-6,-50],[0,-58],[-20,-28],[-40,0],[-8,-51],[7,-18],[121,-181],[-8,-36],[4,-23],[-9,-27],[-31,-34],[2,-49],[-15,-36],[-21,-8],[-5,-31],[-18,-21],[1,-143],[33,-29],[-7,-61],[-29,-46],[-14,-85],[-4,-90],[14,-27],[-17,-37],[-4,-44],[-11,-12],[-21,-56],[-16,-22],[21,-36],[40,-46],[36,-36],[10,-31],[-9,-15],[11,-26],[-16,-54],[33,-7],[54,58],[15,-6],[25,19],[25,-47],[42,30],[34,1],[36,-14],[18,21],[44,-5],[26,12],[24,-47],[26,-9],[48,63],[4,28],[31,18],[-5,32],[16,28],[2,24],[32,14],[12,-14],[54,27],[8,27],[35,-9],[11,-20],[-7,-48],[-22,-68],[-9,-8],[-16,-58],[9,-30],[-24,-83],[-22,-44],[-25,-24],[95,-156],[60,-132],[-44,-34],[-18,-47],[8,-23],[24,-7],[9,-27],[101,-109],[17,15],[5,30],[52,14],[3,-18],[36,0],[31,12],[27,-28],[38,-57],[23,14],[27,-5],[21,-15],[19,36],[-4,30],[19,4],[34,65],[-2,27],[18,47],[3,20],[26,13],[20,21],[33,2],[33,18],[6,-83],[110,-385],[97,-333],[4,-99],[42,-10],[47,-24],[15,-19],[35,-6]],[[33179,40047],[43,33],[3,18],[37,47],[35,6],[52,52],[36,54],[83,24],[19,30],[3,50],[26,30],[-147,20],[-18,6],[-538,88],[34,445],[37,396],[-131,17],[105,1155],[7,28],[24,277],[46,452],[30,299],[33,411],[57,692],[-399,79],[72,999],[66,1061],[19,321],[591,-69],[27,335],[7,39],[30,355],[28,316],[-154,29],[12,117],[23,357],[17,288],[11,98],[16,288],[42,-3],[9,150],[47,92],[201,-34],[19,294],[39,523],[-6,1],[28,435],[15,197],[269,-46],[24,342],[-266,50],[1,8],[-249,46],[57,888],[29,486],[-410,85],[41,605],[56,817],[-565,96],[-608,103],[-196,32],[-236,42],[-731,123],[-714,123],[-9,10],[-17,48],[-30,36],[-11,32],[-4,35],[5,32],[-19,19],[-8,39],[10,78],[-9,46],[4,37],[-5,31],[16,34],[10,36],[-6,47],[2,91],[23,26],[-1,34],[16,48],[-2,48],[26,41],[45,171],[37,41],[20,-8],[23,25],[26,98],[17,43],[22,14],[14,32],[15,85],[27,48],[-10,24],[10,27],[-2,74],[-7,23],[14,29],[4,29],[-6,43],[-13,55],[32,102],[45,112],[-5,43],[9,39],[43,79],[30,13],[23,73],[50,46],[48,78],[10,29],[33,69],[6,47],[12,33],[22,11],[23,-13],[50,36],[-5,23],[28,39],[30,24],[-10,26],[14,33],[-4,44],[12,49],[-9,30],[1,69],[16,43],[17,-12],[35,64],[24,73],[-5,45],[3,35],[30,63],[-11,21],[-6,44],[-13,49],[-4,116],[10,138],[10,75],[13,54],[15,31],[28,82],[4,39],[-25,75],[-327,46],[60,304],[-444,68],[0,7],[-404,62],[24,441],[-495,90],[-337,56],[0,17],[-435,73],[-401,68],[-23,-436],[-544,97],[-30,13],[63,404],[-742,109],[-71,-72],[-497,93],[-75,20],[-125,23],[-225,46],[-142,-188],[-2,63],[-282,562],[-139,701],[-466,-493],[-423,-439],[-171,106],[-509,178],[-476,164],[-6,-88],[-129,-11]],[[23400,60699],[-33,47],[-4,19],[-65,124],[-144,276],[4,155],[13,150],[84,-20],[558,727],[218,285],[40,-78],[172,226],[820,1079],[83,108],[85,1521],[1,25],[439,-68],[840,-126],[120,-18],[4,65],[589,-71],[347,-36],[15,-13],[215,-18],[-54,-1017],[589,-72],[364,-38],[195,-21],[127,-542],[302,-38],[72,138],[87,143],[10,-17],[32,62],[51,59],[29,94],[201,377],[36,84],[98,238],[180,429],[217,513],[54,142],[74,-9]],[[30465,65583],[283,-35],[143,-24],[211,-24],[454,-53],[220,-33],[153,-30],[263,-52],[50,23],[129,-133],[57,876],[-5,4],[48,738],[5,6],[346,-57],[37,734],[265,-45],[867,-144],[24,393],[9,24],[-6,22],[32,508],[35,601],[12,233],[1003,-170],[17,447],[-82,149],[8,115],[620,-103],[-2,-26],[265,-45],[-24,41],[9,45],[-11,81],[24,17],[6,64],[48,119],[-1,84],[-92,279],[33,426],[-165,226],[17,262],[620,-106],[83,-15],[62,-482],[309,-59],[177,-35],[16,0],[361,-71],[383,-79],[66,1067],[65,1065],[751,-135],[29,602],[618,-73],[542,-64],[-21,-368],[-16,-339],[-84,3],[-139,-1085],[660,-268],[-162,-825],[-92,14],[-86,-558],[391,-157],[-81,-153],[-777,192],[-80,-1557],[342,-41],[873,-105],[-4,-262],[578,-127],[308,-65],[-2,-62],[695,-154],[312,-69],[193,-46]],[[42660,66709],[38,-11],[118,-73],[125,-81],[64,-100],[-41,-460],[-35,-403],[49,-565],[-71,-744],[-57,-597],[-19,-197],[6,-11],[550,-132],[-56,-710],[-48,-638],[38,-17],[1289,-217],[-13,-154],[-37,-481],[13,2],[14,28],[35,35],[17,7],[-61,-933],[-93,16],[-33,-775],[-26,-596],[-116,12],[-11,-127],[182,-29],[348,-71],[120,-24],[26,109],[126,-30],[124,-24],[248,-51],[12,-22],[187,-31],[75,1200],[242,-596],[161,-162],[559,-93],[-1,-31],[32,-44],[13,-57],[-25,-60],[1,-18],[18,-9],[26,39],[15,-11],[11,-71],[30,-57],[15,-56],[25,-26],[14,-39],[33,-26],[14,-30],[29,-33],[-17,-32],[-39,-34],[-34,-13],[-75,-44],[-37,-29],[-13,-26],[0,-63],[11,-77],[23,-44],[7,-54],[34,-68],[29,-36],[16,-34],[13,-60],[-1,-47],[-52,-161],[-37,-84],[-4,-99],[2,-43],[-58,-138],[-37,-29],[-61,-35],[-52,9],[0,-12],[46,-8],[-12,-28],[-12,-50],[-3,-73],[18,-118],[12,-6],[16,-48],[41,-90],[6,-25],[15,-22],[36,-93],[4,-44],[15,-4],[9,-31],[12,-103],[11,-17],[5,-78],[10,-37],[6,-91],[11,-45],[35,-93],[13,-62],[27,-44],[27,-29],[18,-41],[23,-7],[34,-41],[34,-7],[21,15],[31,-3],[30,5],[587,-437],[198,-148],[610,-373],[-82,-1245],[226,-36],[-4,-54],[5,-48],[16,-42],[-5,-60],[6,-15],[-1,-69],[28,-35],[381,204],[20,-174],[83,-120],[181,42],[18,-92],[390,210],[58,78],[90,34],[12,-47],[2,-61],[-12,-145],[46,-115],[16,-50],[-10,-93],[24,-48],[52,-112],[-23,-354],[-8,-53],[-28,-495],[0,-79],[-88,-1114],[124,-16],[167,-24],[13,-6],[806,-223],[-33,-375],[550,-224],[43,1],[24,-37],[19,3],[32,-10],[-6,-74],[31,-113],[-13,-128],[6,-30],[-6,-36],[-14,-254],[-28,-258],[0,-64],[75,-13],[-28,-437],[490,-275],[256,-209]],[[52412,47915],[43,-95],[22,54],[5,61],[81,-108],[1,-71],[19,-28],[27,-56],[8,-62],[5,-59],[4,-176],[-16,-59],[-26,-42],[-11,-49],[17,-26],[6,-27],[52,-98],[-30,-52],[-48,-99],[-37,-39],[-48,-12],[-19,-14],[-28,-40],[-20,-10],[-28,16],[-14,-2],[-33,-46],[-59,-34],[-37,-39],[-43,-11],[-43,29],[-18,5],[-22,-19],[14,-61],[-14,-72],[8,-65],[-13,-55],[-21,-14],[-29,-33],[-1,-33],[50,-119],[14,-53],[-4,-72],[-15,-28],[-76,-69],[-31,-35],[-41,-66],[-12,-42],[4,-47],[12,-46],[25,-69],[3,-32],[-11,-30],[17,-44],[4,-35],[27,-26],[19,-32],[18,-15],[3,-40],[-26,-50],[-10,-59],[-33,-69],[-20,-33],[22,-50],[1,-33],[17,-72],[-5,-35],[36,-105],[-7,-28],[-30,0],[-11,-27],[-43,-27],[-20,-36],[12,-62],[11,-34],[-7,-67],[-21,-55],[-2,-40],[13,-13],[8,-64],[-29,-49],[-4,-79],[14,-50],[19,-47],[24,-31],[1,-93],[-14,-18],[-2,-83],[-10,-31],[-18,-31],[41,-129],[6,-64],[-15,-83],[-2,-62],[8,-44],[92,-67],[19,-42],[41,-38],[37,-2],[49,-47],[-16,-50],[20,-95],[46,-95],[17,-82],[-21,-59],[-32,-55],[-4,-58],[2,-44],[-21,-41],[-6,-39],[20,-56],[-4,-36],[15,-27],[18,-59],[22,-41],[2,-60],[-16,-33],[22,-49],[10,-56],[-13,-28],[-2,-54],[-6,-22],[-3,-90],[-17,-69],[23,-144],[37,-88],[1,-70],[-19,-70],[2,-63],[-5,-30],[-10,-221],[-25,-56],[-60,-164],[-46,-522],[-157,-156],[-128,-81],[-32,-496],[18,-666],[-142,-93],[-34,-7],[-40,6],[-60,91],[-58,5],[-67,-82],[-47,-8],[-43,-33],[-24,22],[-68,-6],[-93,-83],[-25,-17],[-47,-54],[-67,-137],[-20,9],[-39,-56],[-57,1],[-10,-10],[-26,29],[-92,-33],[-104,-99],[4,-16],[-5,-73],[-69,-75],[-1,-41],[-229,-221],[-85,-166],[-111,-62],[-90,29],[-55,71],[3,-47],[-16,-76],[-23,-43],[-4,-30],[3,-35],[-17,-42],[-5,-29],[3,-42],[-8,-61],[43,-60],[1,-40],[-8,-26],[6,-29],[-15,-8],[-10,-29],[0,-64],[-13,-26],[-31,-18],[-13,-31],[-30,-33],[-3,-17],[15,-30],[1,-28],[22,-11],[-3,-35],[-23,-27],[-9,-46],[-18,-8],[-8,-97],[-16,-46],[-12,-101],[-17,-7],[-13,-24],[1,-26],[-18,-63],[12,-21],[-21,-47],[21,-38],[3,-19],[-8,-39],[15,-19],[18,-2],[42,17],[16,-4],[3,-45],[-30,-2],[-10,-13],[-1,-39],[11,-35],[-8,-21],[-2,-55],[-33,-22],[3,-40],[-19,-1],[-21,16],[-28,-25],[-10,12],[-29,-13],[-21,-69],[7,-80],[-7,-42],[-38,-59],[16,-38],[23,-76],[-24,-74],[-55,20],[-20,-19],[-75,-25],[-15,-22],[-53,-6],[-47,-29],[-29,-59],[10,-47],[17,-28],[3,-25],[-11,-43],[-33,-20],[-3,-64],[-10,-35],[5,-34],[-12,-13],[-33,-15],[-12,-50],[5,-58],[-37,-9],[-19,5],[-11,-36],[-28,-9],[-28,12],[-13,18],[-36,2],[-28,-31],[-28,3],[-31,-16],[-16,9],[-29,-4],[-97,-45],[-13,-22],[4,-70],[-8,-23],[16,-67],[25,-4],[-18,-52],[-52,-49],[-25,15],[-22,-3],[-9,-27],[6,-69],[-10,-39],[-27,-25],[-10,-58],[-13,-26],[-20,-68],[-25,110],[-103,67],[-42,2],[-19,-40],[-30,34],[-57,23],[-99,-45],[-139,-161],[-67,300],[5,169],[-71,101],[-57,-10],[-35,4],[-32,-42],[-32,23],[-21,61],[-12,9],[-23,-12],[-8,-45],[-25,-26],[-5,-76],[-14,-35],[-18,5],[-14,-20],[-29,-2],[-21,-14],[-47,-149],[-29,-29],[-31,-10],[-29,57],[-13,-7],[-28,20],[-12,-11],[-30,10],[-23,-28],[-25,1],[21,-55],[-67,-1],[-23,28],[-24,-53],[-27,-14],[-24,-53],[-37,-25],[-7,-16],[-24,23],[-44,-34],[-62,-22],[-38,33],[-32,-5],[-15,34],[-33,16],[-34,-12],[-13,16],[-22,-22],[12,-53],[22,-16],[5,-28],[37,-48],[-1,-32],[31,-11],[16,-56],[10,-21],[-4,-28],[15,-28],[-9,-16],[2,-42],[-12,-18]],[[47101,34378],[-18,13],[-15,-5],[-6,-26],[-18,-2],[-20,-39],[-32,30],[-44,22],[-38,52],[-12,-28],[-27,5],[-16,-9],[-12,10],[-40,6],[-4,35],[-20,9],[-11,27],[-23,12],[-4,38],[-39,79],[1,61],[-33,75],[-19,18],[-6,33],[-23,12],[-33,-3],[-13,28],[5,66],[-35,35],[-18,34],[-16,48],[5,115],[-16,39],[-73,41],[-3,28],[-73,3],[2,25],[-18,9],[7,48],[-24,34],[-48,-76],[-32,-30],[-32,26],[-37,-19],[-27,-6],[-29,2],[-24,29],[2,51],[-58,14],[-33,52],[-9,49],[-90,68],[-50,83],[-52,3],[-4,45],[-27,95],[-38,95],[12,68],[-17,67],[-37,63],[-66,-3],[-50,96],[-70,91],[19,132],[-15,30],[37,580],[-1082,178],[44,599],[-62,12],[73,1117],[-1091,180],[69,1070],[50,736],[-680,115],[-11,-8],[-155,-140],[-66,-132],[-23,-113],[-46,-53],[-96,-230],[-448,85],[-45,9],[45,622],[45,600],[-88,43],[37,568],[43,654],[-195,33],[-7,-16],[-292,-276],[-118,-119],[-7,18],[-110,18],[13,188],[-6,-6],[12,239],[-751,136],[-117,-1776],[-396,74],[-67,-1002],[-199,35],[-55,-3],[-307,77],[-5,0],[-132,-216],[-75,-811],[-2,-25],[22,2],[259,-45],[-75,-1034],[-292,56],[-213,37],[1,25],[-237,42],[-2,-25],[-154,27],[-315,53],[-357,60],[-17,-259],[-555,93],[-1,7],[-141,21],[-310,54],[-15,12],[-117,13],[-191,24],[-177,19],[-353,71],[-108,26],[-12,-137],[-100,12],[-16,-213],[-456,75],[-392,64],[-178,27],[-75,15],[-121,19],[7,27],[-9,27],[-8,138],[-33,4],[11,77],[-8,52],[-12,35],[-11,54],[-23,38],[-7,32],[-54,74],[-53,31],[-27,28],[-36,48],[-13,42],[-2,52],[-10,36],[-63,106],[-14,-23],[-134,40],[-14,-6],[-21,-33],[-118,88],[8,111],[-21,29],[7,108],[-37,29],[-78,-14],[-43,-27],[-23,-36],[-20,0],[-19,-20],[-42,-10],[-21,-21],[-43,-1],[-36,28],[-19,39],[-18,61],[-25,22],[-16,30],[-86,78],[-22,0],[-7,14],[-32,28],[-29,49],[-30,9],[-31,-9],[-29,1]],[[28269,23120],[-70,-124],[-60,-168],[-91,-258],[-198,-541],[-118,-329],[-16,-177],[49,-61],[56,-263],[-54,-246],[-65,-208],[-7,-36],[-20,-49],[-230,-135],[-12,-66],[7,-72],[13,-55],[15,-42],[4,-62],[-17,-69],[-23,-44],[1,-20],[-39,-40],[-29,-24],[22,-289],[-14,-53],[-26,-28],[-21,-36],[-10,-29],[8,-58],[-18,-33],[-27,-21],[-16,-52],[-18,-8],[-46,-150],[-16,-13],[-35,5],[-19,-16],[-39,-54],[-39,-36],[-8,-151],[-7,-20],[4,-53],[-108,-116],[-97,-103],[-36,-43],[-11,-32],[-37,-29],[-157,-5],[-13,-15],[-14,14],[-81,-2],[-4,-15],[-215,431],[-412,799],[-792,131],[-3,-37],[-590,78],[-8,-111],[-51,80],[-1,57],[8,30],[-3,21],[29,98],[15,8],[157,-20],[94,115],[12,25],[6,86],[50,9],[13,20],[-175,702],[-119,252],[4,49],[-142,238],[-152,80],[-16,18],[-61,32],[-33,48],[-9,77],[-164,202],[-23,60],[-24,-3],[-49,35],[-16,40],[-31,39],[-94,64],[-41,69],[-55,26],[-50,-45],[-35,-44],[-53,-20],[-24,31],[-23,83],[-28,32],[-3,41],[-22,0],[-121,233],[-375,-486],[-570,-742],[-261,37],[-3,-41],[-32,-35],[-9,-131],[25,-45],[-35,-472],[9,-2],[-48,-827],[-19,-29],[-16,-52],[3,-28],[23,-34],[10,-64],[-17,-59],[-47,-738],[-35,-571],[291,-43],[-48,-751],[-422,60],[-17,-43],[-38,49],[-101,81],[-58,-9],[-32,29],[-3,16],[-271,40],[-433,69],[-520,83],[-36,-557],[-58,-1000],[-159,25],[-1058,167],[-495,79],[-95,-1448],[-546,92],[-145,27],[81,1149],[56,852],[-611,103],[-688,116],[-87,15],[-73,116],[25,19],[22,-17],[63,32],[8,19],[9,85],[9,35],[-2,38],[6,44],[22,68],[-198,27],[-985,134],[-525,-711],[-97,-144],[-4,-100],[-108,-94],[-135,-141],[-5,-30],[-172,-157],[-25,-20],[-106,-118],[-60,-89],[-60,-2],[-92,-57],[-76,-11],[-29,-42],[-179,-83],[-21,-155],[-103,-62],[-19,-6],[-46,20],[-75,-14],[-85,-30],[-150,-99],[-35,-69],[-92,-98],[-126,-76],[-87,0],[-377,-550],[-113,-117],[-128,4],[-36,-389],[-165,29],[-100,-1264],[-61,-899],[-76,-1125],[143,-1423],[-10,-6],[-2,-41],[-20,-27],[-8,-56],[-18,-19],[-22,-56],[-25,-11],[-15,-47],[-27,-17],[-3,-32],[-13,-16],[-16,-66],[-20,-5],[-17,-69],[0,-29],[-10,-27],[-22,-101],[-11,-11],[4,-50],[-28,-84],[5,-35],[-15,-31],[-5,-28],[17,-63],[-2,-17],[-22,-28],[-5,-35],[-24,-32],[-5,-51],[-19,-10],[1,-36],[-11,-26],[-20,3],[9,-67],[-3,-40],[-29,-76],[10,-19],[-3,-47],[-22,-22],[-15,-48],[-56,-58],[-11,-43],[-15,-31],[2,-55],[-9,-51],[-25,-114],[-58,-147],[-9,4],[-18,-50],[-3,-240],[-17,-99],[3,-27],[-35,-228],[-123,145],[-7,-90],[-1333,205],[2,114],[-743,111],[-6,-101],[-625,96],[-13,-117],[-39,-104],[-47,-168],[-18,-111],[14,-81],[0,-58],[14,-21],[-8,-23],[12,-16],[-10,-20],[13,-67],[25,-23],[-13,-38],[11,-40],[-1,-29],[-24,-12],[28,-46],[-6,-21],[-35,-27],[8,-20],[-10,-44],[25,-32],[20,7],[-2,-46],[12,-25],[0,-33],[16,-24],[-5,-23],[13,-29],[-9,-33],[-3,-47],[-26,6],[-6,-34],[15,-25],[7,-44],[24,-9],[-2,-23],[-20,-17],[2,-37],[10,-30],[24,-14],[9,-23],[-5,-25],[10,-24],[0,-31],[-13,-16],[4,-28],[19,-26],[-4,-37],[7,-24],[24,10],[7,-29],[-17,-42],[11,-21],[24,47],[14,-68],[10,-24],[18,15],[6,-42],[20,-48],[-14,-41],[7,-25],[21,-18],[25,-82],[-12,-60],[23,-22],[0,-35],[-8,-25],[-25,-20],[16,-25],[-8,-30],[13,-11],[24,-44],[-11,-61],[7,-35],[13,-12],[29,-60],[3,-36],[28,-48],[17,16],[31,-13],[21,-37],[1,-27],[-17,-30],[26,-82],[32,-43],[19,-35],[0,-53],[19,-63],[26,-44],[17,1],[7,-46],[-5,-24],[23,-30],[-5,-18],[16,-42],[18,-18],[1,-64],[14,-31],[0,-39],[39,-10],[0,-64],[25,-18],[9,-34],[25,-17],[-13,-39],[18,-43],[7,-51],[16,0],[3,-28],[19,-1],[23,-43],[8,-34],[26,-3],[14,-61],[-10,-84],[-2,-57],[-21,-21],[5,-72],[-5,-40],[-15,-20],[5,-44],[-22,-43],[5,-19],[25,-32],[22,-12],[6,-28],[16,-24],[6,-40],[14,-17],[-8,-26],[-14,2],[-12,-31],[2,-24],[34,-96],[-13,-22],[39,-19],[16,-67],[6,-63],[35,30],[30,-18],[21,1],[19,18],[12,-51],[8,-9],[-1,-53],[-17,-31],[-13,-51],[-20,-28],[-6,-23],[15,-25],[25,-5],[16,-25],[3,-30],[-17,-48],[-35,-8],[-4,-18],[8,-36],[19,-44],[19,-14],[0,-37],[-23,21],[-24,-11],[-3,-24],[21,-20],[1,-22],[-27,-38],[-39,3],[-8,-9],[-7,-47],[15,-49],[-423,83],[-131,61],[-244,44],[-128,-12],[-30,-25],[-23,5],[-47,40],[-24,2],[-17,-14],[-77,16],[-79,34],[-77,64],[-64,-40],[-565,98],[-322,626],[-1174,195],[-1127,-11],[-5,-200],[-296,-31],[-231,-3415],[-627,106],[-564,96],[-311,53],[0,323],[0,1408],[0,804],[0,805],[0,1209],[0,1009],[0,603],[0,805],[0,1207],[0,604],[-1,3839],[-716,0],[17,289],[110,1902],[98,1687],[-134,20],[14,472],[-205,22],[85,1578],[31,555],[-222,725],[-21,65],[-12,-17],[-32,-23],[-6,-38],[-58,-39],[-5,-22],[-31,-56],[-24,-22],[-123,-68],[-14,-16],[-20,-42],[-25,-34],[14,-47],[-25,-81],[-11,-64],[-45,-137],[-7,-45],[-20,-43],[-401,701],[-774,106],[67,1219],[119,2331],[108,-53],[1134,-170],[59,1097],[45,827],[71,1306],[-611,88],[22,527],[47,1486],[487,-60],[88,2031],[-370,50],[16,355],[979,-64],[979,-9],[1260,-163],[-29,-542],[974,1329],[115,2022],[435,-8],[700,-1302],[43,-23],[-2,-60],[1476,-655],[181,-79],[28,44],[92,35],[27,-12],[29,3],[25,-15],[30,9],[24,-16],[18,12],[38,38],[19,29],[7,34],[26,17],[20,-6],[76,32],[14,2],[31,-17],[21,28],[116,24],[33,27],[30,34],[25,37],[38,67],[1,20],[17,30],[27,15],[30,50],[23,9],[27,56],[35,28],[33,39],[23,17],[31,41],[18,86],[15,32],[43,51],[13,43],[16,23],[14,59],[11,21],[33,35],[54,8],[34,19],[26,-2],[34,22],[33,7],[21,23],[11,30],[16,15],[7,25],[58,59],[67,47],[20,22],[11,26],[21,10],[46,-13],[37,15],[59,14],[21,16],[40,14],[53,55],[17,29],[18,73],[28,40],[-65,122],[-788,1494],[530,698],[-63,130],[340,448],[-266,447],[-676,1156],[-325,556],[211,313],[693,1035],[833,-1526],[231,474],[380,528],[91,1392],[76,1175],[44,677],[65,992],[62,982],[17,238]],[[11692,44625],[51,782],[0,8],[66,1009],[1894,-211],[-15,-385],[491,-47],[-18,-678],[598,-56],[805,-93],[56,-13],[100,-20],[1101,-227],[711,-99]],[[17532,44595],[574,-80],[-80,-1400],[-45,-792],[435,-64],[640,-93],[-84,-1151],[-55,-1052],[-41,-633],[-16,2],[-35,-705],[509,-53],[-54,-1095],[-12,-3],[3,-79],[12,-208],[22,-413],[828,-95],[402,-62],[206,-30],[77,43],[11,-21],[52,29],[33,30],[14,34],[24,34],[2,84],[27,61],[-3,29],[12,20],[17,-16],[36,-1],[17,39],[-1,40],[8,29],[55,-13],[18,7],[5,30],[-21,36],[10,31],[21,3],[36,27],[15,24],[4,25],[-11,18],[-25,0],[0,57],[12,29],[52,43],[33,23],[7,60],[-26,106],[10,33],[-1,38],[-13,47],[3,65],[-12,53],[29,70],[5,50],[17,14],[20,40],[25,26],[18,51],[24,49],[19,73],[-1,69],[3,35],[-4,26],[1,55],[-9,62],[5,12],[-1,67],[3,40],[27,20],[6,55],[-10,29],[2,23],[26,40],[14,-6],[24,43],[-8,31],[14,40],[1,34],[16,13],[374,-94],[289,-51],[28,404],[589,-102],[796,-132],[-42,-645],[-9,-18],[5,-35],[-6,-95],[40,-8],[349,-55],[519,-89],[-50,-740],[-12,-171],[-14,-292],[-15,-117],[-13,-200],[-34,6],[-11,-167],[-72,11],[-20,-259],[-27,-358],[-64,8],[-71,-1234],[513,57],[-16,-140],[107,-18],[-99,-1372],[-15,32],[-17,12],[-54,81],[-206,411],[-590,-745],[-217,-274],[21,-3],[-691,-865],[-3,-33],[570,-1181],[-90,-106],[-196,29],[-350,-430],[-94,-120],[-9,-173],[-395,-508],[-156,-206],[-84,-107],[-5,-102],[-21,-39],[-6,-30],[-10,-140],[1031,-1912],[11,-21],[15,43],[21,21],[3,27],[68,64],[50,137],[-3,62],[-29,81],[2,78],[59,65],[13,32],[31,18],[48,10],[23,116],[27,-1],[79,58],[69,-141],[6,-56],[35,-32],[20,-37],[10,-38],[50,-86],[13,-37],[227,-449],[49,31],[37,16],[62,5],[38,11],[59,37],[55,124],[21,36],[43,60],[33,65],[28,47],[9,48],[15,133],[6,74],[18,112],[49,101],[16,87],[17,57],[48,103],[7,33],[38,68],[34,10],[35,27],[71,107],[93,135],[27,58],[31,38],[44,85],[27,21],[39,53],[71,128],[42,42],[6,39],[37,40],[43,67],[29,17],[19,23],[37,29],[37,10],[25,19],[18,35],[7,44],[19,13],[70,17],[39,17],[75,60],[72,49],[20,27],[21,43],[10,38],[8,69],[2,71],[-2,55],[11,66],[31,80],[40,75],[95,-190],[174,-342],[129,165],[38,-70],[14,-11],[55,-101],[65,-38],[158,-280],[120,-216],[115,-209],[-56,-76],[151,-299],[16,-20],[290,-572],[455,-894],[210,-413],[261,333],[383,-748],[187,-364],[-419,-547],[1,-60],[-23,-30],[-11,-47],[78,-278],[4,-25],[118,-356],[66,-218],[-42,-254],[1,-100]],[[47101,34378],[13,-28],[28,-2],[20,-30],[3,-98],[22,-15],[18,6],[54,-45],[2,-61],[25,40],[12,5],[42,-10],[18,12],[12,-20],[-12,-22],[-1,-86],[13,-92],[7,-67],[16,-39],[-4,-64],[12,-33],[3,-73],[14,-33],[32,-23],[26,16],[19,-32],[20,-17],[10,-28],[0,-33],[16,-57],[23,-53],[17,-76],[-15,-19],[-4,-54],[19,-27],[9,-53],[71,-139],[25,-20],[-1,-39],[22,-64],[-20,-26],[0,-37],[33,-67],[-13,-69],[27,3],[9,-31],[26,-5],[4,-30],[19,-16],[39,-65],[9,-84],[-6,-27],[-30,-5],[-23,-57],[-26,-10],[-26,-65],[48,-51],[15,-35],[59,-43],[11,-26],[-8,-53],[18,-37],[38,-43],[78,-57],[42,-22],[71,-22],[30,-36],[33,-62],[47,-29],[52,7],[29,-2],[15,-20],[7,-64],[-25,-124],[27,-105],[80,-28],[11,-75],[48,-77],[81,-13],[48,21],[21,82],[17,179],[7,107],[61,137],[101,79],[16,-45],[39,-184],[12,-26],[41,34],[43,146],[64,19],[55,4],[65,126],[5,41],[16,8],[31,41],[-6,60],[37,12],[6,55],[19,33],[11,47],[-1,54],[30,35],[43,20],[26,-35],[-8,-38],[1,-31],[30,-34],[11,0],[18,-26],[21,-50],[19,-6],[18,13],[-6,21],[6,30],[24,-4],[-16,-71],[10,-62],[-12,-13],[3,-59],[47,-43],[6,-29],[7,-82],[23,-74],[0,-59],[-15,-54],[9,-47],[22,-44],[29,-8],[-14,-32],[8,-22],[23,6],[28,-18],[19,15],[35,-82],[-8,-49],[27,-35],[32,-13],[14,-45],[26,-48],[12,-33],[42,-42],[18,-27],[12,-37],[1,-83],[22,-104],[18,-56],[17,-128],[-6,-20],[-27,1],[-39,-13],[-30,-53],[-69,-74],[-4,-26],[-1,-78],[-25,-30],[-13,-57],[-16,-37],[-7,-66],[-30,-85],[-12,-16],[-51,-13],[-9,-29],[-10,-77],[-34,-72],[-71,-36],[-22,-24],[-17,-55],[-9,-98],[40,-53],[20,0],[21,-20],[14,-49],[13,-82],[23,-71],[33,-88],[30,-74],[170,-14],[615,-45],[136,-10],[579,-55],[-17,-447],[394,-35],[-18,-469],[1273,-179]],[[52746,28095],[-11,-13],[-8,-58],[2,-23],[-13,-18],[-6,-31],[-22,-38],[-1,-30],[-43,-110],[-32,-2],[-15,-30],[-10,-55],[9,-207],[42,-133],[-36,-97],[-30,-18],[-30,15],[-46,-55],[-17,-84],[-43,-57],[-25,-58],[-21,-26],[-110,-124],[-39,-12],[-48,95],[-48,-2],[-117,-150],[-198,-22],[-112,51],[-50,97],[-44,8],[33,118],[4,65],[-9,43],[-27,30],[-68,17],[-52,34],[-42,13],[-31,-14],[-36,-57],[-37,-17],[-23,-37],[-6,-37],[-16,-45],[-24,-33],[-15,-35],[-11,-59],[14,-105],[-9,-40],[-17,-30],[-41,-32],[-27,-38],[-27,-25],[-30,-6],[-24,5],[-26,18],[-47,47],[-38,75],[-36,12],[-17,19],[-37,-1],[-30,-76],[-18,-16],[274,-1004],[-35,-12],[-327,66],[-133,-169],[-190,31],[-24,-308],[-12,-133],[35,-66],[3,-28],[-20,-13],[7,-33],[-31,-364],[-7,-134],[-442,73],[-58,-854],[-318,26],[-152,-181],[-84,-263],[-17,-10],[5,-28],[-34,-100],[-53,-150],[-57,-90],[-41,-100],[-3,-64],[-212,-283],[-163,-213],[-118,-148],[-111,-136],[-199,-250],[-28,-16],[-19,-43],[6,76],[-4,19],[8,42],[11,143],[56,799],[49,668],[41,599],[-613,117],[-260,50],[-497,93],[-79,-67],[-8,0],[-30,-445],[-29,-460],[47,-110],[-10,-137],[-21,-281],[-35,-423],[-58,13],[-15,-41],[-105,20],[-146,26],[-233,45],[42,-92],[70,-340],[-557,108],[-590,115],[30,384],[-139,28],[-10,-11],[-380,78],[-85,28],[-259,44],[-351,66],[-8,-108],[-30,-385],[-30,-418],[-18,-215],[-8,-130],[-29,-347],[80,-14],[-20,-175],[-3,-150],[-68,-673],[-48,-481],[5,0],[-12,-115],[-76,16],[-47,-647],[-35,-499],[-293,34],[-12,7],[-291,29],[-210,38],[-266,51],[-1,7],[-531,100],[17,261],[1,36],[-4,180],[1,101],[8,213],[19,333],[-302,2],[16,-47],[13,-117],[-26,-386],[3,-86],[-36,-435],[127,-465],[138,-511],[-31,-36],[22,-312],[11,-130],[6,-428],[-42,-135],[-148,-137],[-121,26],[-80,66],[-424,100],[-175,39],[-158,34],[-163,38],[-200,41],[-192,43],[-74,13],[-8,140],[-28,107],[17,214],[-11,30],[18,65],[14,186],[-2,43],[7,14],[18,252],[-566,98],[-34,2],[-13,-53],[-55,-50],[-11,-46],[-1,-30],[19,-81],[-18,-23],[-8,-53],[-14,-61],[-4,-59],[-15,-59],[-17,-31],[-44,-30],[-30,4],[-23,-28],[5,-42],[-8,-16],[-23,-5],[-25,-43],[-10,-55],[-6,-130],[9,-43],[-9,-45],[-20,-35],[4,-40],[-3,-36],[-74,-53],[-23,-57],[-9,-90],[-20,-55],[-40,-72],[-34,-32],[-29,-44],[-6,-112],[-7,-23],[-27,-32],[-11,-49],[1,-91],[16,-30],[-35,-9],[-43,-26],[-55,-156],[-670,106],[-59,10],[76,1079],[4,701],[5,5],[37,-71],[159,-21],[83,282],[43,737],[28,438],[17,24],[4,101],[-697,82],[-22,-3],[-48,49],[-49,9],[-32,69],[-20,32],[-98,9],[-31,20],[-142,-68],[-88,325],[-328,276],[-5,16],[-33,15],[-189,43],[-76,-182],[-164,-78],[-66,-244],[-303,58],[28,389],[146,-26],[99,1307],[-5,-12],[-630,120],[-6,14],[-426,83],[-222,43],[-27,21],[-30,14],[-20,21],[-47,-31],[-20,4],[-25,-16],[-36,1],[-65,26],[-286,53],[28,114],[3,38],[-6,18],[29,103],[6,132],[-16,36],[-85,98],[26,41],[26,-1],[38,47],[21,53],[6,88],[-6,27],[-224,36],[-8,20],[-47,6],[-14,-15],[-32,6],[-45,37],[-10,-29],[-48,8],[-21,25],[-36,2],[-10,-16],[-126,22],[-20,23],[-17,-33],[-40,-13],[-49,47],[-15,36],[-14,13],[-128,13],[-26,32],[-18,-27],[-89,12],[-36,27],[-19,-22],[-230,18],[-35,17],[-14,-6],[-55,38],[-17,-15],[-1,-23],[-85,8],[490,620],[27,6],[51,48],[-2,35],[-14,133],[8,20],[21,16],[30,43],[100,41],[22,42],[32,18],[39,0],[8,17],[58,805],[25,357],[-13,10],[4,60],[15,17],[31,447],[36,676],[-52,-38],[-33,-53],[-36,-43],[-82,-69],[-20,-51],[-25,-28],[-58,-5],[-85,-24],[-68,18],[-35,-19],[-24,1],[-107,23],[-32,-23],[-34,-52],[-45,-9],[-36,53],[-34,74],[-8,73],[-32,54],[-81,6],[-14,31],[-30,91],[-19,40],[-5,31],[-22,45],[-9,34],[-73,84],[-50,49],[-14,80],[31,131],[6,75],[31,135],[32,178],[7,136],[-43,142],[60,107],[-514,83],[63,1004],[-551,88],[-290,46],[23,334],[94,1355],[28,364],[-278,48],[28,414]],[[31937,31509],[16,180],[-252,42],[54,855],[5,6],[71,1065],[-4,0],[24,380],[38,643],[71,1187],[36,550],[-7,1],[61,1004],[13,156],[249,-41],[380,-61],[4,-24],[69,-11],[43,661],[31,27],[-38,115],[21,316],[49,771],[10,90],[-2,135],[19,20],[76,91],[46,51],[31,65],[5,34],[12,22],[22,82],[28,43],[21,15],[12,34],[28,34]],[[65832,20302],[-5,-49],[12,-21],[-34,-20],[-56,26],[-70,-60],[-95,3],[-16,-56],[-37,-14],[-188,36],[-32,121],[-73,-49],[-241,66],[-12,23],[-17,5],[-42,59],[-25,-8],[-51,31],[-11,61],[-10,23],[10,35],[-37,44],[-38,-2],[-33,-42],[3,-29],[-21,7],[-18,36],[-15,11],[-22,40],[-40,22],[-19,23],[-35,-2],[-27,16],[-9,44],[-74,103],[-14,66],[-16,29],[-65,23],[-76,34],[-33,38],[-22,11],[-19,36],[-71,87],[-5,71],[16,35],[-19,39],[-46,22],[-1,25],[62,613],[52,67],[2,56],[43,84],[68,47],[-3,76],[13,26],[-7,27],[30,6],[8,22],[53,29],[-22,96],[-30,96],[-59,237],[-55,21],[-25,-19],[14,-43],[2,-30],[-22,-25],[-52,-10],[-28,21],[-25,-4],[-25,35],[-18,34],[-33,15],[-28,29],[-41,-62],[-6,-19],[-35,-21],[-32,8],[-46,47],[-30,11],[-11,-37],[5,-32],[-8,-33],[-21,-9],[-10,-41],[-11,-125],[-32,-64],[-28,-3],[-9,-54],[-16,-14],[-45,52],[-23,59],[-19,24],[-24,62],[-22,25],[-7,33],[-19,39],[-11,46],[-13,22],[-23,14],[-27,54],[-51,2],[-43,-10],[-101,47],[-18,26],[-22,7],[-33,-1],[-17,-9],[-11,37],[-18,10],[-12,30],[1,41],[-41,69],[-37,33],[-16,29],[-32,25],[-43,5],[-53,71],[-18,1],[-76,-51],[-33,-6],[-39,25],[-37,68],[-40,24],[-60,17],[-46,-8],[-32,17],[-38,2],[-30,-36],[-15,-4],[-60,18],[-120,-23],[-32,39],[-21,8],[-93,-24],[-35,-40],[-61,-55],[-41,-46],[-25,-21],[-47,13],[-28,31],[-30,3],[-51,24],[-32,37],[-41,-12],[-27,-88],[-5,-40],[-22,-16],[-34,10],[-14,12],[-3,57],[-20,19],[-6,30],[-27,53],[-10,41],[-19,-3],[-34,17],[-29,-23],[-19,7],[-26,-16],[-14,34],[-26,40],[-1,59],[-25,25],[-53,33],[-66,-47],[-24,48],[-46,25],[-16,86],[-17,40],[-86,32],[-15,37],[-39,19],[-31,53],[-23,-1],[-42,-22],[-25,3],[-20,-15],[-29,11],[-26,0],[7,116],[-18,64],[-30,73],[-38,49],[6,23],[-7,35],[-21,59],[11,54],[-19,40],[21,126],[11,17],[-38,47],[-9,-2],[-45,34],[-19,2],[-2,22],[-45,56],[-10,34],[16,25],[-67,49],[3,20],[-18,40],[-18,18],[-26,54],[-44,29],[-7,36],[-18,21],[-5,26],[-31,30],[-48,70],[-13,40],[-33,44],[-4,27],[7,27],[-16,135],[-45,27],[-29,54],[-95,115],[-27,87],[-33,12],[-39,-16],[-18,-19],[-87,8],[-18,15],[-35,10],[-47,-68],[-34,-12],[-42,19],[-38,-3],[-64,228],[-3,39],[-20,47],[-39,1],[-11,19],[-13,64],[-62,168],[-19,-14],[-33,-9],[-36,18],[-12,29],[1,45],[-5,43],[-36,48],[-8,48],[17,58],[-4,24],[-28,19],[-36,-11],[-34,32],[0,27],[-36,31],[-49,20],[-14,34],[-23,29],[-14,49],[-5,42],[-29,24],[4,59],[-28,103],[-10,15],[-2,39],[-9,15],[5,27],[-20,46],[5,39],[-4,46],[29,35],[-14,38],[-3,38],[-25,102],[33,123],[-18,43],[-3,51],[-24,32],[-23,17],[-9,21],[-22,17],[-19,33],[-11,39],[5,73],[-23,37],[-7,47],[-16,37],[1,25],[-18,23],[-60,21],[-26,17],[-24,-6],[-38,-27],[-31,4],[-22,13],[-25,45],[-30,29],[-29,14],[-21,35],[-14,44],[-18,1],[-47,19],[-44,2],[-14,-7],[-13,-28],[-28,-11],[-18,43],[-19,30],[-26,60],[-10,2],[-42,100],[-3,35],[-26,34],[-29,3],[-57,-18],[-21,12],[-66,-4],[-30,-22],[-20,19],[-16,44],[7,44],[-28,11],[-16,28],[6,36],[-35,83],[-31,9],[-45,72],[-25,27],[-31,55],[-36,17],[-13,14],[0,66],[-15,47],[21,86],[4,53],[21,61],[-26,46],[-5,32],[-22,0],[-15,39],[-24,22],[-25,-4],[-25,14],[0,28],[-11,48],[-30,51],[-20,17],[-39,94],[-34,46],[-49,44],[-8,41],[-17,-11],[-37,16],[-18,20],[-9,-11],[-25,3],[-25,33],[-17,3],[-53,78],[-9,29],[12,63],[-32,46],[0,25],[-29,55],[-69,84],[-16,27],[-30,-6],[-14,13],[-16,46],[8,82],[-18,92],[-16,39],[-49,0],[-45,-30],[-15,4],[-14,24],[-38,24],[-14,-21],[-34,14],[-6,25],[-40,19],[-38,-37],[-24,-4],[-54,-73],[-22,0],[-18,20],[-12,60],[-56,59],[-28,13],[-23,-6],[-41,-31],[-31,6],[-15,21],[-36,-18],[-25,4],[-24,-8],[-40,-37],[-23,-56],[-14,-21],[-10,-33],[-35,-27],[-14,-36],[1,-31],[-18,-35],[-45,-42],[-12,-5],[-32,7],[-13,-31],[-3,-53],[-7,-17],[-24,-10],[-44,1],[-18,-9],[-35,-40],[-28,-74],[-12,-43],[-19,-7],[-48,48],[-24,7],[-35,-20],[-65,6],[-51,-7],[-39,-28],[-17,-52],[2,-77],[8,-67],[30,-19],[4,-21],[-11,-67],[-13,-39],[3,-19],[-17,-13],[-17,19],[-16,-7],[-16,-28],[-41,-1],[-24,-33],[-41,-2],[-22,-16],[-45,3],[-43,-38],[-32,-55],[-126,-91],[-20,-3],[-16,-66],[-22,-22],[-15,-39],[-3,-59],[-32,-57],[-62,3],[-37,9],[-16,11],[-29,1],[-10,16],[-5,105],[10,29],[-12,59],[-35,-4],[-29,-23],[-14,5],[-34,42],[-15,2],[-18,-75],[-24,-19],[-24,13],[-81,-77],[-42,-17],[-47,51],[-36,80],[-13,-35],[-3,-42],[3,-38],[21,-58],[-2,-23],[-36,-48],[-16,-45],[-9,-43],[-39,-31],[-22,-125],[-16,-134],[-15,-76],[-11,-34],[-20,-30],[-42,-27],[-34,-6],[-160,-7],[-43,-9],[-133,-21],[-56,-6],[-60,-1],[-52,12],[-58,35],[-77,24],[-24,-33],[-25,68],[-73,41],[-34,-2],[-33,-12],[-2,-28],[-20,-41],[-30,-9],[-21,4],[-18,27],[-15,-9],[-21,12],[-32,-12],[-22,5],[-65,57],[-14,-10],[-20,17],[-33,-23],[-45,1],[-16,-8],[-12,31],[-16,4],[-29,-29],[-1,-56],[9,-24],[1,-55],[-26,-26],[-40,-2],[-22,7],[-25,-15],[-1,-37],[-10,-29],[-21,-29],[-30,-5],[-10,-50]],[[52412,47915],[-26,55],[-12,51],[14,106],[45,53],[21,47],[11,63],[4,172],[33,152],[-17,102],[13,58],[-2,48],[4,65],[7,54],[-9,56],[14,21],[12,53],[44,133],[0,26],[11,25],[32,10],[28,38],[22,73],[7,60],[0,140],[-4,82],[-24,76],[14,23],[6,28],[16,22],[47,30],[13,22],[-1,30],[-57,156],[-44,59],[-18,80],[3,37],[20,59],[8,50],[0,64],[29,64],[-13,40],[-29,31],[-68,44],[-13,34],[3,50],[-5,32],[-15,15],[5,56],[-57,108],[-22,66],[-4,244],[-6,124],[10,110],[32,10],[39,35],[34,85],[32,64],[17,19],[16,-3],[40,19],[55,-23],[34,-3],[58,13],[48,25],[28,-6],[65,45],[18,34],[18,0],[44,23],[53,44],[18,-17],[73,-38],[21,-53],[67,139],[44,21],[26,42],[0,36],[12,35],[25,28],[21,1],[17,28],[23,16],[23,64],[22,47],[17,17],[11,66],[16,23],[0,33],[48,5],[35,44],[53,125],[84,81],[46,-3],[43,65],[14,33],[51,31],[8,75],[37,98],[104,122],[32,86],[31,15],[67,-24],[17,19],[66,175],[4,3],[-20,130],[12,89],[-3,27],[-25,43],[17,24],[7,51],[-17,45],[2,37],[46,50],[69,48],[23,31],[10,30],[30,62],[40,32],[30,-26],[32,11],[4,14],[-180,378],[56,208],[236,-194],[154,-129],[5,102],[7,59],[-10,51],[5,26],[44,14],[11,29],[0,29],[-21,33],[-4,25],[-17,41],[-4,32],[16,38],[27,39],[18,57],[25,52],[19,29],[40,17],[54,-11],[18,-24],[3,34],[41,530],[71,-17],[18,198],[59,28],[7,97],[-45,74],[90,-19],[29,-24],[-3,-33],[25,-21],[-7,-44],[14,-35],[3,-43],[30,-5],[-11,-27],[14,-31],[11,-52],[13,-8],[24,16],[12,-11],[5,-29],[14,-17],[38,8],[8,-60],[22,-1],[35,15],[9,29],[16,-22],[40,39],[37,8],[11,10],[4,79],[10,24],[30,-2],[28,13],[40,-7],[13,28],[17,-18],[30,7],[13,-5],[6,-33],[29,13],[40,-16],[43,80],[-5,25],[12,13],[8,63],[-10,21],[0,71],[14,45],[12,13],[-12,29],[2,35],[24,31],[32,28],[11,29],[26,41],[41,34],[7,18],[28,25],[28,36],[58,63],[21,34],[37,7],[18,-9],[13,30],[12,-2],[32,21],[17,95],[39,66],[0,24],[19,26],[5,24],[24,27],[16,50],[20,3],[39,115],[29,52],[39,51],[17,5],[18,68],[13,96],[22,49],[26,46],[23,32],[37,35],[81,100],[73,76],[38,-25],[26,16],[44,5],[33,-10],[31,3],[15,-18],[24,39],[18,16],[48,6],[33,64],[7,21],[21,14],[31,39],[12,6],[16,35],[24,28],[22,12],[14,-13],[19,25],[66,3],[25,25],[24,2],[37,95],[31,56],[30,23],[10,92],[12,13],[14,37],[11,80],[11,6],[0,46],[-19,23],[-4,44],[-9,20],[19,32],[-2,28],[38,6],[17,14],[25,-12],[49,-8],[26,14],[21,38],[28,25],[26,2],[40,38],[15,-7],[12,28],[18,0],[24,28],[27,9],[14,-22],[18,25],[24,0],[41,48],[49,4],[20,-19],[20,6],[13,-19],[24,18],[2,35],[22,44],[28,41],[4,45],[14,19],[3,60],[-10,38],[-12,13],[2,57],[25,76],[17,22],[18,56],[14,13],[16,34],[32,25],[35,98],[16,-72],[8,-56],[-9,-79],[0,-54],[15,-59],[1,-42],[25,-42],[11,-48],[-9,-22],[14,-27],[8,-31],[33,-19],[69,-23],[68,-12],[27,-12],[22,-24],[38,-87],[43,-60],[7,-42],[-11,-65],[22,-208],[-12,-44],[18,-50],[51,-23],[130,-140],[34,-71],[152,-147],[29,9],[154,-35],[85,55],[26,-162],[25,-42],[120,-32],[35,-16],[53,-99],[15,-4],[55,19],[18,36],[75,75],[68,-14],[64,2],[142,64],[16,61],[21,17],[29,442],[31,-25],[44,47],[40,-21],[24,12],[57,-4],[35,34],[15,42],[36,22],[24,-20],[28,45],[25,-2],[19,-13],[45,-7],[24,-14],[21,11],[8,42],[63,-12],[11,26],[12,-1],[25,-23],[21,-1],[17,26],[45,17],[5,22],[52,5],[16,-25],[21,3],[18,21],[47,-8],[217,-555],[28,-24],[2,-26],[-9,-54],[-14,-195],[-5,-31],[7,-16],[-23,-65],[-20,-4],[-11,-46],[-39,-46],[-21,-85],[-25,-21],[-38,3],[-23,21],[-63,-47],[-17,-56],[-31,-38],[-15,-129],[-33,-71],[-30,-6],[-20,-56],[-20,3],[-42,-67],[-24,-64],[-45,-53],[-33,-55],[-19,-4],[-20,-50],[-19,-85],[-15,-36],[-45,-19],[-17,-89],[-21,-5],[-25,19],[-14,-26],[17,-14],[16,-29],[10,-98],[30,-80],[25,-57],[8,-36],[16,-18],[-21,-48],[-4,-22],[11,-45],[36,-18],[17,6],[23,-11],[30,-76],[21,-42],[65,-183],[98,-256],[406,423],[246,260],[336,372],[72,84],[268,-54],[72,-17],[328,-65],[-6,-100],[0,-486],[-7,-51],[20,-51],[33,-49],[11,-52],[13,-18],[22,-90],[-25,-68],[-21,-30],[-33,-21],[16,-54],[-17,-65],[23,7],[38,23],[7,-37],[-8,-37],[17,-18],[10,-68],[-5,-16],[10,-62],[29,-17],[35,0],[85,94],[31,5],[41,-64],[-10,-21],[11,-28],[20,-25],[-16,-21],[10,-27],[15,-1],[10,-74],[-15,-182],[117,-32],[-13,-154],[-34,-342],[-35,-345],[-12,-108],[-22,-63],[-182,-552],[135,-22],[360,-435],[-472,-1010],[138,-165],[-560,-762],[-76,-572],[31,-4],[349,-224],[1,-9],[159,-440],[-160,-382],[180,-858],[-402,-504],[11,-134],[-9,-29],[7,-74],[3,-69],[-10,-96],[0,-49],[14,-87],[8,-84],[11,-30],[40,-33],[44,-15],[40,16],[25,30],[15,-6],[23,-41],[32,10],[31,26],[63,2],[25,6],[32,24],[24,38],[7,25],[-25,27],[6,105],[6,28],[18,35],[27,19],[37,-6],[1,-35],[10,-37],[14,-23],[28,-68],[22,2],[45,40],[16,4],[27,-18],[46,25],[38,28],[14,23],[56,149],[8,29],[-6,38],[41,125],[25,20],[9,89],[3,65],[-5,134],[-10,104],[1,38],[10,33],[11,9],[28,-19],[22,-6],[66,8],[25,10],[33,73],[47,77],[39,85],[41,78],[33,57],[34,31],[38,16],[97,69],[22,24],[18,35],[10,33],[-10,40],[-38,2],[-18,7],[-70,15],[-58,32],[-53,37],[-14,20],[-7,30],[5,22],[28,-9],[15,16],[4,104],[12,75],[9,18],[33,23],[28,-7],[28,8],[21,16],[41,76],[87,121],[11,27],[-6,41],[-48,115],[-9,85],[-1,54],[10,40],[21,56],[26,50],[38,34],[36,-14],[36,22],[30,29],[45,13],[13,-10],[11,-66],[26,-72],[27,-122],[18,-143],[4,-22],[22,-22],[43,-5],[71,6],[51,28],[26,48],[17,41],[11,75],[3,191],[13,25],[24,-22],[28,-11],[63,17],[23,-6],[-6,-74],[27,-59],[66,-66],[39,-21],[35,-35],[33,-75],[23,-35],[18,-10],[53,77],[28,26],[27,11],[24,-14],[16,21],[20,9],[27,28],[46,61],[64,95],[30,76],[5,185],[5,94],[1,68],[-3,74],[-13,63],[-10,18],[-39,22],[-47,59],[-29,82],[-20,83],[-36,122],[1,42],[11,25],[36,14],[22,39],[-8,53],[16,119],[10,35],[19,28],[64,38],[14,-10],[38,-1],[11,15],[0,38],[-13,37],[7,35],[15,-4],[19,52],[19,14],[17,-59],[37,-65],[46,-38],[101,-67],[74,-21],[81,47],[18,21],[-5,66],[-37,38],[-10,20],[17,26],[7,29],[37,54],[21,7],[14,-23],[10,12],[39,-5],[34,3],[32,27],[8,33],[15,122],[17,73],[0,41],[-28,5],[-13,28],[2,40],[28,47],[14,73],[37,61],[11,11],[35,11],[26,-10],[27,-26],[7,37],[-34,48],[13,46],[48,22],[11,20],[18,0],[41,-34],[12,-3],[22,32],[18,52],[30,68],[14,43],[13,61],[30,73],[39,51],[11,21],[5,58],[1,131],[-13,52],[-30,2],[-21,15],[-53,15],[-38,65],[15,40],[14,108],[-6,45],[-31,19],[-56,-24],[-35,22],[-19,36],[9,23],[6,53],[12,57],[13,20],[-9,45],[-30,28],[-11,31],[-4,47],[11,61],[43,77],[25,13],[53,11],[81,37],[59,36],[45,11],[28,14],[85,31],[23,16],[24,40],[29,91],[31,91],[24,54],[37,40],[85,-5],[68,-19],[55,-4],[7,-9],[32,-4],[17,-12],[17,7],[58,1],[28,23],[14,-2],[58,10],[30,10],[53,28],[42,-7],[11,-46],[12,-21],[25,-19],[36,-2],[28,25],[34,4],[102,26],[54,26],[63,35],[66,25],[77,57],[43,7],[27,-9],[41,-38],[25,-3],[16,15],[32,43],[20,50],[7,33],[28,91],[33,132],[20,60],[37,91],[46,99],[30,100],[24,130],[10,104],[25,89],[19,35],[26,15],[42,-7],[24,-11],[85,72],[29,33],[76,69],[18,-6],[14,22],[50,63],[10,29],[2,59],[-5,19],[-27,14],[-6,15],[22,81],[64,100],[58,68],[15,32],[15,72],[0,38],[27,106],[29,58],[12,14],[60,5],[51,58],[16,25],[10,43],[-3,40],[-22,51],[-7,86],[7,70],[10,27],[18,8],[25,-34],[77,-21],[29,9],[31,23],[34,11],[72,-11],[19,-10]],[[69255,56013],[14,-19],[28,-85],[45,-107],[31,-41],[25,-5],[69,7],[53,-10],[18,-21],[4,-41],[11,-40],[51,-115],[21,-65],[13,-71],[1,-96],[8,-117],[-1,-50],[6,-75],[30,-104],[5,-48],[-4,-47],[-17,-102],[-54,-188],[-8,-69],[3,-87],[13,-59],[24,-38],[77,-31],[14,-15],[10,-42],[2,-50],[-11,-87],[0,-23],[20,-61],[74,-132],[94,-115],[35,-29],[80,-59],[49,-29],[32,-45],[79,-75],[5,-11],[10,-77],[2,-54],[20,-70],[10,-106],[1,-64],[-8,-100],[-20,-81],[-30,-21],[-35,19],[-9,-5],[-1,-68],[-12,-40],[8,-41],[27,-56],[27,-19],[54,-19],[65,-55],[11,-15],[7,-42],[568,265],[342,160],[5,29],[25,41],[9,49],[39,44],[12,27],[26,14],[25,-8],[17,68],[40,-14],[26,38],[7,-22],[16,-12],[6,-33],[28,3],[9,17],[15,-10],[1,-24],[15,-13],[26,12],[50,-35],[40,-3],[38,-83],[37,-29],[24,-43]],[[71777,53040],[30,-32],[27,16],[51,1],[33,-6],[12,14],[14,-23],[23,-3],[11,-23],[9,-62],[9,-28],[10,-81],[0,-33],[-27,-84],[-17,-125],[-10,-35],[1,-66],[-6,-33],[-21,-23],[-9,-27],[-15,-15],[-10,-34],[-6,-97],[6,-23],[-10,-61],[-20,-43],[-42,-23],[26,-38],[9,-76],[11,-29],[-13,-50],[-14,-27],[-24,-20],[1,-34],[12,-17],[9,-42],[2,-40],[8,-25],[-7,-26],[-18,-11],[-3,-44],[-19,-36],[-6,-46],[-18,-16],[-10,-60],[-29,6],[-10,-71],[-1,-44],[22,-29],[-1,-32],[18,-20],[30,-14],[22,-39],[-20,-77],[-5,-52],[26,-22],[-4,-52],[8,-25],[-13,-52],[18,-14],[12,19],[26,13],[-2,36],[10,36],[52,8],[11,-43],[29,-26],[20,-32],[22,6],[8,-19],[31,-5],[26,-69],[-24,-105],[10,-21],[-4,-22],[4,-65],[15,-36],[-3,-22],[-15,-11],[-18,-49],[-13,-15],[0,-60],[13,-19],[1,-74],[-15,-61],[6,-26],[0,-62],[16,-61],[-8,-29],[-17,-5],[-10,-28],[7,-125],[-26,-124],[61,-18],[26,-36],[24,-8],[7,23],[33,35],[17,10],[23,-25],[19,18],[29,46],[18,-35],[26,-2],[9,-84],[29,-50],[24,6],[14,-47],[8,-60],[-10,-11],[-7,-44],[35,-68],[-21,-30],[-5,-36],[9,-24],[9,-91],[25,-52],[17,-52],[1,-30],[-10,-17],[17,-128],[28,-14],[1,-50],[-18,-63],[-22,-38],[28,-46],[0,-27],[13,-35],[-13,-39],[-32,-23],[-14,-30],[-19,2],[-25,-52],[-16,-3],[-1,-24],[-15,-27],[-51,-44],[-7,-48],[-26,-48],[-19,-21],[7,-19],[-24,-33],[-4,-26]],[[72189,48303],[-27,23],[-11,40],[-32,55],[-148,-102],[-173,-116],[-121,-65],[-42,-5],[-150,-123],[-116,-93],[-14,33],[-35,110],[-60,-31],[-39,-8],[-18,-52],[-2,-52],[-9,-66],[1,-33],[18,-93],[20,-119],[8,-92],[-3,-175],[-10,-16],[30,-81],[13,-10],[23,6],[40,-2],[13,10],[29,53],[43,42],[21,26],[19,6],[17,-15],[46,-19],[29,-29],[35,-101],[25,-61],[-3,-55],[-24,-67],[-21,-23],[-7,-40],[7,-14],[37,-22],[43,-11],[76,17],[64,47],[48,12],[36,-15],[12,-19],[10,-50],[25,-18],[24,17],[60,98],[12,10],[7,2],[90,-12],[2,76],[35,107],[5,35],[-1,57],[-17,75],[-46,91],[280,240]],[[72363,47686],[50,42],[298,-890],[-489,-420],[19,-67],[28,-127],[20,-127],[5,-107],[13,-100],[1,-46],[-7,-49],[10,-63],[30,-69],[16,-24],[21,-12],[63,12],[116,129],[46,39],[29,49],[131,183],[29,46],[46,51],[21,18],[95,29],[34,15],[89,53],[90,56],[37,17],[115,32],[29,-24],[28,-33],[54,-36],[18,-18],[34,-65],[13,-100],[14,-83],[-3,-18],[-77,-872],[99,-23],[11,-23],[-4,-23],[11,-36],[-9,-43],[5,-30],[36,-22],[16,-36],[-28,-55],[16,-42],[42,-30],[41,-9],[0,-30],[14,-24],[-7,-38],[16,-26],[22,-4],[-18,-51],[9,-51],[37,23],[21,-37],[18,9],[25,-13],[-11,-82],[8,-29],[-3,-26],[25,-50],[11,-3],[6,-31],[39,-13],[19,-32],[16,-6],[13,-30],[16,5],[17,-54],[32,-28],[41,17],[25,-32],[14,-53],[21,-19],[16,6],[28,-17],[2,-35],[-9,-8],[-2,-36],[7,-18],[28,-5],[20,-28]],[[72378,44971],[24,23],[37,112],[10,47],[36,67],[18,63],[-1,35],[-14,38],[-20,26],[-24,12],[-16,25],[-14,46],[-4,44],[-135,28],[-78,13],[-171,37],[-9,-127],[68,-13],[-20,-193],[-18,-198],[331,-85]],[[70290,46573],[234,-46],[41,504],[-234,53],[-44,-510],[3,-1]],[[69388,38285],[-66,-91],[-85,-242],[-116,-231],[157,-425],[14,-139],[39,6],[27,-5],[21,13],[41,46],[12,38],[27,28],[27,-12],[103,36],[70,33],[42,10],[129,46],[66,31],[58,31],[74,45],[29,26],[38,75],[14,149],[15,81],[29,-6],[7,53],[35,29],[14,26],[26,22],[0,20],[37,64],[55,201],[11,615],[1,243],[18,205],[3,382],[-19,539],[7,67],[22,86],[15,107],[-58,18],[-23,35],[-25,52],[-8,61],[-407,-1006],[-358,-882],[56,-128],[-18,-145],[-79,-101],[-77,-106]],[[69369,31625],[52,93],[73,171],[1,14],[42,-31],[42,179],[11,30],[-306,219],[-17,-220],[13,-3],[39,43],[30,-22],[-24,-85],[-49,36],[-11,-7],[-34,21],[-32,-41],[-306,104],[-16,-203],[30,-196],[5,-12],[457,-90]],[[79095,42787],[35,-59],[55,-29],[25,8],[27,-6],[59,-32],[43,74],[103,-24],[9,97],[31,5],[23,20],[13,79],[26,-7],[7,71],[-45,10],[4,42],[-34,9],[9,97],[12,1],[23,49],[-1,24],[50,20],[13,35],[22,-23],[28,-14],[18,31],[35,29],[17,-6],[10,18],[-9,85],[21,28],[-17,48],[18,39],[15,1],[19,21],[21,6],[38,-5],[20,-10],[43,26],[39,11],[20,36],[35,29],[16,27],[9,31],[36,41],[-19,36],[-9,45],[9,29],[60,4],[55,-34],[25,-4],[23,-22],[9,11],[62,0],[24,-38],[-1,-23],[28,-6],[5,-29],[15,3],[8,30],[6,49],[47,2],[4,31],[38,26],[6,69],[-4,25],[20,43],[-9,41],[10,61],[24,-6],[18,28],[-9,25],[25,19],[25,3],[23,53],[-10,24],[54,35],[5,50],[-7,62],[13,47],[12,-5],[13,23],[29,23],[3,35],[24,42],[43,28],[26,35],[12,-27],[17,8],[9,-21],[18,39],[-2,18],[-20,49],[-43,75],[-7,39],[-32,-14],[-22,31],[6,20],[40,30],[6,17],[-15,34],[-46,-4],[-23,55],[30,11],[37,-43],[14,5],[19,42],[37,18],[21,-29],[7,-37],[-5,-52],[22,-2],[57,22],[2,15],[-45,64],[-50,52],[17,27],[39,16],[17,-2],[16,-49],[40,9],[13,26],[-8,171],[-20,7],[-23,-40],[-8,-79],[-26,-11],[-22,29],[-21,85],[-3,39],[7,73],[19,15],[37,11],[20,52],[13,11],[18,-10],[2,-28],[-8,-65],[21,-42],[25,2],[17,28],[6,42],[-10,92],[-19,62],[-13,7],[-36,-38],[-35,5],[-41,42],[-12,39],[8,39],[23,25],[19,-4],[65,-46],[30,4],[17,28],[-2,29],[-18,27],[-36,14],[-36,28],[-25,41],[-11,51],[0,28],[14,52],[20,39],[34,48],[31,16],[27,-49],[29,-45],[54,-62],[40,-26],[32,27],[15,55],[7,96],[7,161],[10,85],[35,148],[357,437]],[[81571,46777],[438,638],[75,346],[103,358],[84,227],[314,580],[1678,3109],[3162,-15],[3189,-15],[6860,30]],[[97474,52035],[1059,-7838],[823,-6105],[643,-4744],[-2719,10],[-6375,-10],[-179,1],[-41,-75],[-22,-27],[-58,-45],[-64,-27],[-58,-20],[-25,6],[-27,45],[-65,144],[-20,21],[-29,8],[-95,-25],[-21,-63],[-24,-23],[-2,-44],[-19,-32],[21,-38],[28,-63],[-11,-24],[-37,-2],[-9,23],[-23,-20],[10,-33],[24,5],[18,-21],[-16,-24],[-16,18],[-30,-22],[20,-46],[-6,-58],[-17,-21],[-26,16],[19,-54],[-40,-23],[-18,-24],[-10,-57],[-10,-33],[-41,-72],[-5,-31],[13,-29],[0,-22],[-15,-21],[5,-54],[-26,-19],[-7,-35],[-12,-22],[-25,-14],[-7,-15],[111,-23],[12,7],[17,-14],[95,-20],[-24,-277],[-93,20],[-1,-5],[-111,25],[11,-63],[-24,-18],[0,-28],[24,-5],[26,-97],[9,-15],[-10,-113],[-32,28],[-11,-128],[28,-24],[70,17],[25,-21],[33,-10],[40,-24],[33,16],[43,-15],[23,4],[-6,-70],[-63,14],[-9,-99],[63,-14],[-27,-337],[-104,23],[1,7],[-138,30],[7,-35],[-10,-28],[3,-95],[-7,-19],[11,-64],[11,-97],[-11,-33],[-61,18],[-5,-34],[-42,-8],[-41,-35],[-41,-2],[-17,-12],[-26,8],[-31,-18],[-1,-34],[-12,-40],[-25,-58],[2,-17],[-17,-46],[3,-22],[-18,-47],[-3,-58],[15,-26],[18,-58],[-24,-19],[-14,4],[-22,-12],[-26,4],[-40,-29],[-33,-7],[-34,-20],[-16,2],[-19,33],[-16,-9],[-18,-49],[22,-52],[6,-54],[-19,-18],[-26,-47],[-11,-35],[-4,-51],[-17,-57],[-32,-37],[-38,-65],[-27,8],[-12,-23],[-29,-6],[-14,-34],[1,-54],[-21,-30],[-13,-6],[-46,6],[-14,-10],[-34,5],[-25,-58],[-26,-18],[-25,27],[1,35],[17,78],[-2,37],[-21,10],[-5,26],[-56,46],[-14,-12],[-34,77],[-88,35],[-23,95],[-43,48],[-17,81],[-24,51],[-19,22],[-50,25],[-35,32],[-295,64],[-44,-496],[-1,26],[-15,57],[-119,143],[-50,143],[-11,122],[-6,15],[-32,19],[-32,46],[-20,59],[-57,97],[-29,77],[-35,29],[-52,13],[-26,39],[-16,86],[-23,63],[-20,22],[-16,-6],[-28,-30],[-25,-69],[-24,-35],[-37,-25],[-54,3],[-24,-24],[-48,-79],[18,-28],[28,17],[13,-33],[1,-74],[-4,-21],[-24,-35],[-31,-30],[-48,-15],[-13,37],[-23,35],[-22,7],[-41,35],[-7,36],[-16,11],[-31,72],[-16,13],[-5,25],[-31,36],[-15,-9],[-22,25],[1,31],[-23,-6],[-37,48],[-28,7],[-19,20],[-16,-2],[-25,-24],[-80,-36],[-32,32],[-28,-52],[-14,-43],[-13,-19],[-31,-4],[-19,46],[-11,42],[-21,20],[-25,41],[-25,20],[-73,-32],[-11,24],[-16,0],[-30,28],[-27,16],[-14,-8],[-28,53],[-20,55],[-9,55],[-12,29],[-16,15],[-7,75],[-29,31],[-12,53],[13,31],[0,25],[18,18],[47,-19],[19,-28],[8,92],[38,10],[6,67],[19,17],[23,88],[25,34],[-26,66],[1,38],[16,82],[13,20],[0,33],[-13,21],[-2,37],[15,47],[1,45],[-42,47],[-12,-4],[3,57],[-17,39],[-48,58],[-15,33],[-16,13],[-30,-4],[-23,21],[-29,-26],[-14,34],[-55,62],[12,67],[22,33],[-7,65],[-26,47],[-36,25],[-16,-4],[-11,26],[-2,34],[11,17],[-15,34],[-18,22],[-31,17],[-16,50],[1,67],[-26,72],[15,49],[17,10],[-5,47],[-14,48],[-25,38],[-48,33],[-35,-19],[-20,11],[-31,-39],[14,-55],[-11,-72],[-11,-38],[4,-34],[-17,-49],[-3,-37],[-42,-82],[-12,-65],[-33,2],[-30,36],[-45,33],[-21,9],[-16,26],[-42,-7],[2,-40],[15,-65],[26,-53],[28,-28],[-43,-127],[-31,-76],[-21,-29],[-48,-29],[-70,10],[-40,-22],[2,-71],[-9,-74],[-17,-37],[7,-44],[-13,-33],[-27,2],[-11,-18],[-33,-9],[-24,32],[-32,2],[-35,54],[-15,34],[-26,-53],[-21,-16],[-22,5],[-16,44],[-14,14],[-15,-29],[-13,4],[-14,-22],[-5,-44],[-24,-43],[-16,-69],[-23,-25],[-5,-74],[-28,-26],[-11,-35],[-12,-5],[-49,-112],[0,-39],[-11,-6],[-17,-36],[-45,54],[-27,8],[-46,-9],[-33,18],[-41,-54],[-19,12],[-19,-34],[-12,1],[-17,-39],[8,-57],[-27,-18],[2,-42],[-10,-18],[5,-60],[-34,-24],[-39,8],[-29,104],[-15,36],[-17,2],[-50,33],[-27,5],[-17,-14],[-7,22],[-18,4],[-9,-31],[-12,-2],[-23,26],[-18,7],[-13,-21],[-10,-64],[-67,-35],[-16,-48],[-20,44],[-8,43],[-22,44],[-1,39],[-11,20],[-16,-12],[-5,-21],[-47,18],[-10,40],[-23,29],[-24,73],[0,56],[-47,5],[-18,27],[-15,39],[-23,0],[-11,-19],[-19,-8],[-19,6],[-13,-29],[-20,-3],[-4,-36],[-30,-16],[-28,-34],[-36,19],[-3,48],[-9,33],[4,24],[37,71],[18,16],[31,11],[26,45],[20,-12],[46,13],[60,-44],[34,-14],[19,11],[-92,579],[16,90],[-18,57],[24,52],[17,-1],[17,46],[2,20],[-12,39],[31,373],[-3,62],[14,27],[-3,42],[-22,-32],[-16,-6],[-26,12],[-21,-19],[-76,-24],[-27,21],[-29,-1],[-13,-34],[-8,-84],[-19,-15],[-52,0],[-4,-14],[-39,-11],[-11,9],[-38,-14],[-2,-14],[-42,-19],[-19,-38],[-17,-21],[-28,-12],[-26,4],[-38,45],[-9,31],[4,49],[-31,49],[2,41],[9,36],[-16,72],[6,46],[23,27],[-1,31],[-14,92],[14,36],[-3,36],[22,43],[5,63],[21,14],[1,78],[22,90],[36,30],[2,77],[-18,36],[-20,11],[-5,17],[-29,45],[-11,35],[-36,43],[-6,67],[-35,16],[-12,-12],[-31,18],[-46,47],[-18,-66],[-16,-10],[4,-36],[-10,-15],[-28,-15],[-42,-12],[-13,-21],[-34,17],[-12,-23],[-3,-41],[-11,-40],[-10,1],[-21,34],[-32,26],[-8,68],[1,38],[-51,56],[-11,58],[-2,55],[-30,62],[-8,32],[-14,-2],[-13,37],[-77,25],[-34,1],[-32,16],[-9,21],[-9,53],[-22,10],[-4,24],[-17,9],[-5,24],[-22,22],[-28,-19],[-13,77],[-7,24],[-20,1],[-9,39],[-14,4],[-33,58],[0,58],[-7,30],[5,23],[21,42],[-4,46],[-23,58],[-24,-24],[-17,42],[-18,13],[-28,-9],[-31,8],[-10,-28],[-23,-4],[-29,9],[-8,-22],[-31,-22],[-32,6],[-25,18],[-38,9],[-6,-28],[-28,-32],[-10,-98],[-50,-51],[-8,-21],[4,-41],[-6,-33],[15,-34],[3,-72],[-9,-157],[1,-99],[-40,-58],[-3,-83],[8,-45],[-11,-83],[-9,-15],[1,-47],[-6,-44],[-20,-27]],[[42660,66709],[69,1119],[219,-45],[41,404],[407,-53],[625,-89],[6,93],[67,1191],[15,196],[-508,55],[-181,28],[-124,6],[129,1120],[-458,62],[57,1309],[63,1439],[6,163],[66,1223],[310,-57],[145,194],[1564,-250],[-46,-721],[449,-1288],[392,-66],[297,-172],[27,421],[9,39],[15,375],[9,210],[12,224],[-23,28],[18,274],[1310,-217],[-74,-181],[31,-16],[11,-104],[805,-435],[72,-10],[557,-91],[16,8],[20,90],[-12,22],[-6,34],[9,69],[-3,20],[9,37],[-20,68],[8,53],[-18,125],[4,72],[12,34],[6,53],[10,20],[2,39],[15,27],[-3,37],[-13,21],[-15,52],[3,82],[51,94],[26,41],[17,40],[17,98],[-2,77],[21,44],[11,1],[27,57],[21,70],[16,36],[21,23],[21,9],[6,33],[25,31],[-12,62],[2,34],[-22,77],[2,45],[20,28],[7,36],[18,17],[11,53],[28,71],[19,26],[37,82],[20,27],[42,72],[21,27],[14,34],[1,28],[22,14],[16,38],[22,18]],[[49619,75493],[12,-74],[30,-46],[12,-66],[-3,-12],[18,-48],[42,-48],[8,-44],[11,-85],[16,-34],[44,-73],[3,-34],[24,-47],[20,-2],[31,18],[13,-3],[23,-50],[14,6],[27,-19],[39,22],[12,16],[45,19],[22,-29],[28,9],[26,-5],[28,-41],[18,13],[19,-8],[15,-30],[21,-18],[33,26],[56,-27],[9,8],[52,-39],[32,2],[28,11],[24,-2],[50,-46],[31,-4],[29,19],[18,21],[40,7],[52,-33],[34,-14],[40,-42],[51,-28],[42,-11],[22,-19],[36,2],[15,13],[47,-28],[39,-30],[76,-3],[34,-42],[50,-40],[42,3],[12,-17],[42,-18],[8,-10],[33,-6],[79,-45],[38,-60],[63,-32],[14,-34],[45,-38],[37,-67],[68,-79],[14,-51],[25,-67],[6,-35],[33,-57],[-3,-70],[23,-82],[12,-112],[11,-60],[41,-111],[-14,-38],[14,-16],[-1,-52],[-12,-19],[29,-66],[35,-109],[12,-22],[-2,-35],[19,-30],[63,-67],[4,-16],[41,-35],[11,-19],[-2,-41],[14,-67],[29,-60],[43,-45],[28,6],[25,-6],[10,29],[16,-19],[58,31],[8,22],[45,29],[40,81],[24,35],[44,8],[44,-2],[35,14],[30,27],[18,6],[23,-14],[58,-10],[44,-24],[69,28],[31,-7],[22,4],[41,31],[8,22],[22,10],[4,31],[15,4],[15,-38],[24,-13],[27,-38],[14,3],[-2,-41],[6,-16],[31,-16],[45,20],[6,-13],[22,28],[11,4],[16,-42],[12,-12],[15,31],[20,-12],[17,9],[36,-51],[13,-51],[16,-3],[23,-35],[4,-29],[22,-56],[24,-38],[24,29],[24,-23],[23,-6],[35,9],[30,-15],[26,-45],[14,-6],[19,19],[6,-57],[12,-10],[4,-28],[19,34],[18,-22],[21,-6],[8,35],[20,-3],[17,-19],[24,-57],[19,15],[10,35],[14,0],[20,-19],[24,-1],[31,22],[18,-22],[15,16],[24,-10],[74,-51],[31,15],[18,32],[41,19],[10,-5],[62,11],[23,68],[30,19],[39,9],[31,-16],[18,6],[45,35],[29,0],[18,26],[15,44],[38,73],[17,19],[28,-19],[23,12],[13,63],[35,87],[30,8],[38,-29],[34,7],[44,45],[27,-2],[51,-33],[19,19],[5,27],[-1,52],[12,48],[29,23],[55,-1],[72,-39],[40,-2],[72,31],[40,-5],[39,21],[38,59],[12,33],[24,44],[22,22],[32,46],[42,81],[14,44],[5,82],[-4,78],[4,42],[13,45],[20,31],[26,27],[33,-3],[44,-41],[16,-5],[23,11],[24,40],[11,41],[2,39],[-18,66],[0,70],[17,72],[21,27],[26,15],[21,30],[20,75],[3,56],[-2,84],[5,104],[22,88],[4,30],[-1,131],[-23,151],[-3,44],[-10,51],[14,42],[25,17],[22,30],[-7,63],[32,115],[14,33],[33,33],[53,18],[63,34],[36,47],[15,4],[27,-27],[20,-9],[25,43],[62,70],[15,36],[17,101],[45,24],[25,35],[13,48],[8,96],[14,48],[26,29],[32,84],[8,43],[-22,62],[4,27],[50,-22],[25,0],[30,30],[32,82],[49,29],[-13,55],[-27,37],[-10,90],[-33,84],[-1,28],[11,19],[20,-3],[13,34],[-3,22],[28,25],[25,37],[1,120],[47,55],[49,36],[10,46],[16,28],[48,56],[13,42],[27,52],[13,75],[1,38],[9,23],[52,5],[11,-26],[34,-8],[28,35],[31,16],[13,32],[-12,42],[5,32],[18,26],[17,72],[25,8],[8,23],[-17,39],[-3,33],[13,31],[24,16],[21,29],[23,15],[26,-7],[21,11],[15,-8],[15,19],[16,53],[-6,35],[-40,35],[-3,32],[23,54],[22,64],[1,19],[-16,27],[-23,18],[-21,66],[-29,10],[-16,-15],[-21,-1],[-14,28],[-10,73],[28,80],[0,114],[7,84],[-2,72],[-25,43],[-4,57],[-10,26],[-29,-2],[-11,11],[19,132],[-15,66],[-26,22],[-12,-1],[-22,-32],[-26,-5],[-83,23],[-9,11],[-14,47],[10,37],[60,51],[9,15],[-3,40],[-46,127],[-3,32],[8,35],[-21,20],[-45,-55],[-27,-18],[-40,-18],[-10,8],[-1,57],[34,121],[-7,25],[-21,24],[365,-70],[-5,-43],[9,-25],[39,-10],[-7,-16],[-35,-114],[6,-19],[-11,-38],[-13,-14],[0,-25],[50,-28],[30,-54],[-18,-83],[48,-75],[38,4],[26,99],[28,0],[23,-36],[52,-19],[11,-30],[7,-66],[-7,-68],[-16,-81],[-8,-58],[-2,-47],[8,-71],[14,-13],[51,29],[40,32],[32,35],[24,3],[26,-18],[15,-39],[15,-110],[7,-29],[19,-13],[17,8],[40,40],[15,33],[32,-26],[38,-64],[15,-49],[45,-42],[364,-171],[18,-16],[96,51],[83,-39],[80,-13],[65,17],[117,132],[37,7],[38,26],[53,47],[86,58],[235,356],[127,21],[32,118],[69,86],[31,53],[24,115],[19,69],[-5,113],[-43,54],[-21,103],[-113,209],[-56,70],[-18,62],[-25,149],[-85,242],[-18,110],[-55,77],[-28,13],[-17,69],[15,39],[-41,148],[-24,27],[-12,34],[-18,209],[-22,-6],[-25,120],[10,6],[9,66],[-27,45],[-7,49],[23,60],[17,-2],[23,29],[3,50],[23,54],[0,35],[-31,8],[18,33],[26,131],[-17,95],[-24,5],[15,64],[-30,115],[-54,45],[-16,42],[1,48],[-30,252],[20,38],[133,9],[97,-187],[57,-233],[157,-149],[40,46],[153,53],[8,111],[83,157],[44,4],[54,22],[73,73],[74,36],[5,-22],[5,-85],[394,499],[338,428]],[[60164,82940],[24,-70],[2,-42],[20,-24],[0,-32],[39,-135],[-3,-53],[-10,-54],[-4,-48],[-8,-46],[-27,-21],[-30,-62],[-3,-67],[-16,-20],[8,-29],[61,-10],[52,-77],[6,-72],[-46,-39],[-4,-15],[16,-28],[15,-86],[39,-72],[35,-43],[27,-19],[22,-34],[14,-37],[3,-31],[35,-22],[29,-46],[23,-135],[54,-137],[39,-23],[30,49],[15,13],[41,-70],[59,-85],[-18,-34],[3,-74],[21,-8],[37,-38],[-3,-37],[23,-74],[11,-100],[14,-23],[-12,-46],[2,-59],[58,-56],[22,-129],[-1,-29],[20,-45],[13,-2],[20,-24],[12,-26],[24,1],[7,-20],[-5,-71],[-25,-5],[-14,-15],[-21,-49],[-144,-168],[-19,-121],[-63,-80],[39,-66],[49,-25],[4,-24],[29,-28],[18,-8],[19,-62],[-9,-68],[9,-13],[-20,-167],[-5,-61],[-38,-325],[12,-16],[19,-110],[58,-33],[102,-210],[78,-141],[38,-15],[34,-85],[76,52],[22,-20],[4,-31],[11,-12],[29,38],[28,-28],[16,-2],[38,-46],[8,-22],[-6,-32],[27,-63],[26,-19],[6,-17],[22,20],[-3,-46],[11,-17],[8,-36],[-4,-35],[16,-17],[45,30],[4,29],[17,28],[105,-79],[12,-22],[-8,-16],[16,-47],[52,2],[23,-41],[13,6],[17,-48],[-2,-36],[22,-54],[19,2],[9,25],[15,9],[4,26],[45,21],[4,29],[-9,35],[18,7],[16,42],[17,-11],[34,14],[4,27],[22,26],[21,11],[23,-5],[29,28],[27,45],[32,15],[13,-34],[3,-34],[40,-60],[19,-42],[25,-1],[22,-29],[31,-55],[29,5],[9,-22],[44,-62],[11,-57],[16,-14],[31,-5],[4,-35],[21,-58],[40,1],[10,-11],[-3,-53],[41,-82],[8,-34],[1,-52],[10,-23],[30,-14],[59,-50],[13,-55],[-7,-34],[7,-40],[15,-21],[13,-52],[31,-30],[0,-51],[-9,-39],[8,-22],[6,-46],[12,-27],[12,-52],[21,-22],[52,-24],[71,0],[49,-14],[21,9],[38,-17],[50,-4],[28,10],[23,55],[24,6],[19,31],[93,11],[23,-24],[24,-152],[14,-23],[30,30],[60,16],[24,60],[39,76],[46,-81],[49,65],[34,19],[45,-26],[40,-31],[38,38],[45,6],[40,-76],[41,-33],[27,-38],[56,60],[-20,60],[-9,126],[84,210],[84,-52],[36,-37],[24,-2],[7,-28],[35,-36],[-2,-24],[10,-40],[14,-11],[-7,-41],[23,-16],[2,-26],[55,-23],[0,-65],[13,-52],[21,-30],[4,-30],[20,-36],[51,-56],[6,-18],[40,-7],[14,-16],[8,-36],[19,1],[16,-25],[22,10],[31,-6],[20,7],[18,25],[50,53],[16,2],[15,28],[29,-25],[18,12],[9,-17],[6,-56],[6,-7],[398,-78],[479,-92],[11,79],[9,47],[24,32],[-11,70],[8,25],[-2,28],[15,40],[23,5],[17,36],[21,5],[45,25],[45,-14],[26,-33],[15,-46],[26,-44],[7,21],[18,8],[34,41],[19,3],[17,-14],[20,-38],[43,55],[31,0],[29,18],[21,39],[16,73],[25,14],[0,37],[22,7],[33,-4],[32,35],[2,18],[31,-9],[9,-26],[60,28],[9,-5],[35,14],[38,-4],[26,11],[23,33],[51,14],[16,37],[15,14],[12,30],[10,-7],[38,0],[20,15],[17,-5],[12,-35],[7,-50],[23,-24],[35,-11],[9,-17],[-1,-50],[12,-32],[35,-30],[6,-40],[20,-61],[25,-10],[44,-52],[21,-59],[32,-18],[19,3],[31,-11],[1,-22],[-19,-58],[-20,16],[-3,-32],[28,-57],[-4,-18],[13,-52],[2,-34],[10,-27],[9,-53],[25,-18],[10,5],[26,-51],[-29,-86],[-2,-47],[11,-39],[18,-42],[45,-76],[16,-68],[-4,-78],[-20,-83],[-6,-49],[-2,-92],[-7,-103],[-20,-105],[-6,-43],[2,-39],[9,-29],[-7,-38],[-20,-66],[-43,-83],[-22,-5],[-8,-17],[0,-44],[-11,-19],[-86,-76],[-15,-88],[5,-31],[-5,-90],[-21,-43],[5,-55],[-3,-48],[-36,-25],[-35,-48],[46,-99],[22,0],[13,-11],[-4,-33],[-54,-131],[-7,-82],[1,-53],[-4,-24],[16,-13],[11,-51],[14,-40],[-22,-57],[1,-41],[-7,-32],[25,-124],[-27,-38],[-15,-44],[-9,-75],[19,-27],[-2,-65],[-10,-47],[-24,-48],[-16,-75],[-38,-72],[-27,15],[-8,38],[-42,25],[-10,16],[-16,68],[-63,-31],[-26,-26],[-20,-37],[-17,-58],[-1,-31],[12,-22],[14,-71],[34,-56],[4,-16],[5,-118],[-35,-72],[-50,-74],[-20,4],[-24,-27],[-11,-56],[-23,-42],[-1,-67],[7,-34],[-9,-88],[14,-119],[-3,-53],[-21,-29],[-4,-28],[2,-54],[-20,-71],[74,-90],[32,-26],[46,-133],[109,-67],[15,-55],[-7,-98],[66,-253],[69,68],[16,19],[36,18],[11,-35],[54,38],[-4,100],[13,54],[16,30],[7,35],[-6,51],[13,134],[12,20],[32,-16],[18,4],[32,-37],[18,4],[49,-20],[27,-33],[40,13],[50,-26],[25,-49],[36,17],[31,-25],[53,-7],[38,-10],[29,36],[27,14],[13,-23],[23,4],[18,-19],[8,-28],[-2,-27],[28,-66],[36,-14],[31,7],[11,-32],[38,-24],[20,1],[15,-37],[22,-17],[9,-40],[21,-42],[17,-5],[29,-24],[33,1],[5,59],[7,10],[21,-31],[22,-6],[24,138],[22,32],[23,-5],[23,-77],[22,11],[43,38],[0,34],[14,10],[22,-11],[-3,52],[48,83],[6,25],[23,-1],[35,86],[42,-92],[-16,-48],[25,0],[28,17],[4,50],[23,25],[27,7],[46,-31],[26,22],[23,-18],[27,15],[25,-13],[61,36],[-3,18],[10,39],[23,30],[7,50],[20,-8],[29,22],[23,30],[23,75],[23,31],[-4,66],[4,41],[14,41],[1,62],[11,38],[49,-2],[36,20],[36,-2],[26,18],[8,23],[16,5],[22,-39],[30,0],[9,18],[39,32],[23,-10],[45,36],[27,35],[13,81],[17,49],[32,-1],[7,-46],[21,-29],[94,136],[-40,73],[20,37],[73,288],[37,-77],[27,27],[18,43],[25,-8],[11,10],[24,-16],[31,19],[8,64],[19,23],[26,90],[-21,41],[8,27],[0,60],[-28,38],[443,-90],[161,-29],[617,-129],[368,-76],[4,2530],[638,0],[687,2],[1,1666],[1,1342],[2714,-17],[13907,59],[6509,114]],[[95440,78713],[-109,-210],[-100,-176],[-106,-210],[-31,-101],[-49,-21],[-26,-50],[-45,-172],[-48,-149],[-4,-119],[-14,-171],[8,-157],[11,-289],[-12,-65],[7,-107],[7,-191],[-10,-192],[-12,-161],[-5,-269],[-37,-246],[-20,-213],[-14,-133],[-40,-101],[-56,-46],[22,-223],[-10,-180],[6,-211],[-55,-174],[-48,-105],[30,-1109],[15,-409],[59,-282],[66,-248],[81,-181],[40,-138],[55,-163],[49,-180],[67,-149],[56,-40],[96,-246],[50,-149],[49,-90],[32,-123],[35,-68],[23,-89],[11,-187],[-11,-95],[26,-186],[35,-124],[47,-224],[60,-267]],[[95621,69524],[-6016,-65],[-6981,-16],[-796,2],[-1990,9],[-3648,31],[-139,2],[-1534,18],[-1951,28],[3,-1141],[7,-2842],[4,-2131],[2,-588],[-5,-148],[-100,-362],[-266,-435],[-89,-102],[-106,-97],[-24,-27],[-87,-131],[-71,-121],[-50,-78],[-39,-47],[-27,-25],[-74,7],[-60,-21],[-37,-79],[-15,-96],[-5,-87],[-10,-61],[-26,-53],[-69,-80],[-26,-53],[-53,-132],[-21,-35],[17,-43],[21,-17],[17,-42],[17,-113],[-7,-77],[-1,-46],[12,-94],[22,-74],[-8,-19],[-20,-8],[-40,42],[-16,30],[-21,-21],[1,-103],[-16,-42],[5,-35],[-5,-25],[-128,4],[-8,54],[-15,3],[-48,-39],[-26,4],[-30,28],[-22,7],[-46,-21],[-17,2],[-54,39],[-29,-4],[-45,-17],[-22,-15],[-26,-42],[-24,-60],[-56,-8],[-21,-39],[-28,-25],[-46,-70],[-16,-32],[-59,-23],[-27,-16],[-26,-27],[-15,-45],[-14,-9],[-24,25],[-9,42],[-10,14],[-31,8],[-13,-11],[-48,-6],[-30,-9],[-15,-15],[-15,-30],[-20,28],[-55,48],[-21,36],[-34,134],[-26,32],[-44,66],[-40,6],[-38,-485],[-50,48],[-9,-30],[-35,-7],[-6,-37],[-14,-13],[-16,-43],[-38,-70],[-24,-24],[-35,20],[-20,-16],[-27,-46],[-36,30],[-23,-4],[-36,75],[-39,45],[-13,69],[6,51],[-11,16],[-9,72],[-37,14],[-3,50],[-16,26],[-28,17],[-40,-26],[-3,-108],[-17,-44],[-10,-70],[17,-17],[10,-29],[-16,-31],[-14,-54],[-26,-22],[-3,-32],[-19,-71],[-11,-114],[10,-34],[59,-164],[-2,-32],[37,-91],[5,-44],[17,-9],[26,7],[61,64],[14,-39],[-4,-65],[13,-16],[16,-71],[96,-18],[74,-50],[16,-28],[2,-170],[-8,-67],[30,-141],[109,-162],[-24,-90],[-15,-82],[-11,-93],[-16,-79],[-36,-41],[-56,-15],[-15,-30],[1,-67],[10,-67],[16,-157],[4,-75],[-6,-114],[14,-23],[35,-20],[-20,-60],[-5,-62],[11,-41],[1,-93],[-99,-247],[0,-12],[-72,-150],[-118,3],[-240,-272],[-3,-8]],[[95621,69524],[462,-1372],[12,-108],[-13,-94],[47,-486],[14,-81],[66,-489],[14,-348],[69,-282],[34,-47],[14,-74],[1,-75],[-20,-390],[2,-81],[14,-197],[-30,-157],[7,-86],[18,-303],[10,-64],[-8,-101],[-35,-98],[-33,-147],[-40,-77],[-24,-64],[-45,-81],[-38,-44],[-2,-161],[-9,-201],[7,-78],[-25,-134],[-11,-223],[-21,-37],[-63,-141],[-18,-87],[1171,-8680],[326,-2401]],[[81571,46777],[-374,58],[-79,14],[-83,49],[-298,259],[-96,123],[-33,34],[-45,8],[-72,-16],[-39,5],[-81,36],[-107,84],[-163,88],[-27,-2],[-20,-18],[-44,-90],[-26,-37],[-67,-51],[-22,8],[-93,76],[-34,20],[-36,6],[-33,-14],[-81,-79],[-37,-45],[-72,-99],[-42,-42],[-22,-8],[-37,3],[-48,28],[-7,44],[17,66],[32,47],[79,39],[55,43],[21,21],[11,27],[3,32],[-11,44],[-43,32],[-48,14],[-98,16],[-17,16],[-31,64],[-26,72],[-10,60],[2,97],[-3,46],[-8,39],[-25,51],[-27,35],[-18,12],[-62,22],[-34,36],[-22,44],[-39,111],[-7,70],[-11,54],[-11,29],[-104,165],[-19,37],[-53,140],[73,87],[-21,44],[14,147],[50,59],[12,24],[-1,82],[-22,81],[-20,42],[0,49],[21,32],[-5,30],[8,36],[-8,50],[2,28],[38,1],[42,-26],[12,-33],[32,-15],[25,-48],[50,46],[7,26],[25,44],[-4,41],[-57,189],[2,24],[27,21],[4,38],[-23,7],[-20,55],[-23,20],[-41,91],[-34,66],[-9,43],[10,28],[38,49],[-1,36],[-51,47],[-15,54],[-25,45],[14,178],[-88,19],[11,127],[-68,14],[-11,-139],[-58,12],[-14,-162],[-87,19],[-5,-53],[-69,14],[-8,-97],[-59,-43],[-22,27],[-1,58],[-19,40],[-26,21],[-7,-15],[-38,-21],[1,-25],[-32,-14],[-15,23],[-12,-7],[-2,-40],[-14,-19],[-2,-26],[-12,-47],[-23,14],[-42,-31],[-14,15],[-22,-24],[-30,-52],[-10,-5],[-8,-44],[-12,-7],[-51,13],[-24,-10],[-12,19],[-33,-27],[-10,-45],[27,0],[25,-76],[24,-21],[15,-38],[-58,-70],[-33,-86],[-48,-90],[-26,-68],[-33,-31],[-33,9],[-25,38],[-6,42],[10,69],[27,108],[0,63],[-12,69],[-25,77],[-81,188],[-26,112],[-13,94],[-23,209],[-16,67],[0,74],[-6,25],[-43,71],[-25,-7],[-25,12],[-47,51],[-26,17],[-64,-27],[-45,-40],[-55,-71],[-34,-61],[-21,-49],[-12,-56],[-16,-44],[-28,-25],[-47,-3],[-22,9],[-45,39],[-16,63],[-27,74],[-51,56],[-20,36],[-3,76],[10,33],[14,18],[45,18],[33,34],[18,24],[93,153],[32,100],[29,59],[49,52],[51,36],[36,33],[47,69],[21,51],[1,21],[-20,51],[-34,33],[-46,5],[-16,9],[-16,24],[-13,41],[-7,99],[12,63],[9,12],[35,19],[16,20],[8,30],[1,69],[-37,84],[-26,94],[-29,10],[-59,-32],[-22,-2],[-34,-27],[-76,48],[-41,4],[-38,-2],[-38,5],[-92,26],[-91,7],[-152,47],[-61,22],[-22,13],[-85,66],[-40,38],[-59,65],[-59,58],[-60,62],[-36,29],[-37,12],[-186,33],[-56,3],[-33,-26],[-39,-85],[-77,-139],[-15,-34],[-36,-47],[-93,-100],[-64,-65],[-42,-19],[-31,15],[-38,36],[-60,63],[-39,51],[-16,34],[-35,104],[-8,36],[0,60],[9,66],[18,95],[-5,72],[-33,49],[-28,25],[-58,39],[-42,8],[-21,17],[-16,-3],[-53,-41],[-27,-14],[-44,9],[-142,60],[-59,10],[-26,21],[-16,27],[-6,47],[14,89],[76,285],[11,82],[-3,24],[-24,54],[-41,64],[-51,47],[-58,-31],[-54,-18],[-20,-14],[-77,-40],[-29,-21],[-22,-43],[-11,-109],[-11,-70],[-24,-113],[-4,-51],[-16,-37],[-28,-19],[-51,-11],[-29,-29],[-21,-49],[-19,-28],[-31,-32],[-21,-4],[-23,8],[-35,43],[-25,20],[-30,12],[-145,31],[-85,66],[-55,72],[-19,65],[-37,28],[-28,-36],[-15,-9],[-6,40],[-36,36],[-30,42],[-1,20],[15,74],[-1,37],[41,57],[7,26],[0,48],[-28,65],[-17,114],[1,18],[36,57],[10,38],[-8,44],[-60,68],[-28,13],[-41,-5],[-37,-16],[-20,14],[-23,49],[-24,83],[-14,28],[-16,5],[-35,-10],[-28,3],[-41,38],[-32,57],[-43,18],[-11,-21],[-71,-74],[-12,4],[-11,30],[-22,28],[-32,0],[-50,42],[-14,-10],[-6,-74],[-14,-27],[-39,-55],[-46,5],[-11,15],[-7,33],[17,39],[-11,31],[-16,-3],[-27,15],[-6,45],[7,33],[-7,19],[-24,12],[-30,0],[-9,-17],[-46,-35],[6,-16],[-9,-26],[-19,0],[-12,-41],[-39,-25],[-9,20],[-17,-15],[2,-20],[-18,-12],[-15,-40],[-11,2],[-12,-31],[-19,-3],[-13,-50],[-12,-22],[-40,-15],[-20,-25],[-19,-51],[0,-27],[-39,-20],[-12,-19],[-21,9],[-6,-24],[-22,12],[-22,-12],[-25,11],[-9,-24],[-25,-2],[-27,-40],[-18,20],[-17,-2],[-27,19],[-22,-21],[-10,-32],[-37,-47],[-43,0],[-18,-25],[-18,-50],[-28,-18],[-13,-34],[-2,-35],[-13,-30],[0,-48],[11,-10],[-2,-75],[11,-8],[-3,-35],[28,-27],[12,-29],[-54,10],[-15,-53],[-44,-18],[-45,-52],[-26,1],[-21,-40],[-89,-80],[-25,-46],[1,-33],[-7,-31],[-1,-67],[-13,-20],[-6,-55]],[[31937,31509],[-24,-20],[-243,-167],[-140,-3014],[-53,-1206],[-1161,-1530],[-162,657],[-494,-1393],[-141,260],[-1030,-1343],[-220,-633]],[[17532,44595],[72,752],[-622,159],[156,1763],[75,82],[76,-69],[18,205],[-112,18],[68,1073],[60,936],[437,-58],[-13,53],[-34,45],[-10,83],[29,41],[36,112],[8,33],[2,52],[9,34],[50,43],[11,23],[42,61],[188,-343],[983,1320],[-393,780],[-325,633],[60,488],[24,436],[107,686],[23,429],[811,-112],[679,941],[103,140],[263,333],[34,72],[43,689],[9,121],[28,446],[71,111],[20,-39],[252,502],[18,42],[-51,329],[56,103],[8,5],[772,-76],[22,807],[147,-4],[487,-16],[101,162],[47,23],[605,807],[458,587],[-115,212],[-25,49]],[[60164,82940],[2,48],[-73,178],[-14,-3],[-29,66],[-14,3],[-10,26],[-7,82],[-41,23],[-27,68],[-32,24],[-28,61],[-12,103],[-11,9],[-55,-44],[-29,27],[-25,81],[-6,51],[-37,24],[-33,110],[-24,34],[-8,40],[-31,51],[-12,10],[-21,-14],[-27,79],[-18,99],[55,71],[-23,48],[16,9],[37,45],[4,35],[-17,24],[-9,61],[10,46],[42,34],[11,26],[6,46],[0,81],[-10,88],[0,49],[6,27],[27,69],[-9,51],[-24,49],[1,29],[13,52],[-6,33],[481,-97],[616,-125],[-14,-186],[477,-94],[587,748],[177,225],[-14,26],[-19,14],[-9,-29],[-31,7],[4,481],[73,92],[41,-6],[6,7],[36,-29],[10,-24],[18,5],[20,-8],[56,4],[80,1057],[46,-9],[240,-435],[30,38],[52,34],[65,99],[61,39],[25,43],[18,7],[16,28],[25,17],[15,27],[0,46],[43,33],[-44,114],[-47,98],[-11,29],[-21,79],[-3,32],[3,89],[-11,69],[1,19],[17,75],[27,5],[19,-8],[20,-23],[-8,-43],[14,-21],[29,-2],[37,-83],[22,-28],[30,-24],[39,-43],[36,-12],[16,13],[26,73],[20,-6],[21,26],[-4,49],[12,97],[40,118],[3,77],[8,20],[51,41],[53,35],[56,65],[47,72],[23,23],[25,8],[30,-13],[51,-56],[23,-36],[67,-71],[41,-87],[27,-37],[23,-15],[63,-10],[106,-36],[78,-24],[48,-11],[148,-25],[152,-15],[80,-21],[73,-4],[63,-11],[59,-17],[77,-37],[88,-47],[148,-91],[79,-56],[214,-208],[39,-31],[39,-23],[49,-15],[64,0],[66,6],[888,227],[0,1069],[0,1469],[0,775],[349,-1],[916,-1],[2719,2],[1453,-13],[2970,-17],[5068,-3]],[[79807,90733],[265,-583],[312,-728],[288,-545],[169,-377],[239,-440],[298,-323],[306,-286],[277,-209],[352,-399],[224,-238],[450,-309],[368,-265],[416,-296],[347,-357],[415,-415],[279,-364],[331,-412],[309,-468],[332,-270],[402,-276],[285,-285],[312,-444],[246,-364],[307,-215],[375,-304],[363,-198],[313,-315],[312,-590],[185,-397],[153,-505],[329,-355],[435,-130],[401,-40],[371,69],[422,288],[197,379],[-35,467],[-179,548],[-167,448],[-173,549],[-81,410],[-10,743],[26,561],[99,357],[153,103],[129,41],[213,-349],[243,-344],[285,-444],[418,-350],[320,-143],[264,-141],[342,-146],[385,-158],[406,-61],[409,-79],[372,-66],[370,-99],[341,-242],[109,-288],[86,-308],[103,-450],[13,-462],[-59,-503],[-59,-379],[-75,-269]],[[72363,47686],[-4,18],[12,50],[-16,38],[2,58],[-3,52],[-12,28],[-1,30],[-23,35],[-26,1],[-32,18],[-30,104],[-31,56],[-34,25],[-6,39],[30,65]],[[49619,75493],[27,45],[10,37],[3,55],[12,27],[10,49],[-2,55],[-9,40],[-5,80],[-38,68],[-25,0],[-27,21],[-16,92],[-4,46],[-38,42],[-35,65],[-17,59],[-19,23],[-19,62],[-16,76],[3,17],[-23,94],[5,123],[-3,23],[53,128],[-8,20],[-19,13],[10,39],[2,33],[19,49],[37,20],[19,26],[44,22],[16,25],[21,11],[37,60],[9,70],[28,61],[10,39],[3,45],[24,42],[9,46],[22,41],[27,4],[27,37],[32,11],[21,28],[24,59],[36,48],[36,70],[27,32],[31,10],[48,25],[22,22],[17,34],[15,44],[11,67],[11,155],[-4,54],[-26,103],[-21,66],[8,70],[-1,75],[-10,35],[-18,38],[-58,101],[-19,11],[-78,-7],[-44,12],[-15,21],[-29,65],[-21,23],[-71,51],[-64,36],[-62,0],[-21,4],[-45,29],[-42,57],[-51,101],[-43,94],[-55,135],[-8,37],[0,42],[16,65],[39,52],[75,88],[3,42],[-68,121],[-12,49],[0,58],[-5,40],[-57,129],[-17,53],[-7,61],[2,133],[-3,67],[-17,55],[-51,94],[-32,74],[-3,25],[27,89],[6,84],[15,54],[-4,48],[10,49],[-15,70],[7,40],[28,22],[25,53],[4,27],[-5,45],[14,85],[2,68],[-4,25],[-16,39],[-6,33],[0,89],[4,45],[12,45],[16,38],[42,61],[51,102],[15,20],[39,85],[7,42],[4,72],[-35,64],[-11,30],[-12,57],[-3,72],[4,48],[-25,118],[-33,120],[-19,77],[-7,78],[0,42],[-19,110],[-20,66],[-37,98],[-24,104],[1,71],[5,28],[24,54],[47,82],[3,44],[-10,55],[23,71],[7,55],[-18,56],[-58,149],[-2,47],[39,107],[10,73],[4,103],[-11,56],[-25,91],[-2,83],[-12,54],[-25,81],[-13,95],[4,37],[31,108],[27,71],[16,27],[20,5],[15,-11],[19,-42],[24,-25],[39,7],[28,35],[19,35],[48,67],[24,11],[80,3],[26,11],[43,39],[16,31],[14,51],[15,84],[6,138],[6,44],[27,57],[56,31],[49,13],[44,3],[39,27],[128,142],[16,48],[2,126],[20,109],[6,96],[-8,168],[-18,93],[-12,95],[4,59],[13,62],[15,54],[14,14],[50,8],[24,11],[38,34],[17,25],[22,62],[3,34],[-1,56],[-19,67],[-31,59],[-17,45],[-3,23],[-30,133],[-9,75],[4,79],[7,23],[20,31],[27,23],[65,37],[117,84],[55,35],[22,10],[36,-7],[30,-22],[8,-19],[10,-100],[16,-57],[14,-26],[37,-49],[44,-42],[51,-23],[44,8],[30,45],[14,12],[34,7],[33,-19],[32,-71],[16,-57],[5,-34],[35,-139],[19,-33],[39,-27],[47,15],[50,70],[36,70],[32,43],[36,30],[48,13],[47,-6],[52,-20],[71,-46],[69,-76],[9,-25],[46,-48],[24,-8],[35,9],[27,35],[16,38],[13,47],[8,47],[4,62],[17,61],[34,90],[17,31],[29,27],[10,20],[4,61],[-2,72],[4,35],[19,41],[23,18],[16,-24],[40,30],[22,37],[19,74],[23,29],[36,16],[27,22],[20,25],[14,31],[14,77],[12,35],[19,20],[21,0],[23,-17],[44,-68],[53,-36],[28,-9],[26,4],[25,36],[54,123],[26,45],[27,37],[49,99],[23,26],[60,10],[33,36],[7,31],[3,116],[26,106],[12,125],[1,38],[29,93],[22,40],[64,95],[14,59],[3,49],[-4,42],[-73,237],[-9,52],[0,50],[9,59],[22,165],[11,65],[16,61],[21,45],[25,36],[39,44],[90,68],[52,26],[36,11],[34,23],[29,31],[18,30],[11,38],[21,120],[21,176],[0,52],[-4,42],[-31,65],[-33,44],[-60,54],[-30,53],[-32,42],[-24,51],[-29,81],[-22,73],[-15,60],[-16,84],[-36,228],[-30,117],[-13,45],[-13,102],[1,53],[8,73],[36,137],[29,128],[18,164],[6,106],[0,62],[-8,251],[-5,222],[-3,85],[-13,140],[-13,76],[-17,79],[-16,108],[-10,140],[-23,134],[-13,94],[-18,93],[-15,51],[-51,145],[-52,142],[-34,125],[-5,63],[9,90],[45,237],[28,119],[66,187],[13,58],[3,32],[-6,59],[-69,258],[-19,54],[-33,72],[-43,118],[44,33],[59,80],[73,41],[40,35],[14,3],[12,-23],[-9,-34],[-26,-59],[1,-74],[24,-64],[24,-28],[55,-49],[19,-40],[21,-93],[17,-48],[13,-19],[55,-38],[77,-26],[56,-43],[23,-9],[45,13],[38,22],[34,-5],[39,-23],[96,-82],[56,-21],[20,-14],[14,-22],[9,-34],[-1,-50],[-14,-61],[-30,-81],[44,-13],[602,-107],[25,384],[77,1195],[-8,1],[44,675],[6,28],[13,0],[7,97],[-18,4],[47,721],[147,-28],[4,62],[-3,26],[8,126],[-32,7],[2,26],[15,20],[-6,47],[11,18],[47,35],[3,21],[16,3],[28,58],[38,20],[25,52],[28,21],[16,-20],[20,36],[-6,34],[1,50],[-5,32],[-15,25],[10,37],[17,3],[-11,52],[16,10],[20,34],[36,-9],[3,25],[15,9],[36,-7],[5,12],[71,16],[16,14],[26,-4],[77,87],[30,4],[173,43],[46,-12],[443,-148],[11,39],[52,214],[322,1129],[49,175],[176,0],[787,-1],[1286,1],[1992,0],[1993,0],[1992,0],[2001,-2],[8002,12],[57,-76],[103,-78],[93,-53],[75,-2],[49,2],[23,-38],[188,-200],[171,-171],[92,-96],[92,-87],[50,-13],[60,-94],[76,-125],[64,-40],[86,-17],[154,-167],[57,8],[49,-154],[2,-116],[123,-279],[57,2],[42,-83],[26,-163],[40,-74],[44,-59],[55,-40],[92,9],[30,-63],[58,-76],[105,-63],[67,-20],[16,-69],[48,-65],[12,-127],[108,-170],[26,1],[23,-135],[77,-83],[78,-36],[70,-18],[50,-95],[22,1],[99,-194],[107,-68],[59,-153],[5,-93],[39,-176],[38,-206],[29,-405],[331,-616],[586,-751],[337,-599],[320,-1196],[223,-638],[490,-949]],[[11692,44625],[-1109,95],[-132,21],[-11,-193],[-1268,201],[-1183,13],[-7,-202],[-603,110],[-580,112],[-599,1170],[-539,989],[35,47],[-67,49],[-57,-16],[-148,277],[-418,776],[-46,57],[-28,79],[-282,516],[-159,261],[-688,1309],[-860,-1165],[-107,-126],[-19,5],[-235,427],[-16,13],[-5,27],[-193,344],[-246,470],[-915,1673],[-57,120],[995,1297],[-54,108],[-125,215],[435,617],[536,722],[-189,336],[-267,140],[-9,14],[4,62],[21,17],[-16,28],[5,62],[-34,31],[-4,20],[9,27],[13,-29],[85,-16],[5,-11],[981,1299],[-62,415],[47,308],[20,42],[-44,643],[-106,150],[-10,25],[-62,666],[-24,64],[-18,126],[9,137],[65,-1],[278,-41],[10,-6],[84,-161],[424,495],[-545,1054],[-405,771],[587,802],[204,278],[532,722],[64,191],[-201,327],[-365,671],[127,2687],[763,-93],[-5,109],[-12,29],[1,25],[-17,69],[8,38],[1,138],[11,20],[-33,64],[18,33],[-53,193],[3,292],[30,69],[15,81],[116,393],[39,138],[1159,-88],[224,-16],[198,2699],[594,-84],[-27,-501],[240,-33],[1033,-145],[12,219],[1584,-219],[869,-119],[73,844],[70,790],[11,610],[13,597],[-37,28],[2,57],[36,-6],[8,242],[-2,15],[7,317],[2,1],[7,310],[119,-5],[609,-29],[546,-106],[-30,-629],[445,-77],[410,-72],[-6,-118],[-7,-62],[-10,-224],[367,-31],[597,-52],[300,-26],[35,639],[538,-76],[16,10],[201,-29],[325,-48],[204,-29],[-41,-793],[534,730],[-196,375],[490,663],[478,654],[171,-337],[201,-388],[625,853],[16,22],[85,-165],[360,525],[29,-23],[40,53],[5,71],[229,305],[388,524],[355,477],[466,628],[386,-60],[1,25],[979,-150],[-77,-1254],[-80,-1297],[-63,-974],[-8,-150],[-13,-290],[5,-39],[222,-37],[3,-26],[122,-19],[597,-100],[13,24],[385,-62],[256,-39],[499,-82],[136,-22],[245,-36],[67,-11],[-55,-886],[-91,-1276],[129,-23],[35,8],[18,-18],[441,-78],[580,-119],[2,41],[781,-82],[393,-41],[38,-29],[540,-69],[340,-45],[-46,-891],[148,-50],[88,7],[191,-15],[154,-40],[-2,-62],[580,-97],[19,73],[15,-5],[-4,-75],[-16,1],[-22,-569],[-23,-480],[662,-108],[53,-487],[-13,-211],[1186,-192],[-31,-504],[4,-2],[-88,-207],[-40,-605],[829,-112],[-10,-284]]],"transform":{"scale":[0.0001254779547795479,0.00007229342293422934],"translate":[140.67789,-26.92686]},"objects":{"qld_central_ldmg_boundaries_gda2020_simp20":{"type":"GeometryCollection","geometries":[{"arcs":[[0,1,2,3]],"type":"Polygon","properties":{"LGA Code":"370","Abbreviated Name":"Banana","LGA Name":"Banana Shire","Area Sq Km":28548.93438,"LDMG Name":"Banana","Police Region Name":"Central Region","Police Region Code":"CR","Police Region Short Name":"Central"}},{"arcs":[[4,5,6,7,8,9]],"type":"Polygon","properties":{"LGA Code":"410","Abbreviated Name":"Barcaldine","LGA Name":"Barcaldine Regional","Area Sq Km":53439.35687,"LDMG Name":"Barcaldine","Police Region Name":"Central Region","Police Region Code":"CR","Police Region Short Name":"Central"}},{"arcs":[[10,11,12]],"type":"Polygon","properties":{"LGA Code":"450","Abbreviated Name":"Barcoo","LGA Name":"Barcoo Shire","Area Sq Km":62255.69923,"LDMG Name":"Barcoo","Police Region Name":"Central Region","Police Region Code":"CR","Police Region Short Name":"Central"}},{"arcs":[[-10,13,14,15]],"type":"Polygon","properties":{"LGA Code":"760","Abbreviated Name":"Blackall-Tambo","LGA Name":"Blackall-Tambo Regional","Area Sq Km":30580.25956,"LDMG Name":"Blackall-Tambo","Police Region Name":"Central Region","Police Region Code":"CR","Police Region Short Name":"Central"}},{"arcs":[[-2,16,-14,-9,17,18,19,20,21],[22],[23],[24],[25]],"type":"Polygon","properties":{"LGA Code":"2270","Abbreviated Name":"Central Highlands","LGA Name":"Central Highlands Regional","Area Sq Km":59789.95085,"LDMG Name":"Central Highlands","Police Region Name":"Central Region","Police Region Code":"CR","Police Region Short Name":"Central"}},{"arcs":[[-4,26,27,28]],"type":"Polygon","properties":{"LGA Code":"3360","Abbreviated Name":"Gladstone","LGA Name":"Gladstone Regional","Area Sq Km":34865.48449,"LDMG Name":"Gladstone","Police Region Name":"Central Region","Police Region Code":"CR","Police Region Short Name":"Central"}},{"arcs":[[-8,29,30,31,32,33,-18]],"type":"Polygon","properties":{"LGA Code":"3980","Abbreviated Name":"Isaac","LGA Name":"Isaac Regional","Area Sq Km":82596.00469,"LDMG Name":"Isaac","Police Region Name":"Central Region","Police Region Code":"CR","Police Region Short Name":"Central"}},{"arcs":[[-19,-34,34,-28,35]],"type":"Polygon","properties":{"LGA Code":"4530","Abbreviated Name":"Livingstone","LGA Name":"Livingstone Shire","Area Sq Km":46965.607,"LDMG Name":"Livingstone","Police Region Name":"Central Region","Police Region Code":"CR","Police Region Short Name":"Central"}},{"arcs":[[-5,-16,36,-13,37]],"type":"Polygon","properties":{"LGA Code":"4710","Abbreviated Name":"Longreach","LGA Name":"Longreach Regional","Area Sq Km":40561.49399,"LDMG Name":"Longreach","Police Region Name":"Central Region","Police Region Code":"CR","Police Region Short Name":"Central"}},{"arcs":[[-32,38,39]],"type":"Polygon","properties":{"LGA Code":"4770","Abbreviated Name":"Mackay","LGA Name":"Mackay Regional","Area Sq Km":34366.07648,"LDMG Name":"Mackay","Police Region Name":"Central Region","Police Region Code":"CR","Police Region Short Name":"Central"}},{"arcs":[[-3,-22,40,-20,-36,-27]],"type":"Polygon","properties":{"LGA Code":"6370","Abbreviated Name":"Rockhampton","LGA Name":"Rockhampton Regional","Area Sq Km":6573.09479,"LDMG Name":"Rockhampton","Police Region Name":"Central Region","Police Region Code":"CR","Police Region Short Name":"Central"}},{"arcs":[[41,-39,-31]],"type":"Polygon","properties":{"LGA Code":"7340","Abbreviated Name":"Whitsunday","LGA Name":"Whitsunday Regional","Area Sq Km":40779.62806,"LDMG Name":"Whitsunday","Police Region Name":"Central Region","Police Region Code":"CR","Police Region Short Name":"Central"}},{"arcs":[[-6,-38,-12,42]],"type":"Polygon","properties":{"LGA Code":"7400","Abbreviated Name":"Winton","LGA Name":"Winton Shire","Area Sq Km":53810.28734,"LDMG Name":"Winton","Police Region Name":"Central Region","Police Region Code":"CR","Police Region Short Name":"Central"}},{"arcs":[[[-21,-41]],[[-23]],[[-24]],[[-25]],[[-26]]],"type":"MultiPolygon","properties":{"LGA Code":"7550","Abbreviated Name":"Woorabinda Aboriginal","LGA Name":"Woorabinda Aboriginal Shire","Area Sq Km":393.03009,"LDMG Name":"Woorabinda","Police Region Name":"Central Region","Police Region Code":"CR","Police Region Short Name":"Central"}}]}}}