{"type":"FeatureCollection","name":"qld_north_coast_ddmg_boundaries_gda2020_simp20","crs":{"type":"name","properties":{"name":"urn:ogc:def:crs:EPSG::7844"}},"features":[{"type":"Feature","geometry":{"type":"Polygon","coordinates":[[[151.04558,-24.39604],[151.04441,-24.39432],[151.04139,-24.396],[151.03927,-24.39297],[151.03695,-24.39208],[151.02959,-24.39216],[151.02831,-24.39411],[151.02176,-24.39379],[151.02077,-24.39535],[151.01684,-24.397],[151.00501,-24.39456],[151.00425,-24.39658],[151.00064,-24.39891],[150.99945,-24.406],[150.99312,-24.40966],[150.99224,-24.41123],[150.99192,-24.41653],[150.99386,-24.41903],[150.99417,-24.42422],[150.9932,-24.44271],[150.9881,-24.44694],[150.98778,-24.45292],[150.98872,-24.4562],[150.98741,-24.46216],[150.98629,-24.46328],[150.98559,-24.46981],[150.98285,-24.47215],[150.9822,-24.4753],[150.98366,-24.47656],[150.98289,-24.47869],[150.97867,-24.48124],[150.97951,-24.48306],[150.97953,-24.4914],[150.9743,-24.49541],[150.97072,-24.49593],[150.96984,-24.49727],[150.96994,-24.50252],[150.96404,-24.50702],[150.96376,-24.50847],[150.96515,-24.51051],[150.96378,-24.51466],[150.96597,-24.52064],[150.96652,-24.52681],[150.96842,-24.52939],[150.96787,-24.53343],[150.97271,-24.53677],[150.98143,-24.54919],[150.97472,-24.54896],[150.96983,-24.55231],[150.96905,-24.56114],[150.96981,-24.56968],[150.97257,-24.57254],[150.97353,-24.57481],[150.97277,-24.57636],[150.96904,-24.57859],[150.96364,-24.57596],[150.96128,-24.57644],[150.944,-24.56975],[150.9127,-24.56133],[150.90949,-24.56166],[150.90729,-24.55996],[150.88075,-24.55201],[150.8791,-24.55662],[150.87285,-24.55527],[150.87119,-24.55558],[150.86744,-24.55989],[150.86178,-24.55974],[150.85569,-24.55832],[150.85326,-24.55575],[150.85269,-24.5516],[150.8509,-24.54918],[150.84914,-24.55117],[150.84736,-24.55987],[150.84474,-24.56198],[150.8389,-24.55945],[150.83756,-24.55782],[150.83385,-24.55963],[150.82993,-24.56002],[150.82949,-24.55515],[150.82756,-24.55396],[150.82624,-24.55475],[150.81912,-24.60395],[150.82495,-24.60549],[150.82578,-24.60759],[150.83605,-24.6148],[150.83871,-24.61812],[150.84372,-24.61979],[150.84904,-24.61994],[150.85139,-24.62232],[150.8556,-24.62283],[150.85749,-24.62558],[150.8676,-24.63103],[150.88276,-24.62517],[150.88972,-24.63182],[150.89764,-24.63053],[150.89964,-24.6331],[150.89822,-24.63687],[150.89966,-24.63833],[150.90079,-24.64236],[150.91113,-24.65041],[150.91056,-24.6521],[150.90764,-24.6533],[150.90195,-24.66162],[150.89754,-24.66498],[150.89555,-24.66515],[150.89647,-24.66779],[150.89419,-24.66881],[150.88947,-24.67819],[150.8877,-24.67721],[150.88332,-24.67827],[150.8837,-24.68088],[150.88157,-24.68806],[150.87801,-24.68916],[150.87489,-24.69627],[150.8754,-24.69885],[150.87902,-24.70072],[150.87555,-24.71364],[150.87636,-24.71597],[150.87398,-24.72114],[150.87002,-24.72141],[150.86517,-24.7244],[150.85842,-24.7224],[150.85459,-24.72381],[150.82869,-24.71804],[150.79059,-24.71194],[150.77827,-24.71623],[150.77444,-24.71421],[150.76687,-24.70745],[150.75973,-24.7038],[150.74681,-24.70245],[150.73927,-24.699],[150.73247,-24.69788],[150.7281,-24.69877],[150.7247,-24.70157],[150.70913,-24.7037],[150.69944,-24.70215],[150.68944,-24.70246],[150.67974,-24.69902],[150.66681,-24.70376],[150.66313,-24.70276],[150.65588,-24.69323],[150.64183,-24.69594],[150.63833,-24.70017],[150.6369,-24.70936],[150.62211,-24.70922],[150.61136,-24.71164],[150.58652,-24.73148],[150.60182,-24.78965],[150.60597,-24.79852],[150.6035,-24.8011],[150.59819,-24.8357],[150.59471,-24.83827],[150.59178,-24.84528],[150.58608,-24.84556],[150.5856,-24.84799],[150.58085,-24.8474],[150.55861,-24.89962],[150.55657,-24.91467],[150.55822,-24.92353],[150.5424,-24.95894],[150.53959,-24.96069],[150.54634,-24.97737],[150.55326,-24.98624],[150.54771,-25.00937],[150.54993,-25.03779],[150.54831,-25.05141],[150.54862,-25.05993],[150.55423,-25.07257],[150.55577,-25.07951],[150.5581,-25.08333],[150.55787,-25.08792],[150.5563,-25.0905],[150.55647,-25.09409],[150.55909,-25.09718],[150.56598,-25.10125],[150.57881,-25.11242],[150.57011,-25.11535],[150.56533,-25.12392],[150.56061,-25.12698],[150.55662,-25.13378],[150.55903,-25.14194],[150.56202,-25.14557],[150.56195,-25.15205],[150.55758,-25.15602],[150.55747,-25.16163],[150.55138,-25.16473],[150.53103,-25.16486],[150.51852,-25.1705],[150.51269,-25.17153],[150.50824,-25.17357],[150.49805,-25.18658],[150.50225,-25.19265],[150.4864,-25.19497],[150.4778,-25.19078],[150.47136,-25.19051],[150.47216,-25.19583],[150.47005,-25.19879],[150.47205,-25.20261],[150.47641,-25.22163],[150.47519,-25.23087],[150.47454,-25.2328],[150.47151,-25.23426],[150.46466,-25.24183],[150.46506,-25.24807],[150.46167,-25.2568],[150.45432,-25.25751],[150.4522,-25.26359],[150.45855,-25.278],[150.4543,-25.28102],[150.44356,-25.28191],[150.44221,-25.28851],[150.44637,-25.29244],[150.44612,-25.29843],[150.44845,-25.30305],[150.44089,-25.31713],[150.44259,-25.3206],[150.43751,-25.32542],[150.42664,-25.32397],[150.41653,-25.33083],[150.41846,-25.33599],[150.41794,-25.34698],[150.4194,-25.34975],[150.41546,-25.35643],[150.40647,-25.36206],[150.40731,-25.36523],[150.41794,-25.36992],[150.41754,-25.37243],[150.41398,-25.37212],[150.41183,-25.37683],[150.40692,-25.37853],[150.39551,-25.39042],[150.40445,-25.39763],[150.39911,-25.40278],[150.40188,-25.41397],[150.39365,-25.41621],[150.39085,-25.41881],[150.39964,-25.428],[150.40476,-25.43139],[150.39784,-25.44734],[150.37559,-25.46135],[150.37472,-25.47185],[150.36912,-25.47624],[150.37009,-25.48069],[150.37598,-25.48278],[150.37462,-25.48939],[150.37671,-25.49046],[150.38539,-25.48797],[150.38775,-25.49482],[150.38531,-25.50211],[150.38915,-25.50313],[150.3977,-25.5006],[150.40165,-25.50338],[150.40274,-25.50773],[150.3918,-25.52002],[150.39425,-25.52682],[150.39211,-25.53152],[150.4043,-25.5372],[150.40258,-25.54149],[150.40326,-25.55177],[150.41015,-25.56141],[150.41247,-25.56758],[150.40799,-25.58024],[150.40382,-25.58373],[150.401,-25.59363],[150.40204,-25.59863],[150.40701,-25.59642],[150.4104,-25.59613],[150.41421,-25.59714],[150.41521,-25.6013],[150.42649,-25.60276],[150.43705,-25.60644],[150.44095,-25.60156],[150.44614,-25.59892],[150.48399,-25.60623],[150.49553,-25.62839],[150.5038,-25.63599],[150.51716,-25.64073],[150.52418,-25.64539],[150.54038,-25.64115],[150.54584,-25.64036],[150.55296,-25.6416],[150.57029,-25.6382],[150.58533,-25.64347],[150.59124,-25.65269],[150.59948,-25.65273],[150.65416,-25.65978],[150.65593,-25.67307],[150.65884,-25.67869],[150.6638,-25.68118],[150.66357,-25.68428],[150.65653,-25.69223],[150.65628,-25.69745],[150.6518,-25.69869],[150.64651,-25.70524],[150.64315,-25.71566],[150.6496,-25.7262],[150.66428,-25.73274],[150.66387,-25.74316],[150.6629,-25.74492],[150.66366,-25.75765],[150.66844,-25.75827],[150.66544,-25.76174],[150.66646,-25.76375],[150.65982,-25.77334],[150.65021,-25.77425],[150.64645,-25.77877],[150.64412,-25.7862],[150.65688,-25.80097],[150.64924,-25.80331],[150.65771,-25.8137],[150.67041,-25.82048],[150.67176,-25.82701],[150.67874,-25.83038],[150.69512,-25.85023],[150.69708,-25.85086],[150.69869,-25.85575],[150.69476,-25.8645],[150.69306,-25.87212],[150.68717,-25.87906],[150.68003,-25.88275],[150.67837,-25.88903],[150.67831,-25.89328],[150.67978,-25.89804],[150.68391,-25.90179],[150.68506,-25.90518],[150.68499,-25.91388],[150.68425,-25.91705],[150.68064,-25.9225],[150.6795,-25.9285],[150.66888,-25.94267],[150.66929,-25.94922],[150.67311,-25.95723],[150.67454,-25.96324],[150.67275,-25.96959],[150.68175,-25.97021],[150.70206,-25.97393],[150.71441,-25.98486],[150.71966,-25.98517],[150.72562,-25.98102],[150.72981,-25.98017],[150.76363,-25.9816],[150.76499,-25.98676],[150.76665,-25.98785],[150.76695,-25.99111],[150.77049,-25.99137],[150.77114,-25.99251],[150.77041,-25.99486],[150.77363,-25.99833],[150.77745,-26.00862],[150.77677,-26.00844],[150.77581,-26.01223],[150.77912,-26.01524],[150.78315,-26.01562],[150.78598,-26.01866],[150.7854,-26.02239],[150.78164,-26.02604],[150.78091,-26.02849],[150.78585,-26.03952],[150.78853,-26.04317],[150.78981,-26.04892],[150.84957,-26.05641],[150.90393,-26.0194],[150.90636,-26.01271],[150.90596,-26.00832],[150.91405,-26.0041],[150.92041,-26.00503],[150.92683,-26.01181],[150.93253,-26.01311],[150.93294,-26.01164],[150.9385,-26.01263],[150.94981,-26.01004],[150.96216,-26.01387],[150.98398,-26.00781],[150.98341,-26.01149],[150.98918,-26.01525],[150.99389,-26.03121],[151.00301,-26.0433],[151.00204,-26.0496],[151.00849,-26.05959],[151.00897,-26.06767],[151.01036,-26.07116],[151.01588,-26.07711],[151.0325,-26.08508],[151.0401,-26.0876],[151.0542,-26.08871],[151.05612,-26.09032],[151.06735,-26.08522],[151.07381,-26.09521],[151.07777,-26.09582],[151.07875,-26.09668],[151.11435,-26.09079],[151.11263,-26.08782],[151.11523,-26.08262],[151.11411,-26.08091],[151.11523,-26.07988],[151.11447,-26.07737],[151.11623,-26.07647],[151.10653,-26.07934],[151.09992,-26.07526],[151.10091,-26.07056],[151.10813,-26.06247],[151.11027,-26.04822],[151.10998,-26.04283],[151.13422,-26.04693],[151.14169,-26.05023],[151.26834,-26.06589],[151.27414,-26.06697],[151.27898,-26.06965],[151.28668,-26.06997],[151.28759,-26.06854],[151.29856,-26.07347],[151.30843,-26.06597],[151.31288,-26.05701],[151.31558,-26.05552],[151.3264,-26.04359],[151.33193,-26.04139],[151.33034,-26.03897],[151.33064,-26.03538],[151.32491,-26.02994],[151.32394,-26.02569],[151.34,-26.0118],[151.34835,-26.0121],[151.35503,-26.00597],[151.38206,-26.00959],[151.46854,-26.00341],[151.47324,-26.00212],[151.47258,-25.99217],[151.47353,-25.98926],[151.47589,-25.98884],[151.47941,-25.99041],[151.48136,-25.98983],[151.48438,-25.9796],[151.48372,-25.97675],[151.48871,-25.97502],[151.48988,-25.97346],[151.48776,-25.96514],[151.49602,-25.96021],[151.50204,-25.95168],[151.50231,-25.94926],[151.49908,-25.94292],[151.50497,-25.92526],[151.50395,-25.921],[151.4966,-25.91817],[151.49083,-25.92041],[151.48817,-25.92007],[151.48716,-25.91649],[151.4881,-25.9147],[151.49106,-25.913],[151.49167,-25.91039],[151.48935,-25.90701],[151.48256,-25.90367],[151.48209,-25.90125],[151.4865,-25.89641],[151.48716,-25.89436],[151.49118,-25.89495],[151.49277,-25.8967],[151.49245,-25.89823],[151.49492,-25.89862],[151.49443,-25.90549],[151.49761,-25.90661],[151.49937,-25.91054],[151.50383,-25.91098],[151.50469,-25.90933],[151.50716,-25.91114],[151.50737,-25.90991],[151.50836,-25.90988],[151.51727,-25.8573],[151.51972,-25.85567],[151.52156,-25.85619],[151.5243,-25.85509],[151.52818,-25.85638],[151.53357,-25.85406],[151.53606,-25.8542],[151.53876,-25.85653],[151.54615,-25.85467],[151.5493,-25.85525],[151.55182,-25.85879],[151.55371,-25.85912],[151.55972,-25.85699],[151.56447,-25.85844],[151.56946,-25.85797],[151.57248,-25.85919],[151.57847,-25.85916],[151.58442,-25.86449],[151.58903,-25.86519],[151.60036,-25.86052],[151.60144,-25.85733],[151.60409,-25.85543],[151.61474,-25.85417],[151.61606,-25.85721],[151.61958,-25.85961],[151.62787,-25.86094],[151.63183,-25.8686],[151.63502,-25.87123],[151.63813,-25.87111],[151.64132,-25.86922],[151.6447,-25.87281],[151.65324,-25.87306],[151.65004,-25.88157],[151.65966,-25.88887],[151.65753,-25.89318],[151.66157,-25.89696],[151.65705,-25.91217],[151.66801,-25.91308],[151.69146,-25.91792],[151.70949,-25.92964],[151.71561,-25.93243],[151.73084,-25.9354],[151.73434,-25.93871],[151.7364,-25.93878],[151.74375,-25.93362],[151.75001,-25.93444],[151.75316,-25.93651],[151.75303,-25.9374],[151.75903,-25.93839],[151.76078,-25.93757],[151.76277,-25.93641],[151.76288,-25.93288],[151.76397,-25.93163],[151.76989,-25.92911],[151.77274,-25.92557],[151.77717,-25.92273],[151.77771,-25.92106],[151.77651,-25.91796],[151.77909,-25.91862],[151.7831,-25.91761],[151.78469,-25.91677],[151.78495,-25.91482],[151.78297,-25.9138],[151.78079,-25.9156],[151.77897,-25.91551],[151.77633,-25.91261],[151.77599,-25.90605],[151.77929,-25.9004],[151.78046,-25.89426],[151.77905,-25.89158],[151.77563,-25.88863],[151.77411,-25.88447],[151.77568,-25.8782],[151.77565,-25.87299],[151.77371,-25.86461],[151.77281,-25.86202],[151.76935,-25.85984],[151.76963,-25.85729],[151.7675,-25.85645],[151.76708,-25.8545],[151.77049,-25.84764],[151.76982,-25.84328],[151.76635,-25.83947],[151.76681,-25.83281],[151.76479,-25.82588],[151.76625,-25.82351],[151.77167,-25.82151],[151.77473,-25.81436],[151.77222,-25.81141],[151.76497,-25.81043],[151.76389,-25.80597],[151.75869,-25.8057],[151.75678,-25.80304],[151.75779,-25.80131],[151.76289,-25.79859],[151.7676,-25.78745],[151.77579,-25.78976],[151.78078,-25.78944],[151.78076,-25.78611],[151.77699,-25.78196],[151.7751,-25.77786],[151.77954,-25.77355],[151.78822,-25.7723],[151.79059,-25.77081],[151.79114,-25.7677],[151.78939,-25.76142],[151.78991,-25.75854],[151.79151,-25.7573],[151.79823,-25.75902],[151.79962,-25.75861],[151.80034,-25.75695],[151.81045,-25.76233],[151.80829,-25.76669],[151.81131,-25.77089],[151.81274,-25.7758],[151.81357,-25.78008],[151.81254,-25.78246],[151.81294,-25.785],[151.8183,-25.78695],[151.82637,-25.78287],[151.82873,-25.78479],[151.82897,-25.79451],[151.83154,-25.79661],[151.83627,-25.79635],[151.84026,-25.79827],[151.84577,-25.80392],[151.84939,-25.80556],[151.85056,-25.80487],[151.85316,-25.80677],[151.85566,-25.80539],[151.85919,-25.80637],[151.86059,-25.80311],[151.86237,-25.80455],[151.86263,-25.80679],[151.86071,-25.81102],[151.86349,-25.8114],[151.86685,-25.80998],[151.87357,-25.81358],[151.87449,-25.81514],[151.87226,-25.81862],[151.87067,-25.81872],[151.87625,-25.82756],[151.879,-25.82827],[151.8789,-25.83106],[151.87705,-25.83309],[151.88053,-25.83471],[151.88213,-25.84204],[151.88403,-25.84342],[151.88903,-25.84234],[151.89133,-25.84457],[151.8924,-25.84895],[151.89103,-25.85197],[151.89246,-25.85534],[151.89196,-25.85893],[151.89467,-25.86186],[151.897,-25.86672],[151.90318,-25.87031],[151.91272,-25.87249],[151.92125,-25.86786],[151.92844,-25.86748],[151.93043,-25.86292],[151.93455,-25.86271],[151.93765,-25.85598],[151.94035,-25.85353],[151.94427,-25.85077],[151.94815,-25.8507],[151.9508,-25.84544],[151.9552,-25.84249],[151.9593,-25.83304],[151.96292,-25.83392],[151.97017,-25.83046],[151.96853,-25.82625],[151.97001,-25.82391],[151.96872,-25.82289],[151.97197,-25.81644],[151.97196,-25.81248],[151.97321,-25.81072],[151.97707,-25.81345],[151.9788,-25.81352],[151.98019,-25.80872],[151.98271,-25.80803],[151.98377,-25.8034],[151.98613,-25.80108],[151.98487,-25.79068],[151.98897,-25.78319],[151.98635,-25.77857],[151.98906,-25.77734],[151.99029,-25.77369],[151.99181,-25.7728],[151.99499,-25.77369],[151.99774,-25.77102],[151.9977,-25.77088],[151.99778,-25.77091],[151.99765,-25.77074],[151.99638,-25.76672],[151.99747,-25.76474],[151.99573,-25.75749],[151.99669,-25.75534],[151.99649,-25.75085],[151.99905,-25.74797],[151.99765,-25.74669],[151.9953,-25.73714],[151.98023,-25.73341],[151.98032,-25.72955],[151.98235,-25.72901],[151.98333,-25.72432],[151.98247,-25.72394],[151.98209,-25.71533],[151.98101,-25.71319],[151.98828,-25.7147],[151.98906,-25.71354],[151.99667,-25.71151],[152.00304,-25.7178],[152.00489,-25.71774],[152.01407,-25.70871],[152.01561,-25.70375],[152.01495,-25.70198],[152.01586,-25.69422],[152.015,-25.69234],[152.01639,-25.68979],[152.01529,-25.68604],[152.01773,-25.68097],[152.01097,-25.674],[152.01247,-25.6714],[152.0114,-25.66997],[152.01117,-25.66501],[152.01252,-25.66508],[152.01385,-25.66294],[152.01479,-25.66309],[152.01865,-25.65899],[152.01872,-25.65727],[152.0227,-25.65437],[152.02535,-25.65085],[152.02707,-25.65043],[152.02834,-25.6441],[152.02985,-25.64217],[152.0352,-25.6437],[152.03826,-25.64265],[152.03967,-25.63198],[152.04179,-25.62553],[152.0415,-25.61957],[152.04442,-25.61511],[152.04634,-25.61582],[152.04666,-25.61157],[152.0507,-25.61353],[152.05274,-25.61594],[152.05077,-25.61678],[152.05077,-25.61804],[152.05302,-25.61878],[152.05591,-25.62756],[152.05943,-25.6263],[152.06033,-25.62407],[152.06343,-25.6217],[152.0715,-25.62219],[152.07185,-25.62341],[152.07717,-25.62612],[152.08241,-25.63232],[152.08278,-25.63275],[152.08756,-25.63578],[152.09074,-25.63646],[152.09264,-25.63241],[152.09638,-25.63049],[152.10425,-25.62903],[152.10875,-25.626],[152.11205,-25.62682],[152.11541,-25.62316],[152.1146,-25.61718],[152.11592,-25.6154],[152.1122,-25.61098],[152.10997,-25.60352],[152.11151,-25.59845],[152.11556,-25.59682],[152.11844,-25.59786],[152.12165,-25.59529],[152.12424,-25.59588],[152.12504,-25.5922],[152.13008,-25.59105],[152.1296,-25.58762],[152.13981,-25.58703],[152.14039,-25.58529],[152.14355,-25.58264],[152.14593,-25.58431],[152.15298,-25.58327],[152.15429,-25.58308],[152.15861,-25.57944],[152.16464,-25.57435],[152.16335,-25.56321],[152.16416,-25.56035],[152.16309,-25.55969],[152.16395,-25.55311],[152.16602,-25.54839],[152.16885,-25.54195],[152.17343,-25.53861],[152.17565,-25.53569],[152.17627,-25.53191],[152.17758,-25.53176],[152.17935,-25.52915],[152.17944,-25.52303],[152.1865,-25.521],[152.18851,-25.52207],[152.19149,-25.52134],[152.19361,-25.51916],[152.19838,-25.51846],[152.2012,-25.51968],[152.20703,-25.51863],[152.20998,-25.52097],[152.21572,-25.52008],[152.21498,-25.51297],[152.22726,-25.51454],[152.22889,-25.51859],[152.23026,-25.51931],[152.2332,-25.51503],[152.23542,-25.5158],[152.23621,-25.51729],[152.23933,-25.51522],[152.24471,-25.51764],[152.24746,-25.51718],[152.2482,-25.51963],[152.25231,-25.52135],[152.26898,-25.52268],[152.26995,-25.52117],[152.26929,-25.51539],[152.27205,-25.51267],[152.27217,-25.50939],[152.27329,-25.50794],[152.27267,-25.50633],[152.27432,-25.50452],[152.26859,-25.50351],[152.2707,-25.48985],[152.27636,-25.49057],[152.27443,-25.48771],[152.27339,-25.48313],[152.27161,-25.4816],[152.26846,-25.48174],[152.26195,-25.47648],[152.26244,-25.47117],[152.26361,-25.47037],[152.26016,-25.46187],[152.27251,-25.43223],[152.29035,-25.41739],[152.29058,-25.41598],[152.29247,-25.41556],[152.29861,-25.41023],[152.29908,-25.40814],[152.31146,-25.40663],[152.31236,-25.40534],[152.31579,-25.40736],[152.31999,-25.4075],[152.32121,-25.40427],[152.32396,-25.40163],[152.32696,-25.40166],[152.33569,-25.39221],[152.33411,-25.38938],[152.3367,-25.38593],[152.33455,-25.38255],[152.34801,-25.37522],[152.34833,-25.37315],[152.35124,-25.37093],[152.3545,-25.36611],[152.359,-25.36648],[152.36438,-25.36349],[152.37037,-25.36393],[152.37303,-25.36298],[152.37349,-25.35724],[152.37028,-25.35581],[152.3722,-25.35307],[152.37951,-25.35688],[152.3797,-25.35559],[152.38467,-25.3562],[152.40615,-25.33454],[152.40948,-25.3127],[152.41564,-25.29029],[152.4512,-25.23065],[152.45064,-25.22833],[152.45925,-25.22383],[152.46434,-25.21978],[152.46684,-25.21569],[152.46878,-25.21508],[152.47382,-25.21679],[152.48281,-25.21714],[152.49401,-25.20973],[152.50186,-25.21084],[152.50389,-25.20892],[152.50883,-25.20894],[152.51027,-25.20948],[152.51217,-25.21296],[152.51025,-25.21579],[152.51162,-25.21831],[152.5175,-25.22133],[152.52429,-25.21536],[152.52587,-25.21048],[152.53037,-25.21081],[152.53348,-25.21271],[152.53574,-25.21161],[152.53842,-25.21222],[152.53998,-25.21038],[152.54715,-25.20678],[152.54797,-25.20534],[152.54722,-25.19957],[152.54197,-25.19377],[152.54421,-25.18824],[152.55403,-25.18171],[152.55756,-25.17592],[152.56204,-25.17181],[152.56698,-25.16902],[152.57267,-25.16777],[152.5779,-25.16865],[152.58793,-25.1733],[152.59844,-25.17237],[152.60629,-25.17337],[152.60952,-25.175],[152.61405,-25.17955],[152.62401,-25.18144],[153.02521,-25.18198],[153.03133,-25.17686],[153.0564,-25.16604],[153.07189,-25.15703],[153.12758,-25.11457],[153.12902,-25.11347],[153.15988,-25.08438],[153.16901,-25.07384],[153.16917,-25.07366],[153.20031,-25.03246],[153.22108,-24.99781],[153.22709,-24.98342],[153.22679,-24.97482],[153.23275,-24.95128],[153.2332,-24.94952],[153.23411,-24.93927],[153.23401,-24.93801],[153.23388,-24.93623],[153.23352,-24.93151],[153.23278,-24.92931],[153.22954,-24.91973],[153.22817,-24.91566],[153.22672,-24.91349],[153.21257,-24.89235],[153.1968,-24.86566],[153.19532,-24.86361],[153.19071,-24.85721],[153.1815,-24.84441],[153.17983,-24.84281],[153.16835,-24.83187],[153.16491,-24.82858],[153.16415,-24.82811],[153.15564,-24.82286],[153.14901,-24.81877],[153.1484,-24.81858],[153.13556,-24.81456],[153.12887,-24.81467],[153.12039,-24.81747],[153.11831,-24.81705],[153.11746,-24.81488],[153.12394,-24.80316],[153.12903,-24.79643],[153.15207,-24.77427],[153.15252,-24.77376],[153.15268,-24.77357],[153.15783,-24.7677],[153.16135,-24.76246],[153.17423,-24.74594],[153.18671,-24.73514],[153.21158,-24.7168],[153.24554,-24.70017],[153.25107,-24.69779],[153.25406,-24.69786],[153.26338,-24.69998],[153.26481,-24.7003],[153.2628,-24.68047],[153.22556,-24.516],[152.06205,-24.51598],[152.05685,-24.5214],[152.05025,-24.52525],[152.03156,-24.52999],[152.02683,-24.52828],[152.01683,-24.51592],[152.01071,-24.51376],[151.9987,-24.51559],[151.99608,-24.52017],[151.99284,-24.52214],[151.99282,-24.52497],[151.99076,-24.52759],[151.9964,-24.53499],[151.9953,-24.53637],[151.99178,-24.53666],[151.98949,-24.53479],[151.98632,-24.53662],[151.98735,-24.5385],[151.99119,-24.5386],[151.99139,-24.5386],[151.99328,-24.54006],[151.99317,-24.54062],[151.99313,-24.5408],[151.99308,-24.54107],[151.99157,-24.54168],[151.98803,-24.54036],[151.98529,-24.54187],[151.98515,-24.5436],[151.98788,-24.54416],[151.9871,-24.54935],[151.98455,-24.55098],[151.98184,-24.54951],[151.98405,-24.5536],[151.9768,-24.55701],[151.97442,-24.56331],[151.96897,-24.56903],[151.96844,-24.57065],[151.97024,-24.57422],[151.96816,-24.57649],[151.96869,-24.58043],[151.96608,-24.58105],[151.96378,-24.58524],[151.95922,-24.58735],[151.98869,-24.59131],[151.98569,-24.61134],[151.96005,-24.60846],[151.96132,-24.61297],[151.95837,-24.61428],[151.95841,-24.61628],[151.96134,-24.61665],[151.96581,-24.62473],[151.96454,-24.63296],[151.96053,-24.63094],[151.95934,-24.64095],[151.96259,-24.64187],[151.97135,-24.64067],[151.983,-24.64458],[151.98847,-24.64343],[151.99614,-24.64426],[151.99537,-24.64932],[151.9875,-24.6483],[151.98638,-24.65549],[151.99425,-24.65652],[151.99082,-24.68088],[151.96059,-24.67649],[151.96155,-24.67907],[151.9602,-24.68111],[151.96065,-24.68792],[151.95976,-24.68934],[151.96091,-24.69559],[151.9621,-24.69692],[151.96221,-24.70287],[151.95345,-24.70202],[151.95289,-24.7045],[151.94759,-24.70506],[151.94239,-24.70764],[151.92861,-24.70881],[151.91939,-24.72844],[151.91911,-24.73264],[151.92322,-24.73867],[151.92025,-24.74009],[151.91246,-24.74039],[151.89896,-24.74441],[151.89698,-24.74426],[151.89461,-24.74185],[151.89257,-24.74256],[151.8903,-24.74606],[151.89308,-24.74982],[151.89392,-24.75376],[151.8882,-24.75843],[151.88419,-24.76874],[151.87537,-24.77617],[151.87205,-24.77558],[151.87047,-24.77721],[151.86689,-24.77766],[151.86516,-24.78015],[151.86523,-24.784],[151.86263,-24.78617],[151.84919,-24.78654],[151.84609,-24.79078],[151.8428,-24.79206],[151.83966,-24.7901],[151.84187,-24.78194],[151.8416,-24.77923],[151.83904,-24.77856],[151.83845,-24.77663],[151.83138,-24.77332],[151.82964,-24.7742],[151.82817,-24.77364],[151.8278,-24.77208],[151.82584,-24.7715],[151.82662,-24.77023],[151.82536,-24.76861],[151.8143,-24.76609],[151.81147,-24.75923],[151.80607,-24.75578],[151.80394,-24.74991],[151.80088,-24.74623],[151.78885,-24.74071],[151.75079,-24.73585],[151.74525,-24.77176],[151.74328,-24.76573],[151.72834,-24.75542],[151.72208,-24.74509],[151.71994,-24.73515],[151.71589,-24.73375],[151.71197,-24.73042],[151.69865,-24.71362],[151.68534,-24.70912],[151.68248,-24.70152],[151.67952,-24.69696],[151.67708,-24.6954],[151.67157,-24.69798],[151.66843,-24.70297],[151.66533,-24.70551],[151.66076,-24.70734],[151.65391,-24.70708],[151.65088,-24.70881],[151.64489,-24.71456],[151.64493,-24.7157],[151.6472,-24.71658],[151.65064,-24.71535],[151.65159,-24.71624],[151.65191,-24.7246],[151.64503,-24.72929],[151.63901,-24.73041],[151.63451,-24.72514],[151.6266,-24.72213],[151.62566,-24.71956],[151.62365,-24.71873],[151.61981,-24.71355],[151.61432,-24.70872],[151.6114,-24.70886],[151.6087,-24.707],[151.60871,-24.7048],[151.60588,-24.70524],[151.60125,-24.70177],[151.59531,-24.69981],[151.58014,-24.70431],[151.57618,-24.70197],[151.56922,-24.71019],[151.56532,-24.71049],[151.56077,-24.70313],[151.55267,-24.6983],[151.54359,-24.7006],[151.54216,-24.69889],[151.53299,-24.69571],[151.53118,-24.69625],[151.52647,-24.69186],[151.52653,-24.68982],[151.52409,-24.68447],[151.52056,-24.68129],[151.51973,-24.6759],[151.5161,-24.67366],[151.51457,-24.66978],[151.51618,-24.66757],[151.51616,-24.66573],[151.5184,-24.66445],[151.52438,-24.6658],[151.5267,-24.66787],[151.52773,-24.66121],[151.53243,-24.66046],[151.53327,-24.65561],[151.53556,-24.6544],[151.53851,-24.64806],[151.54161,-24.64561],[151.53833,-24.64081],[151.54052,-24.63213],[151.54211,-24.6307],[151.54032,-24.62413],[151.54214,-24.6207],[151.5423,-24.61745],[151.53703,-24.61409],[151.53543,-24.61433],[151.53592,-24.61024],[151.52587,-24.60066],[151.52011,-24.60015],[151.51716,-24.59869],[151.51347,-24.60057],[151.51056,-24.59691],[151.50789,-24.59618],[151.50484,-24.59358],[151.50635,-24.58877],[151.50919,-24.58635],[151.50824,-24.58167],[151.50495,-24.57825],[151.49791,-24.57644],[151.49689,-24.5724],[151.49823,-24.57118],[151.49409,-24.56714],[151.49025,-24.56589],[151.48822,-24.56229],[151.48983,-24.56136],[151.48811,-24.55968],[151.4883,-24.55746],[151.4851,-24.55225],[151.48695,-24.54867],[151.48905,-24.54801],[151.48843,-24.54455],[151.4867,-24.54113],[151.48358,-24.53839],[151.47754,-24.536],[151.47316,-24.53738],[151.47061,-24.5366],[151.46627,-24.53946],[151.46851,-24.54333],[151.46574,-24.55129],[151.46628,-24.55378],[151.46403,-24.5573],[151.46368,-24.56],[151.45847,-24.56589],[151.45698,-24.5706],[151.45276,-24.57045],[151.449,-24.56785],[151.44071,-24.5648],[151.43878,-24.56296],[151.43344,-24.56347],[151.43564,-24.57108],[151.43884,-24.57488],[151.44233,-24.5769],[151.4419,-24.57775],[151.43315,-24.59159],[151.43051,-24.59366],[151.42448,-24.5958],[151.41571,-24.59505],[151.41067,-24.59661],[151.41037,-24.60502],[151.40765,-24.60982],[151.40854,-24.61301],[151.40684,-24.61539],[151.40353,-24.61522],[151.40214,-24.61653],[151.39794,-24.61714],[151.39493,-24.6149],[151.39094,-24.6147],[151.38462,-24.60834],[151.38142,-24.61219],[151.37877,-24.61332],[151.37595,-24.61294],[151.37398,-24.60976],[151.3712,-24.60915],[151.37043,-24.61086],[151.36874,-24.61063],[151.36703,-24.61219],[151.36635,-24.61536],[151.36339,-24.6185],[151.36129,-24.62347],[151.35846,-24.62523],[151.35784,-24.6306],[151.35433,-24.63248],[151.34672,-24.64091],[151.34521,-24.64351],[151.34529,-24.64633],[151.34179,-24.64932],[151.33606,-24.64541],[151.33274,-24.64487],[151.32697,-24.6455],[151.32279,-24.64421],[151.32116,-24.6458],[151.32126,-24.64715],[151.31766,-24.64811],[151.31534,-24.64725],[151.31286,-24.64969],[151.31104,-24.64983],[151.30929,-24.65245],[151.31031,-24.65656],[151.3069,-24.6579],[151.3071,-24.66088],[151.30589,-24.66219],[151.30652,-24.66655],[151.30228,-24.66829],[151.2973,-24.6677],[151.29175,-24.65755],[151.28114,-24.65475],[151.27792,-24.6557],[151.27704,-24.65409],[151.27475,-24.65381],[151.27362,-24.65609],[151.27212,-24.65618],[151.26694,-24.65381],[151.2654,-24.65533],[151.26415,-24.65993],[151.25566,-24.66247],[151.25364,-24.66599],[151.24744,-24.65653],[151.24733,-24.65371],[151.24584,-24.65226],[151.24389,-24.65307],[151.24319,-24.65465],[151.23736,-24.65328],[151.2361,-24.65041],[151.23103,-24.64604],[151.23024,-24.639],[151.22759,-24.63764],[151.2243,-24.63864],[151.22014,-24.63386],[151.21728,-24.6339],[151.21352,-24.63585],[151.21108,-24.6354],[151.20948,-24.63748],[151.20624,-24.63819],[151.20644,-24.64032],[151.20266,-24.64143],[151.19924,-24.64394],[151.19637,-24.64335],[151.19473,-24.64254],[151.19321,-24.63506],[151.19831,-24.62982],[151.20443,-24.62786],[151.20772,-24.6246],[151.2102,-24.62545],[151.21603,-24.62454],[151.22353,-24.62775],[151.22779,-24.62873],[151.23018,-24.62792],[151.21866,-24.58609],[151.21909,-24.58501],[151.22125,-24.58457],[151.21953,-24.58376],[151.22065,-24.57956],[151.21846,-24.57549],[151.22142,-24.57172],[151.22357,-24.57174],[151.22569,-24.56848],[151.22438,-24.56418],[151.22838,-24.53724],[151.22797,-24.53271],[151.22974,-24.53076],[151.2293,-24.52771],[151.22657,-24.53003],[151.22134,-24.52959],[151.21861,-24.53101],[151.20916,-24.53275],[151.20569,-24.5312],[151.20206,-24.53128],[151.20046,-24.53375],[151.19951,-24.53982],[151.17902,-24.54305],[151.17871,-24.5441],[151.17353,-24.54545],[151.16895,-24.54972],[151.16541,-24.55059],[151.1616,-24.55004],[151.15747,-24.54701],[151.15633,-24.54483],[151.15684,-24.54126],[151.15291,-24.53775],[151.15426,-24.53214],[151.15226,-24.52694],[151.15297,-24.52361],[151.15588,-24.52169],[151.15405,-24.51275],[151.15577,-24.51017],[151.15543,-24.5076],[151.15813,-24.50444],[151.15881,-24.49994],[151.16143,-24.49888],[151.16161,-24.49328],[151.16429,-24.48678],[151.16886,-24.48455],[151.16916,-24.47904],[151.1668,-24.47644],[151.1643,-24.47564],[151.15864,-24.4686],[151.15419,-24.46546],[151.15338,-24.46062],[151.14902,-24.45946],[151.14746,-24.46038],[151.13787,-24.45563],[151.13564,-24.46043],[151.13353,-24.46118],[151.13414,-24.46377],[151.13287,-24.46483],[151.12407,-24.46681],[151.12247,-24.46835],[151.11813,-24.46707],[151.11661,-24.46875],[151.11487,-24.47462],[151.1137,-24.47453],[151.10697,-24.47023],[151.10608,-24.46251],[151.09976,-24.45846],[151.09806,-24.45029],[151.09325,-24.44352],[151.09151,-24.44365],[151.08986,-24.44102],[151.07197,-24.43792],[151.0697,-24.43258],[151.06691,-24.43187],[151.06649,-24.43014],[151.06428,-24.42946],[151.06332,-24.42743],[151.061,-24.42615],[151.05744,-24.42757],[151.05485,-24.42024],[151.05242,-24.42018],[151.05126,-24.41738],[151.04946,-24.4171],[151.04532,-24.41287],[151.04454,-24.40653],[151.04784,-24.40168],[151.04558,-24.39604]]]},"properties":{"District Name":"Bundaberg","DDMG Name":"Bundaberg","Police Region Name":"North Coast Region","Police Region Code":"NCR","Police Region Short Name":"North Coast"}},{"type":"Feature","geometry":{"type":"Polygon","coordinates":[[[151.07875,-26.09668],[151.0821,-26.09962],[151.08466,-26.1001],[151.08811,-26.10518],[151.09295,-26.10628],[151.0966,-26.10853],[151.09782,-26.11075],[151.10216,-26.11039],[151.10379,-26.1117],[151.10724,-26.11134],[151.10812,-26.11274],[151.11117,-26.11267],[151.11542,-26.11871],[151.12057,-26.11773],[151.12385,-26.11374],[151.12628,-26.11451],[151.13444,-26.10529],[151.13539,-26.1075],[151.13738,-26.10771],[151.14291,-26.10399],[151.14987,-26.10542],[151.15166,-26.10772],[151.15172,-26.1111],[151.15953,-26.1208],[151.15788,-26.12927],[151.15905,-26.13182],[151.15654,-26.13373],[151.1565,-26.13605],[151.1573,-26.13838],[151.15948,-26.13954],[151.1607,-26.142],[151.162,-26.14953],[151.15878,-26.15454],[151.15005,-26.15965],[151.14702,-26.15787],[151.1424,-26.15982],[151.13929,-26.15918],[151.12569,-26.15144],[151.12533,-26.14998],[151.12266,-26.14839],[151.12058,-26.14297],[151.11587,-26.14087],[151.0987,-26.14988],[151.09983,-26.16028],[151.09288,-26.15935],[151.0764,-26.16178],[151.07324,-26.17259],[151.02274,-26.19544],[151.01823,-26.1925],[151.01326,-26.19206],[151.01671,-26.25622],[151.06652,-26.25473],[151.13638,-26.26306],[151.11544,-26.3794],[151.07734,-26.46254],[151.20773,-26.47877],[151.20841,-26.48068],[151.20363,-26.48576],[151.20339,-26.48891],[151.20805,-26.49455],[151.20416,-26.50095],[151.20455,-26.50299],[151.20613,-26.50362],[151.21224,-26.51396],[151.21871,-26.51748],[151.22238,-26.51821],[151.22188,-26.52134],[151.22747,-26.52438],[151.22969,-26.52713],[151.23425,-26.52563],[151.23538,-26.52355],[151.23786,-26.52267],[151.24311,-26.5277],[151.24669,-26.52653],[151.24777,-26.52791],[151.24818,-26.53371],[151.24712,-26.53671],[151.24974,-26.54235],[151.25432,-26.54425],[151.25764,-26.54822],[151.26597,-26.54989],[151.26897,-26.54833],[151.27155,-26.54889],[151.27657,-26.54523],[151.27771,-26.54278],[151.27931,-26.54369],[151.28336,-26.54247],[151.28393,-26.54373],[151.28753,-26.54489],[151.28681,-26.55383],[151.28769,-26.55734],[151.29489,-26.56649],[151.30138,-26.57055],[151.30487,-26.57967],[151.30747,-26.58192],[151.31031,-26.58261],[151.30997,-26.58452],[151.31379,-26.59101],[151.31563,-26.58991],[151.31817,-26.59042],[151.32279,-26.58581],[151.32453,-26.58704],[151.32584,-26.5921],[151.32851,-26.59384],[151.33036,-26.59314],[151.33368,-26.59836],[151.33276,-26.60072],[151.33348,-26.60166],[151.34198,-26.60698],[151.34983,-26.60819],[151.3519,-26.6172],[151.35782,-26.61872],[151.36342,-26.62361],[151.36869,-26.62426],[151.37109,-26.62783],[151.36958,-26.63081],[151.37112,-26.632],[151.37862,-26.6296],[151.38313,-26.63331],[151.38478,-26.63649],[151.38869,-26.63832],[151.39302,-26.63779],[151.39476,-26.6388],[151.39467,-26.64136],[151.39926,-26.64522],[151.4028,-26.65104],[151.40803,-26.6566],[151.4081,-26.65685],[151.40923,-26.66065],[151.40719,-26.67395],[151.39189,-26.68421],[151.39434,-26.68497],[151.39763,-26.69128],[151.40525,-26.69513],[151.4077,-26.69437],[151.41073,-26.69687],[151.417,-26.69796],[151.41802,-26.70251],[151.41619,-26.7076],[151.41386,-26.71038],[151.41438,-26.71311],[151.41664,-26.71432],[151.41718,-26.71718],[151.41325,-26.72521],[151.41816,-26.72887],[151.41898,-26.74039],[151.42078,-26.74595],[151.42359,-26.74612],[151.42523,-26.74842],[151.42653,-26.74807],[151.43157,-26.7521],[151.43439,-26.75217],[151.43626,-26.75435],[151.44054,-26.75658],[151.45032,-26.75792],[151.45575,-26.76008],[151.45943,-26.75972],[151.46449,-26.76181],[151.46915,-26.75998],[151.47379,-26.76035],[151.47601,-26.75701],[151.47962,-26.75687],[151.48262,-26.75429],[151.48997,-26.75722],[151.49375,-26.76281],[151.49761,-26.76324],[151.49955,-26.76216],[151.5044,-26.76298],[151.50641,-26.7667],[151.51057,-26.76707],[151.51484,-26.76557],[151.51981,-26.76656],[151.5201,-26.76795],[151.51782,-26.77238],[151.51823,-26.77986],[151.51652,-26.78258],[151.51743,-26.78808],[151.5211,-26.79139],[151.52163,-26.79328],[151.51645,-26.79906],[151.51902,-26.80084],[151.52397,-26.81076],[151.52825,-26.81174],[151.53092,-26.81808],[151.53596,-26.82044],[151.53952,-26.8197],[151.54384,-26.82393],[151.54554,-26.82761],[151.54845,-26.82951],[151.54826,-26.83283],[151.54938,-26.8356],[151.55578,-26.83973],[151.55848,-26.84608],[151.56244,-26.85162],[151.56798,-26.85327],[151.56773,-26.8581],[151.57124,-26.86068],[151.57217,-26.86971],[151.5773,-26.87987],[151.58222,-26.87929],[151.58658,-26.88123],[151.58721,-26.88379],[151.58926,-26.88553],[151.59257,-26.88465],[151.59905,-26.8855],[151.60041,-26.88837],[151.60384,-26.89107],[151.60685,-26.89156],[151.60794,-26.89297],[151.612,-26.89244],[151.61692,-26.89654],[151.61702,-26.89888],[151.6192,-26.89868],[151.62016,-26.9003],[151.62222,-26.9008],[151.63019,-26.89887],[151.63895,-26.90692],[151.64246,-26.90731],[151.64494,-26.91104],[151.64791,-26.91295],[151.64981,-26.91385],[151.65197,-26.9151],[151.65278,-26.91498],[151.65962,-26.91397],[151.66424,-26.91019],[151.66621,-26.91057],[151.66999,-26.91675],[151.67321,-26.91817],[151.67413,-26.92009],[151.67818,-26.92214],[151.68164,-26.92183],[151.6895,-26.92662],[151.69189,-26.93172],[151.69483,-26.93238],[151.70006,-26.9386],[151.70497,-26.93847],[151.71363,-26.94437],[151.72203,-26.94755],[151.72242,-26.9476],[151.724,-26.94779],[151.72509,-26.94793],[151.73235,-26.94428],[151.73784,-26.94701],[151.74561,-26.94553],[151.75264,-26.94779],[151.7587,-26.94737],[151.78151,-26.94029],[151.78578,-26.93796],[151.79288,-26.93062],[151.80184,-26.9352],[151.80864,-26.93092],[151.81184,-26.93203],[151.81896,-26.92843],[151.81911,-26.9282],[151.82455,-26.91995],[151.83371,-26.91301],[151.83377,-26.91292],[151.838,-26.90684],[151.84258,-26.9032],[151.84259,-26.90309],[151.84318,-26.89767],[151.88649,-26.87937],[151.88611,-26.8777],[151.88765,-26.87335],[151.89271,-26.86802],[151.89677,-26.86622],[151.89864,-26.8553],[151.89695,-26.85112],[151.89861,-26.84915],[151.89809,-26.84623],[151.90211,-26.8416],[151.90193,-26.83712],[151.90651,-26.83191],[151.90586,-26.83156],[151.91588,-26.82736],[151.91894,-26.82298],[151.92199,-26.8218],[151.92563,-26.81539],[151.92576,-26.81049],[151.93311,-26.80139],[151.97345,-26.80591],[151.97459,-26.79774],[151.97745,-26.79814],[151.97929,-26.78655],[151.98661,-26.78233],[151.98865,-26.78356],[151.9966,-26.78307],[151.99779,-26.77592],[152.0077,-26.76941],[152.01578,-26.77919],[152.01858,-26.77817],[152.02055,-26.77898],[152.02017,-26.78114],[152.03218,-26.78273],[152.03302,-26.77756],[152.03515,-26.77824],[152.03934,-26.77402],[152.04654,-26.77396],[152.04773,-26.76972],[152.05311,-26.7669],[152.05168,-26.77711],[152.06388,-26.77852],[152.06547,-26.78779],[152.06326,-26.79265],[152.06393,-26.79727],[152.05965,-26.79912],[152.06349,-26.8027],[152.0637,-26.8037],[152.06409,-26.80546],[152.06421,-26.80604],[152.06529,-26.80729],[152.06616,-26.80831],[152.06688,-26.80915],[152.07032,-26.80919],[152.07216,-26.81107],[152.07343,-26.81465],[152.07254,-26.81872],[152.07047,-26.8219],[152.0685,-26.81946],[152.06376,-26.82031],[152.06247,-26.82426],[152.05942,-26.82767],[152.05956,-26.82798],[152.06011,-26.82914],[152.06208,-26.83334],[152.06231,-26.83435],[152.06169,-26.83532],[152.05881,-26.83868],[152.05465,-26.84074],[152.05373,-26.8412],[152.05305,-26.84153],[152.04889,-26.84516],[152.04221,-26.84379],[152.04066,-26.84917],[152.03545,-26.84865],[152.03351,-26.85023],[152.03481,-26.85553],[152.03798,-26.85754],[152.04182,-26.85493],[152.04669,-26.85628],[152.0497,-26.8544],[152.05272,-26.85477],[152.05399,-26.85747],[152.05569,-26.85844],[152.07614,-26.86084],[152.06855,-26.86877],[152.06858,-26.87102],[152.06651,-26.87407],[152.06291,-26.87665],[152.06511,-26.88081],[152.06715,-26.88137],[152.06798,-26.88388],[152.06693,-26.88869],[152.06774,-26.89835],[152.06384,-26.90059],[152.06254,-26.90378],[152.05888,-26.9049],[152.05733,-26.90977],[152.05303,-26.9107],[152.05103,-26.91897],[152.05108,-26.91898],[152.05778,-26.92027],[152.06444,-26.92667],[152.07111,-26.92712],[152.07773,-26.92388],[152.07968,-26.92081],[152.08093,-26.92199],[152.08858,-26.91893],[152.08807,-26.91709],[152.09169,-26.91619],[152.09253,-26.91386],[152.10234,-26.91107],[152.10801,-26.90315],[152.11451,-26.90353],[152.11992,-26.90189],[152.1213,-26.89999],[152.12489,-26.90025],[152.13585,-26.90612],[152.13784,-26.90003],[152.13794,-26.89923],[152.14142,-26.88779],[152.14695,-26.87923],[152.15444,-26.87376],[152.15953,-26.87379],[152.16514,-26.87061],[152.16704,-26.86708],[152.17045,-26.86755],[152.1695,-26.87214],[152.17265,-26.87525],[152.18865,-26.87738],[152.18894,-26.87562],[152.18425,-26.87102],[152.18344,-26.86565],[152.18425,-26.85118],[152.18103,-26.84656],[152.18255,-26.83726],[152.18771,-26.83792],[152.19009,-26.8236],[152.17412,-26.82144],[152.17435,-26.81575],[152.17639,-26.80906],[152.17228,-26.80294],[152.17316,-26.80092],[152.17051,-26.79683],[152.17365,-26.79531],[152.17308,-26.79365],[152.17456,-26.79199],[152.17416,-26.78471],[152.17544,-26.78299],[152.17905,-26.78376],[152.17662,-26.77977],[152.17113,-26.77704],[152.16825,-26.77296],[152.16396,-26.77558],[152.16261,-26.77518],[152.15579,-26.76881],[152.156,-26.75996],[152.15833,-26.75696],[152.1555,-26.75332],[152.15666,-26.75101],[152.15905,-26.74984],[152.16034,-26.74721],[152.16215,-26.74618],[152.1639,-26.74211],[152.15075,-26.74053],[152.15264,-26.72801],[152.14725,-26.72842],[152.14226,-26.72714],[152.1402,-26.7282],[152.14042,-26.72997],[152.14589,-26.73418],[152.14541,-26.73679],[152.14398,-26.73821],[152.13753,-26.73912],[152.13288,-26.74121],[152.12969,-26.73425],[152.13407,-26.73186],[152.13405,-26.73047],[152.1296,-26.72767],[152.12808,-26.72296],[152.12376,-26.71732],[152.11923,-26.71421],[152.11361,-26.70695],[152.11242,-26.70617],[152.10233,-26.70957],[152.10383,-26.7089],[152.09913,-26.70558],[152.09978,-26.70434],[152.10135,-26.70502],[152.10099,-26.70328],[152.09109,-26.70062],[152.08491,-26.69716],[152.084,-26.69594],[152.08331,-26.69445],[152.08279,-26.68894],[152.07563,-26.685],[152.07577,-26.6785],[152.07367,-26.66674],[152.07376,-26.66622],[152.0745,-26.66456],[152.07887,-26.66167],[152.0818,-26.65765],[152.08691,-26.65529],[152.08991,-26.654],[152.09865,-26.65374],[152.10011,-26.65311],[152.10577,-26.65064],[152.10729,-26.64776],[152.11107,-26.64707],[152.11532,-26.64494],[152.1162,-26.64333],[152.11823,-26.64347],[152.11963,-26.6374],[152.12675,-26.63797],[152.12956,-26.64021],[152.13081,-26.63878],[152.12977,-26.63631],[152.13,-26.63167],[152.12831,-26.62712],[152.13586,-26.61432],[152.13252,-26.60508],[152.13011,-26.60244],[152.13043,-26.60047],[152.13784,-26.59658],[152.13965,-26.5942],[152.14178,-26.59514],[152.14317,-26.59278],[152.13771,-26.58819],[152.13725,-26.58278],[152.13178,-26.57905],[152.13088,-26.57501],[152.13253,-26.5703],[152.1358,-26.56637],[152.13577,-26.56081],[152.13267,-26.55688],[152.13198,-26.55011],[152.12995,-26.54849],[152.12989,-26.54515],[152.12836,-26.54227],[152.12832,-26.5385],[152.13045,-26.53703],[152.13034,-26.53544],[152.12633,-26.53158],[152.12698,-26.52817],[152.13014,-26.52716],[152.13169,-26.52195],[152.12742,-26.51861],[152.12772,-26.511],[152.12564,-26.50939],[152.12574,-26.50658],[152.12955,-26.50489],[152.13376,-26.50042],[152.13385,-26.49835],[152.13603,-26.49517],[152.13554,-26.49118],[152.13237,-26.48778],[152.13558,-26.48023],[152.13792,-26.47887],[152.141,-26.47884],[152.1495,-26.48287],[152.15142,-26.48051],[152.15383,-26.48038],[152.15533,-26.47503],[152.15733,-26.47528],[152.16023,-26.47781],[152.16255,-26.47481],[152.16635,-26.47467],[152.16858,-26.4775],[152.17168,-26.47814],[152.17421,-26.48168],[152.1792,-26.48479],[152.18168,-26.48446],[152.18442,-26.48603],[152.18949,-26.49209],[152.1948,-26.49558],[152.19747,-26.50021],[152.20502,-26.50751],[152.20658,-26.51109],[152.21357,-26.51305],[152.2153,-26.51223],[152.21809,-26.50626],[152.22123,-26.5039],[152.22863,-26.5081],[152.2309,-26.50718],[152.2326,-26.50409],[152.23176,-26.50043],[152.23271,-26.49745],[152.23208,-26.49526],[152.22927,-26.49267],[152.23506,-26.48881],[152.23776,-26.48943],[152.24134,-26.48771],[152.24387,-26.48794],[152.24558,-26.48558],[152.24964,-26.48439],[152.25182,-26.48535],[152.25325,-26.48444],[152.25619,-26.4785],[152.25926,-26.47648],[152.25974,-26.47139],[152.26221,-26.46887],[152.26796,-26.4689],[152.27304,-26.46428],[152.27381,-26.4535],[152.27669,-26.45408],[152.27863,-26.45266],[152.28545,-26.45289],[152.28909,-26.45665],[152.29418,-26.45875],[152.29754,-26.4627],[152.29745,-26.46498],[152.30063,-26.46441],[152.30459,-26.46606],[152.30526,-26.46681],[152.30449,-26.46882],[152.31136,-26.4724],[152.31551,-26.48078],[152.31775,-26.48055],[152.31964,-26.47699],[152.32334,-26.47683],[152.32557,-26.47518],[152.33038,-26.47527],[152.33446,-26.47276],[152.33925,-26.47159],[152.34066,-26.46925],[152.34401,-26.46791],[152.3501,-26.4693],[152.35116,-26.4677],[152.3561,-26.46518],[152.36062,-26.46626],[152.3644,-26.46314],[152.37244,-26.46295],[152.37312,-26.46825],[152.37657,-26.47008],[152.37705,-26.47224],[152.38679,-26.47218],[152.39038,-26.47594],[152.39274,-26.47372],[152.39937,-26.4708],[152.40322,-26.47388],[152.40772,-26.47108],[152.40814,-26.46852],[152.41257,-26.4642],[152.42124,-26.46718],[152.4251,-26.46416],[152.43018,-26.46372],[152.43167,-26.46452],[152.4352,-26.46283],[152.43678,-26.45975],[152.44343,-26.45986],[152.43934,-26.48581],[152.44557,-26.48661],[152.44562,-26.48494],[152.44823,-26.484],[152.44494,-26.50469],[152.44166,-26.50698],[152.43896,-26.51134],[152.43967,-26.51727],[152.43894,-26.5199],[152.43699,-26.52037],[152.43548,-26.5238],[152.43585,-26.53744],[152.43663,-26.5385],[152.4382,-26.5384],[152.43873,-26.53513],[152.44314,-26.53279],[152.44261,-26.53037],[152.44347,-26.52773],[152.44959,-26.53077],[152.44846,-26.53779],[152.44693,-26.53805],[152.44516,-26.54407],[152.44084,-26.54589],[152.44353,-26.54624],[152.44285,-26.55053],[152.44127,-26.55262],[152.44134,-26.55603],[152.4402,-26.55692],[152.45083,-26.55841],[152.44904,-26.56978],[152.45854,-26.57099],[152.45695,-26.58093],[152.51993,-26.58848],[152.52236,-26.58646],[152.51518,-26.57767],[152.51154,-26.56748],[152.55409,-26.57251],[152.56041,-26.58184],[152.56497,-26.58369],[152.56946,-26.58247],[152.57522,-26.58393],[152.5755,-26.58391],[152.57651,-26.58415],[152.57718,-26.58335],[152.57928,-26.58088],[152.58794,-26.57975],[152.58901,-26.58244],[152.59441,-26.58473],[152.60271,-26.57794],[152.60587,-26.5797],[152.60632,-26.5843],[152.61318,-26.58286],[152.61866,-26.58431],[152.62563,-26.58198],[152.62945,-26.58378],[152.63576,-26.58513],[152.63799,-26.58456],[152.63843,-26.58565],[152.64825,-26.58776],[152.65264,-26.59025],[152.65358,-26.59283],[152.66026,-26.59711],[152.66996,-26.59612],[152.68049,-26.59771],[152.68142,-26.59089],[152.68289,-26.58929],[152.68127,-26.58251],[152.68261,-26.58206],[152.68365,-26.57879],[152.68602,-26.57702],[152.69496,-26.57557],[152.69472,-26.57178],[152.69562,-26.57041],[152.69493,-26.56788],[152.70075,-26.56521],[152.70659,-26.55984],[152.70844,-26.5599],[152.71056,-26.55658],[152.70955,-26.55417],[152.71047,-26.55251],[152.71156,-26.55265],[152.71225,-26.54623],[152.71467,-26.54635],[152.72845,-26.53698],[152.73339,-26.543],[152.73764,-26.54025],[152.74513,-26.54963],[152.74647,-26.54986],[152.74982,-26.54725],[152.75187,-26.54935],[152.75205,-26.54954],[152.75275,-26.54959],[152.75415,-26.54968],[152.75455,-26.54971],[152.75599,-26.5488],[152.75569,-26.54642],[152.7587,-26.54289],[152.7581,-26.54189],[152.7551,-26.54215],[152.75835,-26.53663],[152.76199,-26.53643],[152.76396,-26.54044],[152.76627,-26.53771],[152.76824,-26.53539],[152.76919,-26.53426],[152.76934,-26.5329],[152.76942,-26.53218],[152.76952,-26.53122],[152.7687,-26.52971],[152.7677,-26.52788],[152.76739,-26.52731],[152.76583,-26.52689],[152.76334,-26.52557],[152.75981,-26.52501],[152.76208,-26.51065],[152.74345,-26.50812],[152.74341,-26.50645],[152.74518,-26.50432],[152.74392,-26.50275],[152.7452,-26.50154],[152.74493,-26.49894],[152.74962,-26.49749],[152.75263,-26.49114],[152.75783,-26.48766],[152.76144,-26.48689],[152.76185,-26.48334],[152.76555,-26.48251],[152.76512,-26.47953],[152.76667,-26.47776],[152.76475,-26.47519],[152.76064,-26.47447],[152.75858,-26.4756],[152.75649,-26.47426],[152.75823,-26.47121],[152.75762,-26.46844],[152.76442,-26.46936],[152.76547,-26.46361],[152.76857,-26.46462],[152.76721,-26.4684],[152.76801,-26.47027],[152.78861,-26.47305],[152.79606,-26.43222],[152.79115,-26.43181],[152.79322,-26.41726],[152.79639,-26.41913],[152.79692,-26.41577],[152.79266,-26.40862],[152.79344,-26.4069],[152.78933,-26.40354],[152.78564,-26.40324],[152.78153,-26.40452],[152.77868,-26.40356],[152.77789,-26.40246],[152.77911,-26.39533],[152.76899,-26.39392],[152.77041,-26.3858],[152.76842,-26.38552],[152.77071,-26.37262],[152.76879,-26.37111],[152.76735,-26.37121],[152.76881,-26.37147],[152.76829,-26.37276],[152.7653,-26.37238],[152.76299,-26.375],[152.76521,-26.3623],[152.76753,-26.36268],[152.77088,-26.34386],[152.77199,-26.34404],[152.77207,-26.34574],[152.78098,-26.34946],[152.79261,-26.35139],[152.79717,-26.32489],[152.79837,-26.32495],[152.79952,-26.31833],[152.80259,-26.31786],[152.80316,-26.3146],[152.80644,-26.30857],[152.80804,-26.29937],[152.82535,-26.24824],[152.82271,-26.23983],[152.82767,-26.23892],[152.82523,-26.2236],[152.83025,-26.22052],[152.83091,-26.21612],[152.85004,-26.2184],[152.85302,-26.19845],[152.86991,-26.20079],[152.86982,-26.19929],[152.87643,-26.20125],[152.8848,-26.20721],[152.89256,-26.21657],[152.89125,-26.21848],[152.89626,-26.21919],[152.89766,-26.21055],[152.90363,-26.21134],[152.90431,-26.20713],[152.92289,-26.20957],[152.9226,-26.19875],[152.93385,-26.19666],[152.93988,-26.19841],[152.94406,-26.19681],[152.9453,-26.19208],[152.94777,-26.19091],[152.95733,-26.18998],[152.96072,-26.18554],[152.9608,-26.18177],[152.96512,-26.18026],[152.966,-26.17453],[152.96951,-26.16452],[152.97187,-26.16483],[152.97466,-26.14717],[152.97253,-26.1452],[152.97383,-26.13712],[153.09653,-26.15477],[153.11389,-26.10232],[153.14179,-26.0295],[153.17964,-25.95011],[153.18719,-25.93658],[153.19133,-25.93643],[153.1915,-25.9325],[153.18674,-25.92697],[153.18281,-25.92799],[153.17518,-25.9456],[153.17581,-25.94658],[153.16937,-25.94966],[153.15931,-25.95024],[153.14821,-25.94853],[153.13817,-25.94508],[153.12852,-25.94007],[153.11706,-25.93145],[153.10683,-25.9206],[153.0906,-25.89871],[153.0871,-25.89215],[153.08148,-25.87661],[153.07641,-25.853],[153.07261,-25.81688],[153.06971,-25.81138],[153.0753,-25.80221],[153.06321,-25.80065],[153.04427,-25.80076],[153.03974,-25.80747],[153.03445,-25.82468],[153.03495,-25.83334],[153.03863,-25.84635],[153.03785,-25.85386],[153.0366,-25.85586],[153.02633,-25.86009],[153.0191,-25.86682],[153.00516,-25.87616],[152.99499,-25.87868],[152.99235,-25.88149],[152.99161,-25.88172],[152.73523,-25.84238],[152.73603,-25.84737],[152.72892,-25.8442],[152.71836,-25.84116],[152.71445,-25.84003],[152.71427,-25.83998],[152.7125,-25.8423],[152.71453,-25.84295],[152.71257,-25.84411],[152.71235,-25.84564],[152.71234,-25.84574],[152.71947,-25.84547],[152.72465,-25.84676],[152.71868,-25.85267],[152.72752,-25.86315],[152.72879,-25.86751],[152.73205,-25.86619],[152.73363,-25.86718],[152.73622,-25.86529],[152.73666,-25.86687],[152.73399,-25.86958],[152.73443,-25.87279],[152.73885,-25.87395],[152.74048,-25.88009],[152.74132,-25.87998],[152.74161,-25.87732],[152.74445,-25.87457],[152.74754,-25.87411],[152.74671,-25.87588],[152.7505,-25.87755],[152.75133,-25.87899],[152.75196,-25.88668],[152.75061,-25.88746],[152.74875,-25.88596],[152.74415,-25.88823],[152.74335,-25.89293],[152.74425,-25.89549],[152.74121,-25.89698],[152.74157,-25.89879],[152.7385,-25.9019],[152.73872,-25.90883],[152.73639,-25.90992],[152.73514,-25.91188],[152.72907,-25.91305],[152.72014,-25.91243],[152.71791,-25.91538],[152.71579,-25.91432],[152.70807,-25.91632],[152.7075,-25.91952],[152.70399,-25.92326],[152.70402,-25.92762],[152.69447,-25.93293],[152.69454,-25.93602],[152.68829,-25.9403],[152.67228,-25.93808],[152.66975,-25.95291],[152.67535,-25.95374],[152.67394,-25.96246],[152.66783,-25.9616],[152.66501,-25.97926],[152.65627,-25.9781],[152.65711,-25.98015],[152.65501,-25.98608],[152.62108,-25.98144],[152.62187,-25.97471],[152.61113,-25.97327],[152.61434,-25.95692],[152.60101,-25.9551],[152.60232,-25.94943],[152.60029,-25.94915],[152.60055,-25.94763],[152.56679,-25.9431],[152.56799,-25.93373],[152.56571,-25.93345],[152.56365,-25.92845],[152.56734,-25.92478],[152.56814,-25.92202],[152.55964,-25.9211],[152.55787,-25.9325],[152.55042,-25.93163],[152.54866,-25.93008],[152.55058,-25.92049],[152.5496,-25.9181],[152.54656,-25.91668],[152.54544,-25.91289],[152.50585,-25.90781],[152.50606,-25.90648],[152.501,-25.90584],[152.49688,-25.90833],[152.47489,-25.90542],[152.47575,-25.90307],[152.47386,-25.89931],[152.4648,-25.8986],[152.46349,-25.89372],[152.44888,-25.89161],[152.44613,-25.89266],[152.44602,-25.88649],[152.42072,-25.88297],[152.42259,-25.87196],[152.41087,-25.87037],[152.41158,-25.86595],[152.38672,-25.8631],[152.38783,-25.86705],[152.38665,-25.87262],[152.38092,-25.87493],[152.3775,-25.87392],[152.37496,-25.86703],[152.34557,-25.86333],[152.34079,-25.89362],[152.33338,-25.89212],[152.3307,-25.90754],[152.23148,-25.89366],[152.23127,-25.89466],[152.16945,-25.88744],[152.16937,-25.88194],[152.15963,-25.87871],[152.1526,-25.88404],[152.14619,-25.88375],[152.14329,-25.8804],[152.13727,-25.87732],[152.13666,-25.87419],[152.13337,-25.8735],[152.13017,-25.87776],[152.13104,-25.87993],[152.13012,-25.8857],[152.12726,-25.88657],[152.12304,-25.88594],[152.12186,-25.88195],[152.11989,-25.88159],[152.1195,-25.87883],[152.11676,-25.87657],[152.11622,-25.87483],[152.11763,-25.87279],[152.11601,-25.87236],[152.11468,-25.86942],[152.11567,-25.867],[152.11497,-25.86495],[152.11717,-25.86213],[152.11695,-25.86025],[152.1153,-25.85962],[152.11483,-25.85759],[152.11328,-25.85721],[152.10638,-25.86236],[152.10204,-25.86217],[152.10216,-25.86412],[152.10023,-25.86782],[152.09584,-25.8717],[152.09355,-25.8711],[152.09012,-25.87284],[152.085,-25.87142],[152.08164,-25.8731],[152.08067,-25.875],[152.07289,-25.87741],[152.07245,-25.87998],[152.07019,-25.88148],[152.07104,-25.88359],[152.06846,-25.88499],[152.05898,-25.8864],[152.05752,-25.88296],[152.04742,-25.87854],[152.04321,-25.87506],[152.04493,-25.87364],[152.04531,-25.87066],[152.04715,-25.86785],[152.04995,-25.86767],[152.04799,-25.86232],[152.05073,-25.85572],[152.04917,-25.85184],[152.04526,-25.85125],[152.04452,-25.85247],[152.03842,-25.8513],[152.0366,-25.85239],[152.03317,-25.85223],[152.02865,-25.85007],[152.02944,-25.84521],[152.03228,-25.84324],[152.03263,-25.84182],[152.03099,-25.84045],[152.03155,-25.8369],[152.02894,-25.82939],[152.03145,-25.82588],[152.03193,-25.82184],[152.03175,-25.82057],[152.02932,-25.81952],[152.02853,-25.81166],[152.03599,-25.80383],[152.03455,-25.80064],[152.03636,-25.79836],[152.03534,-25.79522],[152.0386,-25.79352],[152.03897,-25.7902],[152.02917,-25.78706],[152.0211,-25.78899],[152.01854,-25.78645],[152.00818,-25.78246],[152.00731,-25.77985],[152.00317,-25.77655],[152.00165,-25.77223],[151.99778,-25.77091],[151.9977,-25.77088],[151.99774,-25.77102],[151.99499,-25.77369],[151.99181,-25.7728],[151.99029,-25.77369],[151.98906,-25.77734],[151.98635,-25.77857],[151.98897,-25.78319],[151.98487,-25.79068],[151.98613,-25.80108],[151.98377,-25.8034],[151.98271,-25.80803],[151.98019,-25.80872],[151.9788,-25.81352],[151.97707,-25.81345],[151.97321,-25.81072],[151.97196,-25.81248],[151.97197,-25.81644],[151.96872,-25.82289],[151.97001,-25.82391],[151.96853,-25.82625],[151.97017,-25.83046],[151.96292,-25.83392],[151.9593,-25.83304],[151.9552,-25.84249],[151.9508,-25.84544],[151.94815,-25.8507],[151.94427,-25.85077],[151.94035,-25.85353],[151.93765,-25.85598],[151.93455,-25.86271],[151.93043,-25.86292],[151.92844,-25.86748],[151.92125,-25.86786],[151.91272,-25.87249],[151.90318,-25.87031],[151.897,-25.86672],[151.89467,-25.86186],[151.89196,-25.85893],[151.89246,-25.85534],[151.89103,-25.85197],[151.8924,-25.84895],[151.89133,-25.84457],[151.88903,-25.84234],[151.88403,-25.84342],[151.88213,-25.84204],[151.88053,-25.83471],[151.87705,-25.83309],[151.8789,-25.83106],[151.879,-25.82827],[151.87625,-25.82756],[151.87067,-25.81872],[151.87226,-25.81862],[151.87449,-25.81514],[151.87357,-25.81358],[151.86685,-25.80998],[151.86349,-25.8114],[151.86071,-25.81102],[151.86263,-25.80679],[151.86237,-25.80455],[151.86059,-25.80311],[151.85919,-25.80637],[151.85566,-25.80539],[151.85316,-25.80677],[151.85056,-25.80487],[151.84939,-25.80556],[151.84577,-25.80392],[151.84026,-25.79827],[151.83627,-25.79635],[151.83154,-25.79661],[151.82897,-25.79451],[151.82873,-25.78479],[151.82637,-25.78287],[151.8183,-25.78695],[151.81294,-25.785],[151.81254,-25.78246],[151.81357,-25.78008],[151.81274,-25.7758],[151.81131,-25.77089],[151.80829,-25.76669],[151.81045,-25.76233],[151.80034,-25.75695],[151.79962,-25.75861],[151.79823,-25.75902],[151.79151,-25.7573],[151.78991,-25.75854],[151.78939,-25.76142],[151.79114,-25.7677],[151.79059,-25.77081],[151.78822,-25.7723],[151.77954,-25.77355],[151.7751,-25.77786],[151.77699,-25.78196],[151.78076,-25.78611],[151.78078,-25.78944],[151.77579,-25.78976],[151.7676,-25.78745],[151.76289,-25.79859],[151.75779,-25.80131],[151.75678,-25.80304],[151.75869,-25.8057],[151.76389,-25.80597],[151.76497,-25.81043],[151.77222,-25.81141],[151.77473,-25.81436],[151.77167,-25.82151],[151.76625,-25.82351],[151.76479,-25.82588],[151.76681,-25.83281],[151.76635,-25.83947],[151.76982,-25.84328],[151.77049,-25.84764],[151.76708,-25.8545],[151.7675,-25.85645],[151.76963,-25.85729],[151.76935,-25.85984],[151.77281,-25.86202],[151.77371,-25.86461],[151.77565,-25.87299],[151.77568,-25.8782],[151.77411,-25.88447],[151.77563,-25.88863],[151.77905,-25.89158],[151.78046,-25.89426],[151.77929,-25.9004],[151.77599,-25.90605],[151.77633,-25.91261],[151.77897,-25.91551],[151.78079,-25.9156],[151.78297,-25.9138],[151.78495,-25.91482],[151.78469,-25.91677],[151.7831,-25.91761],[151.77909,-25.91862],[151.77651,-25.91796],[151.77771,-25.92106],[151.77717,-25.92273],[151.77274,-25.92557],[151.76989,-25.92911],[151.76397,-25.93163],[151.76288,-25.93288],[151.76277,-25.93641],[151.76078,-25.93757],[151.75903,-25.93839],[151.75303,-25.9374],[151.75316,-25.93651],[151.75001,-25.93444],[151.74375,-25.93362],[151.7364,-25.93878],[151.73434,-25.93871],[151.73084,-25.9354],[151.71561,-25.93243],[151.70949,-25.92964],[151.69146,-25.91792],[151.66801,-25.91308],[151.65705,-25.91217],[151.66157,-25.89696],[151.65753,-25.89318],[151.65966,-25.88887],[151.65004,-25.88157],[151.65324,-25.87306],[151.6447,-25.87281],[151.64132,-25.86922],[151.63813,-25.87111],[151.63502,-25.87123],[151.63183,-25.8686],[151.62787,-25.86094],[151.61958,-25.85961],[151.61606,-25.85721],[151.61474,-25.85417],[151.60409,-25.85543],[151.60144,-25.85733],[151.60036,-25.86052],[151.58903,-25.86519],[151.58442,-25.86449],[151.57847,-25.85916],[151.57248,-25.85919],[151.56946,-25.85797],[151.56447,-25.85844],[151.55972,-25.85699],[151.55371,-25.85912],[151.55182,-25.85879],[151.5493,-25.85525],[151.54615,-25.85467],[151.53876,-25.85653],[151.53606,-25.8542],[151.53357,-25.85406],[151.52818,-25.85638],[151.5243,-25.85509],[151.52156,-25.85619],[151.51972,-25.85567],[151.51727,-25.8573],[151.50836,-25.90988],[151.50737,-25.90991],[151.50716,-25.91114],[151.50469,-25.90933],[151.50383,-25.91098],[151.49937,-25.91054],[151.49761,-25.90661],[151.49443,-25.90549],[151.49492,-25.89862],[151.49245,-25.89823],[151.49277,-25.8967],[151.49118,-25.89495],[151.48716,-25.89436],[151.4865,-25.89641],[151.48209,-25.90125],[151.48256,-25.90367],[151.48935,-25.90701],[151.49167,-25.91039],[151.49106,-25.913],[151.4881,-25.9147],[151.48716,-25.91649],[151.48817,-25.92007],[151.49083,-25.92041],[151.4966,-25.91817],[151.50395,-25.921],[151.50497,-25.92526],[151.49908,-25.94292],[151.50231,-25.94926],[151.50204,-25.95168],[151.49602,-25.96021],[151.48776,-25.96514],[151.48988,-25.97346],[151.48871,-25.97502],[151.48372,-25.97675],[151.48438,-25.9796],[151.48136,-25.98983],[151.47941,-25.99041],[151.47589,-25.98884],[151.47353,-25.98926],[151.47258,-25.99217],[151.47324,-26.00212],[151.46854,-26.00341],[151.38206,-26.00959],[151.35503,-26.00597],[151.34835,-26.0121],[151.34,-26.0118],[151.32394,-26.02569],[151.32491,-26.02994],[151.33064,-26.03538],[151.33034,-26.03897],[151.33193,-26.04139],[151.3264,-26.04359],[151.31558,-26.05552],[151.31288,-26.05701],[151.30843,-26.06597],[151.29856,-26.07347],[151.28759,-26.06854],[151.28668,-26.06997],[151.27898,-26.06965],[151.27414,-26.06697],[151.26834,-26.06589],[151.14169,-26.05023],[151.13422,-26.04693],[151.10998,-26.04283],[151.11027,-26.04822],[151.10813,-26.06247],[151.10091,-26.07056],[151.09992,-26.07526],[151.10653,-26.07934],[151.11623,-26.07647],[151.11447,-26.07737],[151.11523,-26.07988],[151.11411,-26.08091],[151.11523,-26.08262],[151.11263,-26.08782],[151.11435,-26.09079],[151.07875,-26.09668]]]},"properties":{"District Name":"Gympie","DDMG Name":"Gympie","Police Region Name":"North Coast Region","Police Region Code":"NCR","Police Region Short Name":"North Coast"}},{"type":"Feature","geometry":{"type":"Polygon","coordinates":[[[151.99778,-25.77091],[152.00165,-25.77223],[152.00317,-25.77655],[152.00731,-25.77985],[152.00818,-25.78246],[152.01854,-25.78645],[152.0211,-25.78899],[152.02917,-25.78706],[152.03897,-25.7902],[152.0386,-25.79352],[152.03534,-25.79522],[152.03636,-25.79836],[152.03455,-25.80064],[152.03599,-25.80383],[152.02853,-25.81166],[152.02932,-25.81952],[152.03175,-25.82057],[152.03193,-25.82184],[152.03145,-25.82588],[152.02894,-25.82939],[152.03155,-25.8369],[152.03099,-25.84045],[152.03263,-25.84182],[152.03228,-25.84324],[152.02944,-25.84521],[152.02865,-25.85007],[152.03317,-25.85223],[152.0366,-25.85239],[152.03842,-25.8513],[152.04452,-25.85247],[152.04526,-25.85125],[152.04917,-25.85184],[152.05073,-25.85572],[152.04799,-25.86232],[152.04995,-25.86767],[152.04715,-25.86785],[152.04531,-25.87066],[152.04493,-25.87364],[152.04321,-25.87506],[152.04742,-25.87854],[152.05752,-25.88296],[152.05898,-25.8864],[152.06846,-25.88499],[152.07104,-25.88359],[152.07019,-25.88148],[152.07245,-25.87998],[152.07289,-25.87741],[152.08067,-25.875],[152.08164,-25.8731],[152.085,-25.87142],[152.09012,-25.87284],[152.09355,-25.8711],[152.09584,-25.8717],[152.10023,-25.86782],[152.10216,-25.86412],[152.10204,-25.86217],[152.10638,-25.86236],[152.11328,-25.85721],[152.11483,-25.85759],[152.1153,-25.85962],[152.11695,-25.86025],[152.11717,-25.86213],[152.11497,-25.86495],[152.11567,-25.867],[152.11468,-25.86942],[152.11601,-25.87236],[152.11763,-25.87279],[152.11622,-25.87483],[152.11676,-25.87657],[152.1195,-25.87883],[152.11989,-25.88159],[152.12186,-25.88195],[152.12304,-25.88594],[152.12726,-25.88657],[152.13012,-25.8857],[152.13104,-25.87993],[152.13017,-25.87776],[152.13337,-25.8735],[152.13666,-25.87419],[152.13727,-25.87732],[152.14329,-25.8804],[152.14619,-25.88375],[152.1526,-25.88404],[152.15963,-25.87871],[152.16937,-25.88194],[152.16945,-25.88744],[152.23127,-25.89466],[152.23148,-25.89366],[152.3307,-25.90754],[152.33338,-25.89212],[152.34079,-25.89362],[152.34557,-25.86333],[152.37496,-25.86703],[152.3775,-25.87392],[152.38092,-25.87493],[152.38665,-25.87262],[152.38783,-25.86705],[152.38672,-25.8631],[152.41158,-25.86595],[152.41087,-25.87037],[152.42259,-25.87196],[152.42072,-25.88297],[152.44602,-25.88649],[152.44613,-25.89266],[152.44888,-25.89161],[152.46349,-25.89372],[152.4648,-25.8986],[152.47386,-25.89931],[152.47575,-25.90307],[152.47489,-25.90542],[152.49688,-25.90833],[152.501,-25.90584],[152.50606,-25.90648],[152.50585,-25.90781],[152.54544,-25.91289],[152.54656,-25.91668],[152.5496,-25.9181],[152.55058,-25.92049],[152.54866,-25.93008],[152.55042,-25.93163],[152.55787,-25.9325],[152.55964,-25.9211],[152.56814,-25.92202],[152.56734,-25.92478],[152.56365,-25.92845],[152.56571,-25.93345],[152.56799,-25.93373],[152.56679,-25.9431],[152.60055,-25.94763],[152.60029,-25.94915],[152.60232,-25.94943],[152.60101,-25.9551],[152.61434,-25.95692],[152.61113,-25.97327],[152.62187,-25.97471],[152.62108,-25.98144],[152.65501,-25.98608],[152.65711,-25.98015],[152.65627,-25.9781],[152.66501,-25.97926],[152.66783,-25.9616],[152.67394,-25.96246],[152.67535,-25.95374],[152.66975,-25.95291],[152.67228,-25.93808],[152.68829,-25.9403],[152.69454,-25.93602],[152.69447,-25.93293],[152.70402,-25.92762],[152.70399,-25.92326],[152.7075,-25.91952],[152.70807,-25.91632],[152.71579,-25.91432],[152.71791,-25.91538],[152.72014,-25.91243],[152.72907,-25.91305],[152.73514,-25.91188],[152.73639,-25.90992],[152.73872,-25.90883],[152.7385,-25.9019],[152.74157,-25.89879],[152.74121,-25.89698],[152.74425,-25.89549],[152.74335,-25.89293],[152.74415,-25.88823],[152.74875,-25.88596],[152.75061,-25.88746],[152.75196,-25.88668],[152.75133,-25.87899],[152.7505,-25.87755],[152.74671,-25.87588],[152.74754,-25.87411],[152.74445,-25.87457],[152.74161,-25.87732],[152.74132,-25.87998],[152.74048,-25.88009],[152.73885,-25.87395],[152.73443,-25.87279],[152.73399,-25.86958],[152.73666,-25.86687],[152.73622,-25.86529],[152.73363,-25.86718],[152.73205,-25.86619],[152.72879,-25.86751],[152.72752,-25.86315],[152.71868,-25.85267],[152.72465,-25.84676],[152.71947,-25.84547],[152.71234,-25.84574],[152.71235,-25.84564],[152.71257,-25.84411],[152.71453,-25.84295],[152.7125,-25.8423],[152.71427,-25.83998],[152.71445,-25.84003],[152.71836,-25.84116],[152.72892,-25.8442],[152.73603,-25.84737],[152.73523,-25.84238],[152.99161,-25.88172],[152.99235,-25.88149],[152.99499,-25.87868],[153.00516,-25.87616],[153.0191,-25.86682],[153.02633,-25.86009],[153.0366,-25.85586],[153.03785,-25.85386],[153.03863,-25.84635],[153.03495,-25.83334],[153.03445,-25.82468],[153.03974,-25.80747],[153.04427,-25.80076],[153.06321,-25.80065],[153.0753,-25.80221],[153.07602,-25.79434],[153.08124,-25.78608],[153.088,-25.76216],[153.08761,-25.74949],[153.08177,-25.72836],[153.07849,-25.71],[153.07702,-25.68645],[153.07767,-25.67353],[153.08156,-25.65008],[153.08922,-25.61689],[153.09879,-25.58485],[153.09982,-25.58412],[153.1118,-25.55003],[153.14252,-25.47487],[153.19164,-25.36314],[153.22183,-25.29984],[153.22227,-25.29622],[153.22397,-25.29529],[153.22895,-25.28562],[153.25781,-25.22469],[153.26775,-25.20578],[153.30026,-25.13478],[153.30159,-25.13],[153.30437,-25.12603],[153.32299,-25.08521],[153.35136,-25.03016],[153.35579,-25.01862],[153.35799,-25.00864],[153.36034,-25.00581],[153.35702,-25.00641],[153.35483,-25.00478],[153.35179,-24.99644],[153.35096,-24.99131],[153.3522,-24.98947],[153.35037,-24.98696],[153.35132,-24.9816],[153.35,-24.98062],[153.35063,-24.96832],[153.35193,-24.96752],[153.3501,-24.96404],[153.35062,-24.96339],[153.34968,-24.96246],[153.34914,-24.96465],[153.34672,-24.96562],[153.34286,-24.96516],[153.34189,-24.96626],[153.33464,-24.96593],[153.32513,-24.96391],[153.31629,-24.95916],[153.29897,-24.94507],[153.29133,-24.93655],[153.2847,-24.92574],[153.27941,-24.91536],[153.27437,-24.90127],[153.27173,-24.89754],[153.2679,-24.88622],[153.26458,-24.87259],[153.26127,-24.85142],[153.25966,-24.81896],[153.26186,-24.77073],[153.26693,-24.71478],[153.2671,-24.70527],[153.26597,-24.70083],[153.26338,-24.69998],[153.25406,-24.69786],[153.25107,-24.69779],[153.24554,-24.70017],[153.21158,-24.7168],[153.18671,-24.73514],[153.17423,-24.74594],[153.16135,-24.76246],[153.15783,-24.7677],[153.15268,-24.77357],[153.15252,-24.77376],[153.15207,-24.77427],[153.12903,-24.79643],[153.12394,-24.80316],[153.11746,-24.81488],[153.11831,-24.81705],[153.12039,-24.81747],[153.12887,-24.81467],[153.13556,-24.81456],[153.1484,-24.81858],[153.14901,-24.81877],[153.15564,-24.82286],[153.16415,-24.82811],[153.16491,-24.82858],[153.16835,-24.83187],[153.17983,-24.84281],[153.1815,-24.84441],[153.19071,-24.85721],[153.19532,-24.86361],[153.1968,-24.86566],[153.21257,-24.89235],[153.22672,-24.91349],[153.22817,-24.91566],[153.22954,-24.91973],[153.23278,-24.92931],[153.23352,-24.93151],[153.23388,-24.93623],[153.23401,-24.93801],[153.23411,-24.93927],[153.2332,-24.94952],[153.23275,-24.95128],[153.22679,-24.97482],[153.22709,-24.98342],[153.22108,-24.99781],[153.20031,-25.03246],[153.16917,-25.07366],[153.16901,-25.07384],[153.15988,-25.08438],[153.12902,-25.11347],[153.12758,-25.11457],[153.07189,-25.15703],[153.0564,-25.16604],[153.03133,-25.17686],[153.02521,-25.18198],[152.62401,-25.18144],[152.61405,-25.17955],[152.60952,-25.175],[152.60629,-25.17337],[152.59844,-25.17237],[152.58793,-25.1733],[152.5779,-25.16865],[152.57267,-25.16777],[152.56698,-25.16902],[152.56204,-25.17181],[152.55756,-25.17592],[152.55403,-25.18171],[152.54421,-25.18824],[152.54197,-25.19377],[152.54722,-25.19957],[152.54797,-25.20534],[152.54715,-25.20678],[152.53998,-25.21038],[152.53842,-25.21222],[152.53574,-25.21161],[152.53348,-25.21271],[152.53037,-25.21081],[152.52587,-25.21048],[152.52429,-25.21536],[152.5175,-25.22133],[152.51162,-25.21831],[152.51025,-25.21579],[152.51217,-25.21296],[152.51027,-25.20948],[152.50883,-25.20894],[152.50389,-25.20892],[152.50186,-25.21084],[152.49401,-25.20973],[152.48281,-25.21714],[152.47382,-25.21679],[152.46878,-25.21508],[152.46684,-25.21569],[152.46434,-25.21978],[152.45925,-25.22383],[152.45064,-25.22833],[152.4512,-25.23065],[152.41564,-25.29029],[152.40948,-25.3127],[152.40615,-25.33454],[152.38467,-25.3562],[152.3797,-25.35559],[152.37951,-25.35688],[152.3722,-25.35307],[152.37028,-25.35581],[152.37349,-25.35724],[152.37303,-25.36298],[152.37037,-25.36393],[152.36438,-25.36349],[152.359,-25.36648],[152.3545,-25.36611],[152.35124,-25.37093],[152.34833,-25.37315],[152.34801,-25.37522],[152.33455,-25.38255],[152.3367,-25.38593],[152.33411,-25.38938],[152.33569,-25.39221],[152.32696,-25.40166],[152.32396,-25.40163],[152.32121,-25.40427],[152.31999,-25.4075],[152.31579,-25.40736],[152.31236,-25.40534],[152.31146,-25.40663],[152.29908,-25.40814],[152.29861,-25.41023],[152.29247,-25.41556],[152.29058,-25.41598],[152.29035,-25.41739],[152.27251,-25.43223],[152.26016,-25.46187],[152.26361,-25.47037],[152.26244,-25.47117],[152.26195,-25.47648],[152.26846,-25.48174],[152.27161,-25.4816],[152.27339,-25.48313],[152.27443,-25.48771],[152.27636,-25.49057],[152.2707,-25.48985],[152.26859,-25.50351],[152.27432,-25.50452],[152.27267,-25.50633],[152.27329,-25.50794],[152.27217,-25.50939],[152.27205,-25.51267],[152.26929,-25.51539],[152.26995,-25.52117],[152.26898,-25.52268],[152.25231,-25.52135],[152.2482,-25.51963],[152.24746,-25.51718],[152.24471,-25.51764],[152.23933,-25.51522],[152.23621,-25.51729],[152.23542,-25.5158],[152.2332,-25.51503],[152.23026,-25.51931],[152.22889,-25.51859],[152.22726,-25.51454],[152.21498,-25.51297],[152.21572,-25.52008],[152.20998,-25.52097],[152.20703,-25.51863],[152.2012,-25.51968],[152.19838,-25.51846],[152.19361,-25.51916],[152.19149,-25.52134],[152.18851,-25.52207],[152.1865,-25.521],[152.17944,-25.52303],[152.17935,-25.52915],[152.17758,-25.53176],[152.17627,-25.53191],[152.17565,-25.53569],[152.17343,-25.53861],[152.16885,-25.54195],[152.16602,-25.54839],[152.16395,-25.55311],[152.16309,-25.55969],[152.16416,-25.56035],[152.16335,-25.56321],[152.16464,-25.57435],[152.15861,-25.57944],[152.15429,-25.58308],[152.15298,-25.58327],[152.14593,-25.58431],[152.14355,-25.58264],[152.14039,-25.58529],[152.13981,-25.58703],[152.1296,-25.58762],[152.13008,-25.59105],[152.12504,-25.5922],[152.12424,-25.59588],[152.12165,-25.59529],[152.11844,-25.59786],[152.11556,-25.59682],[152.11151,-25.59845],[152.10997,-25.60352],[152.1122,-25.61098],[152.11592,-25.6154],[152.1146,-25.61718],[152.11541,-25.62316],[152.11205,-25.62682],[152.10875,-25.626],[152.10425,-25.62903],[152.09638,-25.63049],[152.09264,-25.63241],[152.09074,-25.63646],[152.08756,-25.63578],[152.08278,-25.63275],[152.08241,-25.63232],[152.07717,-25.62612],[152.07185,-25.62341],[152.0715,-25.62219],[152.06343,-25.6217],[152.06033,-25.62407],[152.05943,-25.6263],[152.05591,-25.62756],[152.05302,-25.61878],[152.05077,-25.61804],[152.05077,-25.61678],[152.05274,-25.61594],[152.0507,-25.61353],[152.04666,-25.61157],[152.04634,-25.61582],[152.04442,-25.61511],[152.0415,-25.61957],[152.04179,-25.62553],[152.03967,-25.63198],[152.03826,-25.64265],[152.0352,-25.6437],[152.02985,-25.64217],[152.02834,-25.6441],[152.02707,-25.65043],[152.02535,-25.65085],[152.0227,-25.65437],[152.01872,-25.65727],[152.01865,-25.65899],[152.01479,-25.66309],[152.01385,-25.66294],[152.01252,-25.66508],[152.01117,-25.66501],[152.0114,-25.66997],[152.01247,-25.6714],[152.01097,-25.674],[152.01773,-25.68097],[152.01529,-25.68604],[152.01639,-25.68979],[152.015,-25.69234],[152.01586,-25.69422],[152.01495,-25.70198],[152.01561,-25.70375],[152.01407,-25.70871],[152.00489,-25.71774],[152.00304,-25.7178],[151.99667,-25.71151],[151.98906,-25.71354],[151.98828,-25.7147],[151.98101,-25.71319],[151.98209,-25.71533],[151.98247,-25.72394],[151.98333,-25.72432],[151.98235,-25.72901],[151.98032,-25.72955],[151.98023,-25.73341],[151.9953,-25.73714],[151.99765,-25.74669],[151.99905,-25.74797],[151.99649,-25.75085],[151.99669,-25.75534],[151.99573,-25.75749],[151.99747,-25.76474],[151.99638,-25.76672],[151.99765,-25.77074],[151.99778,-25.77091]]]},"properties":{"District Name":"Maryborough","DDMG Name":"Maryborough","Police Region Name":"North Coast Region","Police Region Code":"NCR","Police Region Short Name":"North Coast"}},{"type":"Feature","geometry":{"type":"MultiPolygon","coordinates":[[[[152.57522,-26.58393],[152.57535,-26.58396],[152.5752,-26.58401],[152.57651,-26.59225],[152.57501,-26.593],[152.57401,-26.59547],[152.58414,-26.59669],[152.58137,-26.60052],[152.58537,-26.61204],[152.58394,-26.61356],[152.58778,-26.61399],[152.5832,-26.64538],[152.57146,-26.65797],[152.57228,-26.65926],[152.5522,-26.68085],[152.55372,-26.68185],[152.55627,-26.68069],[152.5556,-26.68742],[152.55804,-26.68975],[152.55457,-26.6954],[152.55171,-26.69704],[152.55131,-26.70704],[152.55365,-26.70591],[152.55476,-26.70751],[152.55707,-26.70505],[152.55787,-26.7069],[152.56124,-26.70782],[152.56508,-26.70722],[152.57616,-26.71311],[152.57727,-26.71599],[152.57936,-26.7162],[152.58202,-26.72024],[152.58044,-26.72303],[152.58124,-26.72584],[152.58297,-26.72713],[152.58326,-26.73084],[152.58682,-26.73346],[152.58229,-26.73581],[152.58331,-26.74043],[152.59082,-26.74721],[152.5979,-26.74918],[152.6001,-26.7518],[152.60246,-26.75788],[152.60887,-26.75805],[152.60957,-26.75941],[152.61096,-26.75858],[152.61724,-26.75948],[152.62135,-26.7629],[152.62688,-26.76237],[152.63249,-26.76439],[152.63535,-26.7622],[152.63908,-26.76178],[152.6423,-26.76451],[152.64122,-26.76751],[152.64351,-26.77041],[152.64433,-26.77375],[152.65109,-26.7714],[152.65426,-26.7682],[152.66146,-26.76914],[152.66731,-26.773],[152.66846,-26.78204],[152.66772,-26.78471],[152.6689,-26.78975],[152.6716,-26.79121],[152.67232,-26.79397],[152.67402,-26.79489],[152.67662,-26.79587],[152.67895,-26.79675],[152.67962,-26.79995],[152.69879,-26.80298],[152.69812,-26.80555],[152.69552,-26.80792],[152.69645,-26.80913],[152.70944,-26.81111],[152.72099,-26.80856],[152.72223,-26.80682],[152.72663,-26.81147],[152.72638,-26.81419],[152.72747,-26.81605],[152.72907,-26.81663],[152.73296,-26.81496],[152.73516,-26.81125],[152.73362,-26.8073],[152.73917,-26.80803],[152.73988,-26.8098],[152.74212,-26.81016],[152.74678,-26.81512],[152.74761,-26.81548],[152.74948,-26.8163],[152.75307,-26.79735],[152.75918,-26.80305],[152.7611,-26.79236],[152.76692,-26.79332],[152.77103,-26.79595],[152.77646,-26.79554],[152.77949,-26.79713],[152.77713,-26.80956],[152.78081,-26.81004],[152.78437,-26.81246],[152.78937,-26.80963],[152.78861,-26.81297],[152.79003,-26.81323],[152.7885,-26.81806],[152.78647,-26.82036],[152.78673,-26.82226],[152.79127,-26.82516],[152.79209,-26.82709],[152.80101,-26.82632],[152.8049,-26.82417],[152.80702,-26.82516],[152.80669,-26.82696],[152.80795,-26.82782],[152.81247,-26.82815],[152.81264,-26.83103],[152.81809,-26.83634],[152.81814,-26.84021],[152.81988,-26.84376],[152.82447,-26.84938],[152.82904,-26.85022],[152.83185,-26.85328],[152.83206,-26.85643],[152.83858,-26.85503],[152.84394,-26.85759],[152.84804,-26.85816],[152.84856,-26.85513],[152.85404,-26.85587],[152.85319,-26.85622],[152.8517,-26.8652],[152.85833,-26.86608],[152.85747,-26.87123],[152.86948,-26.87288],[152.86678,-26.88892],[152.85549,-26.88738],[152.85427,-26.89457],[152.85652,-26.89488],[152.85533,-26.9019],[152.86118,-26.90275],[152.85946,-26.9113],[152.87545,-26.91352],[152.87264,-26.93033],[152.86828,-26.93362],[152.86791,-26.93578],[152.86364,-26.93489],[152.86073,-26.936],[152.85806,-26.95621],[152.874,-26.95832],[152.88551,-26.95595],[152.89116,-26.96075],[152.89843,-26.95803],[152.90372,-26.9539],[152.91726,-26.95471],[152.91973,-26.95551],[152.9215,-26.96064],[152.92351,-26.96009],[152.92724,-26.96218],[152.93504,-26.96312],[152.93737,-26.96437],[152.9386,-26.96385],[152.94589,-26.96657],[152.95195,-26.96617],[152.95318,-26.96837],[152.96253,-26.97296],[152.96663,-26.97881],[152.97501,-26.97438],[152.97813,-26.98026],[152.97409,-26.98236],[152.97559,-26.98468],[152.98042,-26.98188],[152.98513,-26.98473],[152.98842,-26.98313],[152.99166,-26.98453],[153.00296,-26.98479],[153.01159,-26.97899],[153.01685,-26.97907],[153.01794,-26.97838],[153.01739,-26.97715],[153.01907,-26.97626],[153.0178,-26.97505],[153.01752,-26.97247],[153.01845,-26.96636],[153.04276,-26.96946],[153.04962,-26.97505],[153.05274,-26.97515],[153.05523,-26.98059],[153.06009,-26.97997],[153.06634,-26.98371],[153.07784,-26.97583],[153.07986,-26.96968],[153.07931,-26.96036],[153.08332,-26.95841],[153.08675,-26.95467],[153.08703,-26.95188],[153.14695,-26.93733],[153.13176,-26.88079],[153.12863,-26.84536],[153.12928,-26.83708],[153.13358,-26.81474],[153.13181,-26.80961],[153.13292,-26.80779],[153.13465,-26.81027],[153.14274,-26.80273],[153.14324,-26.80347],[153.1452,-26.80237],[153.14999,-26.8028],[153.15079,-26.80175],[153.14846,-26.79715],[153.14851,-26.79133],[153.1408,-26.78839],[153.14132,-26.78561],[153.13854,-26.78219],[153.13836,-26.77849],[153.13657,-26.77394],[153.13606,-26.76398],[153.13732,-26.75922],[153.13445,-26.72999],[153.13665,-26.6876],[153.13745,-26.68211],[153.13898,-26.67958],[153.13558,-26.67958],[153.13461,-26.68047],[153.13234,-26.67845],[153.13195,-26.68014],[153.13385,-26.68168],[153.13033,-26.68372],[153.12332,-26.68199],[153.11275,-26.67258],[153.10901,-26.67071],[153.10534,-26.66192],[153.10361,-26.64764],[153.10145,-26.64046],[153.10204,-26.61642],[153.09872,-26.60566],[153.09757,-26.59612],[153.09851,-26.56949],[153.10059,-26.55409],[153.10263,-26.54674],[153.09652,-26.53959],[153.09606,-26.53584],[153.09275,-26.53205],[153.09322,-26.51926],[153.0919,-26.51782],[153.09356,-26.51752],[153.09422,-26.50685],[153.10253,-26.45051],[153.11405,-26.39962],[153.11532,-26.39588],[153.11727,-26.39604],[153.11704,-26.39245],[153.11906,-26.39278],[153.11862,-26.39189],[153.11994,-26.39075],[153.11548,-26.38934],[153.11561,-26.38274],[153.11659,-26.38027],[153.11913,-26.38018],[153.11975,-26.3792],[153.11603,-26.37643],[153.11201,-26.37928],[153.10773,-26.37715],[153.10575,-26.37965],[153.101,-26.37946],[153.09288,-26.3865],[153.08863,-26.38532],[153.08683,-26.38363],[153.08515,-26.38413],[153.08042,-26.38126],[153.07371,-26.37196],[153.06812,-26.36085],[153.06368,-26.3464],[153.06169,-26.331],[153.06228,-26.30043],[153.06729,-26.26892],[153.07919,-26.21555],[153.09653,-26.15477],[152.97383,-26.13712],[152.97253,-26.1452],[152.97466,-26.14717],[152.97187,-26.16483],[152.96951,-26.16452],[152.966,-26.17453],[152.96512,-26.18026],[152.9608,-26.18177],[152.96072,-26.18554],[152.95733,-26.18998],[152.94777,-26.19091],[152.9453,-26.19208],[152.94406,-26.19681],[152.93988,-26.19841],[152.93385,-26.19666],[152.9226,-26.19875],[152.92289,-26.20957],[152.90431,-26.20713],[152.90363,-26.21134],[152.89766,-26.21055],[152.89626,-26.21919],[152.89125,-26.21848],[152.89256,-26.21657],[152.8848,-26.20721],[152.87643,-26.20125],[152.86982,-26.19929],[152.86991,-26.20079],[152.85302,-26.19845],[152.85004,-26.2184],[152.83091,-26.21612],[152.83025,-26.22052],[152.82523,-26.2236],[152.82767,-26.23892],[152.82271,-26.23983],[152.82535,-26.24824],[152.80804,-26.29937],[152.80644,-26.30857],[152.80316,-26.3146],[152.80259,-26.31786],[152.79952,-26.31833],[152.79837,-26.32495],[152.79717,-26.32489],[152.79261,-26.35139],[152.78098,-26.34946],[152.77207,-26.34574],[152.77199,-26.34404],[152.77088,-26.34386],[152.76753,-26.36268],[152.76521,-26.3623],[152.76299,-26.375],[152.7653,-26.37238],[152.76829,-26.37276],[152.76881,-26.37147],[152.76735,-26.37121],[152.76879,-26.37111],[152.77071,-26.37262],[152.76842,-26.38552],[152.77041,-26.3858],[152.76899,-26.39392],[152.77911,-26.39533],[152.77789,-26.40246],[152.77868,-26.40356],[152.78153,-26.40452],[152.78564,-26.40324],[152.78933,-26.40354],[152.79344,-26.4069],[152.79266,-26.40862],[152.79692,-26.41577],[152.79639,-26.41913],[152.79322,-26.41726],[152.79115,-26.43181],[152.79606,-26.43222],[152.78861,-26.47305],[152.76801,-26.47027],[152.76721,-26.4684],[152.76857,-26.46462],[152.76547,-26.46361],[152.76442,-26.46936],[152.75762,-26.46844],[152.75823,-26.47121],[152.75649,-26.47426],[152.75858,-26.4756],[152.76064,-26.47447],[152.76475,-26.47519],[152.76667,-26.47776],[152.76512,-26.47953],[152.76555,-26.48251],[152.76185,-26.48334],[152.76144,-26.48689],[152.75783,-26.48766],[152.75263,-26.49114],[152.74962,-26.49749],[152.74493,-26.49894],[152.7452,-26.50154],[152.74392,-26.50275],[152.74518,-26.50432],[152.74341,-26.50645],[152.74345,-26.50812],[152.76208,-26.51065],[152.75981,-26.52501],[152.76334,-26.52557],[152.76583,-26.52689],[152.76739,-26.52731],[152.7677,-26.52788],[152.7687,-26.52971],[152.76952,-26.53122],[152.76942,-26.53218],[152.76934,-26.5329],[152.76919,-26.53426],[152.76824,-26.53539],[152.76627,-26.53771],[152.76396,-26.54044],[152.76199,-26.53643],[152.75835,-26.53663],[152.7551,-26.54215],[152.7581,-26.54189],[152.7587,-26.54289],[152.75569,-26.54642],[152.75599,-26.5488],[152.75455,-26.54971],[152.75415,-26.54968],[152.75275,-26.54959],[152.75205,-26.54954],[152.75187,-26.54935],[152.74982,-26.54725],[152.74647,-26.54986],[152.74513,-26.54963],[152.73764,-26.54025],[152.73339,-26.543],[152.72845,-26.53698],[152.71467,-26.54635],[152.71225,-26.54623],[152.71156,-26.55265],[152.71047,-26.55251],[152.70955,-26.55417],[152.71056,-26.55658],[152.70844,-26.5599],[152.70659,-26.55984],[152.70075,-26.56521],[152.69493,-26.56788],[152.69562,-26.57041],[152.69472,-26.57178],[152.69496,-26.57557],[152.68602,-26.57702],[152.68365,-26.57879],[152.68261,-26.58206],[152.68127,-26.58251],[152.68289,-26.58929],[152.68142,-26.59089],[152.68049,-26.59771],[152.66996,-26.59612],[152.66026,-26.59711],[152.65358,-26.59283],[152.65264,-26.59025],[152.64825,-26.58776],[152.63843,-26.58565],[152.63799,-26.58456],[152.63576,-26.58513],[152.62945,-26.58378],[152.62563,-26.58198],[152.61866,-26.58431],[152.61318,-26.58286],[152.60632,-26.5843],[152.60587,-26.5797],[152.60271,-26.57794],[152.59441,-26.58473],[152.58901,-26.58244],[152.58794,-26.57975],[152.57928,-26.58088],[152.57718,-26.58335],[152.57651,-26.58415],[152.5755,-26.58391],[152.57522,-26.58393]]],[[[152.84695,-26.88747],[152.84621,-26.89184],[152.85312,-26.89264],[152.85131,-26.88934],[152.85332,-26.88622],[152.8517,-26.88559],[152.84997,-26.88725],[152.84695,-26.88747]]],[[[153.11279,-26.61406],[153.11508,-26.61567],[153.11635,-26.61495],[153.1139,-26.61363],[153.11279,-26.61406]]]]},"properties":{"District Name":"Sunshine Coast","DDMG Name":"Sunshine Coast","Police Region Name":"North Coast Region","Police Region Code":"NCR","Police Region Short Name":"North Coast"}}]}