{"type":"Topology","arcs":[[[58209,94879],[34,-118],[-2,-58],[-17,-2],[-34,-137],[-16,-5],[-52,-102],[-38,-40],[-34,-114],[-26,-50],[-50,-248],[-48,26],[-65,-35],[-13,26],[-26,-19],[0,53],[-17,7],[-14,-34],[-22,29],[-23,-6],[-33,-86],[0,-81],[12,-28],[-1,-44],[19,-106],[28,-79],[4,-61],[-32,16],[-60,74],[-29,-52],[-1,-40],[-15,-48],[-25,53],[-72,-123],[-10,-55],[25,-52],[-7,-69],[-90,-13],[-12,-53],[-55,-53],[-9,-34],[13,-47],[-24,-16],[-8,-34],[-38,-12],[-27,26],[-18,-23],[4,-30],[-46,-70],[-5,-57],[-34,34],[-43,-56],[-19,47],[-20,-32],[-15,16],[-10,-31],[-27,81],[-51,-159],[7,-36],[-26,-77],[-10,-97],[-31,-95],[-10,-73],[-51,-60],[-19,-219],[-88,-263],[1,-168],[-21,-20],[-44,38],[-32,-27],[15,-48],[-18,-66],[-17,6],[-8,-45],[-16,3],[-12,43],[-91,-1],[-12,30],[-22,-28],[-3,-39],[-67,20],[-42,-117],[-14,8],[-55,103],[-55,222],[-95,101],[-68,142],[-137,95],[-204,65],[-87,-1594],[223,-77],[-169,-3325],[-845,259],[-110,-2043],[-1524,461],[22,-348],[3,-350],[233,-462],[26,-240],[-72,-470],[-98,24],[-141,-2798],[-427,126],[-163,-3203],[-889,249],[-161,-3351],[825,-243],[1,-40],[-22,-76],[10,-88],[23,-113],[63,-193],[69,-456],[4,-501],[-9,-395],[2,-22],[34,-40],[1,-43],[-14,-64],[18,-49],[35,-217],[16,-166],[-22,-51],[-1,-76],[-19,-28],[-5,-54],[8,-56],[8,14],[52,-54],[20,5],[102,-105],[61,-9],[22,-112],[60,-12],[22,-33],[24,23],[33,-24],[30,-56],[49,-5],[103,81],[39,-197],[29,-51],[42,5],[52,-57],[237,-613],[31,-11],[35,-68],[36,61],[112,-9],[29,-75],[28,-23],[147,-45],[47,-59],[-11,-251],[-94,-407],[-3,-70],[53,-90],[-4,-235],[18,-298],[15,-87],[-19,-31],[2,-104],[-39,-72],[-7,-58],[-21,-37],[-5,-124],[24,-33],[37,-278],[25,-54],[-60,-1167],[-84,-132],[-158,49],[-66,-123],[-57,109],[-149,109],[-53,-98],[-47,-32],[-48,-82],[-48,-271],[9,-187],[-8,-201],[88,-174],[8,-43],[-16,-71],[-18,-142],[6,-39],[-69,-462],[-29,-518],[195,-58],[-49,-1005],[-246,89],[-117,-1947],[-74,-1429],[-28,17],[-2,-20],[-105,-2020],[-620,185],[-122,-190],[-55,-1017],[275,-81],[31,-80],[23,-310],[-39,-152],[-51,-955],[-6,-1195],[-136,-961],[-13,-2905],[-118,-2050],[-1184,245],[-57,-977],[-70,-234],[-90,-1603],[-59,21],[-10,-207],[556,-166],[-80,-1574],[-46,12],[-146,-1638],[-141,-2666],[-30,-901],[51,-17],[-82,-1505],[106,-18],[74,-1509],[25,-281],[-10,-196],[667,-194],[-184,-3057],[-35,-926],[3,-135],[-76,-1244],[83,-874],[-69,-849],[121,-48],[-39,-666],[-93,-993],[-29,-476],[-305,85],[-656,23],[-344,-6029],[-143,50],[-48,-473],[-89,-1587],[437,-135],[-66,-1164],[43,-28],[-41,-557],[27,-1473],[-48,-668],[-166,-510],[-84,-1552],[88,-27],[-110,-2053],[-275,57],[-64,-1013],[-142,-1411],[-38,-507],[749,-159],[-143,-2865],[51,-129],[28,-25],[0,-20]],[[49790,3976],[-49790,1],[2,46148],[1578,-407],[242,5450],[312,49],[5,319],[1184,18],[1234,-311],[339,-1000],[592,-157],[68,64],[81,-101],[164,-81],[43,20],[49,-64],[25,-7],[31,40],[135,18],[256,-70],[138,-97],[449,-122],[-21,68],[7,74],[37,3],[-6,-22],[27,-12],[-8,41],[29,61],[-2,34],[-21,34],[2,36],[25,19],[25,-33],[6,20],[-6,38],[-30,53],[-19,98],[5,28],[42,22],[13,67],[-3,48],[-18,40],[-33,16],[-8,32],[55,197],[5,78],[-16,118],[-59,-44],[-20,42],[-37,-47],[-17,193],[-6,14],[-31,-26],[10,54],[-20,2],[13,61],[-35,128],[-3,38],[13,49],[15,-4],[8,43],[-15,27],[-6,62],[-23,85],[-23,18],[-31,66],[23,84],[-5,70],[18,47],[-2,164],[23,47],[11,211],[-7,75],[-23,39],[-22,-2],[7,22],[-9,39],[-9,-20],[-5,70],[-12,-17],[-15,22],[-3,44],[-17,0],[-7,82],[-19,68],[14,62],[-26,27],[-10,54],[-26,30],[-5,114],[-36,3],[0,63],[-15,49],[6,24],[-8,28],[1,50],[-19,28],[-15,53],[4,44],[-25,48],[6,47],[-8,64],[-18,-1],[-27,69],[-19,102],[-1,84],[-53,125],[-26,104],[-2,26],[18,49],[-1,42],[-22,59],[-33,21],[-17,-26],[-30,76],[-3,58],[-44,115],[-8,56],[12,97],[-39,88],[9,48],[-18,39],[27,32],[11,74],[-2,23],[-36,40],[15,21],[7,96],[-10,28],[-6,-23],[-7,15],[-2,84],[-30,51],[1,18],[21,9],[-14,29],[8,37],[-21,67],[1,47],[-7,19],[-30,-23],[0,39],[19,45],[-22,4],[-11,60],[-33,-76],[-4,33],[18,67],[-3,35],[-30,-4],[-8,38],[5,59],[-20,42],[6,22],[-10,23],[-1,38],[14,-13],[-10,87],[5,40],[-9,37],[-26,23],[-10,47],[-3,59],[27,47],[-28,32],[-7,70],[-17,40],[7,54],[28,-9],[12,127],[-14,47],[5,35],[-17,39],[1,53],[-12,22],[1,91],[-21,-10],[-26,50],[11,70],[-10,6],[1,26],[37,44],[5,33],[-29,74],[25,19],[-9,110],[13,61],[-26,36],[-11,66],[-5,49],[11,0],[2,23],[-13,27],[9,36],[-15,34],[6,8],[-8,40],[7,15],[-9,2],[0,75],[-7,10],[8,42],[-9,-1],[-3,31],[19,176],[49,268],[41,166],[13,187],[658,-154],[6,163],[781,-178],[-2,-183],[1400,-326],[7,143],[129,-231],[52,565],[3,383],[90,309],[35,263],[-2,87],[28,119],[58,91],[16,77],[24,36],[2,74],[-11,31],[24,82],[12,94],[-15,43],[6,21],[-5,32],[3,20],[10,-8],[3,34],[7,-29],[9,13],[-3,69],[25,31],[6,81],[13,12],[17,96],[24,43],[-16,129],[20,93],[0,89],[25,101],[-5,80],[12,18],[34,204],[-7,29],[13,43],[-5,33],[61,121],[-6,45],[12,18],[5,57],[33,36],[11,67],[25,17],[24,89],[15,17],[10,51],[-4,21],[11,4],[-5,27],[20,36],[-6,19],[7,48],[13,16],[-150,2270],[144,3230],[105,2018],[173,-48],[38,622],[134,-6],[119,186],[396,878],[92,-1],[132,122],[97,157],[36,109],[158,159],[168,70],[48,-33],[129,109],[22,248],[188,132],[31,68],[79,16],[97,92],[62,2],[64,143],[111,188],[207,282],[5,48],[256,375],[4,159],[653,1364],[1243,-256],[-23,-108],[-3,-131],[-28,-222],[-51,-47],[-39,23],[-25,-30],[77,-185],[1456,-373],[-145,-3194],[726,-190],[100,2312],[1799,-434],[99,2486],[530,-129],[-1,-21],[17,-4],[1,20],[739,-173],[37,-73],[60,16],[107,-129],[40,-79],[7,2],[3,88],[8,-21],[444,-96],[49,1198],[-305,69],[86,2089],[18,95],[-10,101],[-24,54],[-4,45],[37,130],[50,1319],[-9,2],[37,754],[-27,73],[10,208],[33,56],[3,65],[274,-58],[993,1959],[128,-373],[23,1],[3,-66],[30,-50],[24,-134],[25,-48],[56,31],[89,143],[58,-43],[43,-109],[99,-102],[49,-127],[51,-55],[26,5],[24,-96],[172,-323],[10,-122],[34,-77],[240,-208],[150,-378],[-4,-80],[125,-402],[184,-1120],[-14,-32],[-52,-14],[-7,-138],[-12,-39],[-99,-184],[-181,20],[-27,-123],[-10,-175],[2,-30],[55,-128],[7,176],[621,-124],[2,60],[833,-209],[659,-1965],[4,25],[85,3],[15,-22],[13,23],[166,8],[39,48],[36,98],[228,371],[-4,84],[16,272],[102,169],[36,-7],[17,21],[43,224],[25,28],[16,82],[29,34],[19,53],[-9,93],[11,46],[24,34],[-3,24],[39,79],[-19,511],[71,102],[-1,32],[24,69],[18,111],[-4,98],[-29,155],[-8,116],[12,105],[242,215],[97,468],[57,392],[-60,419],[-50,99],[17,282],[490,2068],[73,197],[232,1011],[1082,2142],[148,-414],[519,2223],[170,-1048],[1220,2442],[203,6733],[281,299],[-30,-661],[292,-77],[-152,-3276],[883,-213],[-66,-1603],[541,-132],[-64,-170],[46,-227],[-8,-217],[-65,-500],[-7,-120],[-33,-209],[15,-128],[130,-212],[103,-434],[85,-9],[34,-86],[8,-116],[74,-204],[47,14],[36,84],[34,37],[112,-37],[62,28],[71,-28],[151,46],[26,45],[20,82],[87,110],[73,152],[54,62],[-70,-1793],[-16,-27],[-4,-97],[14,-14],[-22,-373],[-2,-145],[6,-33],[-9,-19],[-60,-1303],[-84,-37],[-23,-68],[-105,-65],[-54,-94],[-8,-33],[17,-217],[-5,-63],[-49,-64],[-28,-10],[-515,-989],[90,-12],[0,36],[18,24],[58,-62],[15,11],[37,-27],[242,-29],[20,36],[49,-53],[82,-10],[19,42],[27,-50],[135,-21],[30,-77],[51,-76],[42,21],[18,53],[22,-38],[132,-34],[26,31],[30,-17],[14,-32],[50,-12],[11,56],[8,1],[11,-20],[-3,-19],[31,-32],[98,5],[8,-31],[236,-59],[6,-41],[-6,-142],[-22,-85],[-40,-73],[-28,1],[-27,-56],[90,-166],[16,-58],[-1,-195],[-35,-181],[2,-89],[-29,-182],[300,-84],[78,-44],[76,20],[49,49],[81,-88],[681,-202],[6,-22],[662,-191],[6,19],[-104,-2085],[-154,40],[-29,-620],[318,-94],[70,391],[172,123],[80,292],[233,-94],[47,-97],[12,3],[291,-372],[92,-519],[149,109],[33,-31],[104,-14],[54,-161],[51,-15],[50,-78],[756,-127],[-4,-160],[-18,-39],[-74,-1874],[-88,-450],[-166,33],[-45,105],[-4,-1118],[-80,-1722],[766,-186],[58,249],[82,56],[-17,47],[-1,147],[12,77],[35,88],[7,179],[66,121],[42,116],[21,87],[10,144],[23,90],[78,85],[0,121],[28,88],[-7,109],[5,206],[12,89],[26,69],[23,8],[9,25],[-6,66],[15,33],[65,23],[40,80],[39,351],[24,57],[-21,128],[1,48],[12,74],[57,79],[15,86],[630,-160],[-39,-791],[-19,-102],[11,-48],[-17,-342],[30,-171],[7,-224],[1458,-490],[83,-106],[128,-42],[155,219],[44,216],[-7,683],[-35,704],[33,59],[-278,1557],[38,694],[-3,137],[27,616],[-14,186],[-16,75],[317,-2],[-27,-752],[1,-626],[-18,-416],[1058,-312],[627,-113],[86,1829],[80,-26],[130,2026],[2,239],[21,279],[-83,23],[128,2557],[642,-175],[489,-169],[9,18],[147,-45],[-32,-613],[1206,-356],[-74,543],[-44,146],[508,-145],[16,66],[61,-22],[69,1342],[-49,177],[62,1444],[91,107],[1440,-415],[-176,-3743],[21,68],[29,25],[450,853],[393,790],[4,103],[43,160],[59,143],[92,400],[-6,44],[19,16],[16,115],[11,15],[28,173],[9,2],[24,114],[160,289],[334,-42],[61,1363],[464,-116],[40,795],[-7,52],[21,21],[-3,45],[-37,105],[38,703],[200,-48],[139,269],[344,-105],[37,19],[-289,1602],[19,26],[29,108],[42,15],[18,-31],[19,-2],[8,-7],[51,-129],[49,-75],[13,-9],[27,-20],[13,-9],[31,11],[118,198],[9,65],[-15,167],[12,94],[41,109],[23,131],[24,59],[39,27],[38,90],[33,23],[98,-75],[72,-27],[28,-48],[9,-69],[-4,-104],[-34,-188],[46,-12],[53,-156],[117,-80],[208,35],[123,239],[50,3],[51,-151],[41,19],[138,239],[26,93],[45,91],[18,133],[48,88],[32,-23],[32,28],[38,155],[-45,212],[-10,330],[11,89],[16,46],[34,4],[44,176],[2,48],[42,139],[7,130],[12,19],[10,80],[31,8],[23,47],[11,104],[27,25],[73,-23],[19,56],[-9,216],[30,47],[17,-7],[13,-50],[63,12],[20,33],[36,-23],[14,16],[69,-93],[95,7],[18,-42],[23,-7],[31,15],[32,123],[62,8],[77,-64],[26,-109],[25,52],[197,-112],[475,69],[60,28],[41,74],[11,53],[56,534],[41,51],[26,140],[37,77],[3,35],[-26,155],[17,123],[38,-129],[50,-81],[44,27],[73,114],[50,-5],[12,24],[19,119],[16,-3],[43,-77],[38,38],[37,7],[13,-93],[-11,-47],[5,-167],[11,-26],[151,-39],[34,92],[8,130],[34,60],[16,107],[22,3],[121,128],[44,106],[45,60],[114,25],[32,57],[36,-3],[25,55],[42,-24],[0,46],[25,168],[-4,34],[-23,13],[-12,41],[-8,205],[19,83],[40,47],[122,1],[37,31],[25,-10],[59,-83],[69,236],[41,45],[71,15],[14,140],[10,21],[46,-2],[47,66],[19,55],[2,76],[49,74],[50,176],[41,59],[90,36],[16,-35],[32,-8],[67,58],[29,-21],[59,-94],[13,-96],[19,-31],[23,0],[56,116],[25,8],[40,57],[42,-29],[8,-41],[20,-19],[15,-3],[14,33],[17,-7],[54,-74],[48,47],[52,-5],[2,0],[2,-17],[30,-187],[-8,-131],[17,-75],[15,-20],[31,9],[90,-175],[30,-88],[0,-41],[34,-73],[-13,-101],[10,-46],[37,-83],[9,4],[9,-45],[18,-5],[26,-53],[36,14],[49,-57],[27,16],[8,-66],[75,-116],[53,-177],[52,-109],[12,-121],[53,-16],[26,-35],[15,-62],[23,0],[5,-52],[28,-72],[-23,-98],[-26,-222],[16,-74],[0,-106],[51,-50],[106,-245],[33,-15],[37,-132],[-7,-58],[18,-44],[29,-17],[-7,-70],[26,-85],[9,-20]],[[89188,50005],[-17,17],[-10,-144],[68,-131],[-1,-38],[24,-68],[26,-1],[29,-127],[44,-48],[11,-350],[32,-92],[-103,-466],[-6,-105],[25,-128],[-63,-70],[-155,-77],[-13,-154],[-78,26],[-37,-610],[-125,43],[-42,-56],[-19,4],[-35,-607],[-129,47],[-43,-703],[19,-8],[-17,-259],[-59,19],[-14,-248],[27,-10],[-11,-168],[-196,66],[-55,-142],[-110,49],[-8,-133],[-240,79],[-6,-97],[-124,44],[15,244],[-152,53],[-7,-217],[17,-30],[36,-374],[-17,6],[-11,-182],[-75,26],[-46,-726],[-19,-11],[32,-27],[-33,-461],[83,-31],[-56,-865],[25,-8],[-50,-807],[-945,1568],[-121,-1975],[-20,-317],[-6,2],[-20,-442],[-42,14],[-36,-1825],[-3,1],[-965,324],[39,326],[-163,52],[-101,-46],[-446,146],[-39,-38],[-170,56],[-96,-1648],[0,-453],[8,-208],[38,-266],[12,-4],[-49,-762],[59,-167],[-27,-315],[-50,-109],[-1,-132],[-28,-71],[40,-179],[-242,-262],[-55,98],[-257,94],[-28,-46],[-191,-46],[-92,-55],[-69,63],[-317,152],[2,838],[-500,-263],[-278,847],[-77,-67],[-83,-272],[-83,-389],[-105,-292],[-34,-242],[-54,-234],[2,-28],[-101,-83],[-116,-420],[-86,-1423],[6,-2],[-28,-470],[5,-25],[-7,-12],[-32,-522],[-18,-628],[24,-87],[-8,-142],[11,-37],[-3,-55],[-17,-55],[-52,-855],[-58,35],[-190,-3120]],[[81256,27476],[-72,32],[-139,314],[-27,335],[-233,190],[-13,980],[-95,555],[-103,320],[-147,107],[-95,359],[-145,234],[-453,153],[-60,140],[-207,-482],[-258,608],[-29,-25],[0,-75],[-34,-48],[-19,30],[-20,100],[-14,16],[-27,-14],[-14,-33],[-2,-127],[-244,482],[-226,-394],[85,-266],[-3,-42],[-35,-56],[-15,-56],[-68,17],[-148,389],[-218,79],[-73,-1045],[-437,131],[21,-1078],[-256,-3],[18,-1236],[-135,43],[-2,-17],[-77,266],[-553,-620],[-170,268],[-105,-747],[-57,9],[2,-103],[36,-44],[-39,-281],[-397,112],[-30,-603],[-1119,408],[-228,-168],[-67,749],[-349,-218],[15,-91],[82,-107],[149,-442],[-823,-592],[-1297,425],[-36,-605],[-802,270],[22,354],[-111,-59],[-215,-10],[-14,-177],[-301,103],[-103,-1734]],[[70727,24456],[102,1735],[132,2291],[134,2137],[-706,192],[187,836],[574,-183],[103,1679],[-352,122],[43,703],[-278,96],[11,57],[26,-16],[3,71],[8,-17],[21,25],[-4,24],[12,31],[14,-34],[17,18],[-11,43],[15,88],[23,5],[17,36],[-15,50],[2,51],[10,4],[-4,27],[24,7],[-9,54],[33,62],[-11,38],[12,23],[3,49],[49,-20],[38,161],[-9,46],[51,-10],[17,83],[162,2957],[-42,188],[24,406],[-126,419],[-3,78],[-114,341],[-86,395],[12,202],[198,813],[-17,217],[53,96],[133,494],[149,259],[21,7],[83,195],[168,298],[-6,14],[102,224],[10,-3],[233,583],[-306,679],[1025,2571],[-37,0],[-36,101],[-86,55],[-76,10],[-38,-23],[-10,-37],[-1,-88],[-11,-29],[-15,9],[-80,128],[-5,139],[-28,113],[-20,38],[4,36],[36,23],[33,80],[18,98],[-3,47],[-50,13],[-16,-133],[-19,34],[-4,92],[-15,43],[-23,-46],[-37,-1],[-13,30],[0,183],[13,45],[159,100],[86,115],[19,-1],[9,-51],[-33,-34],[12,-70],[66,-42],[75,10],[29,168],[-6,81],[9,47],[-12,80],[-34,62],[8,84],[-153,922],[-125,449],[-142,1084],[-207,1456],[201,232],[-10,67],[-25,38],[-46,-33],[-38,105],[-11,69],[-27,-22],[-7,-47],[-9,53],[777,764],[-81,308],[-94,32],[-4,145],[58,103],[33,139],[19,317],[-8,641],[-32,637],[174,438],[6,105],[34,2],[43,726],[-291,103],[25,406],[219,-75],[34,543],[-39,13],[20,334],[80,-46],[26,426],[-66,23],[20,319],[-68,24],[5,90],[37,233],[-6,88],[9,40],[14,9],[3,98],[25,29],[55,202],[113,239],[-354,121],[156,277],[151,349],[53,-12],[28,452],[122,-42],[38,630],[60,22],[119,-92],[9,-176],[267,168],[138,306],[82,1374],[-147,185],[22,136],[-822,269],[-87,-308],[12,-32],[-12,-137],[-26,64],[-27,-47],[-27,40],[-34,-13],[-1,-30],[-23,16],[-40,78],[-92,26],[-16,-75],[-65,18],[-10,-32],[-22,42],[-113,32],[-44,140],[-172,43],[-42,-57],[-14,4],[-19,-50],[5,-103],[-379,107],[-32,-646],[-27,26],[-51,-39],[-24,37],[-26,-26],[-29,109],[-28,-71],[-36,29],[-67,-101],[-25,15],[-101,-45],[-93,-10],[-15,11],[3,50],[27,91],[28,46],[17,87],[-36,319],[-82,111],[-34,-7],[-1,44],[147,157],[5,94],[-316,91],[-2,-108],[14,-105],[-95,-340],[-176,190],[-79,112],[-55,150],[-226,320],[-3,-162],[11,-81],[-220,22],[-210,-107],[-72,24],[-137,138],[-229,37],[-124,-124],[-11,-113],[-34,-34],[-41,-109],[-471,-94],[-85,-61],[-184,-338],[-34,188],[-57,62],[-143,54],[-24,65],[53,187],[60,282],[-40,536],[-63,192],[41,107],[29,163],[-7,171],[18,439],[-4,301],[69,161],[56,291],[-32,309],[75,18],[53,191],[69,114],[45,217],[6,241],[136,269],[-26,502],[-46,379],[41,157],[9,336],[-694,204],[-14,100],[-8,-7],[-68,468],[43,120],[5,261],[-23,-30],[-23,13],[-24,99],[-44,-12],[-161,1108]],[[67813,71328],[39,49],[35,2],[154,-123],[56,66],[53,6],[2,39],[733,-270],[641,-181],[212,911],[21,8],[43,121],[60,-32],[29,39],[20,91],[62,119],[2,66],[29,0],[33,42],[14,149],[82,166],[66,33],[136,283],[23,-142],[687,-205],[-54,-923],[823,-240],[79,1285],[539,-184],[121,244],[71,95],[18,66],[63,87],[89,76],[365,428],[260,-1228],[42,-35],[98,345],[-144,698],[39,154],[139,-128],[28,47],[24,119],[16,1],[-1,26],[21,22],[46,-4],[32,-73],[53,-28],[20,12],[59,67],[14,89],[27,63],[0,41],[-51,17],[15,258],[30,-10],[95,-191],[97,-2],[274,178],[33,191],[55,-66],[12,6],[15,171],[10,22],[13,-88],[32,13],[20,-34],[9,57],[72,-104],[36,-108],[72,-113],[38,-170],[152,-8],[33,-32],[60,-201],[30,-15],[23,7],[25,54],[24,14],[137,12],[81,-115],[114,-115],[24,-37],[46,-135],[46,786],[6,-110],[31,-41],[35,6],[31,78],[31,16],[12,-48],[2,-113],[18,-36],[19,12],[22,55],[-3,83],[12,44],[24,421],[247,22],[44,134],[43,265],[23,-65],[44,33],[88,-340],[117,-161],[108,-100],[97,79],[51,7],[46,91],[76,76],[40,140],[17,1],[-1,225],[-51,328],[276,-100],[55,8],[191,-95],[53,-128],[43,-20],[10,162],[71,-2],[129,-174],[48,-5],[23,390],[108,-35],[348,-223],[38,-546],[39,-64],[127,-16],[82,64],[154,22],[-17,191],[17,55],[34,44],[21,121],[80,118],[110,28],[69,328],[27,824],[40,74],[-104,878],[9,159],[-39,257],[68,222],[84,80],[51,882],[-46,334],[33,108],[43,58],[317,-161],[97,-489],[69,-168],[112,-105],[59,-103],[135,94],[46,18],[60,-28],[145,75],[126,-116],[49,-204],[69,-1],[458,-155],[15,-294],[24,-124],[42,-55],[-2,-68],[-59,-175],[-2,-116],[-38,-27],[-44,-145],[-28,-230],[54,-232],[123,-145],[-4,-230],[-8,-38],[7,-281],[40,-14],[-26,-77],[9,-44],[-56,-212],[-80,-20],[-32,-100],[-19,-164],[107,-326],[-64,-51],[71,-230],[106,-149],[11,-144],[59,-75],[137,-438],[16,-14],[14,-108],[-33,-193],[-14,-168],[-50,-153],[-59,-82],[-14,-138],[-1,-94],[13,-105],[34,-83],[10,-75],[-1,-192],[-6,-70],[-30,-120],[-10,-133],[-89,-312],[4,-145],[32,-177],[12,-133],[-15,-140],[75,-13],[170,-82],[104,-242],[44,-7],[49,92],[36,19],[283,-32],[11,-114],[14,-24],[3,-72],[29,-5],[6,-26],[-7,-51],[27,-77],[32,-227],[-5,4],[-8,-84],[27,-66],[34,-9],[24,-67],[-5,-82],[-31,-81],[-7,-54],[42,-243],[22,-81],[11,-127],[500,-165],[456,817],[20,148],[-3,96],[67,94],[54,-21],[53,-150],[48,-28],[4,32],[46,-22],[95,57],[103,-84],[183,134],[-5,-82],[48,-83],[40,-352],[76,-267],[-8,-139],[54,-220],[4,-179],[12,-77],[46,-131],[139,-176],[64,-56],[118,-24],[16,-36],[94,113],[54,-221],[33,-13],[9,-19],[28,-65],[21,-10],[29,-113],[40,-24],[31,-50],[10,-49],[37,8],[13,-29],[29,8],[7,-30],[26,1],[36,-133],[43,21],[27,88],[21,-17],[68,204],[8,-49],[16,-4],[47,82],[58,-32],[15,-51],[1,-74],[65,-214],[-14,-187],[10,-57],[-21,-42],[0,-51],[6,-51],[19,-26],[10,-54],[11,-167],[-27,-110],[-73,-113],[-26,39],[-38,-43],[-27,14],[-113,171],[-3,32],[-23,36],[-17,119],[-40,47],[-143,-199],[9,-230],[-58,21],[-138,-54],[-27,-239],[-422,-504],[-38,65],[-42,10],[29,-1417],[417,33],[585,-184],[-175,-2568],[-319,-1835],[1092,-358],[5,-42],[-40,-112],[-2,-70],[39,-124],[-32,-142],[3,-45],[13,-14],[51,-228],[55,-77],[30,-17],[-4,-69],[47,-67],[19,-60],[38,33],[9,46],[21,19],[44,-111],[30,26],[9,-31],[3,-128],[-9,-66],[22,-124],[39,-42],[28,-88],[69,-37],[25,35],[22,-13],[42,81],[10,54],[13,-20],[34,27],[5,-28],[30,-25],[-6,-198],[7,-77],[60,-202],[55,-90],[29,-201],[22,-50],[24,-15],[-3,-42],[32,-143],[15,24],[21,-11],[39,101],[15,-27],[11,-112],[22,-38],[16,15],[27,-115],[-7,-52],[6,-21],[71,-117],[66,-27],[17,-199],[49,-33],[47,-108],[44,-14],[21,-79],[-13,-66],[13,-26],[63,53],[37,-82],[14,-70],[33,-41],[36,12],[15,-22],[-1,-57],[38,-85],[30,-129],[44,-122],[1,-6],[9,-84],[-17,-293],[-128,-227],[20,-17],[28,-139],[64,-85],[20,17],[26,-55],[52,-24],[9,-101],[-16,-112],[-19,-61],[4,-61],[19,-26],[5,-63],[-33,-178],[41,-81],[7,-254],[15,-123],[23,-3],[14,-51],[11,8],[42,-89],[24,-2],[15,-48],[36,-49],[82,-30],[46,-47],[30,8],[43,-47],[39,41],[39,-8],[18,73],[30,3],[26,57],[61,-64],[32,-124],[32,-9],[16,24],[41,-18],[17,-83],[35,-8],[35,33],[42,-21],[2,-31],[-19,-98],[4,-165],[-15,-60],[8,-121],[31,-74],[4,-41],[-43,-128],[21,-39],[42,-219],[36,-22],[22,-140],[42,-52],[30,17],[36,-94],[14,-81],[25,-42],[-2,-73],[10,-61],[53,-92],[23,-140],[33,-122],[46,-36],[-2,-107],[30,-57],[7,-199],[43,-225],[42,13],[36,-43],[5,-56],[18,-39],[27,20],[55,-19],[11,-63],[29,-60],[25,-11],[9,-31],[34,12],[41,-91],[1,-51],[18,4],[8,-36],[18,-11],[66,43],[74,-178],[29,-8],[21,-83],[25,-42],[16,-20]],[[95484,28976],[5,63],[3,65],[-15,90],[5,77],[-2,17],[-15,114],[5,59],[-8,2],[-5,98],[-31,127],[1,75],[37,78],[12,58],[-11,103],[-7,32],[-56,21],[12,175],[-71,28],[2,21],[-20,7],[5,79],[20,-8],[1,21],[178,-55],[14,208],[-52,18],[9,126],[-69,169],[-52,269],[23,285],[31,-100],[54,-34],[68,929],[-29,11],[20,277],[26,-10],[11,161],[-192,70],[8,152],[32,88],[64,41],[68,80],[8,94],[12,23],[-8,22],[3,48],[15,-5],[9,133],[28,-31],[29,107],[-84,51],[5,90],[44,-14],[16,57],[4,69],[15,-49],[69,-53],[19,27],[-23,57],[2,26],[34,28],[19,-29],[24,41],[15,-80],[31,-13],[23,-40],[11,14],[2,41],[14,3],[24,-85],[5,-80],[26,-42],[12,199],[29,-11],[8,95],[14,34],[-14,111],[52,116],[1,75],[22,165],[54,170],[23,158],[25,43],[20,69],[3,21],[-11,16],[19,26],[-5,24],[138,166],[-62,286],[51,60],[39,-19],[13,189],[26,-41],[21,325],[21,-7],[10,176],[-151,30],[-70,-29],[59,889],[-212,84],[31,256],[-46,210],[55,68],[3,41],[-15,66],[-36,109],[-59,117],[-19,17],[-21,-22],[-30,96],[-48,16],[-5,-83],[-56,87],[7,100],[-80,26],[9,151],[-16,125],[5,117],[-222,76],[36,40],[6,101],[-122,40],[17,296],[-91,62],[-95,172],[-50,53],[-46,16],[-27,-19],[-175,62],[-9,-60],[-228,75],[-43,-677],[-53,82],[-82,-38],[-24,599],[-69,-29],[-11,-66],[-23,-58],[-3,-51],[-12,4],[-86,-138],[-35,-14],[-31,81],[6,38],[-14,38],[23,363],[-279,98],[-2,-36],[-8,25],[-44,-40],[-27,9],[-17,38],[-9,-51],[-20,-1],[-31,13],[-58,80],[-75,27],[-9,-35],[-6,115],[17,-1],[1,35],[42,47],[27,403],[-84,-142],[7,122],[11,34],[-9,3],[29,399],[28,-9],[7,186],[-6,2],[17,237],[-95,38],[26,120],[-11,79],[35,82],[17,-24],[14,30],[8,139],[12,2],[13,51],[-12,31],[4,39],[14,29],[-6,17],[21,28],[-41,30],[2,30],[-20,29],[4,69],[-28,44],[0,88],[-16,84],[17,65],[-103,38],[-12,-17],[1,-52],[-19,-43],[2,-32],[-30,-41],[-33,-130],[-24,-43],[-36,-8],[-18,-47],[-14,21],[-7,51],[8,80],[-19,53],[-9,68],[-16,1],[-25,43],[-18,120],[24,52],[28,171],[36,59],[69,-46],[32,-94],[20,-19],[15,72],[-21,86],[-39,25],[7,38],[71,40],[65,-64],[19,284],[85,-29],[3,71],[22,16],[39,83],[82,64],[30,83],[29,2],[36,104],[27,40],[26,416],[-132,48],[-45,-168],[-293,86],[-22,-68],[-33,-6],[10,-39],[-12,-26],[-54,27],[-7,69],[-58,22],[22,378],[66,39],[32,115],[58,35],[9,41],[35,50],[6,91],[19,67],[-456,606],[56,184],[3,33],[-7,3],[12,34],[1,77],[14,-4],[3,67],[38,40],[-3,55],[25,24],[24,-11],[-16,35],[13,23],[0,68],[22,-10],[14,39],[-4,56],[52,46],[37,92],[16,10],[0,52],[24,19],[17,44],[19,0],[2,30],[-18,18],[-1,27],[21,22],[-3,59],[15,-15],[28,20],[-21,80],[12,7],[33,545],[51,-241],[195,-61],[13,-58],[17,-4],[4,-1],[3,49],[-37,78],[-1,60],[12,27],[24,-9],[31,55],[-25,73],[0,30],[11,-3],[9,-43],[20,-6],[23,24],[3,39],[-272,98],[36,635],[-57,16],[5,90],[217,-73],[10,15],[8,72],[-28,88],[-26,-11],[-77,97],[-57,20],[-4,118],[-97,35],[18,280],[-116,40],[-16,76],[59,43],[25,47],[17,-15],[-11,48],[-36,-27],[-39,46],[22,42],[39,-9],[13,42],[0,3],[-3,10],[-4,15],[-1,3],[-19,22],[-11,13],[-1,2],[-31,-10],[-25,-56],[-26,-14],[-5,37],[11,108],[-15,91],[-14,1],[-13,-88],[-73,81],[-39,-46],[-15,16],[10,64],[-4,36],[-127,50],[-33,45],[-12,139],[-17,21],[-9,-5],[-7,4],[18,84],[0,137],[60,201],[29,54],[6,47],[25,11],[25,84],[-18,11],[6,103],[-5,46],[4,183],[27,48],[-2,40],[26,52],[-23,123],[-34,-35],[-15,62],[-28,-53],[0,8],[-1,-8]],[[93274,50310],[1,18],[29,253],[47,189],[62,120],[43,0],[47,70],[16,78],[28,-11],[-8,-101],[27,-69],[134,-47],[2,39],[-39,102],[-7,118],[7,320],[-27,102],[13,205],[43,-15],[20,316],[-134,48],[2,126],[17,147],[-34,136],[7,44],[-22,90],[26,34],[-5,37],[13,36],[-4,161],[11,38],[30,-17],[-20,88],[-46,60],[-24,90],[-36,-58],[-11,9],[-57,141],[1,195],[20,66],[-24,81],[10,51],[20,26],[11,58],[15,22],[15,90],[-111,35],[16,276],[-45,-9],[-42,29],[-17,-24],[2,-39],[46,-93],[-4,-57],[-12,-32],[-54,-20],[-39,-46],[-27,154],[37,52],[0,31],[-38,62],[-12,104],[-37,124],[-37,69],[-48,160],[-10,18],[-84,-76],[13,15],[-40,74],[6,27],[13,-15],[-3,38],[-83,59],[-52,76],[-8,27],[-5,33],[-5,122],[-60,87],[2,143],[-18,260],[1,11],[6,37],[37,64],[24,89],[43,52],[25,28],[73,6],[12,14],[48,54],[13,64],[31,15],[36,47],[7,36],[17,-3],[12,134],[59,-13],[24,-50],[10,32],[-8,55],[2,102],[-14,100],[63,283],[-28,204],[-20,58],[2,44],[62,86],[16,52],[17,-21],[12,52],[-46,102],[-4,119],[-45,82],[-8,90],[14,104],[27,86],[0,123],[-26,87],[-6,149],[-17,36],[0,74],[-13,63],[0,84],[17,32],[0,35],[-34,85],[5,76],[27,22],[13,115],[-36,74],[3,168],[-18,35],[1,62],[32,37],[35,99],[1,46],[18,70],[-4,88],[-26,75],[26,167],[20,30],[26,0],[71,-88],[16,52],[20,2],[13,119],[17,-6],[24,-56],[19,66],[32,4],[19,-63],[26,-14],[21,-78],[42,-69],[20,7],[23,-34],[43,-134],[44,-77],[23,-102],[63,-161],[13,-79],[59,-44],[14,18],[23,132],[27,52],[62,-92],[19,20],[14,68],[-7,81],[8,66],[-5,48],[-24,57],[48,85],[23,-13],[30,38],[21,-5],[15,52],[34,26],[18,-21],[12,20],[24,131],[26,45],[4,112],[21,56],[48,-1],[43,102],[6,238],[24,-13],[16,31],[57,-5],[31,-83],[43,-46],[28,-87],[-1,-51],[27,13],[33,-36],[5,-17],[-6,-44],[57,-79],[35,-185],[19,5],[16,78],[31,4],[18,36],[41,-2],[34,56],[40,25],[12,52],[28,30],[51,-31],[9,35],[41,56],[38,-24],[32,69],[67,4],[6,-117],[28,-40],[4,-48],[82,1],[30,-83],[20,49],[55,65],[33,-68],[37,62],[4,56],[37,96],[73,-66],[32,67],[42,9],[13,-17],[29,37],[14,68],[55,-3],[-34,-572],[52,-18],[1,37],[22,21],[-28,-457],[-27,-51],[-23,-96],[6,-131],[-6,-58],[-17,-10],[-12,-76],[3,-301],[6,-23],[14,2],[4,72],[37,52],[-5,53],[8,58],[51,-67],[-10,-155],[-12,-5],[-15,-133],[-36,-41],[22,-7],[-6,-95],[-13,-46],[1,-75],[-10,-20],[89,-33],[-15,-251],[80,-27],[-13,-219],[527,-167],[20,45],[-60,194],[-30,225],[356,-111],[53,-206],[38,-41],[38,27],[48,-32],[1,-1],[-1,-1],[11,-182],[-13,-16],[-8,-55],[85,-27],[-24,-84],[34,-255],[-12,-33],[32,-10],[-38,-693],[-99,-278],[7,-28],[-168,-477],[13,-22],[21,26],[-5,-149],[20,-51],[-29,-125],[-24,-36],[-3,-221],[19,25],[10,-35],[19,54],[7,-41],[28,-20],[32,13],[93,-130],[9,-63],[18,-5],[22,-89],[-13,-62],[6,-62],[15,-28],[2,-82],[30,-58],[-38,-52],[9,-102],[63,-149],[59,-44],[18,-58],[20,-134],[54,-4],[6,-30],[11,19],[53,-20],[34,-76],[47,12],[47,-45],[23,49],[32,9],[27,-60],[-9,-66],[19,-64],[7,-74],[56,52],[27,70],[60,-20],[49,-86],[10,-199],[-6,-59],[9,-111],[23,-33],[6,-61],[14,-20],[22,-21],[20,-20],[5,-70],[3,-38],[-16,-60],[-1,-58],[7,-39],[21,-26],[-19,-143],[-32,-42],[-10,2],[-11,-10],[-4,-15],[8,-57],[39,23],[11,-28],[-23,-85],[18,-57],[-1,-39],[-25,-47],[-15,-29],[-7,-13],[-10,-8],[-36,-45],[-4,-76],[36,-102],[-11,-58],[3,-65],[-15,-33],[13,-22],[14,-105],[22,29],[9,-21],[0,-67],[20,-68],[-12,-74],[33,-57],[36,-138],[16,-4],[-6,-73],[-14,-9],[31,-33],[-4,-119],[18,-55],[4,-56],[-11,-26],[0,-95],[-80,29],[-4,-48],[-92,34],[3,-88],[-11,-138],[-52,-75],[227,-85],[-43,-32],[1,-48],[-38,-29],[3,-36],[-15,-72],[-28,21],[0,-40],[-27,-67],[-2,-42],[17,-84],[-12,-10],[-2,-78],[8,-24],[-28,-41],[-7,-61],[7,-17],[-29,9],[-1,-90],[-15,29],[7,-45],[-11,-27],[-13,30],[-9,-44],[-26,47],[-21,-22],[-19,-145],[52,31],[2,-54],[46,-51],[23,20],[15,-29],[3,-43],[-15,-59],[-31,-43],[1,-21],[15,-4],[2,-50],[56,84],[44,-19],[29,43],[42,-35],[-10,-23],[2,-43],[-18,-20],[2,-18],[-18,-34],[9,-67],[-15,-45],[23,-75],[37,34],[-4,-124],[26,0],[-11,-66],[-26,12],[2,-66],[-11,-12],[-4,-50],[44,-139],[25,-133],[46,-89],[-13,-72],[18,-25],[-3,-56],[30,-49],[-5,-98],[27,-46],[-16,-36],[14,-52],[-7,-47],[-33,-17],[-8,-39],[5,-134],[-11,-31],[12,-30],[-20,-3],[-26,-86],[-30,-43],[1,-60],[13,-46],[-13,-43],[27,-22],[2,-35],[18,45],[8,-38],[-6,-38],[-146,45],[55,-228],[11,-104],[-13,-59],[14,-41],[12,-128],[-41,-83],[-45,-40],[-2,-9],[16,-110],[4,-19],[22,-22],[68,53],[51,-47],[52,2],[50,-32],[32,-35],[1,-24],[53,-32],[-2,-41],[68,-22],[3,41],[66,-21],[-8,-113],[-21,-4],[-5,-25],[-8,-158],[7,-47],[-18,-86],[22,-96],[1,-92],[19,-84],[14,-164],[-7,-20],[23,-30],[10,-145],[12,-9],[-21,-96],[-58,-138],[-7,-49],[38,-171],[-32,-22],[-2,-5],[1,-51],[-10,-40],[-19,6],[-27,-86],[-36,-50],[-20,-86],[-33,-46],[-9,-76],[-19,-2],[-57,-215],[-4,-23],[16,-96],[5,-25],[-1,-4],[-2,-46],[-2,-42],[-1,-4],[-25,-153],[14,-145],[-16,-85],[-40,-83],[-20,-6],[-19,-37],[14,-128],[0,-2],[-1,-2],[-42,-156],[-49,-129],[-3,-175],[22,-87],[-1,-125],[21,-48],[35,1],[6,0],[0,0],[4,-3],[110,-59],[2,-1],[3,-32],[2,-20],[0,-3],[-9,-62],[9,-76],[-15,-101],[4,-42],[79,68],[30,-70],[83,-47],[41,-53],[31,11],[26,65],[57,9],[26,-40],[41,3],[-3,-44],[30,-81],[-3,-144],[-8,-15],[6,-19],[-4,-11],[-8,-25],[-7,-22],[-41,-41],[-4,-81],[-12,-4],[11,-37],[-31,-6],[-47,-95],[-67,2],[-9,-20],[-57,46],[-31,-31],[-5,-95],[-14,-63],[-60,-43],[-121,-227],[-31,1],[-50,-139],[-16,7],[-37,-518],[56,-21],[5,78],[29,-10],[15,223],[61,-22],[7,107],[55,-18],[7,114],[135,-48],[-16,-245],[94,-34],[-9,-133],[39,-15],[-32,-500],[71,108],[3,-45],[13,-35],[-8,-75],[-15,-14],[1,-84],[5,-80],[49,-20],[-11,-180],[19,-7],[-1,-138],[-8,-44],[-35,-36],[-16,-44],[27,-9],[-12,-189],[27,-10],[-5,-82],[17,-7],[-28,-425],[-49,18],[-3,-37],[0,-81],[12,-58],[-8,-38],[7,-41],[-10,-35],[39,23],[-11,-12],[-6,-84],[23,-9],[-6,-81],[-19,8],[-8,-77],[10,-79],[14,-34],[-25,11],[-11,-155],[-66,-22],[3,-25],[70,-162],[1,-6],[3,-14],[46,-212],[53,-66],[81,-1],[19,-89],[-1,-4],[-16,-73],[-61,36],[-5,0],[-11,-10],[-15,-18],[-11,-32],[-6,-20],[-37,-354],[-16,-199],[-12,-264],[21,-57],[16,-9],[12,1],[20,48],[21,-58],[23,-17],[6,45],[16,2],[92,225],[26,-10],[18,-67],[75,3],[10,60],[20,-3],[-10,83],[-11,18],[21,41],[11,-1],[17,-83],[43,-40],[20,23],[10,-1],[10,-1],[9,-2],[31,-17],[17,-36],[23,-1],[54,17],[45,17],[6,8],[14,33],[12,67],[5,26],[0,2],[17,-2],[82,87],[2,2],[32,6],[12,28],[-12,96],[-79,65],[-2,52],[9,35],[61,54],[48,-21],[27,-39],[40,-199],[1,-7],[-2,-115],[-27,-191],[-2,-178],[50,-310],[17,-397],[2,-7],[25,-22],[17,16],[65,360],[19,34],[2,0],[10,1],[11,2],[2,-5],[128,-271],[50,-213],[36,-22],[22,-70],[31,26],[15,-43],[31,-1],[25,31],[48,-25],[4,-2],[49,-100],[53,-69],[3,-4],[54,-206],[-8,-112],[9,-4],[-26,-297],[-3,-11],[-108,-336],[25,-111],[33,-78],[-68,-922],[-274,101],[-65,-966],[-69,24],[-11,-158],[-129,51],[-9,-136],[-112,44],[-2,-33],[-60,23],[-18,68],[6,112],[-45,18],[-8,-132],[-44,16],[-6,-96],[-91,32],[-3,-91],[-25,9],[-33,-391],[6,-2],[-13,-202],[68,-27],[3,56],[50,-28],[35,13],[-2,-92],[33,-198],[3,-153],[-7,-35],[11,-20],[-12,-40],[20,-7],[-9,-119],[-84,31],[-19,-277],[-84,29],[13,174],[-82,34],[35,13],[21,364],[-141,48],[8,117],[-15,46],[-202,77],[17,273],[-39,122],[-423,201],[-27,192],[-150,61],[-1,-83],[-19,-17],[3,-24],[-141,55],[9,147],[-111,43],[5,68],[-141,38],[-7,-111],[-257,99],[9,121],[-34,6],[10,141],[-60,23],[-4,-51],[-153,58],[6,99],[-157,59],[-1,-101],[-164,61],[0,-24],[-106,38],[1,15],[-40,-94],[-16,-128],[7,-206],[-37,-548],[-170,64],[-38,-555],[-106,39],[-5,-77],[-116,44],[-2,-134],[-28,-101],[-12,-194],[-21,-13],[-73,26],[-65,-944],[-63,23],[3,46],[-65,26],[-25,-369],[-38,14],[-14,-197],[-142,39],[-5,-63]],[[58209,94879],[-3,12],[5,-8],[52,42],[71,-20],[91,25],[27,-55],[3,-56],[45,-160],[10,-3],[66,-213],[29,19],[28,55],[116,-35],[37,-127],[62,-68],[26,-71],[55,-28],[65,54],[90,-62],[20,-36],[-1,-41],[24,-133],[24,-59],[-5,-116],[12,-63],[101,-192],[3,-80],[19,-70],[-35,-195],[30,-225],[15,-33],[0,-27],[-31,-55],[-1,-136],[21,-73],[-5,-43],[9,-24],[2,-63],[40,-189],[-3,-94],[30,-37],[19,-145],[39,-101],[89,-81],[11,-65],[25,-29],[39,16],[29,-30],[4,-39],[-19,-132],[47,-113],[4,-140],[13,-46],[38,-30],[55,37],[65,-267],[13,-102],[12,-31],[41,-2],[21,-74],[3,-64],[67,-362],[40,5],[44,-30],[36,19],[49,107],[56,-39],[91,-13],[60,56],[35,-20],[28,-139],[100,-182],[31,-87],[47,-43],[17,-216],[-8,-43],[5,-43],[35,-69],[12,-65],[84,-160],[32,-132],[45,-46],[66,-178],[-4,-33],[71,-78],[-16,-39],[10,-56],[47,-89],[2,-35],[77,-54],[40,-74],[-12,-28],[-22,-202],[20,-63],[-12,-86],[30,-151],[-6,-36],[39,-78],[51,-219],[-7,-185],[57,-17],[116,56],[32,-84],[42,-32],[16,-58],[90,-51],[18,-65],[17,-136],[48,-41],[26,-76],[68,76],[83,-94],[0,-93],[42,-119],[20,25],[27,-11],[31,37],[56,-22],[45,-198],[21,-30],[3,-90],[50,-36],[24,26],[25,165],[23,49],[28,8],[34,-57],[164,-115],[170,259],[98,38],[56,-75],[126,37],[63,-29],[47,64],[73,-30],[80,3],[74,-55],[39,-110],[41,-39],[134,89],[55,-113],[45,-9],[90,-138],[34,-78],[10,-114],[29,-47],[12,-60],[75,5],[20,-41],[105,-75],[99,12],[15,-57],[51,-86],[39,-189],[23,-40],[70,-230],[47,-83],[17,22],[9,86],[30,5],[33,103],[22,263],[29,37],[0,134],[40,-10],[48,-76],[34,-13],[36,35],[50,128],[64,-70],[45,-110],[26,7],[30,-34],[55,16],[22,40],[-17,116],[18,27],[67,-30],[116,-684],[-55,-47],[-9,-35],[-31,-9],[7,-43],[-13,-41],[3,-122],[-71,-75],[-46,-134],[-2,-90],[-55,-106],[-65,-979],[1,-39],[49,-36],[20,-62],[-17,-55],[5,-114],[95,-197],[58,-77],[147,-91],[17,-46],[15,-106],[78,-164],[9,-72],[29,-25],[37,3],[62,-71],[57,-139],[22,-11],[2,66],[30,47],[40,3],[39,-70],[-12,-55],[22,-135],[55,-49],[26,12],[75,-139],[252,-105],[77,78],[34,-192],[198,-58],[38,23],[17,89],[100,-5],[74,96],[58,-41],[36,31],[8,21],[-20,12],[5,79],[721,-2220],[-339,-632],[18,1],[15,-38],[-14,-174],[6,-116],[-13,-199],[49,-136],[15,-7],[18,28],[3,61],[-30,100],[-16,104],[18,103],[152,-22],[81,-44],[50,-96],[-2,-66],[-16,-19],[-80,68],[-12,-10],[-2,-48],[10,-47],[38,-67],[75,-58],[45,-172],[48,-47],[1,-53],[-50,-150],[12,-65],[2,-7],[10,-9],[4,6],[18,76],[25,38],[1,98],[32,82],[-4,92],[7,27],[21,3],[105,-86],[8,-66],[-7,-55],[-84,-149],[-17,-91],[10,-104],[8,-27],[12,-13],[70,78],[9,-2],[25,-4],[5,-1],[-1,-12],[-2,-24],[-2,-30],[-3,-5],[-2,-8],[-33,-51],[-49,-204],[-3,-104],[22,-77],[-138,-131],[-70,67],[-102,-193],[-30,-5],[-63,-282],[-57,-65],[-48,-4],[-121,-236],[-27,-8],[-44,-100],[-29,39],[-17,168],[-26,100],[-60,141],[-64,2],[-56,161],[-31,2],[-5,-55],[15,-67],[-2,-65],[-26,-72],[1,-25],[-21,-27],[-27,2],[-50,-88],[4,-46],[25,-79],[-33,-182],[7,-46],[24,-28],[2,-52],[-17,-42],[-42,-7],[-17,-69],[24,-30],[-11,-110],[22,-129],[-194,-432],[75,-24],[-7,-107],[18,-33],[285,-81],[156,-474],[40,67],[72,46],[72,107],[92,41],[138,139],[73,128],[36,18],[44,-13],[-1,-155],[-52,-519],[25,-121],[134,-408],[74,-35],[8,-36],[-31,-40],[43,-14],[48,-132],[12,-78],[25,-7],[24,-83],[63,-26],[99,-285],[35,-65],[45,-28],[36,-63],[25,-66],[33,-153],[-116,-1478],[24,-166]],[[70727,24456],[-123,33],[-211,-3504],[-667,220],[2,32],[-1146,382],[-4,-85],[-363,101],[-18,-24],[-570,157],[5,84],[-286,73],[-688,-2269],[-222,-4334],[22,-7],[-39,-771],[-13,4],[-43,-847],[98,-28],[-69,-1328],[-33,-25],[-34,-790],[567,-145],[-102,-2111],[135,-27],[-81,-1323],[292,-925],[229,-671],[-2,24],[38,113],[51,-156],[16,-135],[0,-7]],[[67468,6167],[-2,-53],[16,-38],[-8,-38],[15,-46],[-5,-78],[-26,-13],[-35,-128],[-19,34],[-8,-81],[-21,-15],[20,-34],[-1,-54],[-39,-52],[6,-68],[-9,-31],[28,-3],[0,-68],[-18,1],[2,-34],[-10,-26],[9,-19],[-5,-29],[-38,8],[11,-24],[-7,-16],[10,-33],[-46,-70],[-2,-45],[15,-24],[-25,-66],[11,-25],[-24,-90],[-13,-7],[-3,39],[-16,21],[-56,-57],[-14,-51],[-22,63],[-21,-26],[-23,49],[-30,-50],[7,-18],[25,6],[-9,-38],[-50,-13],[-3,-41],[9,-44],[-12,-63],[-36,-51],[0,-27],[-22,-42],[-49,30],[-10,-64],[5,-36],[-36,39],[-21,-54],[-23,27],[-26,-2],[-19,-23],[-11,-49],[-23,9],[-10,-89],[5,-66],[-43,-12],[26,-53],[-15,-32],[-1,-38],[-31,-5],[18,-44],[-35,-82],[-28,-37],[-16857,-2]],[[89188,50005],[18,-27],[6,2],[58,23],[38,83],[17,-8],[32,-137],[27,-31],[7,-42],[34,-46],[29,7],[66,-106],[20,-112],[25,-15],[43,-137],[41,3],[73,-130],[70,-71],[4,-1],[13,-4],[9,-3],[61,81],[46,-61],[65,33],[59,-50],[50,9],[191,157],[36,51],[60,162],[75,-101],[57,95],[26,-25],[60,80],[1,5],[46,182],[77,153],[0,2],[35,134],[39,80],[0,3],[5,119],[363,404],[-4,37],[13,96],[43,118],[34,40],[15,241],[-14,92],[14,43],[-4,65],[33,102],[-1,99],[38,115],[-5,8],[84,92],[25,97],[26,26],[30,142],[1,108],[62,201],[338,-100],[9,180],[24,-9],[16,256],[61,93],[17,-27],[67,11],[10,158],[83,144],[67,-216],[24,22],[16,-18],[-3,-47],[101,-35],[7,114],[17,-15],[36,93],[60,1],[10,94],[45,62],[-12,-225],[102,-31],[13,-205],[-18,-107],[5,-102],[-35,-41],[32,-79],[1,-22],[4,-39],[1,-13],[9,-28],[7,-22],[6,-19],[29,0],[15,-42],[11,-79],[-7,-90],[-18,-70],[-16,54],[-40,-19],[-11,-87],[-25,-75],[1,-7],[4,-26],[17,-93],[2,-22],[-5,-21],[-24,-74],[-35,-46],[-8,-10],[-6,-7],[-35,-80],[-55,30],[-13,-119],[-44,12],[-16,-35],[11,-117],[26,-45],[32,58],[41,-30],[25,42],[26,-9],[10,-59],[14,-22],[172,-53],[-64,-175],[0,-49],[-17,-68],[-30,-57],[18,-91],[17,-13],[7,-55],[-8,-106],[6,-214],[-32,-49],[-11,-70],[-31,-25],[-13,-108],[-36,-20],[-17,-183],[1,0],[56,-28],[56,-142],[56,-10],[55,72],[16,68],[11,-26],[64,67],[-4,41],[30,20],[7,51],[82,62],[48,175],[54,-9],[45,36],[12,42],[30,-5],[92,-130],[16,134]],[[95484,28976],[30,-103],[5,-105],[6,-39],[42,-124],[-12,-81],[9,-100],[-10,-95],[13,-48],[-4,-72],[-53,-67],[-6,-31],[6,-188],[7,-107],[29,-9],[-5,-82],[17,-78],[5,-78],[11,-10],[-16,-77],[18,-26],[4,-78],[14,-33],[9,-92],[-39,-71],[-25,-96],[-27,-33],[-24,-121],[6,-64],[-13,-126],[3,-90],[-2,-5],[-7,-13],[-50,-107],[-47,75]],[[95378,26602],[-57,187],[-21,-9],[-49,51],[-22,-11],[-65,43],[-54,2],[-38,-51],[-24,10],[-18,-26],[-37,96],[-74,-86],[-57,-38],[-47,40],[-47,-22],[-67,64],[-78,143],[-8,0],[-12,1],[-23,2],[-6,-11],[7,-100],[-63,-41],[-16,-65],[-31,-8],[-30,-74],[-59,28],[-9,-37],[-88,-50],[-51,121],[-91,138],[-47,22],[-38,47],[-53,23],[-28,-22],[-101,75],[-15,-234],[-68,8],[-44,62],[-41,-73],[-177,-25],[-31,-43],[-49,3],[-37,31],[-56,-7],[-12,81],[-55,104],[3,100],[27,49],[-3,82],[-24,36],[-8,46],[-272,98],[-73,-108],[0,-56],[-63,-153],[-69,-107],[-66,-53],[-410,149],[-12,-190],[-245,87],[32,-260],[-189,69],[-21,-278],[-433,157],[-24,-365],[-82,106],[-16,-146],[83,-371],[-2,-80],[-914,334],[-14,-195],[-46,81],[-21,-5],[-9,54],[-39,-9],[-61,-213],[44,-102],[-108,-185],[-37,154],[-23,53],[-2,53],[-9,-12],[-21,26],[13,46],[-9,21],[-10,-1],[4,-28],[-10,19],[-2,113],[-37,-15],[-25,-45],[-35,32],[-9,56],[-31,62],[-176,97],[-44,56],[-3,-51],[-231,68],[-7,-18],[-254,90],[-397,96],[-603,208],[-61,-1001],[-247,79],[-94,-1635],[-187,49],[-60,-82],[-19,-49],[-32,-296],[-63,57],[-57,-11],[-23,-143],[32,-112],[-25,-104],[8,-23],[-45,-302],[15,-348],[-32,-53],[-116,-37],[-40,-56],[-34,-15],[-39,-91],[-66,5],[-43,-99],[-43,158],[-88,60],[-41,74],[-22,-34],[-65,-14],[-11,-95],[-34,-105],[-65,-49],[-15,-38],[-34,-12],[-17,-32],[-22,-120],[-19,-29],[-20,-16],[-12,16],[-22,-29],[-29,22],[-17,-24],[-33,41],[-26,-2],[-5,52],[7,35],[-10,25],[-70,-15],[-20,22],[-22,-36],[-2,-44],[-35,-94],[-18,-9],[-22,-53],[-81,42],[-61,-71],[-62,-178],[-564,195],[9,135],[-34,-21],[-31,13],[-17,-30],[-2,63],[-22,16],[-32,-97],[-46,-36],[2,-48],[-123,40],[23,330],[-250,-53],[-27,-73],[-54,16],[-69,-99],[-291,45],[9,152],[-249,92],[-20,33],[-12,-21],[-33,11],[-64,-106],[-46,129],[12,62],[-42,381],[19,145],[40,74],[38,161],[7,163],[20,26],[10,121],[14,39],[15,169],[-11,145],[-1671,538],[-36,217],[-130,-118],[-91,241],[10,333],[45,189],[-226,346],[-72,235],[-12,258],[-233,185],[-56,20],[-12,142],[-69,155],[-74,-127],[-54,100],[-5,498],[-94,178],[-123,45],[-5,96],[-49,-11],[0,0]],[[95378,26602],[-22,-22],[-30,-82],[7,-104],[-48,-155],[-9,-380],[-16,-113],[55,-180],[12,-81],[62,-136],[-18,-114],[43,-126],[8,-51],[-5,-56],[11,-53],[-42,-231],[64,-50],[28,-64],[81,-91],[47,-22],[1,-88],[-14,-109],[15,-58],[16,-159],[-11,-48],[-53,-64],[-20,-131],[28,-137],[0,-173],[18,-61],[47,-61],[17,-119],[39,-102],[66,-42],[-17,-257],[14,-26],[10,-82],[-4,-73],[9,-121],[38,-111],[54,-56],[2,-56],[-39,-235],[0,-27],[9,-35],[35,-149],[2,-60],[25,-24],[42,-109],[22,22],[40,-20],[57,24],[9,-17],[-1,-118],[14,-39],[6,-71],[-22,-52],[-6,-67],[-20,-42],[-15,-92],[-45,-36],[-17,-58],[3,-123],[95,-51],[-4,-68],[41,-44],[9,9],[8,118],[50,-29],[19,-80],[28,-34],[-6,-92],[26,-7],[22,-75],[-45,-108],[1,-132],[-33,-93],[-66,-13],[-24,29],[-93,-75],[-20,-140],[14,-68],[-27,-58],[-24,-133],[-25,-8],[-24,-42],[-2,-34],[-49,-148],[-5,-65],[14,-119],[-11,-26],[-21,18],[-40,-41],[-40,46],[-26,2],[-20,-51],[-32,6],[-40,56],[-13,-28],[-17,-77],[6,-123],[-27,-73],[-1,-220],[41,-115],[16,-94],[-8,-113],[-46,-98],[-6,-45],[-76,-124],[-19,-114],[-44,-111],[-16,-113],[-31,-79],[0,-33],[-38,-30],[-43,71],[-30,-30],[-80,18],[-72,110],[-123,-150],[-52,30],[-31,-37],[-45,34],[-52,-4],[-63,98],[-29,-8],[-17,-137],[-131,-269],[-26,-226],[-58,-30],[-101,43],[-12,30],[-13,-27],[-11,-76],[-15,-2],[-27,-143],[-37,-57],[-29,-87],[-3,-73],[-26,-20],[-45,-98],[-37,-42],[3,-38],[-12,-86],[-23,-27],[-8,-59],[-29,-49],[-19,-164],[-25,-5],[-30,-105],[-4,-63],[-17,-65],[-20,-29],[-27,69],[-56,17],[-22,158],[-80,42],[-41,47],[-19,-27],[-14,-75],[-17,-9],[-79,89],[-54,10],[-31,44],[-38,-15],[-31,-29],[-16,-76],[-68,-29],[-18,-59],[-19,-9],[-55,-215],[-63,-40],[-51,-149],[-5,-43],[-30,6],[-44,-22],[-5,-21],[-75,23],[-10,-39],[-32,-32],[-16,9],[-2,-57],[-15,-23],[-24,30],[-28,-28],[-32,20],[-34,-42],[-35,15],[-13,42],[-13,-26],[-23,15],[-13,-126],[4,-49],[-15,-50],[2,-141],[-62,-126],[-38,4],[-80,-101],[-15,-90],[-30,-48],[-38,-132],[-73,-120],[-23,-1],[-10,-52],[-29,-45],[-5,-18],[9,-67],[-28,-89],[-136,-64],[-23,38],[-36,3],[-14,33],[-25,-19],[-36,193],[-2,60],[11,93],[-18,67],[-6,79],[-41,6],[-38,-44],[-10,-27],[4,-28],[-33,-48],[-38,-106],[-49,-31],[-24,-72],[8,-141],[16,-34],[-15,-24],[-27,-259],[12,-59],[14,-7],[1,-70],[-20,-97],[4,-67],[32,-79],[-13,-136],[5,-33],[17,-42],[35,-21],[27,-109],[78,-22],[2,-31],[50,-76],[30,-82],[20,-218],[32,-63],[-27,-172],[16,-154],[27,-51],[-2,-57],[-31,-137],[8,-85],[42,-138],[8,-62],[12,-5],[17,-55],[16,-87],[5,-180],[-8,-48],[20,-34],[13,10],[25,-166],[22,-58],[-9,-69],[31,-18],[55,42],[91,-50],[62,35],[49,-83],[7,-56],[-10,-49],[14,-64],[21,-18],[32,-120],[48,52],[21,-18],[10,29],[37,-40],[14,-86],[-28,-123],[8,-24],[3,-129],[24,-75],[24,-34],[2,-52],[34,-76],[-40,-146],[-77,-73],[-69,-161],[-97,-139],[32,-44],[14,-145],[-33,-124],[-25,-33],[2,-129],[-20,-15],[-22,-71],[1,-84],[11,-60],[-8,-145],[12,-52],[-19,-98],[41,-75],[-1,-36],[-22,-107],[-48,-85],[16,-5],[32,-139],[0,-43],[-22,-95],[0,-98],[11,-58],[-16,-98],[12,-10],[5,-48],[-21,-49],[-6,-178],[-39,-40],[-8,-39],[-41,16],[-17,-93],[2,-33],[-35,-28],[10,-166],[-27,-106],[4,-32],[19,5],[45,-71],[25,-79],[16,22],[13,66],[23,-6],[45,64],[12,-65],[-30,-85],[17,-131],[-30,-29],[-32,-94],[11,-88],[-27,-58],[-15,-147],[-21,-70],[4,-72],[-42,-62],[-24,-5],[-2,-91],[-22,-70],[-24,-148],[-50,-53],[-26,13],[-17,110],[14,83],[-28,97],[-14,12],[-12,-87],[-118,-230],[-23,24],[-30,-11],[-27,-68],[-23,-111],[-16,5],[-46,-59],[-40,44],[-38,-52],[-122,-53],[-80,-72],[-40,-66],[-55,-26],[-6,56],[13,44],[-29,103],[-112,121],[-26,-4],[-13,31],[-24,-44],[-94,87],[-28,-68],[-55,6],[-23,13],[-29,96],[-47,56],[-84,-18],[-60,-97],[-11,12],[-26,-108],[-10,-82],[-5,-242],[-10,-23],[11,-102],[28,-61],[0,-73],[-32,-124],[6,-47],[-10,-138],[-41,-110],[-41,-49],[-16,37],[-50,10],[-38,45],[-13,90],[28,43],[-4,70],[-37,19],[4,19],[-16,67],[-16,12],[-113,-92],[-35,-87],[-24,11],[-30,-23],[-45,-71],[-4,-40],[-53,72],[14,140],[13,34],[-4,216],[-16,-10],[-44,66],[-28,10],[-9,60],[-29,52],[12,84],[-36,39],[-5,50],[-34,-10],[-70,91],[16,18],[14,52],[-28,156],[1,37],[-28,116],[13,84],[-36,41],[-2,82],[-39,210],[-1,29],[17,58],[-6,48],[7,107],[-21,17],[-19,61],[-22,22],[-32,-33],[0,-38],[-51,-106],[-28,-11],[-18,95],[-39,-12],[2,-41],[-17,-26],[-16,-80],[-5,-83],[-33,-54],[-21,3],[2,-89],[-52,9],[-9,24],[-18,-45],[-10,-92],[-62,-155],[-2,-80],[-16,-34],[-7,-53],[-74,48],[-95,-205],[-18,-13],[-8,-40],[-42,17],[-19,-19],[-60,-111],[-2,-105],[-14,-54],[-16,-15],[-20,74],[-41,68],[-76,-55],[-30,50],[-30,14],[-38,-40],[-14,-52],[-126,-98],[-29,-91],[-8,-68],[-13,-4],[-30,-103],[-17,-21],[-15,33],[-26,-26],[-44,64],[-156,-245],[-28,-8],[-8,-28],[8,-23],[-2,-74],[-23,-215],[-31,-58],[-18,-83],[11,-104],[-25,-37],[-21,-87],[-68,-79],[-21,-146],[-40,-28],[-60,-190],[-26,-28],[-28,-200],[-9,-30],[-13,5],[-19,-87],[2,-104],[-25,-104],[-2,-57],[20,-206],[-60,-317],[59,-138],[44,-59],[9,-43],[-6,-53],[-24,-62],[-26,50],[-28,-30],[8,-63],[-24,-73],[-36,-214],[-16,-38],[-72,-43],[-115,-155],[-11,-49],[-32,-367],[-43,-201],[-43,-101],[-127,-204],[-32,-155],[-41,-48],[-60,2],[-9,-38],[-47,-67],[-36,-197],[-25,-66],[-4,-121],[-67,-148],[-55,64],[-88,-36],[-92,60],[-25,38],[-38,1],[-44,-76],[-28,-1],[-96,-77],[-23,30],[-7,68],[-81,140],[-37,53],[-43,0],[-25,67],[-6,148],[-19,61],[-3,154],[20,79],[53,89],[0,21],[-33,133],[-82,240],[-6,99],[-21,59],[-27,31],[-63,-29],[-23,116],[-48,96],[-23,114],[-8,201],[9,77],[-38,104],[4,119],[24,43],[32,134],[31,65],[-1,161],[24,27],[19,129],[-40,82],[-3,175],[9,60],[-23,30],[-62,-7],[-39,117],[19,127],[69,113],[14,76],[-1,272],[-42,152],[-19,217],[1,52],[43,47],[3,35],[-85,182],[12,111],[59,60],[-4,97],[14,46],[0,210],[-48,138],[-9,92],[-72,69],[-10,67],[-60,8],[-64,129],[-66,63],[-15,78],[-16,232],[-33,99],[-8,4],[-21,-79],[-15,-13],[-73,43],[-48,57],[-66,131],[-2,140],[-61,171],[-130,133],[-47,-49],[-45,3],[-18,71],[-66,149],[-1,71],[-15,39],[-79,-2],[-68,117],[-31,-65],[-66,67],[-57,210],[-82,0],[-11,59],[-45,114],[-13,2],[-11,-47],[-11,15],[-10,165],[-31,2],[-23,-42],[-54,69],[-65,17],[-37,-78],[-51,-59],[-5,-93],[-106,-29],[-43,-79],[-18,24],[16,50],[-4,34],[-23,30],[-28,-39],[-21,32],[-8,85],[-38,38],[3,39],[28,29],[3,48],[-48,114],[-6,49],[9,160],[39,59],[-12,124],[5,134],[11,54],[-14,88],[-28,1],[-37,81],[-77,10],[15,109],[-1,145],[-20,135],[-40,60],[8,40],[75,17],[5,47],[-8,142],[-13,129],[-17,68],[-105,188],[-18,79],[-59,6],[-35,55],[-41,-1],[-35,48],[-52,-2],[-33,78],[-76,12],[-59,-127],[-22,46],[-22,11],[-24,-42],[-23,10],[-42,64],[0,68],[-13,42],[-24,4],[-39,-58],[-2,124],[-48,73],[0,146],[-15,234],[-49,135],[-14,4],[-27,-41],[-37,48],[-34,69],[-33,151],[-26,27],[-81,-25],[-23,-61],[-8,-84],[-42,-18],[-13,18],[0,100],[-35,32],[-26,-100],[-25,-18],[-34,179],[-14,10],[-41,-54],[-95,178],[-2,55],[-24,88],[-47,36],[-35,-9],[-38,73],[-52,44],[-82,11],[-20,93],[22,58],[-3,51],[-32,-3],[-86,88],[-44,-6],[-8,-40],[-16,-8],[-116,234],[-88,17],[-41,139],[-107,-36],[-12,99],[-14,30],[-45,-32],[-15,26],[-141,-23],[-13,-28],[12,-21],[-4,-24],[-20,-46],[-117,-100],[-12,-48],[13,-65],[-7,-34],[-69,-71],[-78,33],[-35,-95],[-31,-25],[-23,-52],[-21,33],[-24,98],[1,80],[-23,37],[-27,-75],[-45,-60],[-195,-194],[-78,-259],[-44,92],[-1,65],[-12,20],[-42,0],[-20,-109],[-64,51],[-83,8],[-8,30],[12,51],[-8,57],[-154,201],[-18,0],[-49,-61],[-29,-13],[-11,23],[-16,-5],[-31,-45],[-2,-31],[-17,-8],[-10,14],[-26,151],[-23,34],[-25,-35],[-21,-73],[0,-35],[51,-99],[-10,-101],[-19,-61],[-38,25],[-18,-31],[-53,21],[-25,-34],[-63,69],[-15,45],[-1,39],[36,32],[21,50],[38,-16],[20,55],[-16,65],[-18,-11],[-38,50],[-17,-10],[-34,29],[-32,-34],[-17,-105],[-41,-34],[-82,24],[-39,40],[-60,4],[-49,41],[-21,-107],[-21,-34],[-45,11],[-23,57],[-63,-124],[-54,-60],[-9,16],[-13,105],[-30,-53],[-91,36],[-42,63],[-36,126],[-61,103],[-39,19],[-41,-45],[-26,40],[-7,58],[23,19],[8,34],[1,218],[-9,29],[-20,17],[-30,-13],[-37,68],[-3,38],[-21,45],[-39,-39],[-44,-112],[-35,5],[-22,48],[19,87],[-4,37],[-59,-25],[-42,94],[-37,39],[-14,170],[17,38],[-2,27],[-52,37],[-7,32],[4,38],[27,49],[11,113],[-46,34],[7,122],[-7,48],[-32,-18],[-34,13],[-28,56],[-21,123],[17,110],[-4,25],[-75,1],[-115,86],[-40,100],[-25,212],[-58,36],[-33,104],[-73,47],[-30,98],[-10,97],[-37,52],[-28,-10],[-50,-111],[-99,71],[-75,-117],[-62,-34],[-45,-137],[-38,-47],[-14,51],[-23,-38],[-33,5],[-1,-39],[32,-43],[-6,-51],[-20,2],[-35,82],[-17,10],[-2,-68],[33,-44],[-36,-97],[-8,-57],[-15,-20],[-60,45],[-14,-47],[-19,35],[-15,-1],[-11,-24],[10,-101],[-9,-31],[-36,37],[-39,-14],[-11,17],[-2,55],[-34,59],[-24,-15],[-28,29],[-22,-29],[4,-47],[-27,-64],[-45,86],[12,26],[36,-21],[-8,84],[-21,-13],[-50,51],[25,19],[1,32],[23,58],[-5,43],[-12,6],[-39,-67],[-21,29],[-18,-42],[2,-67],[-13,-14],[-11,152],[-18,26],[24,28],[-11,79],[-19,-14],[-7,-60],[-19,-40],[-19,30],[-14,-21],[-12,23],[-18,-34],[-14,12],[8,-33],[-6,-13],[-14,5],[-9,38],[7,44],[16,8],[-13,17],[8,35],[-10,12],[-43,-64],[7,-115],[-40,14],[5,-54],[-10,-40],[-15,38],[-19,2],[4,-96],[-6,-22],[-19,35],[9,22],[-8,63],[-29,-33],[-7,-45],[17,2],[2,-25],[-23,-23],[-17,16],[4,52],[-18,-2],[-16,-51],[-16,80],[-21,37],[-7,-68],[-38,21],[7,-36],[-10,-16],[-22,29],[22,-83],[-7,-42],[-29,8],[-3,-49],[-50,57],[-9,62],[-25,-24],[-34,60],[-41,-16],[-10,-27],[0,-75],[8,-67],[16,-43],[-9,-105],[-14,-20],[-11,13],[3,73],[-41,-5],[-1,-22],[24,-14],[-5,-69],[-18,-11],[-37,76],[-9,-94],[22,2],[2,-18],[-22,-41],[-25,18],[-18,45],[-1,31],[-21,-2],[3,77],[-24,-35],[5,-44],[-11,-20],[-5,60],[-17,15],[-11,-32],[-10,37],[-48,-33],[-8,-19],[1,-88],[-16,-14],[10,-45],[-45,27],[-20,-91],[-39,65],[16,64],[-3,28],[-20,3],[-2,-48],[-22,-41],[-9,20],[6,49],[-13,-3],[-20,-65],[-17,60],[-26,-8],[-11,34],[10,19],[-3,25],[-31,28],[-12,-13],[-10,-52],[-20,-17],[-32,56],[-22,-8],[16,-62],[-37,-5],[20,-46],[-31,8],[-14,-103],[-15,-31],[-13,24],[-4,74],[-7,4],[-4,-43],[-30,-37],[18,-32],[-3,-22],[-37,31],[7,-51],[-7,-39],[-30,35],[-13,-140],[-70,-51],[20,-54],[-25,20],[-18,-27],[-7,-64],[-25,-12],[-10,-106],[-12,7],[-15,88],[-15,25],[-13,-8],[1,-39],[-21,35],[-30,-49],[-17,11],[0,-47],[-48,54],[4,47],[-26,-10],[-11,-34],[-18,36],[-19,-55],[8,-49],[-24,4],[-10,-37],[-19,14],[0,-83],[-10,-17],[-41,65],[-9,112],[-16,-5],[-7,-49],[-23,19],[-8,-32],[-22,62],[-18,-17],[1,53],[-29,-36],[-18,23],[-8,-12],[-9,44],[-9,-33],[-16,5],[-18,-30],[-5,16],[-25,-9],[7,-41],[-11,-46],[-10,-10],[-8,32],[-7,-41],[-17,-7],[4,-37],[18,-26],[-19,-33],[-35,5],[8,-46],[-5,-10],[-19,13],[0,52],[-21,10],[-9,63],[-26,-72],[-10,7],[-24,83],[38,22],[-6,32],[-33,4],[0,-41],[-23,45],[-12,-30],[-1,86],[-40,-48],[0,70],[-22,31],[-6,86],[-14,-22],[-3,-64],[-10,42],[-25,-44],[-13,47],[2,31],[-37,34],[8,-57],[-22,4],[1,-52],[-52,62],[-6,-38],[-22,7],[-9,-71],[-42,-35],[-48,146],[-66,3],[-15,-61],[-23,-5],[2,-49],[-41,-1],[0,-47],[-17,-26],[-5,-38],[8,-49],[-9,-11],[-18,90],[-11,10],[-10,76],[-19,5],[-7,56],[-15,-35],[-55,1],[-14,-50],[-13,41],[-20,-53],[-23,5],[-10,-29],[-60,-6],[-1,-49],[-23,-9],[-3,46],[-21,-4],[-9,51],[-18,-22],[-3,-44],[-13,-2],[-6,73],[-21,16],[-9,-47],[20,-16],[-10,-53],[-14,1],[-2,31],[-25,38],[0,-69],[-23,31],[-7,-36],[-19,17],[-17,-34],[-5,44],[-31,40],[6,38],[-13,2],[-9,-16],[6,-52],[-20,6],[-8,34],[-4,-36],[-10,28],[-13,-26],[-11,14],[-20,-78],[19,-20],[-11,-50],[-27,69],[0,48],[-22,-27],[-3,-22],[13,-25],[-9,-15],[-14,3],[-6,31],[-14,-38],[-20,67],[-15,-59],[-13,42],[-27,-8],[-2,53],[17,7],[-11,27],[20,1],[3,19],[-40,34],[-30,-2],[-6,-28],[25,-26],[-1,-28],[-40,33],[-11,-67],[-28,-45],[-11,39],[13,47],[-10,10],[-16,-46],[-10,31],[-23,-37],[-10,-72],[-15,29],[-5,-61],[20,-54],[13,40],[23,-6],[-24,-54],[-15,3],[6,-70],[-24,9],[7,-49],[20,22],[5,-18],[-18,-47],[14,-16],[-23,-79],[-31,16],[7,47],[-8,15],[-14,-65],[-20,47],[-13,-53],[-12,34],[-16,-50],[-6,75],[-14,11],[14,26],[-8,19],[-14,-23],[1,-75],[-11,7],[-11,67],[-17,-45],[-23,20],[-5,-58],[15,-15],[-15,-10],[-10,37],[-3,-52],[-11,26],[-2,54],[-14,-23],[-8,16],[-13,-49],[-9,31],[9,40],[-23,-52],[-27,21],[-4,32],[27,0],[1,33],[17,13],[-6,28],[-21,-20],[0,42],[37,-9],[3,62],[-23,6],[-9,26],[14,30],[-63,77],[10,42],[-10,34],[7,18],[-21,65],[-14,20],[-22,-46],[12,-33],[-9,-34],[-11,7],[-2,-35],[-22,57],[-23,-10],[-28,33],[2,37],[-15,8],[-12,60],[10,27],[-3,53],[-29,80],[1,24],[-12,-30],[-9,52],[-16,-34],[-15,4],[2,28],[-12,16],[1,47],[-12,-28],[-9,12],[-11,-44],[-3,64],[-29,-22],[-14,60],[-10,-37],[-13,9],[-26,-30],[4,-36],[-13,-24],[-23,5],[-41,-54],[-12,35],[7,46],[-37,-20],[-8,15],[1,49],[12,33],[-4,45],[-23,63],[22,29],[-22,37],[-8,-38],[-14,13],[-24,-37],[-7,104],[19,22],[-8,73],[-5,22],[-14,-12],[-16,64],[-34,15],[-23,54],[-24,-28],[-39,44],[-18,-28],[-11,31],[-19,-35],[-14,48],[-33,8],[-10,-54],[-14,32],[-9,-52],[-11,-6],[-8,24],[-18,-47],[-20,-10],[9,-49],[-10,-22],[-39,51],[7,-54],[-7,-19],[-22,89],[-21,-4],[-24,30],[-11,-29],[-10,38],[-25,8],[-13,-2],[-9,-32],[-8,43],[-10,-43],[-19,-14],[-24,59],[-27,-29],[9,-44],[-18,-40],[-27,7],[-20,-47],[-11,28],[4,18],[-9,6],[-6,-27],[-12,17],[-4,-49],[-11,-6],[-7,45],[6,36],[-10,40],[-8,9],[-11,-33],[-19,41],[-16,-16],[-22,45],[3,-90],[-7,-50],[-31,66],[-16,-67],[-8,5],[6,49],[-32,-42],[-24,-100],[-21,11],[-15,44],[-23,-24],[-17,14],[11,-86],[-10,-12],[-4,-60],[-12,-34],[-9,72],[-10,9],[-2,-86],[-13,-47],[-18,-2],[-14,33],[-15,-45],[-12,56],[-13,-47],[6,-56],[-23,75],[-19,-4],[-6,41],[-25,-62],[-25,35],[-2,-73],[-26,25],[13,-93],[-15,-25],[-3,-89],[-11,-25],[-23,15],[-9,-37],[-23,2],[-5,-25],[10,-35],[-20,-3],[-26,-56],[4,-51],[-7,-34],[21,-16],[-10,-55],[25,-14],[1,-19],[-43,-54],[0,-39],[-21,-9],[-4,-35],[-20,0],[1,-36],[-22,41],[-4,-50],[-12,-21],[13,-21],[-11,-30],[39,-69],[-18,-33],[15,-28],[-26,-1],[11,-53],[-14,12],[-2,-25],[15,-55],[-22,-8],[-6,-30],[9,-45],[-24,-2],[5,-56],[-8,-24],[-21,23],[-50,-39],[17,-58],[34,7],[3,-32],[-18,-25],[-34,35],[-9,-80],[12,-35],[-11,-67],[-27,14],[-23,-37],[10,-41],[-9,-21],[3,-17],[24,55],[6,-45],[-41,-57],[-24,-73],[-18,-10],[11,-23],[-2,-21],[-30,-18],[-24,34],[-21,-66],[-22,4],[4,-62],[-13,-43],[11,-42],[-1,-53],[-20,-107],[-30,-64],[-4,-41],[-18,27],[1,49],[-12,-6],[10,35],[-13,27],[-21,-15],[-2,23],[-12,-18],[-6,47],[-14,-35],[11,-31],[-21,-29],[-22,82],[-19,-16],[4,37],[-21,16],[-13,-33],[12,-65],[-17,-12],[-16,68],[-13,2],[-15,106],[-25,8],[-31,-59],[-1,-27],[-22,-11],[4,-50],[-11,-43],[-15,38],[-15,0],[-18,-72],[15,-32],[-6,-26],[-45,7],[-10,34],[-40,-75],[-39,23],[-14,-41],[25,-71],[-35,-61],[7,-49],[-31,11],[-17,-20],[-4,38],[-20,5],[-2,-68],[23,-6],[-34,-43],[0,-61],[-20,17],[11,29],[-16,36],[-13,-17],[5,-26],[-17,29],[-8,-16],[-2,22],[-8,-9],[6,-25],[-8,-3],[-7,44],[-8,-37],[-22,7],[-30,67],[-10,0],[-1,-34],[-34,8],[-12,-39],[-14,5],[-10,-92],[-15,-35],[6,-39],[-17,-4],[-8,-43],[-15,-18],[10,-76],[-5,-35],[-19,32],[-21,-60],[8,-14],[-5,-21],[14,-32],[10,7],[1,-25],[-27,-31],[1,30],[-15,2],[-3,26],[-12,-66],[-11,8],[-4,37],[-14,-40],[-31,4],[-10,-28],[4,-44],[8,-11],[11,22],[4,-25],[-9,-11],[1,-50],[-17,-20],[-14,-54],[-25,0],[-8,69],[-20,-1],[1,29],[13,-1],[-13,51],[7,22],[-16,4],[9,19],[-8,10],[-6,-34],[-12,3],[-27,-45],[5,-44],[-23,25],[-8,-84],[-13,24],[-2,33],[-6,-18],[-12,12],[-2,-37],[-18,40],[8,22],[-24,-4],[2,-58],[-17,-4],[9,-33],[-33,-52],[21,-33],[-22,18],[-10,-55],[-12,23],[-12,-18],[-2,-48],[-17,26],[-10,-11],[-2,25],[-4,-60],[-16,21],[11,-109],[-10,-18],[-17,31],[1,-56],[14,-15],[-22,-17],[-1,-43],[8,-20],[-26,19],[0,-46],[-14,16],[7,-50],[-20,9],[-10,-37],[-9,7],[-8,62],[-24,-3],[-3,-25],[-13,14],[-2,-45],[-18,10],[2,-31],[-16,-44],[-24,60],[-7,-22],[9,-60],[-22,18],[-22,-44],[-20,24],[-15,-9],[-5,-26],[-25,3],[-8,-15],[0,-51],[-41,-26],[-2,-43],[23,-30],[10,-51],[-17,-27],[-36,-1],[8,-95],[-25,-93],[25,-38],[-1,-40],[-31,-12],[3,-53],[-15,3],[-1,-33],[-17,-7],[-3,-96],[-30,12],[-33,-83],[-15,-5],[-4,-35],[-23,21],[-1,-37],[-31,37],[3,26],[-7,1],[-16,-27],[8,-26],[-12,-57],[-12,39],[-32,-9],[-7,31],[-24,15],[-24,-24],[1,60],[-18,-12],[7,-47],[-11,-22],[-10,37],[-15,-9],[16,32],[-14,25],[-10,-29],[-18,4],[-9,-42],[15,-37],[-6,-42],[-12,-6],[20,-38],[-14,-32],[16,-12],[1,25],[8,1],[8,-55],[-6,-34],[16,18],[5,-15],[-11,-50],[-14,17],[-11,-34],[27,-8],[-8,-41],[-34,-32],[4,-51],[-67,-32],[-4,-25],[12,-23],[-5,-15],[-30,14],[1,-87],[-18,15],[-12,40],[-17,-28],[-3,21],[9,10],[-13,30],[-6,-29],[-21,-9],[-6,23],[20,46],[-5,15],[-33,-37],[-29,25],[-7,-26],[15,9],[3,-27],[-11,-49],[-24,24],[-49,-120],[-4,115],[-14,22],[-16,-39],[-19,57],[-5,-61],[-24,15],[-26,-78],[-29,-26],[-6,-80],[-31,-25],[-16,25],[-4,-41],[10,-69],[-17,-105],[7,-142],[-39,-24],[-25,-101],[0,-54],[-19,-88],[4,-30],[-17,-32],[-16,12],[-26,-131],[-36,-20],[-35,-111],[-1,-45],[16,-15],[19,28],[16,-43],[20,18],[5,-47],[-27,-22],[-18,-48],[-8,-34],[25,-18],[-38,-119],[0,3]]],"transform":{"scale":[0.00011941729417294171,0.00004530355303553035],"translate":[140.99927,-29.17927]},"objects":{"qld_southern_ddmg_boundaries_gda2020_simp20":{"type":"GeometryCollection","geometries":[{"arcs":[[0,1]],"type":"Polygon","properties":{"District Name":"Charleville","DDMG Name":"Charleville","Police Region Name":"Southern Region","Police Region Code":"SR","Police Region Short Name":"Southern"}},{"arcs":[[2,3,4,5]],"type":"Polygon","properties":{"District Name":"Dalby","DDMG Name":"Dalby","Police Region Name":"Southern Region","Police Region Code":"SR","Police Region Short Name":"Southern"}},{"arcs":[[6,7]],"type":"Polygon","properties":{"District Name":"Ipswich","DDMG Name":"Ipswich","Police Region Name":"Southern Region","Police Region Code":"SR","Police Region Short Name":"Southern"}},{"arcs":[[-1,8,-5,9,10]],"type":"Polygon","properties":{"District Name":"Roma","DDMG Name":"Roma","Police Region Name":"Southern Region","Police Region Code":"SR","Police Region Short Name":"Southern"}},{"arcs":[[-3,11,-7,12,13]],"type":"Polygon","properties":{"District Name":"Toowoomba","DDMG Name":"Toowoomba","Police Region Name":"Southern Region","Police Region Code":"SR","Police Region Short Name":"Southern"}},{"arcs":[[-4,-14,14,-10]],"type":"Polygon","properties":{"District Name":"Warwick","DDMG Name":"Warwick","Police Region Name":"Southern Region","Police Region Code":"SR","Police Region Short Name":"Southern"}}]}}}