{"type":"Topology","arcs":[[[68407,68190],[237,642],[658,1212],[-473,736],[-142,764],[-577,609],[53,545],[1053,626],[162,732],[752,1219],[-442,299],[373,442],[91,678],[403,550],[76,656],[-136,645],[23,954],[318,848],[701,44],[764,355],[128,280],[-309,946],[364,90],[867,659],[-768,378],[-529,62],[-156,493],[1142,-134],[546,543],[-64,745],[299,166],[-230,1042],[105,262],[740,-441],[884,147],[-18,586],[1177,-99],[462,-556],[895,227],[315,225]],[[78151,86367],[510,159],[5,-1091],[704,-1608],[245,-191],[1400,434],[354,666],[205,975],[487,273],[561,-261],[803,405],[451,-601],[269,-1533],[574,228],[554,-108],[12,44],[148,278],[772,-372],[417,166],[462,344],[200,-1014],[709,-843],[275,-890],[41,-685],[274,-902],[630,-375],[825,142],[729,467],[274,237],[171,158],[-232,-1078],[-88,-1140],[36,-1247],[-572,-1621],[-350,-536],[-1315,-397],[-164,81],[-2002,-298],[-190,-264],[651,-625],[163,-345],[-680,-729],[-882,-17],[-575,444],[379,-1461],[3,-1084],[795,-597],[490,-980],[-361,-378],[-138,-659],[456,-552],[640,207],[148,-173],[105,-1651],[495,-1232],[-135,-427],[-465,-251],[-109,-815],[-706,19],[-404,487],[-276,-935],[378,-769],[-80,-703],[-776,-585],[-1284,343],[-394,-1426],[-444,-127],[-326,-903],[400,-813],[796,409],[101,820],[-160,819],[172,920],[798,-446],[273,48],[906,611],[188,514],[-2,647],[-395,480],[77,660],[764,-494],[983,369],[-348,-1194],[30,-372],[552,-1252],[337,-1171],[108,-783],[-197,-2417],[189,-1206],[201,-361],[-19,-1569],[181,-88],[521,-1351],[249,-1027],[238,1364],[18,2483],[-141,727],[546,266],[111,-319],[-27,-3106],[-75,-1009],[114,-3126],[131,-1889],[397,-3365],[271,-1826],[441,-2534],[412,-1695],[326,-783],[522,-195],[22,-537],[934,-2737],[581,-1242],[400,-265],[333,124],[769,-1867],[788,-1474],[596,-800],[1015,-913],[573,-162],[423,198],[573,-416],[-583,-1114],[-298,309],[-3884,2345],[-373,-156],[-391,174],[-382,-626],[-346,-87],[-852,-1622],[-125,-708],[-380,-67],[-1446,-790],[-980,-1375],[-558,-348],[-248,-885],[-789,-463],[-700,-1021],[-570,-1151],[-34,-625],[-255,-469],[-1315,-819],[-640,-594],[-638,-247],[-979,105],[-579,-269],[-618,569],[-183,1192],[-347,121],[-760,-335],[-196,174],[-840,-324],[-377,216],[-358,543],[-821,-210],[-807,157],[-254,-489],[-444,-77],[-433,-628],[-790,-237],[-433,-279],[-498,24],[-713,-1204],[-238,-1084],[-1199,217],[-983,1342]],[[71362,14285],[-22,819],[-613,914],[-200,1056],[84,592],[-301,828],[-21,770],[-357,586],[-182,832],[353,872],[65,634],[-785,-169],[288,1649],[292,129],[158,775],[481,1329],[-341,685],[238,1323],[442,3871],[306,106],[689,-146],[136,1138],[484,-339],[127,1066],[608,383],[-202,350],[178,989],[243,549],[-253,324],[-1383,317],[243,1888],[239,564],[527,12],[312,784],[171,1387],[-57,606],[213,1800],[317,-37],[223,1905],[-1820,382],[279,1095],[-32,685],[-845,182],[49,403],[-284,523],[-541,403],[164,551],[1851,-423],[69,576],[-495,120],[432,2592],[-520,629],[-1074,257],[141,1044],[201,-44],[271,2012],[168,499],[-269,526],[246,1952],[-287,338],[-2692,649],[228,479],[250,1303],[-73,964],[303,2403],[-675,150],[81,693],[-200,1065],[-342,110],[-239,646]],[[91881,80968],[-285,-940],[-287,311],[430,639],[142,-10]],[[91761,78109],[-292,-1873],[-134,-1379],[-351,-2766],[-305,-3226],[-170,-1255],[-437,-5528],[-72,-1996],[37,-1669],[303,-1923],[97,-1091],[-457,2],[-273,508],[-313,1271],[165,540],[159,1460],[-8,1229],[-250,1374],[374,501],[53,851],[-313,852],[-554,938],[-340,317],[119,956],[-264,452],[-109,1455],[175,363],[-56,738],[200,671],[551,397],[480,635],[416,1050],[468,1897],[58,869],[410,755],[130,715],[-294,865],[192,819],[10,1033],[495,-357],[100,-450]],[[88779,63663],[-83,-690],[-304,-794],[-513,68],[290,1057],[-285,475],[471,182],[424,-298]],[[87543,67910],[-893,-510],[-346,765],[179,360],[547,-555],[513,-60]],[[87131,70079],[533,-397],[-48,-751],[-519,-149],[-378,208],[-137,743],[549,346]],[[87118,74555],[1309,259],[444,-1026],[-359,-1766],[-391,-903],[-715,-917],[-457,45],[-446,-253],[-700,434],[-220,816],[413,781],[826,928],[266,209],[143,368],[-750,819],[637,206]],[[89370,74237],[393,383],[195,-317],[-581,-783],[-7,717]],[[68407,68190],[-360,-579],[63,-339],[-720,-239],[-192,-396],[-652,-548],[499,-434],[76,-599],[-456,4],[-406,365],[-844,452],[-487,-392],[207,-790],[-950,-200],[-116,-374],[-536,651],[-537,-333],[-484,-633],[289,-211],[-483,-984],[178,-453],[-71,-553],[-449,-1276],[34,-717],[367,-215],[-119,-488],[441,-639],[-395,-378],[-107,-483],[-553,-14],[100,-753],[-404,-214],[-151,-604],[-339,-389],[-347,108],[-465,-217],[-474,-554],[-1909,377],[93,1508],[-744,150],[-238,655],[-526,255],[99,1503],[-183,258],[-1111,215],[-156,-81],[-164,-1077],[-59,-1442],[-653,140],[-477,407],[-719,138],[-515,421],[-216,-1564],[-1903,410],[-86,1046],[-294,129],[-731,1913],[378,671],[-144,1262],[-339,593],[-163,895],[46,596],[-159,558],[746,421],[-575,1077],[-18,671],[-547,506],[-626,97],[-550,-279],[-542,-830],[-1557,-592],[-377,-488],[-263,822],[-1025,210],[-176,-380],[-515,186],[-102,-514],[-1052,-421],[-618,-1116],[-423,-226],[-645,103],[-301,-222],[-936,665],[-381,-243],[-84,871],[-410,162],[44,747],[-264,581],[-912,356],[-94,193],[0,1494],[300,861]],[[36788,69420],[858,-173],[197,1620],[861,-183],[5,971],[-174,1769],[-522,1136],[-592,-239],[-697,158],[406,3469],[288,483],[931,-191],[66,559],[447,-89],[87,766],[456,-101],[-54,-657],[175,-394],[639,55],[1144,-254],[99,792],[1318,-300],[114,924],[697,-139],[675,5637],[2799,-590],[693,5382],[-586,1102],[994,1666],[206,632],[200,1458],[598,-447],[729,-322],[1028,-194],[416,-389],[315,-733],[1102,-868],[703,-379],[1209,-336],[360,31],[1797,-428],[242,799],[1605,-358],[763,739],[895,-104],[1484,878],[-69,1710],[247,1144],[-322,268],[84,469],[550,-98],[404,3186],[333,-60],[69,-15],[976,-199],[105,1016],[2848,-568],[298,-505],[1361,-1397],[690,-769],[-174,-1511],[-514,108],[-162,-1388],[724,22],[79,-542],[371,-317],[547,165],[1120,-226],[148,-497],[2577,-533],[9,241],[1375,-287],[-34,-415],[679,-152],[35,-269],[1461,-303],[235,-2031],[-143,-1156],[117,-491],[534,4],[-171,-815]],[[71362,14285],[-677,-462],[-970,1164],[-986,-269],[-445,-1236],[13,-575],[254,-629],[50,-729],[-1202,-716],[458,-689],[-119,-338],[348,-692],[-410,-615],[-791,228],[-192,-747],[-825,-350],[0,-974],[-646,10],[-239,-697],[-611,31],[-86,-856],[463,-817],[-297,-766],[-537,-743],[-323,64],[-109,-796],[-371,-1125],[-298,-267],[-1189,384],[-1681,426],[-302,562],[-459,463],[-1391,286],[-357,388],[-586,-572],[-651,482],[-708,215],[-1042,-419],[-591,208],[-606,-36],[-538,430],[-534,-191],[-466,573],[-426,236],[-1212,-216],[-712,-18],[-480,-262],[-513,119],[-420,-374],[-934,781],[-505,70],[-963,670],[-519,48],[-947,1292],[-947,476],[-1056,-236],[-530,271],[-418,-170],[-453,207],[-494,-1078],[-421,-333],[-633,318],[-659,-1192],[-50,-844],[-385,56],[-797,-906],[-21,-1102],[-412,-378],[-933,-61],[-998,948],[-373,93],[-1508,-837],[-135,-339],[311,-412],[-449,-680],[-484,-40],[-379,413],[-533,192],[-283,522],[-521,363],[-676,1054],[-244,-149],[-598,487],[-424,-358],[-833,1109],[-528,-145],[-344,253],[-173,733],[-590,-185],[-474,554],[-35,1070],[-518,807],[-720,235],[-912,-450],[-749,153],[-375,644],[-594,467],[-370,678],[-169,658],[117,554],[-222,627],[-291,186],[-123,1382],[-1099,-953],[-314,-573],[-196,-980],[159,-1154],[226,-908],[-432,-805],[-651,-1602],[-338,-311],[-491,-1389],[-419,658],[-199,945],[-709,415],[-868,-119],[89,706],[-505,-296],[-429,300],[-443,977],[-457,81],[-654,612],[-28,539],[317,495],[-35,1456],[336,909],[8,935],[308,828],[-647,537],[-621,128],[-504,1150],[-558,337],[-713,-416],[-702,-214],[-439,80],[73,916],[332,334],[-379,1166],[-482,669],[-520,163],[-74,-686],[-515,206],[42,398],[-939,295],[-61,719],[631,547],[654,1596],[-203,492],[-1,718],[-1288,-86],[-731,1158],[-450,1369],[397,1235],[-706,804],[-250,498],[-56,1133],[-243,630],[171,1495],[-677,246],[-396,600],[-216,740],[-434,306],[-215,475],[24,890],[-271,723],[73,559],[776,939],[-314,1237],[131,1175],[-486,129],[-711,440],[-251,338],[-812,466],[435,1301],[-63,672],[-499,963],[158,700],[-641,825],[-681,1561],[266,1683],[1,1121],[481,880],[-69,634],[535,604],[473,-440],[621,782],[37,1602],[239,587],[929,1266],[-461,1338],[9,964],[-427,986],[-134,1721],[565,587],[79,2296],[-471,807],[-68,754],[-303,603],[52,367],[1451,-228],[137,1148],[393,-80],[258,2152],[667,-149],[612,-405],[667,5509],[950,-64],[137,1122],[284,586],[20,786],[1185,-258],[57,448],[1080,-228],[387,3240],[1742,-374],[375,3200],[-63,1202],[128,638],[428,568],[1086,-83],[1686,-354],[18,586],[1599,-343],[-70,-575],[1574,-343],[649,165],[-99,-820],[346,-38],[-86,-703],[2620,-580],[78,651],[1445,-226],[-53,-394],[1138,-253],[-94,-856],[1436,-323],[180,724],[1545,-358],[269,-1117],[2568,-665],[20,-120],[1737,-388],[403,-711],[-170,-1592],[1836,-372],[377,-348],[-78,-686],[1444,-277],[-229,-2081],[496,-316],[-132,-1015]]],"transform":{"scale":[0.00001166561665616657,0.000007764577645776427],"translate":[152.3749,-28.36387]},"objects":{"qld_south_east_ldmg_boundaries_gda2020_simp200m":{"type":"GeometryCollection","geometries":[{"arcs":[[[0,1,2]],[[3]],[[4]],[[5]],[[6]],[[7]],[[8]],[[9]]],"type":"MultiPolygon","properties":{"LGA Code":"3430","Abbreviated Name":"Gold Coast","LGA Name":"Gold Coast City","Area Sq Km":1376.56555,"LDMG Name":"Gold Coast","Police Region Name":"South Eastern Region","Police Region Code":"SER","Police Region Short Name":"South East"}},{"arcs":[[-1,10,11]],"type":"Polygon","properties":{"LGA Code":"4590","Abbreviated Name":"Logan","LGA Name":"Logan City","Area Sq Km":957.87316,"LDMG Name":"Logan","Police Region Name":"South Eastern Region","Police Region Code":"SER","Police Region Short Name":"South East"}},{"arcs":[[-3,12,-11]],"type":"Polygon","properties":{"LGA Code":"6510","Abbreviated Name":"Scenic Rim","LGA Name":"Scenic Rim Regional","Area Sq Km":4242.95511,"LDMG Name":"Scenic Rim","Police Region Name":"South Eastern Region","Police Region Code":"SER","Police Region Short Name":"South East"}}]}}}