{"type":"Topology","arcs":[[[67794,68173],[222,588],[34,94],[13,34],[88,152],[484,900],[30,127],[-57,147],[-82,125],[-83,304],[-252,160],[-71,204],[109,144],[-118,281],[-88,144],[-523,558],[-45,311],[13,31],[48,117],[36,85],[65,38],[958,551],[199,807],[726,1099],[-150,361],[-287,19],[-124,223],[75,170],[358,17],[158,127],[4,662],[389,471],[75,656],[-134,645],[17,905],[255,487],[66,409],[485,133],[265,-83],[702,349],[126,280],[-288,990],[259,-5],[291,363],[303,121],[94,-49],[-4,-365],[102,-99],[328,447],[-170,291],[-836,409],[-450,31],[-231,371],[15,49],[4,16],[9,27],[172,45],[509,-3],[565,-117],[161,389],[332,174],[0,59],[-135,439],[7,64],[-9,25],[12,11],[178,170],[166,160],[-215,645],[-11,433],[28,79],[15,39],[13,37],[451,-172],[338,-264],[51,-1],[587,32],[199,95],[23,18],[-15,589],[199,168],[240,-255],[413,61],[300,-65],[556,-584],[369,211],[442,39],[305,221]],[[77452,86344],[8,-138],[236,248],[261,51],[44,-744],[83,-296],[596,-1111],[305,-219],[361,-15],[702,370],[300,330],[410,947],[193,249],[552,14],[494,-142],[1224,766],[315,33],[168,-268],[149,-934],[4,-1088],[379,-503],[187,9],[154,425],[93,86],[323,-31],[540,-359],[265,129],[241,367],[155,67],[192,-102],[86,-862],[543,-591],[192,-337],[254,-793],[34,-608],[108,-507],[188,-568],[193,-244],[433,-131],[817,142],[379,189],[814,702],[634,70],[-98,-478],[155,-206],[139,-422],[25,-474],[-223,-647],[-357,-2066],[-82,-1191],[-449,-3390],[-473,-4504],[-150,-2360],[-221,-2125],[-130,-4018],[154,-1637],[183,-949],[104,-1027],[-49,-372],[362,105],[-395,-158],[-4,-207],[334,0],[0,-116],[-215,0],[-25,-3106],[-71,4],[-4,-1012],[69,-2434],[173,-2580],[413,-3523],[687,-4200],[173,-265],[-73,-96],[308,-1333],[323,-783],[334,-42],[212,-209],[23,-603],[24,-59],[101,226],[-74,-245],[785,-2367],[91,-77],[-44,-40],[81,-215],[508,-1079],[479,-268],[185,49],[-31,184],[162,177],[-60,-335],[242,-599],[153,-60],[-47,-113],[130,-455],[98,-85],[178,-502],[560,-1109],[812,-1165],[1012,-960],[10,65],[275,-127],[495,-26],[388,317],[-88,-213],[624,-110],[76,79],[40,242],[269,30],[56,176],[135,73],[10,-146],[151,-113],[-892,-580],[-578,-1113],[-296,309],[-3849,2344],[-279,-165],[-478,183],[-169,-145],[-30,-200],[-180,-280],[-343,-88],[-148,-260],[-695,-1360],[52,-405],[-177,-304],[-377,-67],[-577,-413],[-113,34],[-743,-410],[-971,-1376],[-553,-347],[35,-247],[-282,-638],[-238,-221],[-543,-242],[-694,-1021],[-565,-1150],[-124,-398],[91,-227],[-67,-270],[-187,-200],[-427,-137],[-304,-369],[-572,-312],[-222,-300],[-412,-294],[-632,-247],[-278,116],[-253,-93],[-440,82],[-298,-216],[-276,-53],[-374,284],[-64,198],[-175,87],[-73,934],[-108,257],[-344,121],[-142,-28],[-185,-212],[-426,-94],[-194,173],[-215,-18],[-618,-305],[-374,215],[-355,544],[-396,5],[-418,-215],[-595,250],[-203,-92],[-253,-490],[-440,-78],[-316,-340],[-113,-287],[-244,-14],[-911,-377],[-57,-125],[-273,104],[-221,-80],[-653,-1066],[-147,-937],[-142,-285],[-1242,239],[-486,701],[-95,38],[-340,591]],[[70723,14291],[-23,810],[-607,912],[-21,398],[-177,658],[83,593],[-298,827],[-20,770],[-355,586],[-6,435],[-174,397],[77,358],[-56,103],[324,-185],[140,63],[-157,789],[86,377],[-791,-111],[225,761],[123,954],[299,13],[125,-92],[-109,146],[118,325],[-74,328],[205,424],[57,431],[257,464],[-57,162],[-246,214],[-13,302],[-67,3],[148,869],[64,63],[326,2677],[-75,17],[147,1104],[-82,89],[50,180],[136,267],[282,-94],[22,200],[683,-146],[143,1170],[471,-372],[126,1066],[603,383],[-132,331],[-68,19],[176,989],[165,-37],[76,585],[-256,60],[5,265],[-1370,317],[240,1887],[320,-73],[17,175],[-62,394],[-292,232],[777,-152],[102,830],[206,-46],[170,1387],[-176,610],[120,-5],[211,1800],[314,-38],[221,1905],[-1804,382],[276,1095],[-31,685],[-838,181],[48,403],[-281,523],[-561,398],[-40,175],[8,74],[219,307],[1835,-422],[69,575],[-491,120],[137,1045],[115,132],[-10,179],[-73,-71],[10,69],[152,370],[-111,72],[39,515],[-135,32],[284,52],[-79,80],[100,117],[-85,262],[-71,148],[-86,0],[-17,294],[-85,75],[-96,318],[-76,-469],[-1065,258],[140,1043],[199,-44],[269,2011],[88,-21],[78,520],[-124,317],[-78,18],[21,170],[-86,21],[244,1952],[-318,72],[35,265],[-2669,649],[226,479],[115,475],[-1,350],[134,478],[-45,415],[53,363],[-80,185],[300,2403],[-669,150],[80,693],[-118,28],[74,559],[-86,160],[13,203],[-254,217],[-166,7],[22,290],[-252,346],[-7,11]],[[67794,68173],[-144,-335],[-205,-202],[66,-269],[-44,-168],[-707,-199],[-214,-444],[-627,-397],[525,-522],[67,-206],[-9,-467],[-435,79],[-402,365],[-176,329],[-163,34],[-57,-51],[23,-144],[-166,-16],[-71,165],[-255,142],[-447,-352],[198,-837],[-62,-157],[-142,66],[-721,-81],[26,-317],[-90,-122],[-599,688],[-139,47],[-218,-327],[-175,-53],[-399,-449],[-81,-183],[131,-101],[138,30],[-8,-364],[-119,-194],[-407,173],[-15,-134],[204,-246],[-116,-359],[23,-198],[202,-289],[600,-219],[-550,-349],[-169,49],[-149,-251],[-13,-99],[183,-256],[16,-142],[-91,-100],[-150,113],[-112,-31],[-129,-510],[-12,-518],[45,-199],[384,-242],[8,-176],[-142,-375],[411,-346],[22,-202],[-391,-378],[-106,-483],[-377,60],[-171,-74],[119,-722],[-421,-245],[-149,-604],[-279,-166],[-47,-224],[-338,112],[-459,-186],[-27,-211],[-396,-177],[-51,-154],[-12,-39],[-1007,234],[10,80],[-510,-50],[-387,107],[101,890],[-75,14],[66,604],[-737,149],[-318,758],[-179,-121],[-159,65],[-101,208],[45,829],[-83,107],[135,567],[-46,172],[-8,27],[-37,4],[-414,45],[-240,143],[-12,8],[-210,-46],[-282,157],[-184,-106],[-135,-721],[-1,-12],[-31,-382],[72,-282],[-121,-1137],[-719,165],[-266,151],[-144,234],[-713,138],[-245,127],[-265,294],[-214,-1563],[-1886,409],[-31,-30],[-23,4],[26,407],[10,155],[5,74],[-73,436],[-92,115],[-240,34],[-8,314],[-180,152],[-25,236],[123,443],[-26,159],[-361,-19],[-222,702],[244,157],[141,385],[-57,241],[27,566],[-83,433],[-206,224],[-155,425],[-184,1151],[71,399],[-187,418],[796,569],[-170,281],[-205,138],[269,212],[7,102],[-246,242],[-254,34],[-18,670],[148,148],[-58,84],[-21,1],[-213,18],[-399,255],[-371,-6],[-249,103],[-108,-158],[-468,-147],[-211,-486],[-165,-9],[-131,-309],[-1517,-569],[-259,-593],[-158,110],[-80,378],[-250,-61],[125,347],[-17,59],[-19,63],[-2,9],[-49,6],[-778,242],[-105,49],[-12,-13],[-38,-38],[-34,-36],[-7,-367],[-683,168],[-10,3],[-154,-120],[-34,-132],[33,-6],[347,-50],[18,-33],[14,-29],[17,-164],[-14,-119],[-9,-10],[-90,2],[-215,149],[-922,-338],[-22,-8],[-94,-110],[312,-339],[-311,-129],[-297,199],[1,-322],[-265,-457],[-332,9],[-144,-268],[-289,-35],[-208,437],[-19,40],[-42,-15],[-68,-22],[-13,-302],[-380,-326],[-388,630],[-225,-143],[-272,292],[24,-339],[-43,13],[-63,40],[-95,231],[-183,-173],[-35,16],[-114,206],[123,201],[-118,124],[112,103],[-30,196],[-406,102],[105,265],[-211,113],[140,414],[127,53],[33,428],[-245,-293],[-31,190],[-175,45],[34,186],[-333,49],[78,152],[-108,211],[-205,-191],[-331,121],[-107,138],[119,179],[-90,75],[7,309],[-113,28],[170,407],[-116,122],[37,429],[180,-40],[116,901]],[[36453,69402],[851,-174],[195,1620],[854,-183],[85,696],[-202,43],[122,232],[-108,117],[70,203],[-29,889],[-91,213],[-14,347],[-228,602],[55,382],[-43,149],[-186,-86],[-116,89],[-46,-77],[-509,162],[-32,-325],[-690,159],[129,1178],[-61,13],[124,1054],[81,-15],[129,1237],[255,-50],[30,533],[923,-190],[65,558],[444,-88],[85,766],[452,-102],[-53,-657],[174,-394],[610,-135],[23,191],[1134,-254],[98,792],[1307,-300],[113,923],[691,-139],[668,5636],[2774,-590],[688,5381],[-331,449],[-250,653],[985,1665],[64,161],[34,87],[43,108],[261,1733],[-95,25],[95,-21],[258,-51],[18,-12],[489,-497],[612,-228],[787,-100],[278,-146],[305,-322],[230,-589],[248,-340],[901,-658],[696,-380],[109,-31],[324,-93],[791,-224],[191,17],[1948,-413],[239,798],[1591,-358],[756,739],[153,-241],[244,253],[461,-128],[1500,890],[-83,281],[205,109],[-81,278],[47,34],[-159,35],[136,1157],[-110,40],[-23,-224],[-308,366],[41,337],[448,-103],[64,543],[-142,229],[-178,39],[83,469],[546,-98],[409,3196],[1354,-289],[101,984],[78,63],[1382,-309],[174,-216],[430,95],[718,-155],[342,-515],[187,-203],[170,-44],[235,-376],[394,-345],[156,-355],[208,-74],[3,6],[96,-33],[335,-294],[249,-447],[-172,-1511],[-509,109],[-161,-1388],[272,-75],[320,108],[238,-91],[35,-105],[-73,-127],[4,-231],[374,-191],[-6,-125],[510,-107],[32,271],[1110,-225],[-75,-349],[204,-159],[2572,-522],[9,241],[1363,-287],[-34,-415],[673,-152],[26,-266],[1522,-251],[-36,-654],[179,-481],[-110,-304],[58,-300],[-108,-136],[73,-116],[-43,-59],[155,-35],[-142,-1156],[172,-40],[-64,-467],[295,63],[383,-155],[11,-4],[-28,-71],[-11,-25],[-2,-5],[-58,92],[-238,14],[1,-103],[112,-34],[28,-254],[-124,-312],[-1,-1]],[[70723,14291],[0,-9],[-256,-49],[-100,-305],[-316,-109],[-436,432],[-230,457],[-295,275],[-480,-140],[-232,-212],[-265,83],[-78,-137],[8,-214],[-189,-401],[-59,-439],[-122,-42],[13,-574],[251,-631],[-57,-213],[107,-516],[-350,-256],[-136,73],[-139,-197],[-107,23],[-455,-313],[89,-394],[360,-341],[-117,-336],[25,-149],[320,-544],[-122,-305],[-286,-311],[-301,231],[-129,-74],[-354,71],[-100,-146],[-11,-445],[-79,-156],[-886,-438],[68,-886],[-425,122],[-215,-112],[-237,-696],[-676,-30],[-80,-314],[65,-480],[460,-818],[-90,-99],[-206,-667],[-133,-66],[9,-330],[-120,-24],[-287,-323],[-321,65],[8,-277],[-77,-123],[-39,-396],[-140,-202],[-53,-470],[-101,-128],[-73,-325],[-221,11],[33,-126],[-108,-152],[-261,166],[-195,-87],[-336,118],[-778,469],[-244,-168],[-286,84],[-193,-55],[-116,50],[-153,262],[-144,61],[-51,-121],[-88,31],[-219,243],[-80,318],[-300,191],[-154,273],[-312,92],[-190,-52],[-132,152],[-390,-52],[-129,224],[-226,-78],[-127,219],[-228,168],[-580,-572],[-224,228],[-242,-34],[-179,288],[-452,35],[-250,180],[-1033,-418],[-183,58],[10,72],[-412,77],[-602,-36],[-307,176],[-226,254],[-529,-191],[-462,573],[-422,236],[-647,-103],[-247,63],[-308,-176],[-411,-67],[-294,49],[-476,-262],[-186,120],[-322,-1],[-416,-374],[-235,237],[-268,113],[-423,431],[-676,153],[-584,523],[-733,123],[-499,740],[-52,219],[-212,83],[-153,238],[-154,-3],[-205,217],[-189,59],[-192,452],[-198,-249],[-220,-88],[-827,-147],[-525,270],[-157,7],[-257,-177],[-245,210],[-205,-3],[-171,-549],[-256,-316],[-62,-212],[-294,-265],[-123,-69],[-273,96],[-164,195],[-191,27],[-236,-410],[-23,-235],[-216,-363],[-107,9],[-70,-190],[74,-423],[-123,-423],[-383,56],[-516,-530],[-83,-278],[-191,-98],[-59,-659],[39,-442],[-266,-107],[-144,-272],[-369,-47],[-162,127],[-393,-140],[-145,254],[-320,108],[-103,262],[-143,39],[-278,285],[-370,92],[-1051,-655],[-443,-182],[-134,-337],[309,-412],[-69,-242],[-346,-442],[-511,-37],[-376,413],[-527,192],[-282,522],[-248,225],[-78,-147],[-176,74],[-13,211],[-337,414],[-334,639],[-267,-140],[-379,231],[-220,266],[-444,-376],[-255,425],[-42,328],[-239,51],[-234,304],[-285,-161],[-239,16],[-341,253],[-69,527],[-102,206],[-145,28],[-40,-108],[-221,7],[-179,-112],[-260,386],[-210,167],[-54,232],[19,838],[-147,340],[-309,196],[-57,272],[-265,63],[-59,118],[-390,53],[-153,-168],[-380,-18],[-82,-142],[-289,-122],[-141,168],[-213,-122],[-387,108],[-372,643],[-233,262],[-191,11],[-165,194],[-126,444],[-240,234],[-16,328],[-153,330],[92,209],[25,345],[-220,627],[-289,185],[-27,715],[-128,306],[33,361],[-157,305],[-150,-188],[-155,-453],[-627,-617],[0,-126],[-310,-446],[12,-233],[-118,-223],[-90,-524],[159,-1152],[224,-910],[-234,-291],[-194,-513],[68,-121],[-90,-462],[-226,-136],[-96,-338],[-182,-197],[-120,-349],[-336,-310],[-30,-188],[-165,-260],[-1,-323],[-199,-298],[6,-154],[-98,-166],[-414,658],[-124,813],[-74,132],[-702,414],[-109,-78],[-256,71],[-250,-56],[-49,-150],[-131,-44],[-66,140],[89,704],[-501,-296],[-169,98],[-256,202],[-68,389],[-372,589],[-453,81],[-446,497],[-161,52],[-108,290],[40,310],[257,295],[57,201],[-35,1455],[334,909],[7,936],[305,827],[-183,149],[-30,263],[-172,-71],[-255,196],[-616,127],[-256,487],[-223,17],[57,270],[-78,376],[-231,45],[-322,292],[-151,24],[-140,-178],[-216,-23],[-200,-239],[-322,-121],[-373,-92],[-436,80],[-9,768],[411,481],[44,153],[-76,282],[-141,156],[-263,37],[60,538],[-293,198],[-185,470],[-515,164],[-73,-686],[-98,-53],[-413,259],[42,397],[-962,293],[48,198],[-77,523],[166,338],[459,209],[150,537],[208,244],[60,393],[224,300],[6,121],[-104,141],[31,158],[-139,224],[10,688],[-90,96],[-124,-111],[-451,-25],[-410,113],[-224,-126],[-426,636],[-250,141],[-26,347],[-207,506],[-150,364],[-83,206],[-4,180],[95,416],[296,931],[-12,326],[-548,326],[-387,650],[-5,415],[-91,289],[41,429],[-95,479],[-147,151],[170,1495],[-671,245],[-392,600],[-168,691],[-477,355],[-188,354],[-1,1011],[-287,801],[212,762],[535,373],[113,284],[-168,927],[-149,336],[143,636],[-8,512],[-482,129],[-824,532],[-283,373],[-645,292],[426,1347],[-108,309],[48,327],[-83,299],[-437,733],[73,81],[106,585],[-623,790],[-129,476],[-549,1079],[14,61],[141,567],[-42,246],[141,850],[1,1120],[244,571],[242,336],[-4,24],[-73,584],[304,475],[226,128],[432,-397],[40,-36],[201,339],[215,112],[165,241],[-11,562],[130,732],[-58,375],[244,704],[272,191],[164,224],[95,336],[390,413],[-86,540],[-143,194],[-38,453],[-191,151],[0,151],[167,297],[-116,59],[-41,456],[-178,457],[49,474],[-294,55],[-49,184],[-25,455],[-16,284],[-44,797],[67,183],[537,392],[44,417],[-134,278],[104,556],[-94,581],[82,135],[33,341],[-245,318],[-83,182],[-78,171],[-61,135],[-13,143],[-54,612],[-301,602],[52,367],[1438,-227],[136,1147],[389,-80],[256,2151],[661,-149],[-33,-269],[640,-135],[661,5507],[742,-152],[205,80],[130,1130],[281,586],[-51,179],[72,606],[1174,-257],[57,448],[1070,-228],[384,3238],[1726,-373],[372,3199],[-63,1202],[210,808],[4,13],[354,473],[-16,-89],[1077,-224],[-1,141],[1671,-354],[10,588],[1593,-344],[-70,-576],[1560,-342],[37,301],[607,-136],[-98,-821],[343,-37],[-86,-703],[2598,-579],[77,650],[1432,-226],[-52,-394],[1127,-253],[-93,-855],[1433,-325],[-35,145],[192,97],[-44,342],[55,141],[1532,-358],[269,-929],[-2,-187],[2545,-666],[20,-119],[1722,-388],[399,-711],[-168,-1591],[2050,-455],[144,-265],[-78,-686],[1431,-277],[-212,-2124],[-359,-73],[835,-199],[-131,-1015]]],"transform":{"scale":[0.00001176951769517697,0.000007766599999999996],"translate":[152.37501,-28.36387]},"objects":{"qld_south_east_ldmg_boundaries_gda2020_simp20":{"type":"GeometryCollection","geometries":[{"arcs":[[0,1,2]],"type":"Polygon","properties":{"LGA Code":"3430","Abbreviated Name":"Gold Coast","LGA Name":"Gold Coast City","Area Sq Km":1376.56555,"LDMG Name":"Gold Coast","Police Region Name":"South Eastern Region","Police Region Code":"SER","Police Region Short Name":"South East"}},{"arcs":[[-1,3,4]],"type":"Polygon","properties":{"LGA Code":"4590","Abbreviated Name":"Logan","LGA Name":"Logan City","Area Sq Km":957.87316,"LDMG Name":"Logan","Police Region Name":"South Eastern Region","Police Region Code":"SER","Police Region Short Name":"South East"}},{"arcs":[[-3,5,-4]],"type":"Polygon","properties":{"LGA Code":"6510","Abbreviated Name":"Scenic Rim","LGA Name":"Scenic Rim Regional","Area Sq Km":4242.95511,"LDMG Name":"Scenic Rim","Police Region Name":"South Eastern Region","Police Region Code":"SER","Police Region Short Name":"South East"}}]}}}