{"type":"Topology","arcs":[[[65832,20302],[120,29],[15,158],[27,30],[23,157],[-12,28],[33,231],[-30,18],[-46,-40],[17,181],[46,25],[26,51],[11,46],[-3,26],[20,34],[6,35],[31,24],[25,106],[25,20],[-15,43],[-15,134],[15,91],[-41,100],[2,34],[-48,72],[-121,42],[-13,48],[-2,86],[40,72],[59,9],[8,16],[38,-3],[67,56],[17,92],[-30,22],[-21,78],[-31,-4],[-37,46],[-68,287],[-82,15],[-54,36],[3,44],[-29,48],[-38,21],[-38,62],[-20,4],[12,18],[7,49],[28,32],[-8,105],[41,57],[-23,38],[-3,35],[-36,40],[-28,61],[-338,58],[37,167],[-7,47],[-23,13],[-8,32],[17,60],[-11,66],[-35,29],[0,32],[-59,143],[-47,28],[-11,39],[-1,85],[-20,153],[4,94],[15,7],[12,38],[81,19],[12,51],[-40,45],[-12,46],[-28,-16],[-40,5],[-32,149],[-64,73],[-32,72],[-6,62],[-34,66],[-38,120],[-12,100],[-32,65],[12,28],[-94,242],[-8,161],[-19,92],[9,37],[-16,72],[39,136],[-24,98],[9,75],[1,5],[-1,4],[-20,52],[6,39],[-4,64],[19,151],[3,27],[-3,18],[0,24],[21,5],[11,-23],[-17,-72],[-3,-97],[-17,-23],[15,-14],[5,-26],[12,5],[1,49],[23,63],[15,3],[19,28],[-1,56],[14,16],[8,62],[-38,19],[-2,21],[17,41],[-7,19],[41,140],[-29,87],[7,34],[-10,75],[26,91],[23,-2],[4,12],[-17,8],[-7,28],[18,41],[37,172],[51,36],[26,-22],[8,41],[-14,5],[-5,47],[14,31],[5,-26],[38,-57],[67,50],[61,137],[0,30],[60,63],[1,202],[-35,52],[-88,-11],[602,787],[280,-148],[18,-137],[30,-31],[39,-10],[30,-25],[23,-103],[26,-41],[84,-37],[78,-57],[69,1],[126,29],[-9,-119],[-20,-37],[-10,-49],[15,-49],[1,-33],[21,-48],[30,-7],[8,-71],[45,-13],[9,-53],[4,-66],[-69,-29],[10,-188],[36,-63],[26,-79],[-9,-82],[28,-99],[28,-150],[-3,-50],[15,-99],[-8,6],[42,-105],[63,-59],[-3,-148],[18,-27],[78,-18],[48,12],[40,-12],[-40,-142],[24,-97],[-21,-124],[41,-57],[24,-119],[10,-16],[-12,-89],[46,-120],[-10,-87],[-20,-51],[2,-64],[-18,-40],[17,-58],[-4,-42],[-38,-84],[-7,-58],[-74,-66],[-23,-1],[-22,-40],[2,-61],[-32,-72],[27,-20],[11,-39],[131,-77],[13,-47],[35,3],[15,-10],[4,-31],[29,0],[5,-17],[-10,-24],[-25,0],[-18,35],[-18,-16],[-17,10],[-4,-46],[8,-10],[-6,-15],[26,-41],[14,3],[10,-16],[24,10],[10,-38],[24,-25],[15,11],[0,42],[33,17],[11,-7],[8,-26],[-6,-9],[27,-21],[1,-1],[0,2],[-10,45],[33,95],[132,111],[32,51],[21,76],[26,41],[26,6],[38,-15],[10,9],[3,6],[23,45],[10,83],[48,60],[4,44],[20,29],[-22,54],[-4,60],[17,145],[3,4],[52,-19],[26,57],[10,57],[18,38],[24,20],[-2,44],[-14,0],[-18,79],[8,83],[36,101],[46,35],[10,26],[-26,12],[-26,51],[-6,89],[-26,54],[-10,120],[-26,11],[9,51],[10,3],[27,-43],[72,-57],[62,-6],[28,-31],[42,6],[44,-35],[12,-28],[-2,-51],[20,-54],[-7,-79],[88,-225],[70,-16],[56,-82],[145,-60],[46,-47],[18,-3],[64,50],[26,77],[-12,50],[8,48],[-12,114],[4,79],[-28,149],[24,83],[-19,76],[10,41],[91,92],[136,-69],[44,-122],[14,-18],[33,9],[15,13],[22,90],[55,93],[13,41],[15,93],[-4,87],[9,6],[28,-5],[78,46],[50,-23],[23,22],[19,71],[20,1],[29,-67],[147,-139],[114,-53],[-3,-66],[54,-88],[34,-15],[43,57],[37,22],[19,-3],[40,39],[70,-20],[34,-31],[21,23],[41,15],[-1,104],[7,29],[60,116],[22,83],[-6,159],[-32,103],[12,39],[-41,33],[-10,31],[30,51],[2,20],[-25,54],[6,37],[44,34],[-2,12],[-28,35],[-28,185],[-31,56],[-5,69],[79,67],[23,105],[18,39],[36,429],[14,13],[17,-6],[85,138],[153,144],[15,193],[-10,83],[45,250],[38,80],[38,32],[79,-29],[-3,50],[63,191],[2,76],[212,45],[19,-109],[125,5],[57,-1477],[19,16],[6,47],[12,17],[31,-30],[16,-70],[28,-30],[65,6],[34,26],[5,49],[-7,36],[35,120],[-20,77],[8,141],[-10,216],[-56,271],[-10,147],[-1,163],[10,142],[28,84],[78,98],[18,61],[-1,101],[121,85],[96,108],[128,231],[55,145],[40,77],[109,110],[112,260],[56,93],[119,241],[29,96],[33,60],[25,310],[27,7],[71,203],[-161,150],[-30,148],[96,557],[18,244],[377,-72],[-69,169],[56,-11],[0,105],[-22,34],[-1,51],[-21,55],[-18,4],[-11,45],[37,89],[-13,57],[-31,13],[-7,25],[10,63],[-13,79],[-53,78],[10,58],[-7,127],[-13,49],[4,24],[-22,30],[0,37],[-35,155],[21,16],[11,50],[-12,55],[-2,230],[-34,112],[2,67],[-45,27],[6,74],[-18,55],[54,128],[-74,477],[-38,29],[-8,174],[14,49],[-29,112],[-3,58],[-40,81],[-6,51],[-151,455],[-17,26],[-3,32],[-36,81],[-17,17],[-28,110],[-71,1],[-14,72],[-5,97],[-55,53],[-9,61],[-33,25],[-3,44],[14,147],[25,26],[7,27],[-13,40],[-36,26],[-10,45],[-23,10],[-15,53],[2,38],[-13,45],[20,93],[-32,66],[-42,34],[-23,85],[15,61],[-17,75],[-30,19],[-46,107],[24,42],[130,110],[772,-22],[417,-95],[-4,-24],[56,-18],[24,13],[42,86],[56,71],[2,3],[-1,3],[-38,109],[-2,88],[-25,71],[8,28],[30,35],[7,38],[-53,135],[12,61],[-18,57],[24,83],[-6,110],[-13,40],[-23,27],[-61,26],[-45,50],[-107,65],[-80,112],[-9,21],[-8,28],[-4,33],[1,24],[16,143],[34,136],[75,221],[29,117],[85,158],[8,106],[11,24],[20,14],[41,-8],[114,-102],[27,11],[6,14],[2,7],[4,9],[3,109],[-50,70],[-10,40],[-6,136],[15,178],[-10,129],[45,13],[26,-33],[11,29],[102,-107],[45,-79],[44,13],[31,-31],[7,9],[-1,76],[16,40],[16,8],[43,-19],[17,10],[4,2],[11,53],[-4,28],[25,2],[5,29],[22,-11],[30,39],[3,5],[9,60],[53,17],[1,2],[24,56],[22,120],[-12,67],[-15,-7],[-5,13],[19,22],[10,52],[18,18],[3,85],[38,56],[-1,37],[-15,-6],[-3,30],[21,57],[-28,6],[5,78],[31,64],[475,-136],[513,-45],[9,33],[-21,84],[25,38],[6,60],[14,21],[32,-28],[15,5],[42,61],[-18,31],[1,37],[-27,84],[9,138],[-19,43],[-34,16],[-25,102],[3,128],[-25,26],[-76,12],[-47,96],[-44,26],[-28,86],[-44,38],[-10,31],[-39,46],[-18,113],[1,140],[-31,48],[-17,86],[-23,40],[7,70],[-54,77],[10,74],[-6,17],[-49,14],[-13,4],[-1,44],[-15,31],[-11,72],[33,39],[28,-8],[34,73],[35,11],[22,77],[-61,365],[112,-24],[6,81],[280,-35],[3,37],[154,-36],[21,279],[19,30],[15,199],[20,13],[33,113],[11,10],[52,-3],[23,70],[41,30],[12,8],[32,-10],[114,36],[68,65],[17,-34],[36,-19],[7,-31],[51,-16],[46,68],[4,47],[223,-47],[5,56],[118,-27],[6,65],[88,-20],[-3,-42],[74,-17],[5,52],[110,-23],[2,30],[56,-13],[9,-23],[17,4],[23,-28],[11,20],[29,-66],[59,-8],[-6,-35],[11,-9],[-12,-36],[6,-35],[103,-43],[-1,-17],[-73,-40],[-1,-63],[27,-48],[1,-52],[24,-7],[2,-22],[50,-37],[18,-34],[-32,-98],[-27,8],[-35,-36],[-18,7],[-5,-64],[32,-32],[2,-31],[35,-16],[33,-37],[3,-36],[31,-50],[20,-14],[5,13],[24,-7],[23,-54],[-24,-106],[28,-31],[22,-7],[13,-39],[-2,-78],[28,-24],[6,-28],[26,-35],[8,-40],[27,-28],[14,6],[-1,-25],[-63,10],[-3,-53],[152,-19],[19,-54],[41,-5],[10,-24],[-29,-47],[-10,-109],[17,-20],[-11,-34],[13,-8],[-1,-40],[-49,-45],[-10,-38],[7,-22],[-20,-31],[80,-15],[-17,-246],[30,-16],[1,-100],[26,-32],[5,-3],[8,-3],[20,-8],[28,8],[36,188],[64,44],[60,-53],[-7,-78],[37,-52],[53,-15],[18,-28],[28,-6],[12,18],[17,-2],[-11,-60],[31,-86],[62,-50],[20,8],[42,-13],[15,32],[28,17],[10,44],[28,39],[-5,39],[15,55],[20,7],[23,33],[50,10],[19,31],[36,-75],[23,29],[23,-24],[56,16],[13,-17],[24,1],[32,-35],[61,8],[20,-14],[19,-89],[45,-51],[2,-65],[39,-26],[-9,-96],[9,-23],[24,-19],[1,-51],[37,24],[17,56],[25,7],[11,63],[28,8],[24,-28],[23,-82],[55,9],[-5,39],[32,25],[57,-69],[18,31],[128,-60],[27,28],[16,-17],[59,23],[12,117],[74,42],[2,68],[-11,36],[4,41],[21,8],[7,37],[24,-14],[25,23],[13,0],[24,-30],[14,12],[33,-24],[29,24],[114,-56],[27,48],[23,8],[31,-38],[21,25],[29,-25],[69,-142],[55,-29],[52,2],[51,-34],[9,0],[42,77],[103,-25],[9,97],[54,25],[13,79],[26,-6],[7,70],[-45,10],[4,42],[-34,9],[9,97],[12,1],[23,49],[-1,24],[50,20],[13,35],[50,-37],[18,31],[35,29],[17,-6],[11,33],[-10,70],[21,28],[-17,48],[18,39],[90,33],[23,-20],[82,37],[20,36],[12,-5],[8,26],[31,35],[9,31],[36,41],[-28,82],[9,28],[60,4],[103,-60],[13,12],[58,0],[24,-39],[-1,-23],[34,-12],[4,-30],[17,33],[8,59],[46,-1],[7,38],[34,15],[3,102],[20,39],[-10,47],[10,53],[29,-1],[0,18],[15,9],[-9,20],[3,15],[43,6],[-1,25],[14,-1],[12,33],[-10,22],[55,35],[6,56],[-8,58],[13,47],[12,-5],[28,48],[13,-3],[-3,65],[28,-18],[3,31],[21,14],[16,-10],[6,27],[28,35],[4,-26],[23,4],[7,-21],[20,39],[-22,67],[-45,81],[-5,33],[-32,-14],[-22,25],[12,33],[38,29],[-4,36],[-55,5],[-22,68],[29,-2],[41,-44],[29,48],[37,18],[24,-41],[-1,-77],[12,-12],[67,32],[2,15],[-95,117],[2,13],[60,30],[16,-10],[11,-42],[51,21],[-6,185],[-20,6],[-15,-18],[-24,-115],[-18,4],[-22,29],[-21,85],[4,112],[56,26],[20,52],[13,11],[20,-22],[-8,-81],[9,-32],[37,-8],[21,46],[-4,89],[-23,89],[-13,7],[-49,-43],[-42,27],[-31,47],[6,56],[23,25],[84,-50],[30,4],[17,28],[-9,46],[-64,36],[-44,56],[-11,80],[14,52],[54,87],[26,18],[115,-158],[40,-26],[32,27],[18,75],[17,298],[39,173],[357,436],[438,638],[75,346],[103,358],[84,227],[1992,3689],[6351,-30],[6860,30]],[[97474,52035],[2525,-18687],[-9273,1],[-41,-75],[-53,-54],[-149,-65],[-37,24],[-80,171],[-49,29],[-95,-25],[-21,-63],[-26,-27],[0,-40],[-17,-36],[45,-102],[-9,-19],[-28,-4],[-18,26],[-25,-26],[8,-26],[31,-1],[1,0],[15,-20],[-1,-8],[0,-3],[0,-3],[-12,-9],[-29,18],[-21,-20],[-1,-24],[21,-8],[-6,-72],[-20,-22],[-22,20],[18,-57],[-58,-47],[-19,-87],[-43,-79],[-5,-23],[15,-49],[-17,-31],[4,-55],[-20,-8],[-19,-58],[-36,-30],[235,-54],[-24,-277],[-205,39],[11,-62],[-24,-18],[0,-28],[24,-5],[35,-112],[-10,-113],[-32,28],[-9,-139],[26,-13],[70,17],[92,-54],[44,16],[61,-12],[-6,-70],[-63,14],[-9,-99],[63,-14],[-27,-337],[-241,60],[7,-35],[-10,-28],[3,-95],[-7,-19],[9,-87],[10,-18],[1,-82],[-70,11],[-5,-34],[-42,-8],[-41,-35],[-110,-17],[-74,-271],[-2,-58],[33,-84],[-24,-19],[-62,-4],[-107,-56],[-16,2],[-19,33],[-16,-9],[-18,-49],[22,-52],[6,-54],[-45,-65],[-32,-143],[-70,-102],[-27,8],[-12,-23],[-29,-6],[-14,-34],[1,-54],[-21,-30],[-107,-5],[-25,-58],[-26,-18],[-25,27],[18,113],[-2,37],[-21,10],[-5,26],[-56,46],[-14,-12],[-12,8],[-2,21],[-16,8],[6,18],[-10,22],[-88,35],[-23,95],[-43,48],[-17,81],[-24,51],[-96,76],[-303,67],[-44,-496],[-16,83],[-119,143],[-50,143],[-17,137],[-32,19],[-32,46],[-106,233],[-106,62],[-23,105],[-23,63],[-20,22],[-44,-36],[-25,-69],[-24,-35],[-37,-25],[-54,3],[-24,-24],[-48,-79],[0,-16],[18,-12],[28,17],[7,-12],[3,-116],[-55,-65],[-48,-15],[-36,73],[-63,41],[-7,36],[-16,11],[-31,72],[-44,67],[-23,-2],[-22,25],[0,31],[-22,-6],[-37,48],[-47,27],[-121,-62],[-32,32],[-55,-114],[-31,-4],[-37,102],[-64,67],[-72,-32],[-12,24],[-73,44],[-14,-8],[-38,61],[1,28],[-20,74],[-28,44],[-7,75],[-29,31],[-12,53],[13,31],[0,25],[18,18],[47,-19],[19,-28],[8,92],[38,10],[6,67],[19,17],[23,88],[25,34],[-26,66],[17,120],[13,20],[-15,91],[15,47],[1,45],[-42,47],[-13,-4],[4,57],[-80,132],[-46,7],[-23,21],[-30,-26],[-23,50],[-21,10],[-24,36],[12,67],[22,33],[-7,65],[-26,47],[-57,25],[-8,56],[11,17],[-33,56],[-31,17],[-16,50],[13,13],[-14,23],[2,31],[-26,72],[15,50],[17,9],[-5,48],[-14,47],[-25,38],[-48,33],[-35,-19],[-20,10],[-35,-39],[18,-54],[-22,-110],[4,-34],[-18,-49],[-2,-37],[-42,-82],[-12,-65],[-33,2],[-30,36],[-66,42],[-16,26],[-42,-7],[17,-105],[26,-53],[28,-28],[-4,-12],[-70,-191],[-21,-29],[-48,-29],[-70,10],[-40,-22],[-2,-116],[-22,-66],[7,-44],[-13,-33],[-27,2],[-11,-18],[-33,-9],[-24,31],[-32,3],[-50,88],[-26,-53],[-21,-16],[-23,6],[-15,44],[-22,8],[-6,-24],[-14,3],[-14,-21],[-5,-44],[-24,-43],[-16,-69],[-23,-24],[-5,-75],[-28,-26],[-60,-116],[-12,-36],[0,-39],[-28,-42],[-45,54],[-27,8],[-46,-9],[-33,18],[-13,-22],[1,-19],[-29,-13],[-19,12],[-19,-34],[-15,-2],[-14,-36],[8,-57],[-27,-18],[2,-42],[-10,-18],[5,-60],[-34,-24],[-39,8],[-45,140],[-84,39],[-26,-13],[-7,22],[-18,4],[-9,-31],[-12,-2],[-41,33],[-13,-21],[-9,-63],[-68,-36],[-16,-48],[-50,131],[-1,39],[-11,20],[-16,-12],[-6,-21],[-46,19],[-10,39],[-40,61],[-7,97],[-21,19],[-26,-14],[-33,66],[-23,0],[-30,-27],[-19,6],[-13,-29],[-26,-10],[2,-29],[-31,-16],[-27,-34],[-23,8],[-13,11],[-12,104],[41,72],[49,27],[26,45],[20,-12],[46,13],[60,-44],[34,-14],[19,11],[-92,579],[3,15],[18,6],[-14,11],[9,58],[-18,57],[24,52],[17,-1],[17,46],[-10,59],[31,373],[-3,62],[14,27],[-3,42],[-22,-32],[-42,6],[-21,-19],[-76,-24],[-27,21],[-29,-1],[-13,-34],[-8,-84],[-163,-45],[-2,-14],[-42,-19],[-36,-59],[-28,-12],[-31,8],[-33,41],[-9,31],[4,49],[-31,49],[11,77],[-16,72],[5,46],[24,27],[-15,123],[14,36],[-3,36],[22,43],[5,63],[21,14],[1,78],[22,90],[36,30],[2,77],[-18,36],[-20,11],[-45,97],[-36,44],[-6,66],[-35,17],[-12,-13],[-77,66],[-18,-67],[-16,-10],[4,-36],[-10,-15],[-70,-27],[-13,-21],[-34,17],[-12,-23],[-14,-81],[-10,1],[-53,60],[-7,106],[-51,56],[-13,113],[-38,94],[-14,-2],[-14,37],[-142,42],[-18,74],[-22,10],[-4,24],[-17,10],[-8,28],[-19,17],[-28,-19],[-21,101],[-19,1],[-9,39],[-14,3],[-33,59],[-7,88],[27,67],[-18,78],[-10,24],[-24,-24],[-17,42],[-18,13],[-59,-2],[-10,-27],[-52,5],[-8,-22],[-31,-22],[-95,33],[-6,-28],[-29,-32],[-9,-98],[-50,-51],[-7,-21],[-3,-74],[15,-34],[3,-72],[-8,-256],[-40,-58],[-3,-83],[7,-45],[-10,-83],[-9,-15],[-5,-91],[-22,-32],[-6,-44],[12,-17],[-6,-29],[-34,-36],[7,-25],[0,-115],[-41,-56],[-29,-7],[-7,-18],[1,-73],[-47,-62],[-2,-20],[11,-29],[-11,-57],[17,-83],[5,-85],[15,-36],[-5,-56],[39,-46],[69,-172],[-53,4],[-39,-47],[-6,-122],[6,-118],[22,-40],[7,-31],[-6,-21],[-29,-31],[-43,36],[-19,-7],[-138,93],[-249,116],[-26,-4],[-18,23],[-211,110],[-13,-63],[-50,18],[-13,-4],[-30,-60],[-45,2],[-49,20],[-19,36],[-5,57],[-14,33],[-14,-27],[-14,-120],[-21,-30],[-47,35],[-10,23],[-30,-25],[-31,-5],[-4,67],[-15,16],[-10,-11],[-57,-680],[46,-21],[7,-29],[82,-100],[21,-46],[40,-23],[42,-2],[19,-33],[34,-7],[15,-38],[80,-76],[121,81],[55,-92],[64,18],[16,-35],[-12,-52],[12,-21],[9,-55],[82,-112],[-4,-23],[-24,-17],[-45,-115],[-35,-46],[-16,-3],[7,-36],[-18,-14],[-38,-130],[-14,14],[-35,-15],[3,-36],[-16,-100],[-29,-15],[-25,-98],[4,-36],[29,-26],[-27,-178],[6,-33],[-19,-71],[-32,-4],[-38,-41],[-54,27],[-30,-19],[-207,80],[-304,84],[-98,-59],[-30,28],[-61,93],[-56,51],[-103,18],[-61,48],[-54,16],[-35,-13],[-27,-38],[-124,-30],[-77,22],[-80,-5],[-77,48],[-103,-66],[-29,14],[-58,132],[-112,-38],[-28,-58],[-11,-127],[-118,2],[-86,-34],[-198,-274],[122,-805],[33,-123],[-20,-35],[-42,-479],[-28,-35],[-23,-97],[-45,-4],[-4,-34],[-38,8],[-177,-722],[-17,-208],[14,-123],[-127,-490],[-22,-24],[54,-230],[55,-123],[-44,-320],[18,-393],[-13,-189],[2,-117],[45,-175],[12,-96],[19,-53],[-2,-64],[-13,-35],[2,-50],[21,-43],[54,-56],[103,-155],[-70,-40],[-38,-119],[-37,-42],[-32,-94],[19,-113],[24,-50],[-1,-90],[-35,-55],[0,-77],[-49,-43],[-162,-2],[-100,-78],[-46,-14],[-36,-28],[-81,-180],[34,-84],[-127,-32],[-68,58],[-52,3],[7,-73],[-17,-41],[16,-53],[35,-263],[-10,-128],[-5,-27],[-24,-20],[-55,-105],[3,-86],[-27,-121],[-58,-10],[-17,-84],[50,-199],[-34,-42],[-85,-12],[-11,-91],[33,-55],[-2,-83],[19,-63],[-60,-195],[13,-48],[-40,-67],[-87,20],[-81,-95],[16,-71],[-4,-152],[11,-38],[-31,-93],[-72,-78],[7,-44],[85,-64],[-4,-35],[-28,4],[-17,-65],[-39,-24],[-91,-164],[71,-100],[-42,-71],[22,-155],[-66,-31],[-22,-36],[70,-127],[41,-47],[-56,-220],[-177,-194],[-7,-145],[-44,-61],[7,-62],[47,-29],[-11,-91],[17,-15],[69,35],[19,-95],[-19,-101],[30,-14],[68,35],[32,-39],[8,-60],[-87,-170],[20,-94],[-17,-65],[97,-78],[-14,-60],[6,-142],[55,-133],[18,-86],[-36,-175],[-33,-48],[-22,-137],[8,-69],[40,30],[27,5],[30,-14],[8,-58],[90,-20],[84,-51],[44,-209],[-49,-553],[-80,-50],[-65,-140],[37,-160],[-8,-100],[99,-551],[-38,-46],[-26,-516],[-65,-206],[-105,-17],[-76,-74],[-20,-76],[-32,-28],[-16,-34],[15,-120],[-146,-14],[-78,-40],[-121,11],[-37,39],[-36,343],[-332,139],[-103,22],[-21,-244],[-46,3],[-123,109],[-67,1],[-10,-101],[-40,13],[-51,80],[-182,59],[-53,-5],[-262,63],[48,-206],[1,-141],[-16,0],[-38,-88],[-72,-48],[-44,-57],[-48,-4],[-93,-50],[-102,63],[-111,101],[-84,213],[-42,-21],[-22,41],[-41,-166],[-42,-84],[-235,-14],[-23,-264],[-11,-27],[3,-52],[-21,-35],[-19,-7],[-16,23],[-2,70],[-12,30],[-29,-10],[-30,-49],[-33,-3],[-29,25],[-7,69],[-43,-492],[-44,84],[-23,23],[-109,72],[-76,73],[-131,-8],[-23,-9],[-23,-34],[-22,-4],[-29,9],[-57,126],[-32,21],[-144,5],[-36,106],[-68,71],[-35,67],[-69,66],[-8,-36],[-19,21],[-31,-8],[-12,55],[-10,-13],[-14,-108],[-11,-4],[-53,42],[-31,-120],[-261,-112],[-92,2],[-91,120],[-28,6],[-14,-162],[49,-11],[-1,-25],[-25,-40],[-14,-55],[-56,-43],[-19,-7],[-50,17],[-31,46],[-43,3],[-21,-14],[1,-17],[-15,0],[-23,-75],[-26,-29],[-133,81],[-37,-97],[137,-438],[-92,-216],[-41,22],[-248,770],[-347,-269],[-84,-47],[-60,-55],[-18,-41],[-67,-60],[-115,-152],[-513,115],[-76,-806],[-783,151],[52,578],[-654,129],[-22,89],[-129,-178],[-63,-20],[-78,-104],[-13,-94],[-32,-26],[-27,0],[-2,-41],[-59,-75],[-19,-57],[-28,-24],[-57,20],[-41,-76],[-20,-5],[-202,-571],[-610,113],[-697,170],[-2,-25],[-51,-4],[-53,-41],[-147,77],[-33,-1],[-37,-31],[-23,104],[110,927],[-31,95],[-24,42],[-34,39],[-43,18],[-33,40],[-94,179],[-61,16],[-22,52],[-24,5],[-12,49],[-45,82],[-41,9],[30,25],[-8,22],[-70,23],[-128,256],[-24,75],[50,325],[0,98],[-42,8],[-34,-12],[-69,-80],[-132,-87],[-87,-25],[-69,-68],[-68,-29],[-38,-41],[-148,297],[-271,50],[-18,21],[7,67],[-71,15],[184,271],[-21,81],[11,69],[-24,18],[17,44],[40,4],[16,26],[-2,33],[-23,18],[-6,28],[31,115],[-24,49],[-3,29],[47,55],[25,-1],[21,17],[-1,15],[25,45],[2,41],[-15,42],[5,35],[29,-2],[54,-101],[61,-1],[57,-88],[25,-63],[15,-105],[28,-25],[42,63],[25,5],[116,148],[45,3],[55,40],[60,177],[29,3],[96,121],[67,-42],[132,82],[-22,48],[3,65],[47,129],[32,31],[1,5],[3,3],[2,19],[2,15],[1,8],[-5,0],[-23,3],[-9,1],[-67,-49],[-12,9],[-7,16],[-9,66],[15,56],[81,94],[7,34],[-8,42],[-100,54],[-20,-2],[-7,-17],[4,-58],[-31,-51],[-1,-62],[-23,-24],[-17,-47],[-4,-4],[-9,6],[-3,4],[-10,41],[46,94],[0,33],[-46,30],[-43,108],[-71,36],[-36,42],[-10,29],[2,30],[11,7],[77,-43],[15,12],[2,41],[-48,61],[-77,27],[-145,14],[-17,-65],[15,-65],[29,-63],[-3,-38],[-17,-17],[-14,4],[-46,85],[12,125],[-6,72],[13,109],[-14,24],[-17,0],[323,396],[-687,1391]],[[52746,28095],[-12,-13],[-5,-81],[-41,-87],[-1,-30],[-43,-110],[-32,-3],[-15,-29],[-11,-55],[10,-207],[42,-133],[-36,-97],[-30,-18],[-31,15],[-45,-55],[-17,-84],[-43,-57],[-25,-58],[-131,-150],[-39,-12],[-48,95],[-48,-2],[-117,-150],[-198,-22],[-112,51],[-50,97],[-44,8],[33,117],[4,66],[-9,43],[-27,30],[-68,17],[-94,47],[-31,-14],[-36,-57],[-37,-17],[-23,-37],[-22,-82],[-39,-68],[-12,-59],[15,-105],[-9,-40],[-112,-125],[-30,-6],[-12,5],[-26,13],[-12,5],[-47,47],[-48,81],[-8,5],[-18,1],[-17,19],[-40,-9],[-27,-68],[-18,-16],[274,-1004],[-35,-12],[-327,66],[-133,-169],[-190,31],[-36,-441],[35,-66],[3,-28],[-20,-13],[7,-33],[-38,-498],[-442,73],[-58,-854],[-318,26],[-152,-181],[-23,-72],[-8,-1],[-27,-109],[-11,-9],[-15,-72],[-18,-10],[6,-28],[-87,-250],[-57,-90],[-41,-100],[-3,-65],[-375,-495],[-428,-534],[-28,-16],[-19,-43],[167,2346],[-1370,260],[-87,-67],[-59,-905],[47,-110],[-66,-842],[-58,14],[-15,-41],[-484,91],[42,-92],[70,-340],[-1147,223],[30,384],[-140,28],[-9,-11],[-465,106],[-610,110],[-123,-1603],[80,-14],[-20,-175],[-3,-150],[-123,-1269],[-76,16],[-82,-1146],[-596,70],[-1008,196],[17,261],[0,392],[25,471],[-302,2],[15,-47],[14,-117],[-26,-386],[3,-86],[-36,-435],[265,-976],[-31,-36],[33,-442],[6,-428],[-42,-135],[-148,-137],[-121,26],[-79,67],[-1387,307],[-8,140],[-27,107],[16,214],[-11,30],[18,65],[37,495],[-600,100],[-13,-53],[-55,-50],[-11,-46],[-1,-30],[19,-81],[-22,-35],[-37,-220],[-39,-51],[-62,-14],[-13,-20],[5,-42],[-8,-16],[-23,-5],[-24,-43],[-11,-55],[-6,-130],[7,-68],[-27,-55],[1,-76],[-74,-53],[-23,-57],[-9,-90],[-20,-55],[-40,-72],[-63,-76],[-6,-112],[-34,-55],[-11,-49],[1,-92],[16,-29],[-78,-35],[-55,-156],[-729,116],[76,1079],[4,701],[42,-66],[159,-21],[83,282],[71,1175],[17,24],[4,100],[-719,80],[-48,49],[-49,9],[-52,101],[-98,9],[-31,20],[-142,-69],[-88,326],[-277,233],[-11,-2],[-45,61],[-222,58],[-76,-182],[-164,-78],[-66,-244],[-303,58],[28,389],[146,-26],[99,1307],[-5,-12],[-630,120],[-6,14],[-648,126],[-77,56],[-47,-31],[-72,-13],[-74,28],[-286,53],[28,114],[-3,56],[34,113],[1,122],[-16,36],[-85,104],[26,35],[26,0],[38,46],[21,53],[6,89],[-6,26],[-224,36],[-8,20],[-93,-4],[-30,21],[3,12],[-10,12],[-8,-1],[-10,-35],[-48,8],[-13,20],[-29,11],[-25,-20],[-126,22],[-20,23],[-17,-33],[-40,-13],[-49,47],[-29,49],[-128,13],[-26,32],[-18,-27],[-78,7],[-47,32],[-19,-22],[-230,18],[-35,17],[-14,-7],[-55,39],[-17,-15],[-1,-23],[-85,8],[490,620],[27,6],[46,40],[6,39],[-17,137],[8,20],[51,59],[100,41],[22,42],[79,24],[58,816],[9,12],[-7,21],[3,91],[20,233],[-13,10],[4,60],[15,17],[67,1123],[-52,-38],[-69,-96],[-82,-69],[-20,-51],[-25,-28],[-143,-29],[-68,18],[-59,-18],[-107,23],[-32,-23],[-34,-52],[-45,-9],[-70,128],[-8,72],[-32,54],[-81,5],[-99,273],[-123,133],[-14,80],[31,131],[6,75],[63,313],[7,136],[-43,142],[60,107],[-514,83],[63,1004],[-841,134],[145,2053],[-278,48],[28,414],[-267,-187],[-193,-4220],[-1161,-1530],[-162,657],[-494,-1393],[-141,260],[-1029,-1343],[-221,-633],[-70,-124],[-467,-1296],[-16,-177],[49,-61],[56,-263],[-54,-246],[-92,-293],[-230,-135],[-12,-66],[7,-72],[28,-97],[4,-62],[-17,-70],[-23,-43],[1,-20],[-68,-64],[18,-320],[-36,-50],[2,-14],[-23,-22],[-10,-29],[8,-58],[-18,-33],[-27,-22],[-16,-51],[-23,-17],[-41,-141],[-16,-13],[-35,4],[-97,-105],[-15,-171],[4,-53],[-217,-232],[-35,-62],[-37,-29],[-157,-5],[-13,-15],[-14,14],[-81,-2],[-4,-15],[-627,1231],[-792,130],[-3,-37],[-590,78],[-8,-111],[-51,80],[-2,19],[9,110],[26,77],[172,-12],[94,115],[12,25],[6,86],[50,9],[13,20],[-175,702],[-119,252],[4,49],[-142,238],[-229,130],[-33,48],[-9,77],[-164,202],[-23,60],[-24,-3],[-49,35],[-47,79],[-94,64],[-41,68],[-55,27],[-85,-89],[-53,-20],[-24,31],[-23,83],[-28,32],[-3,41],[-22,0],[-121,233],[-945,-1228],[-261,37],[-4,-41],[-31,-35],[-9,-131],[25,-45],[-35,-473],[9,-1],[-48,-827],[-35,-81],[3,-28],[24,-34],[9,-63],[-17,-60],[-82,-1309],[291,-43],[-48,-751],[-422,60],[-7,14],[-3,-56],[-7,-1],[-38,49],[-101,81],[-58,-9],[-35,45],[-704,109],[-1,-13],[-16,3],[1,12],[-504,81],[-94,-1557],[-1712,271],[-95,-1448],[-691,119],[137,2001],[-1385,235],[-74,115],[25,19],[36,-14],[49,29],[26,139],[4,82],[22,68],[-1183,160],[-622,-854],[-4,-100],[-243,-235],[-5,-30],[-197,-177],[-106,-118],[-61,-89],[-59,-2],[-92,-57],[-76,-11],[-29,-42],[-179,-83],[-20,-155],[-123,-68],[-46,20],[-160,-44],[-150,-99],[-35,-69],[-92,-98],[-126,-76],[-87,1],[-377,-551],[-113,-116],[-127,3],[-37,-389],[-165,29],[-100,-1264],[-137,-2024],[143,-1423],[-12,-10],[-7,-30],[6,-12],[-19,-22],[5,-17],[-11,-3],[4,-13],[-10,-32],[-14,-10],[-22,-56],[-25,-11],[-10,-42],[-32,-22],[-4,-36],[-12,-12],[7,-28],[-59,-75],[5,-21],[-13,-27],[7,-18],[-32,-128],[-11,-11],[4,-50],[-24,-64],[1,-55],[-20,-59],[15,-80],[-22,-28],[-16,-60],[-13,-7],[-5,-51],[-24,-19],[3,-44],[-9,-8],[-7,18],[-2,-21],[-10,5],[-3,-12],[5,-21],[-6,-13],[14,-26],[-11,-60],[-22,-51],[10,-19],[-3,-47],[-22,-22],[-15,-48],[-56,-58],[-26,-74],[2,-55],[-34,-165],[-85,-193],[-3,-240],[-49,-354],[-123,145],[-7,-90],[-1333,204],[2,115],[-743,111],[-6,-101],[-625,96],[-13,-117],[-39,-104],[-46,-168],[-19,-111],[3,-19],[9,0],[-8,-25],[7,-7],[0,-47],[8,-1],[-7,-10],[9,-25],[-7,-5],[14,-21],[-8,-23],[12,-16],[-1,-15],[-10,0],[4,-31],[10,-41],[25,-23],[-13,-38],[10,-69],[-24,-12],[28,-46],[-6,-21],[-35,-27],[0,-17],[8,-3],[-10,-44],[25,-32],[20,7],[-1,-57],[11,-14],[0,-33],[16,-25],[-5,-22],[13,-29],[-12,-80],[-26,6],[-6,-34],[15,-25],[7,-44],[27,-20],[-25,-29],[2,-37],[10,-30],[24,-14],[9,-23],[-5,-25],[10,-55],[-13,8],[0,-24],[10,-14],[-6,-14],[19,-26],[-4,-37],[7,-24],[28,2],[3,-21],[-17,-42],[4,-21],[31,47],[11,-37],[21,-3],[-18,-28],[0,-24],[28,15],[8,-13],[-2,-29],[20,-42],[-8,-23],[14,-18],[-20,-6],[-1,-11],[29,-32],[2,-53],[6,-9],[6,14],[9,-17],[-6,-60],[-15,-14],[34,-25],[3,-15],[-11,-45],[-25,-20],[16,-25],[-8,-30],[37,-55],[-11,-61],[7,-35],[42,-72],[3,-36],[28,-48],[17,16],[31,-13],[21,-37],[1,-27],[-17,-30],[2,-17],[24,-65],[51,-78],[1,-53],[18,-63],[26,-44],[17,1],[7,-40],[-5,-30],[23,-30],[-3,-27],[14,-33],[18,-18],[-1,-31],[8,-18],[-6,-15],[14,-31],[0,-39],[35,-2],[4,-72],[25,-18],[9,-34],[25,-17],[-13,-39],[18,-43],[7,-51],[16,0],[3,-28],[14,-13],[11,10],[5,-43],[8,12],[9,-25],[-6,-13],[21,1],[21,-25],[7,-46],[-10,-133],[-22,-29],[2,-103],[-18,-29],[5,-44],[-22,-53],[30,-41],[22,-12],[22,-52],[6,-40],[14,-17],[-8,-26],[-14,2],[-12,-31],[2,-24],[34,-80],[-13,-38],[19,-1],[-9,-34],[29,16],[6,-8],[16,-122],[35,30],[19,-26],[57,27],[15,-74],[-5,-48],[-53,-124],[8,-20],[32,-10],[16,-25],[3,-30],[-12,-42],[-40,-14],[-4,-18],[17,-61],[29,-33],[6,-24],[-6,-13],[-23,21],[-24,-12],[-2,-23],[20,-20],[1,-22],[-27,-38],[8,-26],[-26,8],[6,13],[-35,-1],[-7,-47],[20,-42],[-428,76],[-131,61],[-244,44],[-128,-12],[-30,-25],[-23,5],[-47,40],[-41,-12],[-156,50],[-77,64],[-64,-41],[-565,99],[-322,626],[-1174,195],[-1127,-11],[-5,-200],[-296,-31],[-231,-3415],[-1502,255],[-1,12616],[-716,0],[225,3878],[-134,20],[14,472],[-205,22],[116,2133],[-243,790],[-44,-40],[-6,-38],[-58,-39],[-36,-78],[-147,-90],[-55,-78],[-3,-14],[13,-47],[-88,-327],[-20,-43],[-401,701],[-774,106],[186,3550],[108,-52],[1134,-171],[175,3230],[-611,88],[69,2012],[487,-59],[88,2030],[-370,51],[16,355],[979,-64],[979,-9],[1260,-163],[-29,-542],[974,1329],[115,2022],[435,-8],[700,-1302],[43,-23],[-2,-60],[1657,-734],[28,43],[92,35],[81,-23],[30,9],[24,-16],[56,50],[26,63],[26,17],[38,-2],[72,30],[31,-17],[21,28],[131,35],[73,87],[56,117],[27,15],[30,50],[23,9],[27,56],[107,102],[15,23],[33,118],[43,51],[29,66],[14,59],[44,56],[181,54],[48,68],[7,25],[125,106],[31,49],[21,9],[46,-13],[96,29],[61,30],[53,55],[17,29],[18,73],[28,40],[-853,1616],[530,698],[-63,130],[340,448],[-1267,2159],[904,1347],[833,-1525],[231,474],[380,528],[355,5455],[-1241,117],[-11,-193],[-1268,201],[-1183,13],[-7,-202],[-1183,222],[-599,1170],[-539,989],[35,47],[-67,49],[-57,-16],[-566,1053],[-46,57],[-28,80],[-283,515],[-158,261],[-688,1309],[-860,-1165],[-107,-126],[-19,5],[-234,427],[-17,13],[-5,26],[-1354,2488],[-57,120],[995,1297],[-179,323],[435,617],[536,722],[-189,336],[-276,154],[4,62],[21,17],[-16,28],[5,62],[-34,31],[-4,20],[9,27],[12,3],[1,-32],[85,-16],[5,-11],[981,1299],[-62,415],[47,308],[20,42],[-44,643],[-116,175],[-62,666],[-24,64],[-18,126],[9,137],[343,-41],[94,-168],[424,495],[-950,1825],[1323,1802],[64,191],[-201,327],[-365,671],[127,2687],[763,-93],[-5,109],[-28,124],[8,37],[1,138],[11,20],[-33,64],[18,34],[-53,192],[3,292],[30,69],[15,81],[155,531],[1383,-104],[198,2699],[594,-84],[-27,-500],[1273,-179],[12,219],[2453,-338],[143,1634],[24,1207],[-37,28],[2,57],[36,-6],[22,885],[728,-34],[546,-106],[-30,-629],[855,-150],[-23,-403],[1264,-109],[35,639],[1284,-172],[-41,-793],[534,730],[-196,375],[968,1317],[372,-725],[641,875],[85,-165],[360,525],[29,-23],[40,53],[5,71],[1438,1934],[386,-60],[1,25],[979,-150],[-245,-4009],[231,-32],[3,-26],[719,-118],[13,23],[1588,-253],[-146,-2161],[129,-23],[35,9],[18,-18],[1021,-198],[2,41],[1174,-123],[39,-29],[879,-114],[-46,-890],[148,-51],[279,-8],[154,-40],[-2,-62],[580,-97],[19,73],[15,-5],[-4,-75],[-16,1],[-45,-1048],[662,-109],[53,-487],[-13,-211],[1186,-192],[-27,-506],[-88,-207],[-40,-605],[829,-112],[-10,-284],[1091,-136],[636,-115],[50,23],[129,-133],[100,1618],[351,-50],[37,733],[1132,-190],[24,394],[11,45],[-8,1],[79,1342],[1003,-170],[17,447],[-82,149],[8,115],[620,-104],[-2,-24],[265,-46],[-24,41],[9,45],[-11,81],[24,17],[6,64],[48,119],[-1,84],[-92,279],[33,426],[-165,226],[17,262],[703,-121],[62,-482],[1246,-244],[132,2132],[750,-135],[29,602],[1160,-137],[-37,-707],[-84,3],[-139,-1085],[661,-268],[-163,-825],[-92,14],[-86,-558],[391,-157],[-81,-152],[-777,191],[-80,-1557],[1215,-146],[-4,-262],[886,-192],[-2,-62],[1200,-270],[38,-10]],[[42698,66698],[243,-154],[64,-100],[-76,-862],[49,-566],[-147,-1538],[556,-143],[-104,-1348],[38,-17],[1289,-217],[-50,-635],[13,2],[11,25],[55,52],[-61,-940],[-93,16],[-59,-1371],[-116,12],[-11,-127],[650,-124],[26,109],[498,-104],[12,-23],[186,-31],[76,1200],[242,-596],[161,-162],[561,-93],[0,-41],[29,-34],[13,-57],[-25,-60],[1,-18],[18,-9],[20,34],[16,2],[16,-78],[30,-58],[14,-56],[116,-157],[-44,-55],[-121,-65],[-37,-29],[-13,-26],[11,-140],[23,-44],[11,-63],[75,-129],[13,-60],[-1,-46],[-33,-111],[-56,-135],[-2,-142],[-58,-138],[-99,-63],[-51,8],[0,-12],[46,-8],[-24,-79],[-3,-72],[15,-107],[15,-17],[78,-185],[36,-93],[-1,-34],[25,-22],[16,-126],[13,-28],[19,-195],[67,-215],[46,-58],[17,-41],[24,-7],[34,-41],[34,-7],[77,21],[790,-589],[610,-373],[-82,-1245],[230,-36],[-8,-54],[5,-48],[16,-42],[0,-144],[28,-35],[381,204],[20,-174],[83,-120],[181,42],[18,-92],[390,209],[58,79],[90,34],[12,-47],[2,-61],[-12,-145],[62,-165],[-10,-93],[76,-160],[-32,-426],[-27,-555],[-88,-1114],[291,-40],[819,-229],[-33,-375],[550,-224],[43,1],[23,-37],[52,-7],[-6,-74],[31,-112],[-13,-129],[6,-30],[-20,-290],[-28,-258],[0,-64],[75,-13],[-28,-437],[490,-275],[255,-208],[1,-1]],[[52412,47915],[43,-95],[22,54],[5,61],[80,-107],[2,-72],[46,-84],[13,-121],[4,-176],[-53,-150],[75,-151],[-95,-172],[-68,-30],[-47,-54],[-20,-10],[-42,14],[-33,-46],[-115,-83],[-24,0],[-61,33],[-15,-7],[-7,-12],[14,-61],[-14,-72],[6,-92],[-11,-28],[-49,-47],[-2,-33],[64,-172],[-4,-72],[-15,-28],[-107,-104],[-41,-66],[-12,-42],[4,-47],[37,-115],[3,-32],[-11,-30],[21,-79],[64,-73],[3,-40],[-26,-50],[-10,-59],[-33,-69],[4,-6],[-24,-27],[22,-50],[18,-105],[-5,-35],[35,-105],[-6,-28],[-30,0],[-11,-27],[-43,-27],[-20,-36],[23,-96],[-7,-67],[-21,-55],[-2,-40],[13,-13],[8,-64],[-28,-49],[-5,-79],[33,-97],[24,-31],[1,-93],[-14,-18],[-2,-83],[-28,-61],[40,-130],[7,-64],[-15,-83],[6,-106],[92,-67],[19,-42],[41,-38],[37,-2],[49,-47],[-16,-50],[20,-95],[46,-95],[17,-82],[-53,-115],[-2,-101],[-21,-40],[-6,-40],[20,-56],[-4,-36],[15,-11],[17,-75],[23,-41],[2,-60],[-16,-33],[22,-48],[10,-57],[-13,-28],[-11,-166],[-17,-69],[23,-144],[37,-88],[1,-70],[-19,-70],[-13,-314],[-85,-220],[-46,-522],[-157,-157],[-128,-79],[-32,-497],[17,-666],[-141,-93],[-34,-7],[-40,6],[-60,91],[-58,5],[-67,-82],[-47,-8],[-43,-33],[-25,22],[-67,-6],[-165,-154],[-67,-137],[-20,8],[-39,-55],[-67,-9],[-26,29],[-92,-33],[-104,-99],[-1,-89],[-69,-75],[-1,-41],[-229,-221],[-85,-166],[-111,-62],[-90,29],[-55,71],[-4,-92],[-32,-74],[-1,-65],[-22,-71],[2,-79],[-7,-24],[43,-60],[-7,-67],[6,-28],[-22,-25],[-4,-76],[-12,-26],[-31,-18],[-43,-64],[-3,-17],[15,-30],[1,-28],[22,-11],[0,-19],[-26,-43],[-9,-46],[-18,-8],[-8,-97],[-28,-119],[8,-16],[-25,-18],[-19,-39],[7,-12],[-18,-63],[12,-21],[-21,-47],[21,-38],[-2,-67],[30,-12],[51,18],[7,-5],[3,-45],[-40,-15],[-1,-39],[11,-35],[-10,-76],[-33,-22],[3,-40],[-40,15],[-28,-25],[-10,12],[-29,-13],[-21,-69],[7,-80],[-7,-42],[-37,-59],[38,-114],[-24,-74],[-55,20],[-20,-19],[-75,-25],[-15,-22],[-83,-21],[-33,-39],[-13,-34],[30,-100],[-16,-26],[3,-22],[-31,-15],[-3,-64],[-10,-35],[5,-34],[-45,-28],[-12,-50],[5,-58],[-56,-4],[-11,-36],[-28,-9],[-41,30],[-36,2],[-27,-31],[-29,3],[-21,-32],[-10,16],[-30,9],[-8,-16],[-7,12],[-50,-16],[-48,-29],[-12,-22],[4,-70],[-7,-23],[15,-67],[25,-4],[-18,-52],[-52,-49],[-47,12],[-9,-27],[6,-69],[-10,-39],[-27,-25],[-10,-58],[-33,-94],[-10,46],[-11,12],[-4,52],[-103,68],[-42,1],[-19,-40],[-30,35],[-57,22],[-98,-45],[-140,-161],[-67,300],[5,169],[-71,101],[-92,-6],[-32,-42],[-32,23],[-21,62],[-12,8],[-23,-12],[-8,-45],[-25,-26],[-1,-90],[-18,-21],[-18,5],[-15,-20],[-49,-16],[-47,-149],[-29,-29],[-31,-10],[-30,57],[-82,12],[-23,-28],[-25,1],[21,-55],[-67,-1],[-23,27],[-24,-52],[-27,-14],[-24,-52],[-44,-42],[-24,23],[-44,-34],[-63,-22],[-37,33],[-32,-5],[-15,34],[-33,16],[-34,-12],[-13,16],[-22,-22],[12,-53],[22,-15],[5,-29],[37,-48],[-1,-32],[31,-11],[9,-18],[18,-59],[-5,-28],[15,-28],[-9,-16],[2,-42],[-12,-19],[13,-27],[28,-2],[20,-30],[3,-98],[21,-15],[19,6],[54,-45],[2,-61],[25,40],[80,5],[-10,-126],[21,-159],[16,-39],[-4,-64],[12,-33],[3,-73],[14,-33],[32,-23],[26,16],[39,-49],[17,-88],[32,-83],[17,-76],[-15,-19],[-4,-54],[19,-27],[9,-53],[31,-64],[40,-75],[24,-20],[0,-39],[22,-64],[-20,-25],[0,-38],[32,-67],[-12,-69],[27,3],[9,-31],[26,-5],[4,-30],[58,-81],[9,-84],[-6,-27],[-30,-5],[-23,-57],[-26,-10],[-26,-65],[48,-51],[15,-35],[59,-43],[11,-26],[-8,-53],[56,-80],[78,-57],[113,-44],[63,-99],[47,-27],[81,4],[15,-20],[7,-64],[-25,-124],[27,-105],[80,-28],[10,-75],[49,-77],[81,-13],[48,21],[21,82],[24,286],[61,137],[101,79],[67,-255],[41,34],[43,146],[119,23],[65,126],[5,41],[47,49],[-6,60],[37,12],[6,55],[19,33],[10,47],[0,53],[30,36],[43,20],[26,-35],[-7,-69],[59,-60],[21,-50],[19,-7],[18,14],[2,15],[-8,6],[6,30],[25,10],[-17,-82],[10,-65],[-12,-13],[0,-49],[29,-37],[18,-7],[9,-38],[7,-82],[23,-74],[0,-59],[-15,-54],[9,-47],[27,-50],[15,10],[9,-12],[-14,-32],[8,-22],[23,6],[28,-18],[14,25],[47,-101],[-11,-47],[23,-28],[32,-13],[52,-126],[60,-70],[12,-36],[1,-83],[40,-160],[17,-128],[-6,-20],[-66,-12],[-30,-53],[-69,-74],[-5,-105],[-34,-50],[-20,-73],[-7,-66],[-30,-84],[-12,-17],[-51,-13],[-19,-106],[-34,-73],[-71,-35],[-22,-24],[-17,-55],[-9,-98],[40,-53],[20,0],[21,-21],[27,-130],[86,-233],[1500,-124],[-17,-447],[394,-35],[-18,-469],[1273,-179]],[[42698,66698],[-38,11],[69,1119],[219,-44],[41,403],[1032,-141],[6,92],[82,1387],[-813,89],[129,1120],[-459,62],[127,2911],[66,1223],[310,-57],[145,194],[1564,-250],[-46,-721],[449,-1288],[392,-66],[297,-172],[27,421],[9,39],[35,809],[-22,28],[18,274],[1310,-216],[-74,-182],[31,-16],[11,-104],[805,-435],[628,-101],[17,8],[20,90],[-18,44],[15,138],[-20,68],[8,53],[-20,131],[36,212],[15,27],[-3,37],[-28,73],[2,84],[95,173],[17,97],[2,96],[36,38],[38,126],[39,49],[21,9],[6,33],[25,32],[-19,74],[9,21],[-4,24],[-18,53],[2,46],[20,27],[7,36],[18,17],[14,65],[43,97],[136,221],[-9,24],[31,27],[41,69],[11,-2],[23,71],[3,55],[23,76],[-17,176],[-38,67],[-52,21],[-20,138],[-38,31],[-47,126],[-24,32],[-29,108],[-3,47],[-23,94],[2,146],[53,128],[-30,51],[34,104],[92,59],[45,44],[37,60],[6,58],[31,73],[13,84],[55,129],[27,4],[27,37],[45,23],[32,76],[99,149],[79,35],[22,22],[32,79],[22,221],[-18,115],[-33,108],[7,145],[-28,73],[-58,101],[-19,11],[-78,-7],[-44,12],[-44,86],[-92,74],[-64,36],[-83,4],[-45,29],[-42,57],[-72,144],[-85,223],[0,42],[16,65],[114,140],[3,42],[-77,149],[-8,119],[-74,182],[-11,279],[-97,205],[-3,25],[27,89],[7,84],[14,54],[-4,48],[10,49],[-15,86],[6,24],[42,47],[16,55],[-5,45],[16,153],[-26,97],[4,134],[28,83],[42,61],[94,177],[19,72],[3,72],[-35,64],[-18,60],[-8,63],[3,84],[-76,315],[-14,174],[-69,220],[-24,104],[6,99],[71,136],[3,44],[-10,55],[30,126],[-79,218],[1,34],[39,107],[14,176],[-36,147],[-7,110],[-37,132],[-4,108],[31,109],[43,97],[35,-6],[30,-57],[39,-10],[26,21],[89,131],[97,6],[69,50],[38,122],[19,226],[27,57],[56,31],[113,27],[132,138],[24,42],[9,54],[0,98],[20,109],[6,96],[-8,168],[-30,188],[4,59],[28,116],[88,33],[38,34],[30,56],[12,65],[-6,81],[-62,146],[-38,182],[0,128],[27,54],[244,167],[65,19],[43,-26],[8,-19],[10,-100],[30,-83],[81,-91],[76,-23],[19,8],[44,57],[34,7],[33,-18],[41,-103],[47,-199],[45,-54],[26,-6],[34,15],[118,184],[36,29],[48,13],[99,-26],[71,-46],[124,-149],[59,1],[43,73],[25,156],[31,102],[37,80],[39,48],[2,132],[11,60],[35,34],[16,-24],[40,30],[22,37],[19,74],[106,92],[40,143],[19,20],[21,0],[23,-17],[44,-68],[53,-36],[54,-5],[181,340],[23,26],[60,10],[33,36],[10,147],[26,106],[13,163],[29,94],[86,135],[14,58],[-1,91],[-73,237],[-9,52],[0,50],[31,224],[27,126],[21,45],[64,81],[90,67],[122,60],[47,61],[32,158],[21,228],[-3,42],[-33,65],[-104,114],[-55,88],[-48,123],[-37,133],[-52,312],[-51,210],[-1,145],[70,300],[21,214],[-13,677],[-13,139],[-40,223],[-16,180],[-43,269],[-3,11],[-5,23],[-10,44],[-135,408],[-10,39],[-1,37],[3,72],[65,351],[4,14],[72,212],[16,90],[-6,59],[-69,258],[-95,244],[44,33],[59,80],[124,77],[5,-2],[10,-19],[-36,-93],[-1,-49],[3,-14],[4,-22],[3,-12],[17,-41],[89,-95],[52,-171],[63,-49],[76,-26],[80,-52],[83,36],[33,-6],[136,-105],[76,-35],[19,-36],[3,-70],[-44,-141],[646,-121],[102,1579],[-8,1],[41,687],[7,15],[15,1],[7,97],[-18,4],[47,721],[147,-28],[9,214],[-32,7],[2,27],[15,19],[-6,47],[52,46],[12,32],[13,-1],[26,55],[40,24],[28,54],[9,-4],[16,22],[0,-20],[16,0],[6,26],[11,5],[-2,89],[-11,11],[8,11],[-14,9],[-3,26],[10,37],[17,-2],[-2,35],[-15,-5],[6,27],[18,11],[15,32],[36,-14],[4,28],[16,12],[35,-9],[15,20],[63,10],[16,14],[14,-7],[4,17],[8,-14],[77,87],[203,47],[489,-160],[63,253],[371,1304],[18229,10],[57,-76],[196,-131],[124,0],[23,-38],[188,-200],[263,-266],[92,-88],[50,-13],[136,-219],[64,-40],[86,-16],[154,-167],[57,7],[49,-154],[2,-116],[123,-279],[57,2],[42,-83],[26,-163],[39,-73],[45,-60],[55,-40],[92,9],[30,-63],[58,-76],[105,-63],[67,-20],[16,-69],[48,-65],[12,-127],[108,-169],[26,0],[23,-135],[77,-83],[148,-53],[50,-96],[22,1],[99,-194],[107,-68],[59,-153],[5,-93],[77,-382],[29,-405],[331,-616],[586,-751],[337,-599],[320,-1196],[222,-638],[491,-949],[265,-583],[312,-728],[288,-545],[169,-377],[239,-440],[298,-323],[306,-286],[277,-209],[576,-637],[1234,-870],[762,-772],[610,-776],[309,-468],[332,-270],[402,-276],[285,-285],[558,-808],[307,-214],[375,-304],[363,-199],[313,-315],[312,-590],[185,-397],[153,-504],[329,-355],[435,-131],[401,-40],[371,70],[421,287],[198,379],[-35,467],[-179,548],[-167,448],[-173,549],[-82,410],[-9,743],[26,561],[99,357],[153,103],[129,41],[213,-349],[243,-344],[285,-443],[418,-351],[320,-143],[264,-141],[727,-304],[406,-61],[781,-145],[370,-99],[341,-241],[109,-289],[86,-308],[103,-450],[13,-462],[-59,-503],[-59,-379],[-75,-269],[-315,-596],[-31,-101],[-49,-21],[-26,-50],[-94,-322],[-17,-289],[19,-446],[-12,-65],[14,-298],[-22,-353],[-5,-269],[-37,-246],[-34,-346],[-40,-101],[-56,-46],[22,-223],[-10,-180],[5,-211],[-54,-174],[-48,-105],[45,-1518],[59,-282],[66,-248],[81,-181],[144,-481],[67,-149],[56,-40],[146,-395],[49,-90],[32,-123],[35,-68],[23,-89],[11,-187],[-11,-95],[26,-186],[35,-124],[106,-491]],[[95620,69524],[-6015,-65],[-6981,-16],[-6434,42],[-3624,48],[16,-6702],[-5,-148],[-100,-362],[-265,-435],[-221,-226],[-207,-330],[-66,-72],[-74,7],[-60,-21],[-37,-79],[-30,-244],[-26,-53],[-69,-80],[-100,-220],[55,-103],[17,-112],[-8,-123],[12,-94],[22,-74],[-10,-22],[-18,-5],[-56,72],[-18,-8],[-2,-116],[-16,-42],[8,-58],[-108,4],[-20,-19],[-16,71],[-8,3],[-66,-42],[-57,40],[-73,-17],[-54,39],[-74,-21],[-30,-27],[-42,-90],[-56,-8],[-21,-39],[-48,-51],[-42,-76],[-102,-52],[-25,-59],[-14,-9],[-24,25],[-15,51],[-26,12],[-100,-25],[-30,-45],[-96,112],[-34,134],[-50,74],[-20,24],[-40,6],[-38,-485],[-50,48],[-9,-30],[-35,-7],[-6,-36],[-68,-127],[-24,-24],[-35,20],[-47,-62],[-36,31],[-11,-16],[-12,11],[-59,117],[-16,3],[-13,69],[6,51],[-11,16],[-9,72],[-37,14],[-3,50],[-16,26],[-28,17],[-40,-26],[-3,-108],[-29,-97],[29,-63],[-30,-85],[-26,-22],[-22,-103],[-11,-114],[69,-198],[-2,-32],[37,-91],[5,-44],[43,-2],[61,63],[13,-38],[-3,-64],[13,-17],[16,-71],[96,-18],[74,-50],[16,-28],[2,-170],[-8,-67],[30,-141],[109,-162],[-24,-90],[-42,-254],[-36,-40],[-56,-16],[-15,-30],[1,-67],[26,-224],[-2,-189],[14,-23],[35,-20],[-20,-60],[-5,-62],[11,-41],[1,-93],[-99,-259],[-72,-150],[-118,3],[-243,-280],[-90,21],[-95,-43],[-78,21],[-24,34],[-18,-8],[-10,-27],[-7,-96],[7,-60],[24,-67],[-9,-67],[-67,-83],[-60,-5],[-41,-72],[-27,-106],[-15,-110],[-146,-223],[-13,-58],[33,-29],[5,-19],[-12,-88],[-59,-81],[-27,0],[-175,-167],[-77,13],[-26,-15],[-19,-35],[-25,-89],[-10,-104],[-37,-182],[-120,-298],[-68,-256],[-20,-49],[-36,-47],[-6,-7],[-12,-3],[-10,-2],[-2,-1],[-48,42],[-54,7],[-93,-62],[-167,-79],[-144,-32],[-36,-30],[-36,2],[-26,19],[-22,67],[-42,7],[-84,-38],[-71,-7],[-28,-23],[-75,-9],[-56,25],[-208,28],[-50,-66],[-71,-210],[-24,-40],[-181,-72],[-123,-66],[-80,-22],[-26,-25],[-32,-61],[-11,-61],[15,-78],[30,-28],[9,-45],[-16,-28],[-24,-125],[19,-36],[35,-22],[56,24],[31,-19],[6,-45],[-28,-158],[37,-55],[103,-32],[7,-12],[8,-96],[-7,-133],[-66,-104],[-40,-145],[-68,-149],[-66,35],[-23,-26],[-38,-10],[-19,-53],[34,-48],[-7,-37],[-35,31],[-30,4],[-34,-21],[-37,-61],[-14,-73],[-31,-61],[6,-43],[36,-16],[6,-28],[-23,-86],[-23,-155],[-32,-27],[-73,2],[-14,-12],[-20,24],[-34,-38],[-38,-79],[47,-58],[6,-33],[-8,-42],[-92,-59],[-74,21],[-147,105],[-37,65],[-17,59],[-20,-16],[-12,-46],[-26,-11],[-2,-24],[13,-37],[-6,-50],[-58,8],[-79,-58],[-29,-162],[6,-62],[-20,-30],[-36,-14],[-11,-51],[0,-10],[84,-292],[69,-72],[17,-10],[5,-13],[8,-22],[5,-13],[1,-15],[7,-111],[-11,-328],[-30,-76],[-110,-147],[-27,-37],[-30,-29],[-30,13],[-26,-11],[-75,-97],[-15,-6],[-78,135],[-62,41],[-66,66],[-27,59],[6,74],[-99,-9],[-33,35],[-19,-41],[-7,-223],[-24,-73],[-13,-24],[-5,-7],[-8,-16],[-25,-16],[-13,-2],[-53,-10],[-31,-6],[-43,5],[-22,23],[-27,188],[-64,243],[-53,-10],[-67,-51],[-35,14],[-25,-18],[-50,-92],[-21,-91],[11,-118],[48,-115],[4,-52],[-141,-216],[-45,-22],[-28,8],[-33,-23],[-19,-80],[-6,-117],[-15,-16],[-24,12],[-9,-25],[21,-50],[67,-45],[60,-29],[110,-19],[9,-35],[2,-5],[-4,-11],[-2,-6],[-5,-16],[-29,-50],[-180,-125],[-193,-370],[-91,-18],[-50,25],[-11,-9],[-11,-71],[15,-238],[-12,-154],[-32,-34],[-34,-111],[6,-38],[-8,-29],[-65,-160],[-5,-12],[-14,-8],[-70,-45],[-35,18],[-48,-43],[-27,-3],[-42,91],[-11,72],[-37,7],[-29,-25],[-11,-26],[-9,-27],[-8,-110],[23,-11],[2,-16],[-2,-6],[-7,-15],[-15,-32],[-23,-20],[-11,-9],[-5,-5],[-81,-6],[-70,-38],[-34,49],[-29,-31],[-40,-17],[-33,10],[-3,3],[-48,35],[-11,30],[-3,19],[-19,152],[10,145],[-10,143],[9,29],[-11,134],[402,504],[-180,858],[160,382],[-160,449],[-146,94],[-8,15],[-12,-2],[-183,117],[-31,4],[75,572],[561,762],[-138,165],[472,1010],[-360,435],[-135,22],[204,615],[94,949],[-117,32],[15,183],[-11,30],[7,27],[-6,16],[-23,10],[-2,18],[16,32],[-28,28],[-3,14],[10,28],[-41,57],[-31,-5],[-85,-94],[-43,4],[-21,13],[-6,29],[-2,88],[-7,29],[-17,18],[8,37],[-7,37],[-48,-35],[-13,5],[17,68],[-18,48],[58,57],[23,70],[-46,155],[-53,100],[7,51],[0,487],[6,99],[-668,137],[-408,-457],[-652,-683],[-214,557],[-76,23],[-12,45],[26,70],[-16,18],[-63,173],[-10,97],[-33,44],[14,26],[25,-19],[21,5],[17,89],[45,19],[54,171],[19,4],[78,109],[24,63],[42,67],[20,-3],[20,56],[30,6],[33,71],[15,129],[31,38],[17,57],[63,45],[23,-21],[38,-2],[25,21],[21,85],[39,46],[11,46],[20,4],[23,65],[-7,16],[26,306],[-28,24],[-217,555],[-47,8],[-39,-24],[-16,25],[-52,-5],[-5,-22],[-45,-17],[-17,-26],[-58,25],[-10,-26],[-64,12],[-8,-42],[-21,-11],[-113,36],[-29,-45],[-23,20],[-36,-22],[-15,-42],[-35,-34],[-81,-8],[-40,21],[-44,-47],[-31,25],[-29,-442],[-21,-17],[-16,-61],[-142,-64],[-132,12],[-76,-75],[-17,-36],[-61,-20],[-62,104],[-160,52],[-20,38],[-26,162],[-85,-55],[-155,35],[-34,-8],[-145,146],[-35,71],[-130,140],[-51,23],[-18,50],[12,44],[-22,208],[11,65],[-7,42],[-103,171],[-198,66],[-2,23],[-16,19],[6,38],[-11,48],[-25,42],[-1,42],[-15,59],[9,133],[-24,128],[-35,-97],[-32,-26],[-30,-47],[-18,-57],[-27,-47],[-14,-50],[-3,-57],[22,-51],[-3,-60],[-14,-19],[-8,-54],[-42,-63],[-4,-41],[-14,-25],[-74,36],[-40,-8],[-41,-48],[-28,-3],[-10,-22],[-18,23],[-27,-10],[-24,-28],[-18,1],[-12,-29],[-19,7],[-26,-32],[-42,-12],[-49,-65],[-39,-7],[-55,19],[-55,-20],[-5,-12],[7,-16],[-19,-29],[9,-23],[-1,-33],[24,-34],[0,-46],[-11,-6],[-11,-79],[-26,-51],[-10,-92],[-41,-41],[-57,-133],[-20,1],[-30,-28],[-65,-2],[-19,-25],[-14,12],[-22,-12],[-83,-116],[-21,-6],[-41,-85],[-47,-6],[-34,-38],[-3,-17],[-20,18],[-64,7],[-70,-21],[-38,25],[-214,-243],[-48,-95],[-13,-96],[-19,-68],[-16,-4],[-51,-81],[-16,-2],[-30,-121],[-30,-18],[-17,-50],[-47,-77],[0,-24],[-39,-66],[-21,-100],[-40,-15],[-13,-29],[-55,2],[-146,-183],[-37,-26],[-37,-71],[-56,-59],[5,-11],[-6,-29],[11,-24],[-16,-2],[4,-11],[-14,-45],[-1,-66],[11,-27],[-8,-62],[-12,-13],[4,-27],[-16,-15],[9,-20],[-35,-24],[-1,-20],[-45,28],[-19,-28],[-10,37],[-33,31],[5,-38],[-29,25],[-16,-30],[-40,7],[-47,-16],[-8,11],[-14,-35],[-9,-81],[-42,-11],[-40,-39],[-19,23],[-6,-30],[-56,-15],[-6,60],[-41,-7],[-28,56],[-29,-15],[-11,8],[-10,65],[-15,15],[11,30],[-19,6],[-11,-27],[-2,65],[-15,39],[7,44],[18,13],[-43,8],[3,34],[-29,23],[-91,19],[46,-74],[-7,-97],[-59,-26],[-18,-200],[-71,17],[-44,-564],[-18,24],[-27,9],[-67,-15],[-39,-69],[-33,-90],[-30,-43],[1,-46],[43,-109],[-12,-47],[-37,-8],[-11,-17],[10,-78],[-13,-149],[-390,324],[-56,-209],[182,-382],[-27,-23],[-41,28],[-24,-14],[-67,-130],[-87,-63],[-43,-50],[-2,-23],[22,-71],[-9,-35],[-17,-23],[25,-44],[-9,-116],[20,-130],[-70,-178],[-17,-19],[-67,24],[-31,-15],[-32,-86],[-104,-122],[-37,-98],[-8,-75],[-51,-31],[-54,-98],[-49,3],[-84,-81],[-53,-125],[-35,-44],[-48,-5],[0,-33],[-16,-24],[-11,-65],[-17,-17],[-45,-111],[-40,-44],[-21,-1],[-25,-28],[-22,-91],[-17,-22],[-43,-21],[-67,-139],[-21,53],[-91,55],[-53,-44],[-62,-23],[-18,-34],[-65,-45],[-28,6],[-106,-38],[-93,29],[-60,-26],[-75,-161],[-71,-45],[-10,-110],[10,-368],[22,-66],[57,-108],[-4,-56],[14,-15],[2,-82],[13,-34],[68,-44],[29,-31],[13,-40],[-29,-64],[-1,-64],[-30,-146],[18,-80],[44,-59],[56,-156],[2,-30],[-60,-52],[-36,-63],[24,-86],[4,-222],[-7,-60],[-22,-73],[-28,-38],[-40,-19],[-3,-42],[-56,-186],[-14,-21],[9,-56],[-10,-78],[1,-89],[-14,-58],[18,-102],[-33,-152],[-4,-172],[-11,-64],[-21,-45],[-45,-54],[-14,-106],[12,-51],[26,-55]],[[95620,69524],[463,-1372],[12,-108],[-13,-94],[47,-486],[80,-569],[14,-349],[69,-282],[34,-47],[14,-75],[-19,-464],[16,-278],[-30,-157],[35,-453],[-8,-101],[-35,-98],[-33,-147],[-64,-141],[-45,-81],[-38,-44],[-11,-362],[7,-78],[-25,-134],[-11,-223],[-84,-178],[-18,-87],[1497,-11081]],[[65832,20302],[-5,-49],[19,-8],[-7,-13],[-34,-20],[-56,26],[-70,-60],[-95,3],[-16,-56],[-37,-14],[-188,36],[-32,121],[-73,-49],[-241,66],[-71,86],[-25,-7],[-51,31],[-22,84],[11,35],[-37,44],[-38,-2],[-28,-29],[-2,-42],[-21,7],[-55,87],[-59,45],[-35,-2],[-27,16],[-9,44],[-74,103],[-14,66],[-16,29],[-140,57],[-56,48],[-90,124],[-5,71],[16,35],[-19,39],[-46,22],[-1,25],[62,613],[52,67],[2,56],[43,84],[68,47],[-3,77],[13,25],[-7,27],[30,6],[8,22],[53,29],[-111,429],[-64,19],[-16,-17],[16,-73],[-22,-25],[-52,-10],[-28,21],[-25,-4],[-43,69],[-61,44],[-47,-81],[-35,-21],[-32,8],[-46,47],[-38,7],[0,-84],[-27,-23],[-21,-166],[-32,-64],[-28,-3],[-9,-54],[-16,-14],[-45,52],[-66,145],[-22,25],[-37,118],[-49,54],[-14,36],[-94,-8],[-101,47],[-19,26],[-71,-3],[-11,37],[-27,30],[-10,71],[-33,49],[-85,86],[-43,6],[-53,71],[-127,-56],[-39,25],[-37,69],[-71,34],[-75,-2],[-70,19],[-45,-40],[-60,18],[-120,-23],[-53,47],[-93,-24],[-162,-162],[-156,72],[-32,36],[-28,-5],[-21,-31],[-24,-104],[-22,-16],[-48,22],[-3,57],[-20,19],[-43,124],[-53,14],[-29,-23],[-26,6],[-19,-15],[-40,74],[-1,59],[-78,58],[-66,-47],[-24,48],[-46,25],[-16,86],[-17,40],[-86,32],[-15,36],[-39,20],[-31,53],[-111,-35],[-54,11],[7,116],[-48,137],[-38,49],[6,22],[-28,95],[11,54],[-19,40],[21,126],[11,17],[-38,47],[-73,34],[-2,22],[-45,55],[-10,35],[16,25],[-67,49],[3,20],[-62,112],[-44,29],[-30,83],[-79,100],[-13,40],[-33,44],[-4,27],[7,27],[-16,135],[-45,27],[-29,54],[-95,115],[-27,87],[-33,12],[-57,-35],[-87,8],[-53,25],[-47,-68],[-34,-11],[-42,18],[-38,-3],[-64,227],[-3,40],[-20,47],[-39,1],[-11,19],[-13,65],[-62,167],[-52,-23],[-36,18],[-12,29],[-4,88],[-45,70],[19,84],[-5,24],[-28,19],[-36,-11],[-25,19],[-10,40],[-84,51],[-37,63],[-19,91],[-28,24],[3,59],[-38,118],[-2,39],[-9,15],[5,27],[-20,46],[1,86],[29,34],[0,17],[-14,21],[-28,141],[33,122],[-18,43],[-3,51],[-97,120],[-11,39],[5,73],[-23,37],[-23,84],[1,25],[-19,23],[-85,38],[-62,-33],[-53,17],[-25,45],[-58,42],[-36,80],[-109,22],[-27,-35],[-28,-11],[-63,133],[-10,2],[-42,100],[-3,35],[-26,34],[-86,-15],[-67,12],[-50,-26],[-5,5],[3,-7],[-9,13],[-25,52],[7,44],[-28,11],[-16,28],[6,36],[-35,83],[-31,9],[-101,154],[-49,31],[0,66],[-15,47],[25,139],[21,61],[-26,46],[-5,32],[-22,0],[-15,39],[-24,22],[-50,10],[-11,76],[-50,68],[-51,111],[-71,73],[-8,41],[-25,-10],[-47,35],[-34,-8],[-25,33],[-17,3],[-9,29],[-8,-3],[-36,52],[-9,29],[12,63],[-32,46],[0,25],[-29,55],[-85,111],[-30,-6],[-14,12],[-16,47],[8,82],[-29,117],[-2,11],[-2,0],[-50,3],[-45,-29],[-51,46],[-16,5],[-14,-21],[-15,2],[-19,12],[-6,25],[-40,19],[-38,-36],[-24,-5],[-54,-73],[-22,0],[-18,20],[-12,60],[-56,59],[-28,13],[-64,-37],[-31,6],[-15,21],[-85,-22],[-40,-37],[-47,-110],[-46,-47],[-2,-47],[-18,-35],[-45,-42],[-44,2],[-9,-13],[-14,-88],[-68,-9],[-39,-29],[-65,-147],[-56,51],[-24,7],[-35,-20],[-116,-1],[-39,-28],[-17,-52],[7,-129],[12,-26],[21,-8],[4,-21],[-24,-106],[1,-28],[-41,14],[-23,-34],[-34,2],[-31,-36],[-108,-15],[-43,-38],[-43,-66],[-115,-80],[-20,-3],[-16,-66],[-32,-38],[-8,-82],[-32,-58],[-144,25],[-10,16],[-5,105],[10,29],[-12,59],[-35,-4],[-36,-24],[-41,48],[-15,2],[-18,-75],[-12,-15],[-48,4],[-69,-72],[-42,-17],[-47,51],[-36,81],[-16,-78],[24,-96],[-2,-23],[-36,-48],[-25,-88],[-39,-31],[-53,-335],[-11,-34],[-39,-46],[-57,-17],[-452,-44],[-187,70],[-24,-32],[-25,68],[-73,41],[-59,-5],[-30,-78],[-30,-9],[-21,4],[-18,27],[-90,-4],[-66,57],[-13,-10],[-34,15],[-19,-21],[-61,-7],[-12,31],[-16,4],[-29,-29],[9,-135],[-18,-35],[-70,14],[-25,-15],[-11,-66],[-21,-29],[-30,-5],[-10,-50]]],"transform":{"scale":[0.00012547805478054793,0.00007229332293322933],"translate":[140.67788,-26.92687]},"objects":{"qld_central_ddmg_boundaries_gda2020_simp20":{"type":"GeometryCollection","geometries":[{"arcs":[[0,1]],"type":"Polygon","properties":{"District Name":"Gladstone","DDMG Name":"Gladstone","Police Region Name":"Central Region","Police Region Code":"CR","Police Region Short Name":"Central"}},{"arcs":[[2,3,4]],"type":"Polygon","properties":{"District Name":"Longreach","DDMG Name":"Longreach","Police Region Name":"Central Region","Police Region Code":"CR","Police Region Short Name":"Central"}},{"arcs":[[-4,5,6]],"type":"Polygon","properties":{"District Name":"Mackay","DDMG Name":"Mackay","Police Region Name":"Central Region","Police Region Code":"CR","Police Region Short Name":"Central"}},{"arcs":[[-5,-7,7,-1,8]],"type":"Polygon","properties":{"District Name":"Rockhampton","DDMG Name":"Rockhampton","Police Region Name":"Central Region","Police Region Code":"CR","Police Region Short Name":"Central"}}]}}}