{"type":"Topology","arcs":[[[99309,7223],[-200,-43],[-47,15],[-44,96],[-53,33],[-202,36],[-16,83],[-132,-28],[-63,6],[-99,-49],[-77,-8],[-53,78],[-79,41],[11,46],[-18,78],[-109,12],[-48,32],[-103,1],[-200,21],[-9,21],[-124,2],[-34,33],[9,108],[-177,104],[-211,22],[-9,-39],[-104,10],[-30,-123],[-42,-70],[5,-66],[-118,-35],[-60,4],[-57,-29],[-121,14],[-25,-28],[-246,27],[-124,39],[-34,36],[-207,47]],[[96059,7750],[19,20],[-67,68],[-105,42],[-90,-9],[-171,129],[-43,-5],[-41,-74],[-46,-2],[-2,67],[-40,83],[24,105],[-79,147],[23,45],[-17,56],[-125,39],[-79,69],[-2,52],[86,36],[32,119],[-28,43],[-116,36],[-48,58],[-148,18],[0,63],[-28,46],[-59,40],[4,87],[58,23],[-23,60],[-141,112],[28,15]],[[94835,9338],[5,-32],[116,4],[211,-43],[69,-42],[65,11],[76,-28],[227,59],[50,55],[35,-4],[25,69],[139,22],[117,-41],[122,-9],[56,-26],[236,-25],[36,79],[104,10],[10,60],[90,-53],[56,27],[-3,49],[98,48],[85,-4],[30,82],[54,-28],[861,-255],[802,1334]],[[98607,10657],[421,88],[350,49],[71,-23],[12,-40],[-59,-101],[-172,-449],[-68,-265],[-24,-199],[3,-118],[49,-202],[66,-106],[78,-68],[1,-103],[-54,-160],[94,1],[175,-133],[75,-21],[120,4],[87,-29],[115,-3],[-18,-74],[-219,-364],[-243,-560],[-85,-329],[-18,-120],[15,-45],[-70,-64]],[[90419,23304],[-23,-53],[-59,16],[-46,-20],[-112,2],[-56,64],[-44,18],[-69,-14],[-55,-49],[32,-28],[-51,-37],[-22,-67],[-50,-18],[-46,-52],[3,-33],[-42,-54],[160,-30],[-20,-100],[-164,15],[37,-82],[-44,-77],[159,-23],[17,-54],[50,-5],[-22,-122],[-194,22],[12,-122],[-129,-33],[-67,-2],[-56,-55],[-27,-69],[27,-30],[-212,-37],[24,-38],[-63,-75],[-57,-37],[-54,-8],[-38,-44],[-76,0],[-153,90],[-70,13],[-102,108],[-82,25],[-225,17],[-49,-149],[-96,52],[-49,96],[-56,29],[-85,84],[-92,29],[-37,63],[-114,-59],[-58,1],[-50,-45],[49,-38],[-83,-34],[-79,40],[-60,57],[-154,54],[-154,-51],[-107,59],[-56,-13],[-82,24],[-107,132],[115,47],[39,62],[25,153],[-119,88],[-122,31],[28,36],[-27,41],[-95,62],[-33,68],[10,55],[-103,23],[-45,-117],[-70,-52],[-90,37],[-20,-40],[43,-29],[-59,-74],[-56,-21],[-88,-4],[-25,-94],[-57,-9],[-154,37],[-45,-12],[-57,-88],[-149,-7],[7,-71],[-85,6],[-85,-42],[-20,-70],[-59,-6],[-36,51],[-159,19],[-73,-44],[-117,46],[-111,98],[-84,-20],[-50,-31],[-36,45],[90,52],[145,-17],[-74,210],[31,71],[31,173],[-60,19],[-141,-37],[-86,-6],[-95,-39],[-73,15],[-29,46],[6,124],[98,169],[-97,68],[-5,24],[-100,25],[-24,-41],[-123,-54],[-51,22],[-57,100],[-53,46],[-115,16],[-15,26],[-78,25],[-78,74],[16,55],[-22,38],[-95,11],[-82,-25],[-76,13],[-36,-58],[-41,-18],[1,-165],[-88,-244],[-57,-22],[-45,-63],[27,-125],[87,-79],[-75,-15],[-5,-132],[-567,133],[-86,-39],[-75,7],[-70,-18],[-120,33],[-47,-240],[128,-74],[66,-9],[119,-55],[98,29],[45,-33],[51,6],[20,-59],[66,-40],[-172,-135],[-73,-222],[-118,-11],[-219,35],[-43,39],[-196,-24],[-49,-34],[-166,89],[-95,9],[-167,-12],[-126,6],[-63,17],[-83,-23],[-69,51],[-92,-12],[-32,-68],[-163,-11],[-160,-100],[98,-291],[11,-57],[-34,-173],[-41,-48],[-70,-11],[-143,-261],[-3,-119],[-102,-178],[26,-92],[44,-44],[-32,-98],[9,-195],[-7,-76],[61,-117],[-10,-54],[143,-91],[-55,-15],[-87,-92],[35,-59],[-30,-80],[-39,-16],[-131,-1],[-146,-43],[-66,-65],[27,-31],[-101,-11],[-97,22],[32,-156],[-12,-55],[-63,-46],[-19,-74],[-61,-34],[41,-72],[-97,-20],[32,-106],[-71,-112],[-70,8],[-65,-35],[19,-94],[-78,-78],[69,-23],[-145,-103],[58,-36],[-34,-26],[17,-56],[-71,-24],[89,-64],[-44,-79],[-143,-70],[-35,-96]],[[79536,18501],[-69,-36],[-70,-10],[-172,113],[-89,26],[-105,77],[-12,53],[-87,13],[-70,-8],[-100,137],[-48,10],[-54,-72],[-12,-129],[-133,-26],[-8,40],[-95,32],[27,37],[-57,44],[-20,47],[-154,-26],[2,67],[-44,66],[23,30],[115,8],[42,23],[-9,69],[-100,27],[-31,119],[49,62],[-11,42],[-66,36],[83,94],[133,57],[-17,51],[-84,-27],[-118,40],[5,58],[144,87],[26,-6],[132,48],[-24,44],[3,56],[-41,65],[-53,42],[-1297,110],[-100,31],[-42,-21],[-68,10],[-612,51],[-53,40],[35,25],[49,85],[80,100],[-17,62],[-50,1],[-76,42],[-46,79],[-96,16],[-100,111],[-96,35],[-121,22],[-111,-27],[-196,36],[-64,35],[-59,63],[34,55],[-255,22],[-44,52],[-68,25],[6,36],[-102,2],[0,38],[-158,33],[-50,35],[-68,-10],[-100,22],[-13,108],[-43,454],[-19,241],[-101,-2],[-15,40],[-171,-16],[-52,-97],[-61,-8],[-62,-40],[-36,-90],[-4,-100],[-124,-52],[-93,-53],[-30,-155],[-40,-58],[-56,-18],[51,-112],[39,-229],[-119,-125],[-84,19],[-139,-37],[-50,58],[-83,17],[-159,74],[-168,-49],[-17,-73],[-63,-66],[-39,-8],[-46,50],[-110,25],[-68,-28],[-18,-77],[23,-54],[8,-96],[-66,-54],[-173,39],[-102,35],[-71,81],[-18,77],[-143,24],[-58,21],[-5,-58],[57,-78],[-37,-12],[-36,-67],[9,-51],[-44,-55],[-40,8],[-15,-77],[18,-20],[-95,-100],[-52,4],[-63,-61],[-107,-40],[-27,-35],[-89,-4],[-53,16],[-18,69],[-135,49],[24,48],[95,39],[37,51],[-4,128],[-93,96],[52,90],[-6,60],[-136,38],[0,54],[-71,46],[-53,200],[-43,40],[-7,68],[55,10],[-107,123],[32,74],[-158,-10],[-151,48],[-23,40],[-76,22],[-16,49],[-220,53],[-492,-285],[68,4],[36,-79],[-56,-35],[-44,-59],[-154,-39],[-69,-123],[27,-75],[-42,-68],[33,-18],[-17,-49],[-84,-42],[27,-122],[-31,-49],[27,-131],[76,-88],[25,-70],[89,-115],[52,-27],[26,-54],[54,4],[33,-51],[-66,-7],[-24,-50],[28,-102],[35,-9],[76,-73],[-5,-46],[31,-33],[-20,-64],[263,-18],[72,-62],[-33,-21],[-22,-67],[133,-84],[66,-6],[54,-104],[97,-51],[-15,-33],[-138,-28],[-33,-26],[13,-49],[97,-15],[71,-75],[-1,-81],[-28,-61],[-52,-60],[-58,-27],[-14,-66],[62,8],[-36,-150],[-34,-68],[-97,-11],[-123,-45],[-76,2],[-43,-26],[-152,13],[-26,44],[-59,-18],[-194,24],[-119,40],[-37,59],[-72,-24],[-44,32],[-98,20],[-92,88],[-113,21],[-118,62],[-6,52],[-38,17],[50,222],[42,24],[89,96],[78,39],[-90,156],[-111,-39],[-127,47],[-92,-34],[-61,21],[-45,-100],[-69,-49],[-36,19],[-111,112],[-41,25],[-75,-3],[-140,28],[-79,65],[-146,59],[-76,-19],[-88,32],[-174,19],[-182,-17],[-43,18],[-75,-9],[-131,-59],[-184,35],[-44,-52],[-92,80],[-102,-6],[-33,48],[-63,21],[-53,-17],[-56,26],[-27,46],[-69,11],[-70,37],[-133,-9],[6,43],[-87,109],[12,80],[-119,64],[5,21],[-137,76],[-124,97],[-11,69],[-136,71],[-21,31],[-73,-8],[-112,12],[-39,-24],[-91,2],[-70,113],[-32,0],[-69,91],[-82,6],[-33,96],[-112,22],[-90,81],[-62,130],[10,47],[-32,52],[12,66],[-61,36],[-14,60],[-60,66],[-149,-2],[-104,63],[-118,-4],[-140,90],[-137,-9],[-90,109],[-133,68],[-21,47],[36,69],[-66,46],[-55,6],[-15,40],[-79,63],[-141,39],[-64,32],[-40,72],[-67,53],[-61,14],[-24,83],[-82,-10],[-131,32],[-93,-41],[-87,50],[-111,1],[-101,-21],[-91,-87],[-72,-14],[-18,-37],[-98,-21],[-32,-42],[-55,15],[-140,-5],[-46,-29],[33,-59],[-28,-58],[-179,-23],[-162,-67],[-87,-89],[-124,15],[-6,70],[-102,8],[-215,-87],[-80,-61],[-31,-93],[-37,-51],[-61,-12],[-365,-15],[-124,9],[-125,43],[-72,-29],[-128,6],[-53,21],[-149,-7],[8,-48],[-92,-13],[-50,-37],[-22,-51],[-68,-83],[-46,-31],[7,-75],[35,-48],[-79,-36],[-105,-92],[-106,-54],[-108,29],[-95,-54],[-160,-8],[-90,18],[-40,35],[-13,85],[-152,34],[-103,-45],[-58,-76],[-10,-63],[-76,-34],[-65,6],[-68,44],[-73,11],[-39,-34],[222,-363],[-28,-4],[-264,24],[-107,-61],[-154,11],[-29,-160],[28,-24],[-39,-206],[-356,26],[-47,-309],[-256,9],[-123,-65],[-148,-199],[-78,-69],[-3,-23],[-302,-179],[-346,-193],[-29,28],[127,799],[-1105,94],[-70,-25],[-48,-327],[37,-40],[-52,-304],[-59,-10],[-370,29],[25,-25],[59,-128],[-940,82],[25,138],[-120,6],[-375,39],[-492,39],[-99,-579],[64,-5],[-18,-118],[-103,-456],[-57,6],[-67,-417],[-481,25],[-813,68],[14,97],[-2,115],[23,198],[-244,0],[23,-59],[-18,-171],[-29,-157],[213,-353],[-25,-13],[27,-160],[5,-155],[-34,-49],[-119,-49],[-98,9],[-64,24],[-743,77],[-376,35],[-28,89],[49,291],[-456,35],[-23,-147],[-472,-591],[-699,50],[62,390],[3,254],[34,-24],[128,-8],[67,102],[58,425],[16,45],[-562,30],[-95,20],[-42,36],[-105,11],[-114,-25],[-71,118],[-295,111],[-58,6],[70,414],[-1475,128],[-62,20],[-74,-16],[-311,32],[42,96],[5,48],[-81,48],[72,32],[17,60],[-501,37],[-62,-8],[-63,35],[-440,19],[-84,18],[-83,-11],[395,224],[63,19],[-11,58],[44,26],[150,38],[100,613],[70,274],[-230,-121],[-116,-10],[-188,8],[-90,-30],[-89,92],[-65,1],[-79,99],[-100,48],[-11,29],[80,188],[6,49],[-35,51],[49,39],[-415,30],[51,363],[-678,48],[117,743],[-224,17],[22,150],[-215,-68],[-156,-1526],[-936,-553],[-130,238],[-399,-504],[-114,94],[-830,-486],[-178,-229],[-56,-44],[-377,-469],[-13,-64],[39,-22],[46,-95],[-44,-89],[-74,-106],[-186,-49],[-9,-24],[31,-83],[-31,-48],[-55,-24],[17,-104],[-114,-115],[-37,-54],[-119,-42],[-9,-81],[-233,-117],[-214,-2],[-508,439],[-640,48],[-2,-14],[-476,28],[-44,28],[36,38],[126,-7],[76,42],[15,40],[50,10],[-141,254],[-96,91],[3,18],[-114,86],[-185,47],[-34,45],[-247,135],[-153,58],[-111,-40],[-179,152],[-762,-444],[-211,13],[-27,-27],[12,-64],[-59,-470],[-29,-29],[16,-67],[-66,-474],[234,-15],[-38,-272],[-331,21],[-23,-15],[-113,47],[-75,13],[-987,70],[-76,-563],[-1380,98],[-77,-524],[-557,43],[66,416],[45,308],[-1118,85],[-77,28],[114,32],[35,98],[-955,58],[-423,-257],[-78,-52],[-3,-36],[-359,-160],[-134,-75],[-352,-70],[-16,-56],[-99,-25],[-37,7],[-129,-15],[-121,-36],[-102,-61],[-102,-27],[-71,0],[-303,-199],[-92,-42],[-102,1],[-29,-141],[-134,11],[-80,-457],[-111,-732],[116,-515],[-32,-47],[-128,-97],[-68,-134],[2,-57],[-63,-63],[-35,-112],[-77,-45],[-47,-106],[-69,-70],[-2,-87],[-40,-128],[-105,20],[-1074,74],[2,41],[-600,40],[-5,-36],[-504,34],[-10,-42],[-85,-138],[47,-140],[-32,-72],[64,-75],[-31,-25],[44,-86],[21,-84],[41,-13],[94,-150],[-21,-49],[86,-111],[107,-95],[13,-38],[78,-80],[12,-48],[59,-46],[30,-54],[77,-40],[1,-71],[-42,-88],[59,-42],[-9,-49],[32,-47],[135,-60],[-46,-67],[16,-125],[-54,-50],[-339,29],[-105,23],[-197,15],[-147,-11],[-196,28],[-63,23],[-51,-14],[-455,35],[-260,227],[-947,70],[-1139,-3],[-29,-204],[-518,38],[-70,-394],[-794,66]],[[19311,12092],[1,1204],[-1,1237],[0,1388],[-577,0]],[[18734,15921],[102,792],[79,611],[-108,7],[12,170],[-166,8],[93,772],[-196,287],[-118,-71],[-109,-31],[-46,-53],[-85,-133],[-323,253],[-624,38],[54,441],[96,843],[87,-19],[914,-62],[141,1168],[-492,32],[18,191],[37,537],[393,-22],[71,734],[-298,19],[13,128],[790,-23],[789,-3],[1016,-59],[-24,-196],[786,480],[93,731],[350,-2],[565,-471],[33,-30],[1337,-266],[96,29],[109,-11],[66,41],[245,29],[116,77],[185,92],[131,127],[146,20],[45,33],[142,60],[164,16],[93,71],[-687,585],[427,252],[-51,47],[274,162],[-214,162],[-807,619],[729,487],[672,-551],[186,171],[307,191],[134,928],[152,1045],[-895,34],[-106,8],[-9,-70],[-1022,73],[-954,4],[-6,-73],[-954,81],[-483,423],[-435,357],[-72,29],[-516,431],[-228,186],[-128,94],[-554,474],[-694,-421],[-52,18],[-332,275],[-79,-44],[-195,167],[-741,608],[-47,43],[803,469],[-145,117],[351,223],[432,261],[-152,122],[-30,7],[-122,118],[792,469],[-50,150],[54,127],[-36,233],[-93,63],[-51,240],[-34,69],[8,50],[277,-15],[75,-61],[343,179],[-440,381],[-326,279],[472,290],[595,362],[51,69],[-162,118],[-295,243],[103,972],[615,-34],[-27,84],[4,106],[-42,70],[2,105],[161,246],[1116,-37],[159,976],[479,-31],[-21,-181],[1026,-64],[10,79],[1277,-79],[702,-43],[114,591],[21,465],[18,326],[95,-8],[491,-10],[440,-39],[-23,-227],[686,-54],[-28,-146],[1032,-40],[28,231],[447,-23],[588,-39],[-34,-299],[675,413],[11,-1],[28,268],[341,208],[300,-262],[516,317],[70,-60],[301,196],[1207,730],[312,-22],[1,9],[790,-54],[-127,-923],[289,-43],[20,-86],[-119,-80],[26,-346],[481,-36],[11,9],[1268,-90],[-44,-321],[-74,-464],[514,-41],[465,-43],[100,4],[822,-39],[54,-11],[703,-41],[-35,-313],[131,-19],[225,-3],[124,-15],[-2,-22],[479,-37],[-36,-379],[533,-37],[44,-179],[-11,-76],[956,-69],[-25,-183],[-71,-74],[-30,-229],[681,-42],[-8,-102],[333,-14],[535,-28],[514,-42],[39,9],[105,-46],[85,588],[279,-21],[29,265],[914,-68],[47,343],[38,301],[809,-61],[14,161],[-66,54],[6,42],[500,-38],[86,569],[567,-43],[50,-175],[696,-59],[309,-29],[106,771],[606,-49],[22,218],[936,-50],[-30,-255],[-68,1],[-112,-393],[-33,-482],[-67,5],[-82,-720],[979,-53],[-3,-95],[714,-69],[-1,-23],[968,-97],[56,405],[176,-16],[33,144],[833,-50],[62,496],[-597,38],[53,439],[-369,22],[102,1053],[53,442],[250,-21],[117,70],[1261,-90],[-37,-261],[363,-465],[316,-24],[239,-63],[29,167],[28,292],[-18,11],[14,100],[1057,-79],[-48,-85],[15,-49],[278,-58],[69,-25],[92,-2],[71,-28],[204,-24],[447,-33],[30,36],[-27,154],[37,102],[-20,59],[63,48],[26,76],[51,46],[6,121],[92,140],[75,-4],[142,96],[41,78],[-15,59],[-71,33],[-19,50],[-87,68],[-54,84],[12,60],[42,44],[4,55],[73,21],[67,39],[40,77],[41,39],[87,17],[129,94],[54,8],[49,41],[15,64],[-47,132],[-79,82],[-114,6],[-35,31],[-126,40],[-67,2],[-70,30],[-93,90],[-23,69],[108,60],[-67,63],[-13,53],[-60,65],[-6,95],[-83,90],[79,184],[12,81],[-17,84],[141,126],[13,55],[-31,25],[-10,61],[-59,126],[-17,71],[-71,103],[52,66],[31,101],[-60,61],[50,140],[-39,41],[80,44],[134,20],[32,46],[119,59],[0,60],[55,23],[-44,93],[43,35],[88,-41],[21,-65],[55,13],[47,-39],[-29,-26],[73,-77],[46,3],[-2,50],[-83,81],[-18,94],[37,20],[96,-27],[-4,40],[-52,18],[38,41],[71,-18],[6,53],[58,85],[25,71],[-81,37],[-49,-12],[-26,59],[65,16],[133,-49],[52,55],[-143,102],[17,120],[106,16],[123,-46],[56,-45],[41,51],[75,-30],[12,-51],[-98,-93],[0,-38],[83,20],[86,105],[84,-31],[43,14],[29,48],[93,25],[75,-22],[59,35],[55,4],[66,-31],[72,4],[54,93],[74,69],[14,77],[67,6],[31,45],[75,23],[45,58],[118,-41],[74,14],[127,113],[88,18],[83,202],[64,46],[14,50],[-74,102],[43,142],[109,59],[134,32],[59,43],[27,109],[-26,73],[-87,33],[-93,84],[-51,125],[-49,88],[13,96],[47,80],[11,82],[-13,241],[-57,198],[-51,122],[-106,138],[-13,32],[26,83],[45,84],[47,55],[17,62],[-60,119],[-74,64],[70,47],[84,28],[9,-84],[83,-44],[34,-57],[166,-47],[133,6],[143,-43],[29,-49],[-9,-54],[486,-39],[161,1118],[119,-10],[10,127],[161,79],[-19,51],[39,49],[171,21],[61,32],[164,17],[394,-58],[5,14]],[[62145,46876],[345,548],[315,12],[459,-10],[1047,-2],[1198,-2],[1252,-1],[1242,1],[0,-1499],[1355,-1],[1379,0],[3214,1],[5785,18],[24,-146],[267,-223],[472,-271],[272,-217],[259,-432],[179,-231],[395,-343],[214,-211],[251,-264],[369,-333],[193,-159],[240,-117],[247,-103],[223,-76],[284,-144],[181,-86],[363,-112],[632,-203],[614,-279],[225,-132],[267,-149],[249,-169],[268,-97],[325,-100],[229,-103],[450,-292],[248,-78],[302,-110],[293,-72],[253,-114],[251,-213],[149,-144],[124,-182],[265,-128],[351,-48],[323,-14],[299,25],[340,104],[160,137],[-28,169],[-145,198],[-134,162],[-140,199],[-66,148],[-8,269],[21,203],[80,129],[124,37],[104,15],[171,-127],[197,-124],[229,-160],[337,-127],[258,-52],[213,-51],[586,-110],[328,-22],[630,-52],[298,-36],[275,-87],[88,-105],[70,-111],[82,-163],[11,-167],[-48,-182],[-47,-137],[-60,-97],[-255,-216],[-24,-36],[-61,-26],[-76,-116],[-14,-105],[16,-161],[1,-131],[-22,-225],[-57,-214],[-77,-53],[17,-81],[-3,-141],[-83,-101],[37,-549],[101,-192],[64,-66],[117,-173],[54,-54],[45,-15],[118,-143],[39,-32],[73,-101],[0,-102],[135,-290],[373,-496],[-1,-73],[38,-176],[64,-206],[12,-126],[95,-173],[-16,-141],[13,-101],[-25,-56],[22,-200],[-54,-89],[-119,-96],[-9,-131],[-23,-157],[-83,-96],[945,-3139],[263,-868],[854,-2835],[663,-2208],[519,-1715],[-2193,3],[-5141,-3],[-144,0],[9,-22]],[[53357,53414],[-294,43],[-136,14],[-125,-93],[-22,-42],[-151,-79],[-25,38],[-94,37],[-58,-7],[-220,55],[-41,63],[43,54],[-51,32],[-63,123],[-68,10],[-1,56],[52,38],[-24,58],[-83,101],[-70,-13],[-138,42],[-40,-8],[-62,42],[-66,-18],[-102,15],[-62,-24],[-112,-17],[-140,13],[-93,151],[-116,-27],[-132,-78],[-68,-58],[-119,-53],[-39,37],[-108,-28],[-200,-7],[-44,19],[3,82],[-51,43],[-28,-39],[-84,-20],[-9,-67],[-64,46],[-87,-26],[-69,-2],[-20,-73],[32,-48],[-33,-72],[-99,-58],[-74,-80],[-129,-24],[41,-47],[2,-42],[-585,58],[-797,73],[-35,-573],[-667,60],[-42,-27],[-167,169],[-389,360],[-27,-143],[-31,-55],[42,-61],[-10,-69],[-68,-94],[52,-99],[-65,-67],[-55,6],[-68,-97],[-73,-74],[-85,-65],[-129,-26],[-79,11],[-101,51],[-44,-4],[-49,-59],[-136,-34],[-112,13],[-44,-11],[-161,-77],[-22,-41],[-77,-49],[-29,-38],[-58,1],[-42,-43],[-99,7],[-75,39],[-123,-33],[-120,31],[-222,117],[12,96],[-255,246],[-123,24],[-3,53],[-270,299],[-207,2],[-40,-27],[-94,0],[-112,-30],[-24,43],[-173,18],[-124,-83],[-74,16],[5,-160],[22,-97],[-120,-104],[16,-61],[65,-107],[9,-73],[-20,-44],[-48,-34],[-38,-104],[-96,-34],[-279,-59],[-64,-43],[-48,-80],[-130,-54],[-46,-35],[-46,-106],[-72,-74],[0,-38],[-42,-66],[-11,-58],[-42,-27],[-56,-132],[-50,-61],[4,-58],[-53,-41],[-74,-1],[-65,-34],[-88,-10],[-155,-183],[-52,-43],[21,-73],[-110,-277],[-65,-54],[-21,-47],[14,-89],[-15,-48],[31,-37],[-21,-100],[-38,-59],[-6,-174],[17,-95],[-8,-76],[-73,-83],[-88,7],[-212,-55],[-43,-33],[-172,-90],[-59,-8],[-69,-107],[-41,-125],[9,-69],[62,-37],[26,-128],[-21,-53],[-63,-35],[-66,-97],[-36,-203],[24,-48],[-30,-98],[-148,-87],[-41,-48],[-111,-57],[-112,-104],[-42,-119],[15,-100],[-86,-153],[-66,-50],[-42,-156],[7,-65],[-33,-116],[-128,75],[-170,47],[-34,29],[-16,60],[-99,45],[-113,10],[-98,-32],[-44,1],[-87,-40],[-94,8],[-223,38],[-61,-65],[-102,-72],[-95,-85],[-66,-32],[-176,-8],[-134,17],[-197,-56],[-186,-16],[-284,-16],[-176,33],[-177,65],[-137,59],[-267,79],[-122,23],[-211,-58],[-31,-1],[-198,67],[-178,119],[-87,148],[-96,116],[-162,108],[-101,45],[-90,24],[-179,-61],[35,-107],[-24,-53],[-51,-42],[-75,-33],[-151,-45],[-53,-34],[-28,-46],[-64,-50],[-89,14],[-108,-6],[-123,-61],[2,-101],[-72,-79],[-99,-1],[-105,42],[-60,-6],[-58,-78],[-102,-37],[-73,-55],[-47,-84],[-57,-67],[-7,-73],[-87,-61],[-86,70],[-76,-37],[-1412,94],[-357,21],[-1162,75],[-1240,82],[57,439],[-112,6],[81,717],[-1337,74],[-9,-69],[-135,9],[56,445],[113,925],[-301,20],[-10,-125],[-744,57],[-9,-67],[-486,37],[110,850],[-305,13],[-16,-119],[-1190,75],[-66,-557],[-1029,58],[-58,-569],[-113,1],[-100,63],[-86,0],[-73,42],[-49,56],[-115,20],[-62,-18],[-213,17],[-132,65],[-41,147],[72,-6],[103,737],[205,-12],[85,717],[68,563],[-447,31],[-413,33],[-1247,97],[38,280],[-354,25],[-101,54],[23,21],[-19,84],[-34,18],[-18,93],[45,50],[-68,51],[-17,82],[-5,123],[84,29],[10,33],[-41,40],[36,47],[-30,40],[14,45],[56,54],[-26,107],[-54,6],[-75,46],[20,32],[-15,92],[-43,12],[-47,55],[-8,45],[-75,24],[-35,71],[-47,16],[-25,50],[-97,34],[-32,188],[-38,20],[-20,127],[-29,38],[-68,6],[-33,59],[7,48],[-55,97],[-134,54],[-21,32],[-78,2],[-55,39],[43,93],[-2,61],[-52,97],[-5,62],[42,63],[42,12],[291,-15],[50,490],[539,-39],[-13,-118],[729,-52],[32,266],[-76,-13],[31,359],[469,-21],[13,143],[-1052,57],[79,810],[74,18],[67,-57],[119,2],[31,-57],[134,21],[66,-9],[69,-51],[62,9],[125,63],[34,348],[-386,16],[25,343],[157,-10],[101,831],[967,-73],[24,190],[979,-63],[-20,-182],[714,-65],[-331,300],[679,430],[159,-81],[621,-593],[292,185],[775,-660],[575,372],[-56,103],[-92,67],[-98,31],[-79,49],[-72,-3],[-139,23],[-60,27],[1064,731],[392,-345],[901,906],[-126,-1],[-181,131],[-118,57],[-80,72],[-33,73],[-133,37],[-99,68],[553,573],[97,804],[151,1266],[-233,35],[-223,-33],[-246,53],[-90,10],[-136,-25],[-170,-12],[-136,-32],[-112,2],[-74,36],[-185,36],[-115,11],[-284,63],[-78,-17],[-133,-1],[-103,-17],[-116,5],[-93,43],[-62,7],[-83,-16],[-188,-59],[-104,-5],[-77,34],[-114,13],[-241,-32],[-26,28],[-99,-5],[-67,43],[-26,52],[-110,74],[-22,76],[-141,43],[-122,9],[-25,15],[-120,-2],[-91,20],[-71,-12],[-79,38],[-119,8],[-38,24],[-54,-24],[-116,-3],[-117,43],[-89,59],[-22,31],[-61,14],[-60,-31],[-220,-27],[-255,-2],[-93,-16],[-81,-31],[-120,-26],[-303,2],[-6,26],[-170,76],[-117,6],[-85,23],[-27,46],[-48,6],[-49,37],[-113,10],[-114,-50],[-84,12],[-58,83],[-123,-7],[-56,-22],[-113,-17],[-58,47],[26,45],[-29,73],[-68,-5],[-21,-52],[-63,27],[-90,-33],[-53,46],[-91,-42],[-41,46],[-60,-8],[-81,-84],[-67,-12],[-60,40]],[[21193,63947],[42,80],[130,169],[104,286],[24,46],[38,160],[-19,60],[15,42],[101,154],[113,127],[47,81],[70,62],[187,275],[-5,127],[-127,166],[-27,88],[-89,205],[-15,112],[-85,129],[147,157],[81,159],[61,401],[16,293],[57,227],[11,88],[52,84],[21,114],[189,562],[126,134],[296,578],[64,172],[97,95],[31,56],[65,449],[47,100],[212,132],[90,69],[35,86],[-79,139],[204,382],[-19,184],[-121,144],[-170,250],[-148,281],[-25,183],[-59,170],[-54,61],[-19,270],[-84,383],[6,304],[-38,92],[-124,377],[51,255],[149,406],[167,280],[113,260],[14,154],[-66,297],[39,84],[-20,156],[-25,64],[-54,81],[-128,149],[-79,63],[-174,114],[-215,201],[-133,232],[-27,258],[102,426],[123,281],[48,357],[30,163],[97,300],[184,359],[85,48],[107,92],[129,176],[69,162],[116,189],[331,321],[35,52],[51,123],[-32,133],[-223,173],[-183,234],[-100,332],[30,163],[-4,48],[-198,158],[-38,104],[9,348],[35,35],[233,-1],[74,81],[35,-8],[276,115],[445,272],[70,91],[42,112],[128,268],[65,178],[8,85],[-42,-13],[-559,-102],[-20,16],[0,130],[113,66],[613,304],[-26,67],[-35,20],[-83,-4],[-44,33],[-101,35],[-57,51],[14,36],[-47,34],[-10,44],[-85,6],[-84,51],[-144,36],[-71,-50],[30,-79],[-74,-85],[-131,-1],[-123,-27],[-18,-53],[-71,-5],[-72,-27],[-76,54],[-137,33],[-19,36],[103,159],[19,68],[58,120],[108,160],[25,53],[156,275],[153,319],[86,239],[10,78],[61,86],[20,71],[64,23],[77,63],[122,189],[224,414],[58,81],[47,112],[87,126],[112,96],[83,145],[119,112],[113,62],[148,-7],[6,-38],[52,-26],[90,23],[34,30],[41,154],[21,212],[45,252],[67,154],[91,149],[133,65],[7,112],[63,176],[23,128],[65,56],[-3,61],[122,313],[54,171],[46,78],[40,32],[20,61],[80,158],[55,129],[56,29],[-3,72],[121,334],[29,52],[-11,49],[29,146],[9,96],[-16,44],[-25,374],[56,2],[80,103],[36,132],[27,203],[42,78],[-9,50],[-49,72],[30,33],[-45,131],[-3,119],[-86,206],[-781,-2],[-3368,-12],[-1478,-3],[-1621,-3],[10,3140],[4,14],[753,356],[3473,1645],[2187,1036],[375,50],[0,2474],[312,241],[229,82],[188,-10],[278,50],[132,-17],[247,-193],[455,-182],[964,-500],[193,22],[212,-62],[216,94],[668,89],[232,7],[476,70],[108,-30],[93,-62],[60,-84],[30,-102],[-5,-75],[0,-1404],[964,42],[535,583],[1607,0],[1071,751],[672,58],[1257,109],[1142,-264],[1750,-403],[8,-5],[-53,-1033],[21,-214],[-25,-37],[-164,-146],[-77,-47],[-17,-69],[49,-66],[-29,-43],[35,-100],[-113,-106],[-121,28],[-111,-4],[-85,-78],[-84,-130],[-40,-192],[-125,-153],[-77,-38],[-90,-69],[-29,-39],[-63,-137],[-211,-205],[-208,-154],[-42,-42],[-40,-174],[32,-29],[-40,-107],[-55,-69],[0,-169],[-83,-136],[-55,-205],[13,-30],[-22,-134],[17,-27],[3,-117],[-52,-56],[-19,-90],[5,-79],[-20,-61],[-46,-48],[20,-68],[-18,-81],[-69,-65],[10,-44],[-33,-48],[13,-54],[-11,-153],[22,-152],[-21,-101],[17,-109],[49,-74],[32,-111],[-33,-74],[24,-57],[-14,-60],[-51,-34],[35,-128],[280,-295],[63,-36],[41,-67],[67,-223],[41,-86],[97,-261],[33,-115],[-3,-125],[59,-195],[3,-76],[-8208,0],[-98,0],[40,-53],[-23,-89],[45,-69],[63,-26],[-1,-53],[131,-92],[7,-81],[23,-62],[-18,-115],[33,-31],[-6,-43],[42,-61],[6,-50],[-24,-80],[-6,-77],[-63,-140],[27,-86],[37,-63],[7,-104],[19,-56],[47,-33],[97,4],[52,-99],[74,-28],[96,-125],[9,-66],[44,-22],[-13,-56],[51,-63],[-28,-41],[-206,-218],[-27,-104],[-12,-123],[82,-69],[-20,-101],[3,-99],[-9,-133],[56,-83],[56,-57],[2,-166],[39,-64],[-5,-171],[13,-25],[-9,-230],[22,-159],[-14,-81],[-40,-85],[-12,-80],[13,-80],[-5,-115],[34,-41],[70,-28],[27,-64],[70,-34],[96,5],[76,-101],[100,-2],[133,-56],[136,-136],[66,13],[131,-35],[231,16],[71,19],[231,93],[109,80],[77,-46],[221,-79],[9,-116],[88,-64],[12,-50],[41,-37],[227,49],[23,34],[90,8],[28,-18],[97,-3],[114,25],[36,-95],[71,-73],[-47,-28],[-70,-4],[-32,-29],[-79,-8],[-169,60],[2,54],[-75,-13],[-118,-64],[-49,-105],[-74,-85],[-36,-74],[-54,-56],[-92,-151],[-77,-69],[-176,-265],[-62,-51],[60,-27],[-7,-76],[-44,-75],[69,-80],[-81,-129],[6,-33],[56,-24],[-95,-207],[-16,-195],[29,-45],[194,40],[55,-29],[261,-20],[121,20],[44,-41],[36,8],[88,-58],[42,1],[98,-106],[132,-2],[20,-52],[95,-10],[4,-48],[45,-22],[-28,-135],[56,-24],[4,-48],[-24,-90],[-2,-139],[-14,-75],[155,-101],[22,-79],[54,-46],[104,-7],[104,-48],[74,16],[50,-42],[182,-115],[80,-10],[40,40],[58,2],[200,-51],[183,-160],[111,-442],[302,-489],[191,-220],[-6,-481],[228,-793],[-154,-1198],[-5,-105],[19,-117],[62,-72],[22,-67],[-9,-97],[-76,-168],[-34,-159],[18,-76],[28,-33],[-4,-77],[-84,-93],[-88,-127],[-50,-146],[-30,-128],[-1,-184],[-19,-170],[-20,-62],[-44,-61],[-14,-80],[48,-74],[22,-106],[58,-90],[127,-86],[59,-107],[77,-57],[51,-113],[2,-126],[73,-116],[25,-90],[70,-107],[53,-51],[99,-49],[54,-46],[98,-40],[52,-71],[15,-140],[59,-106],[2351,214],[2026,492],[235,-26],[48,-47],[215,-99],[100,-37],[432,1],[204,61],[33,22],[111,139],[112,71],[299,-22],[67,-86],[66,-47],[10,-53],[127,-86],[4,-54],[171,-26],[74,3],[45,-40],[141,-35],[109,-2],[61,-44],[6,-30],[-49,-56],[-2,-69],[-23,-30],[93,-190],[127,-166],[127,-45],[62,-35],[151,-177],[131,-77],[164,1],[46,-35],[112,23],[86,-39],[12,-32],[71,-67],[38,-12],[191,1],[149,-14],[78,-27],[94,-11],[72,11],[116,-53],[24,-31],[105,-34],[98,-16],[167,-86],[89,-18],[58,9],[227,-73],[167,-24],[149,-30],[81,-43],[53,-76],[70,-46],[67,3],[39,-49],[175,-15],[92,13],[80,-43],[117,-37],[25,-34],[159,-46],[58,-32],[12,-64],[85,-160],[44,-22],[262,9],[76,-14],[66,-44],[80,-78],[199,-53],[128,-102],[18,-46],[138,-121],[34,8],[77,-56],[43,-69],[45,-6],[64,-80],[5,-55],[102,-75],[-5,-66],[18,-60],[58,-79],[63,-11],[42,-107],[76,-65],[15,-62],[69,-23],[17,-64],[90,-48],[58,-129],[1,-72],[46,-30],[18,-110],[83,-294],[-4,-41],[33,-91],[6,-150],[-54,-148],[-51,-44],[-79,-161],[43,-81],[59,-69],[-83,-90],[-24,-58],[18,-97],[77,-57],[-6,-41],[46,-78],[4,-59],[-52,-70],[-24,-105],[65,-131],[-20,-66],[49,-59],[-20,-103],[28,-58],[62,-26],[-25,-73],[-7,-186],[58,-96],[4,-52],[64,-134],[79,-104],[20,-66],[46,-272],[65,-97],[8,-40],[-20,-88],[-3462,-38],[66,-33],[-4,-51],[52,-13],[31,-105],[51,-21],[-82,-111],[-5,-91],[55,-29],[37,-64],[78,-1],[37,31],[109,-98],[-1,-85],[51,-17],[7,-88],[-44,14],[-46,-42],[31,-99],[-47,-44],[14,-44],[127,-57],[9,-98],[106,-76],[37,-70],[64,-168],[9,-75],[-14,-86],[-60,-74],[-21,-66],[18,-27],[10,-93],[84,-8],[43,-35],[3,-42],[-42,-38],[-101,-201],[12,-81],[96,-67],[67,-2],[60,-66],[71,-5],[77,-62],[8,-34],[81,-74],[-6,-50],[46,-51],[-5,-31],[94,-60],[27,-95],[52,-35],[3,-138],[38,-53],[46,-18],[-61,-53],[-9,-69],[-48,-53],[-14,-87],[-71,-124],[-17,-96],[15,-122],[166,-25],[32,-60],[-7,-80],[82,-35],[-15,-110],[35,-52],[603,-604],[-795,-195],[-215,-208],[91,3],[47,-32],[104,3],[26,-20],[-14,-98],[17,-66],[110,-123],[9,-25],[86,-53],[80,-98],[5,-50],[45,-4],[7,-72],[52,-55],[93,-48],[133,-121],[42,-103],[73,-106],[314,-62],[2364,-3],[76,-366],[-221,-116],[-1360,-333],[35,-16],[40,-86],[-77,-32],[-6,-74],[131,2],[85,-26],[130,49],[25,51],[92,57],[108,15],[78,-103],[-18,-38],[78,-16],[71,10],[49,33],[72,11],[76,65],[-33,78],[26,23],[90,-14],[41,-42],[146,-115],[330,-114],[-35,-90],[-53,-40],[-94,10],[-307,-32],[-45,-19],[-141,-143],[-20,-89],[24,-34],[-65,-152],[2,-118],[119,-117],[45,-8],[37,-118],[149,-95],[28,-97],[297,-33],[49,5],[47,-32],[-26,-72],[277,-8],[329,-113],[-33,-360],[-572,-158],[87,-171],[118,-100],[74,-97],[80,-6],[96,-78],[-1,-58],[-33,-197],[13,-101],[67,-69],[-6,-155],[-61,-35],[66,-106],[54,-60],[-3,-44],[153,-91],[104,-114],[332,2],[66,-559],[-127,-454],[-517,-17],[65,-52],[-34,-104],[136,-97],[-93,-72],[-31,-69],[60,0],[-5,-186],[54,24],[604,15],[-2,-756],[-269,1],[-338,333],[-184,5],[-118,-190],[-147,-281],[-126,-199],[2,-161],[574,158],[1456,35],[306,-1556],[-178,-342],[-415,4],[-56,-3]],[[94835,9338],[38,58],[-27,27],[-110,-8],[-180,24],[-16,76],[-135,27],[-12,88],[119,119],[25,107],[-4,48],[56,53],[136,90],[-28,35],[66,64],[-57,125],[-1,86],[-144,62],[-117,18],[-67,-10],[-20,29],[69,28],[-8,57],[-61,79],[-60,11],[-102,-20],[-12,-54],[-175,24],[-24,21],[-114,4],[-20,-84],[-61,-43],[-63,38],[-54,-86],[-127,13],[-89,-17],[-70,8],[-109,178],[-8,53],[29,40],[-7,47],[-47,67],[83,62],[-16,38],[-60,16],[-174,17],[11,31],[-81,10],[-66,32],[33,116],[-102,11],[-21,-36],[-100,26],[-122,14],[-9,-38],[-91,10],[-109,-17],[-41,-25],[30,-55],[-180,32],[-115,-58],[-38,-61],[-106,22],[-29,-92],[-170,-53],[-139,-77],[-66,-8],[16,-58],[-109,-83],[-209,21],[27,145],[127,7],[14,20],[-146,71],[-76,8],[14,63],[-64,91],[-63,-7],[-121,59],[-116,19],[-26,86],[103,85],[-2,83],[39,32],[-71,49],[41,60],[120,43],[131,15],[-20,122],[43,44],[15,71],[-103,11],[15,62],[-36,63],[37,83],[-53,35],[-80,20],[-1,73],[53,61],[-136,13],[-63,-11],[-22,70],[-37,52],[-73,56],[-151,31],[-39,53],[-44,17],[-17,88],[49,52],[113,21],[180,78],[12,55],[49,64],[-35,69],[68,27],[-24,62],[-43,39],[32,43],[-61,174],[-5,126],[68,62],[-1,67],[87,-11],[115,36],[40,185],[-18,55],[-146,126],[-174,47],[-4,76],[-155,19],[-52,39],[-101,34],[-24,-119],[-128,19],[-8,96],[69,82],[26,1],[70,125],[14,93],[29,27],[-11,47],[-78,48],[-30,164],[-60,29],[-77,-41],[-127,99],[-74,-15],[-26,65],[37,84],[-126,115],[-96,10],[21,100],[-25,102],[-119,23],[-27,59],[94,7],[72,36],[38,48],[-316,34],[33,149],[47,97],[-58,65],[3,49],[-173,7],[-473,47],[-34,-70],[-144,13],[44,68],[-73,7],[49,247],[-318,32],[-63,13],[-16,42],[-55,26],[-47,-26],[-133,32],[-156,73],[-221,28],[29,76],[-12,41],[-62,36],[21,43],[-117,9],[-46,52],[-98,30],[-152,-52],[-56,26],[-284,29],[-121,-15],[-58,-264],[-129,-27],[102,-24],[9,-29],[-36,-81],[19,-46],[-91,-68],[-46,-127],[-53,-7],[-30,-58],[-556,-31],[-174,18],[-43,-31],[-53,2],[-104,-70],[43,-48],[-5,-34],[-109,-74],[-25,-47],[-63,-37],[-74,26],[-877,89],[-265,40],[-11,-99],[-52,-63],[97,-37],[-37,-47],[-197,-24],[-74,58],[-122,-18],[-102,18],[-107,40],[-36,30],[-12,58],[-42,50],[7,31],[-59,60],[-30,80],[-34,36],[-139,-30],[-79,19],[-106,-16],[-84,42],[-92,-17],[-13,-54],[-349,-185],[-383,37],[-60,102],[33,49],[-66,32],[-12,70],[-65,84],[-244,3],[-72,-19],[-79,54],[-189,22],[12,32],[-37,103],[69,71],[35,73],[-34,79],[2,76],[84,54],[36,77],[-23,32],[-159,149],[-81,34],[-55,52],[49,12],[-82,73],[39,60],[62,5],[43,48],[-18,30],[4,125],[-95,33],[-41,52],[22,52],[109,105],[-51,62],[-9,61],[-352,35],[-53,0],[-38,46],[-96,27],[-157,-11],[-140,-25],[-131,47],[-53,38],[-74,111],[-243,36],[-59,-37],[-140,25],[-91,39],[73,130],[-59,79],[9,72],[-80,29],[-2,58],[70,61],[-33,36],[-79,-8],[0,71],[-55,-12],[-43,49]],[[90419,23304],[42,-24],[205,-245],[157,-91],[54,-70],[201,-148],[149,-55],[93,-15],[204,-111],[124,-106],[122,-74],[94,-39],[196,-56],[148,-24],[31,16],[204,10],[152,-107],[-2,-36],[87,-6],[48,-89],[116,-62],[37,-56],[74,-14],[59,-63],[20,-80],[72,-60],[28,-152],[34,-52],[-9,-56],[24,-88],[40,-42],[-28,-158],[31,-144],[93,-151],[141,-172],[91,-100],[70,-154],[40,-43],[166,-113],[248,-95],[46,-34],[-30,-38],[-37,-110],[2538,-1],[68,43],[186,64],[75,40],[372,227],[180,132],[120,120],[171,191],[73,97],[47,88],[46,217],[-26,94],[-218,272],[-66,72],[-156,117],[-93,42],[-68,14],[-80,-17],[-28,32],[22,47],[62,58],[123,92],[153,147],[209,132],[272,107],[110,3],[17,-86],[-19,-168],[-25,-336],[5,-153],[36,-172],[86,-174],[70,-107],[155,-111],[144,-39],[79,20],[18,-178],[36,-75],[-23,-63],[-515,-849],[-64,-112],[-327,-529],[-127,-215],[-371,-651],[-164,-302],[-104,-237],[-81,-218],[-25,-150],[3,-90],[89,-286],[-69,-210],[-48,-44],[14,-260],[86,-207],[153,-147],[141,-91],[155,-22],[79,14],[43,67],[50,26],[43,-27],[-38,-41],[-226,-350],[-28,-85],[-57,-88],[-66,-138],[-87,-158],[-182,-443],[-99,-282],[-42,-171],[-19,-129],[-1,-119],[36,-137],[66,-93],[94,-41],[50,37],[100,13],[-6,-98],[-64,-215],[-40,-171],[-40,-296],[75,-72],[-25,-47],[-16,-105],[2,-120],[33,-86],[-9,-110],[40,-144],[112,-69],[76,2],[-15,-280],[16,-103],[-6,-69],[27,-76],[45,-13],[12,-62],[-51,-1],[-47,-36],[51,-65],[-33,-283],[170,-476],[79,-186],[185,-235],[39,-116],[810,169]],[[18734,15921],[-973,0],[-1033,0],[-1034,-1],[-1033,0],[-1034,0],[-1550,0],[-1550,0],[-1549,0],[-1177,0],[-890,-1],[-1033,0],[-1032,0],[-1033,0],[-1033,0],[-1033,0],[-1719,0],[0,1090],[-1,1090],[0,726],[0,727],[0,726],[0,727],[0,1090],[0,1090],[0,1089],[0,727],[0,727],[-1,727],[0,1090],[-1,1090],[-1,727],[0,726],[-1,829],[-1,1061],[0,654],[-1,1017],[-1,815],[0,711],[-1,1190],[-1,1135],[-1,947],[-1,1090],[-1,727],[0,728],[-1,727],[-1,1090],[0,728],[-1,727],[0,727],[-1,728],[0,727],[-1,1091],[-1,728],[0,727],[-1,728],[2,897],[-1,1284],[-1,728],[-1,1090],[0,727],[-1,1091],[-1,727],[0,728],[-1,1090],[-1,728],[-1,1043],[0,848],[-1,1018],[0,728],[-1,783],[61,-45],[154,-83],[8,-27],[95,-33],[108,-116],[116,-62],[98,-75],[172,-109],[226,-98],[39,-39],[174,-78],[274,-93],[269,-50],[85,-61],[65,-31],[137,-37],[93,43],[78,-19],[105,1],[82,-19],[168,-67],[139,-74],[187,4],[157,-27],[29,-24],[97,15],[76,-10],[191,-2],[201,30],[70,-9],[186,34],[164,1],[148,-32],[13,-32],[89,-61],[178,-62],[167,-34],[117,-36],[92,-53],[126,-45],[271,-55],[124,-69],[76,-22],[283,-33],[109,3],[227,-49],[113,5],[156,-12],[147,-38],[191,-97],[-40,-63],[55,-118],[190,-105],[39,-85],[78,-66],[184,-75],[237,-49],[9,-27],[-94,-138],[-26,-118],[21,-96],[39,-98],[51,-226],[33,-99],[180,-312],[59,-79],[47,-106],[85,-90],[197,-122],[176,-77],[200,-78],[201,-44],[166,-6],[217,19],[89,-6],[175,-63],[85,-45],[161,-46],[310,-180],[115,-56],[66,-74],[-3,-35],[247,-67],[28,-20],[33,-82],[53,-10],[52,-73],[134,-52],[64,-47],[160,-32],[200,-19],[28,-25],[73,10],[134,-47],[72,-11],[40,-26],[130,-6],[44,-20],[161,32],[58,-4],[127,-110],[174,-62],[146,-35],[66,-26],[186,-28],[54,-36],[52,-65],[-31,-28],[25,-70],[137,-124],[178,-103],[101,-34],[249,-37],[195,4],[50,-8],[259,25],[187,37],[187,17],[123,29],[89,-27],[49,22],[178,28],[50,-7],[275,45],[220,15],[306,44],[244,90],[52,36],[148,41],[47,-19],[145,15],[245,62],[123,54],[97,68],[153,37],[40,-1],[87,37],[243,125],[249,194],[137,47],[62,41],[79,-17],[106,1],[29,56],[167,118],[129,26],[237,73],[131,114],[115,169],[93,89],[1,55],[76,135],[-6,53],[60,160],[24,124],[25,34],[6,148],[12,65],[72,91],[-1,66],[72,60],[63,151],[25,31],[3,93],[30,82],[0,66],[25,94],[-30,80],[5,55],[-31,35],[-4,72],[44,125],[135,180],[227,157],[138,122],[202,212],[76,114],[17,45],[8,110],[40,95],[51,34],[72,-15],[109,52],[113,76],[144,120],[29,39],[105,82],[148,163],[88,127],[29,73],[6,135],[41,87],[2,72],[76,105],[21,56],[89,43],[69,-1],[120,247],[65,89],[34,104],[-2,89],[-100,127],[3,68],[33,57]],[[53357,53414],[-3,-31],[106,-67],[88,-9],[378,19],[-7,-18],[-303,-16],[-6,-34],[71,-128],[-40,-26],[20,-48],[-34,-202],[-6,-106],[-83,-116],[-95,-175],[-61,-135],[-144,-428],[-13,-106],[2,-177],[58,-61],[18,-68],[156,-134],[38,-9],[92,-117],[26,-78],[117,-18],[56,-40],[55,-101],[76,-55],[80,1],[70,-55],[256,-278],[61,-45],[108,-10],[95,-72],[73,-29],[61,2],[135,-54],[99,-65],[98,-110],[65,-18],[99,7],[69,-12],[194,-107],[152,-37],[76,-44],[212,-66],[114,47],[51,35],[176,0],[121,-18],[51,-23],[13,-115],[49,-103],[47,-45],[107,20],[26,-29],[104,-28],[28,37],[58,-2],[57,-53],[-94,-89],[63,-6],[101,-61],[80,-73],[90,-33],[78,-1],[141,20],[47,28],[83,16],[61,-12],[147,64],[154,155],[3,78],[37,47],[64,27],[39,45],[-76,130],[39,35],[59,-69],[107,-67],[67,-163],[67,-90],[-21,-20],[25,-97],[-73,12],[-29,-72],[58,-133],[105,-141],[94,-84],[170,-91],[3,-75],[42,-58],[63,19],[249,-20],[83,0],[188,-65],[148,21],[61,-65],[51,-9],[49,32],[149,27],[67,50],[129,18],[95,-30],[221,-22],[165,8],[140,-41],[95,4],[86,18],[67,73],[15,84],[-54,45],[-17,73],[-118,87],[-47,71],[4,34],[-64,54],[-73,30],[-15,34],[174,-63],[89,-64],[57,-65],[166,-239],[33,-77],[31,-133],[38,-107],[60,-96],[55,-47],[69,-29],[41,-38],[126,-159],[75,-10],[83,-123],[68,-147],[21,-127],[31,-98],[-26,-36],[65,-51],[63,-14],[79,-88],[-19,-138],[-127,-153],[61,-54],[23,-73],[59,-91],[152,-112],[206,-105]],[[12475,62625],[-23,-74],[-59,-71],[-177,-118],[-147,-75],[-630,-241],[-265,-75],[-265,-97],[-183,-145],[-153,-338],[-36,-167],[0,-176],[77,-180],[132,-152],[92,-199],[12,-136],[-18,-53],[-65,-66],[-82,-53],[-106,-44],[-464,-14],[-89,-18],[-83,6],[-59,23],[-113,-14],[-139,33],[-109,1],[-59,20],[-11,-44],[-64,-54],[-89,-24],[-135,24],[-112,56],[-103,77],[-56,68],[-69,123],[-98,56],[-141,17],[-390,14],[-175,30],[-137,50],[-213,118],[-118,84],[-15,41],[-23,174],[-45,70],[-90,84],[-222,99],[-273,74],[-230,96],[-54,69],[4,62],[80,100],[77,47],[87,16],[5,81],[30,74],[55,57],[200,59],[34,40],[-22,65],[-1,69],[45,79],[-41,99],[25,89],[46,75],[59,58],[2,71],[-38,94],[9,70],[41,48],[9,58],[61,77],[183,109],[102,47],[34,143],[51,55],[96,44],[17,55],[51,52],[110,57],[43,42],[49,90],[43,174],[29,205],[-19,167],[-35,61],[2,87],[-71,35],[-54,72],[-25,134],[-3,113],[81,54],[77,11],[133,-40],[50,-59],[61,-166],[-3,-27],[90,-21],[124,-92],[122,-71],[153,-72],[130,-40],[217,-43],[299,-30],[420,-36],[113,1],[146,-49],[106,2],[112,-17],[77,-35],[77,-85],[100,-62],[61,-53],[100,4],[177,-35],[101,0],[105,25],[159,57],[74,8],[73,-21],[124,-91],[184,-195],[40,-63],[492,-622],[59,-61],[59,-110],[11,-75]],[[55970,52118],[-23,-37],[-230,-88],[-597,-171],[-52,-41],[-51,-123],[-106,-10],[-156,108],[-42,163],[-8,114],[0,230],[-41,150],[7,104],[-89,5],[-35,56],[-2,118],[36,63],[-46,55],[-30,70],[-5,123],[18,96],[29,39],[-2,83],[34,28],[76,3],[61,-50],[-9,-81],[-66,-67],[35,-88],[41,-63],[-13,-52],[45,-48],[-24,-141],[21,-26],[146,8],[74,36],[36,-12],[172,-126],[108,-12],[56,-84],[126,-47],[93,-75],[45,-109],[50,-7],[188,60],[101,-32],[29,-122]],[[57148,50352],[-49,-91],[-29,-109],[-53,2],[-56,-53],[-41,-1],[-24,-59],[-76,-41],[-87,66],[-50,21],[-84,72],[-44,10],[-13,47],[-94,42],[-3,25],[72,67],[66,10],[101,-16],[69,24],[28,34],[51,-1],[41,-45],[107,-8],[-12,60],[49,9],[45,-38],[86,-27]],[[55457,50760],[-38,-32],[-125,24],[144,31],[19,-23]],[[99309,7223],[21,-67],[-30,-77],[-110,-560],[-7,-162],[40,-121],[-11,-210],[4,-110],[34,-168],[69,-216],[38,-70],[57,-50],[98,-132],[48,-2],[105,-115],[137,-84],[197,1],[-147,-58],[-291,91],[-57,1],[-55,-28],[-102,-93],[-108,-31],[-134,-101],[-59,-18],[-95,-84],[-22,-43],[-195,-64],[-116,-7],[-47,23],[-13,46],[-161,-14],[-55,29],[-122,-2],[-85,-46],[-129,-19],[-71,-89],[-90,8],[-74,52],[-51,-18],[-72,46],[-74,-11],[-34,-48],[24,-75],[-90,-28],[52,-66],[-31,-24],[-136,-34],[-112,-63],[28,-65],[-145,-142],[-215,32],[-57,40],[-104,11],[-71,-7],[-102,27],[-78,-16],[-170,15],[-67,32],[-219,-15],[-31,-14],[-70,30],[-149,31],[-71,50],[-71,18],[-79,-9],[-106,12],[-68,-55],[-48,13],[-82,-77],[-59,-35],[-2,-43],[-101,-17],[-102,40],[-114,-32],[14,-29],[-70,-28],[-69,23],[-111,75],[-95,0],[-62,43],[-65,4],[-93,43],[-3,41],[-43,32]],[[94297,4340],[-30,49],[-58,13],[-31,73],[23,59],[81,41],[177,17],[55,72],[106,75],[52,163],[74,-9],[37,19],[32,88],[-10,50],[-123,117],[69,0],[-12,48],[-111,70],[183,94],[4,62],[43,150],[104,-14],[39,16],[-58,56],[85,42],[23,-22],[207,103],[-121,116],[-111,89],[149,-32],[76,38],[191,58],[78,-7],[71,57],[102,20],[49,30],[31,56],[15,79],[-23,120],[-308,25],[-79,-22],[-157,-19],[-121,39],[-10,62],[35,59],[-6,76],[-34,18],[24,95],[44,-4],[26,50],[64,-7],[15,63],[65,-7],[-14,106],[-38,43],[-97,-3],[30,136],[180,15],[134,-8],[7,32],[99,-12],[61,29],[50,219],[212,-18],[50,204],[-36,40],[83,89],[15,54]],[[94297,4340],[-50,9],[-124,-12],[-73,43],[-70,105],[-9,54],[-82,-37],[-39,-60],[29,-80],[-143,-160],[-47,62],[-118,12],[-96,65],[-84,27],[19,97],[49,104],[-95,26],[-79,57],[-164,-42],[-131,-8],[-14,-53],[-102,-78],[-8,-59],[-146,-11],[-69,-55],[-1,-50],[45,-56],[-47,-49],[-59,-28],[-102,-109],[-129,13],[-55,25],[-95,-34],[-138,5],[-83,-10],[-165,-119],[-97,10],[-40,-50],[-137,-86],[-141,-156],[-80,55],[-93,21],[-26,-23],[-138,30],[-146,-49],[-42,-49],[-88,-43],[-97,-12],[-173,-37],[-65,10],[-16,-83],[-48,-29],[-91,-21],[-63,-62],[-108,-53],[-14,-36],[-105,-14],[-75,12],[-39,112],[-61,-9],[-115,-70],[19,-40],[-32,-64],[23,-117],[64,-46],[60,-5],[63,-43],[20,-97],[30,-65],[-18,-51],[74,-78],[-3,-52],[79,-76],[159,6],[87,-88],[69,14],[31,-28],[-10,-59],[61,-57],[-217,-118],[35,-43],[-73,-81],[27,-120],[-40,-42],[6,-73],[-12,-122],[-79,-43],[-40,-68],[132,-41],[-77,-162],[-42,-20],[-40,-60],[-58,-9],[-44,49],[-144,-57],[-73,-45],[-154,-14],[-92,-31],[-58,40],[-117,34],[-90,9],[-82,-11],[-58,35],[-128,-31],[-30,-96],[30,-53],[-28,-70],[-63,-36],[-80,21],[9,46],[-50,26],[-189,-59],[-26,95],[-68,15],[-108,99],[-93,171],[15,49],[-48,22],[-85,-43],[-44,19],[-67,-83],[-61,-3],[-75,-94],[-56,11],[-103,-61],[-83,-23],[-164,-6],[-149,-43],[-61,-60],[-78,12],[-141,-58],[-47,-131],[-92,-49],[-110,-87],[-71,-118],[14,-60],[-44,-75],[77,-41],[-57,-31],[-40,-80],[-156,-53],[-33,-94],[-67,-69],[-97,-46],[-48,-45],[-96,-24],[-93,-117],[-100,1],[-138,24],[-127,-35],[-172,90],[-17,73],[57,41],[-110,122],[-59,0],[-82,75],[-25,113],[68,58],[-5,147],[-55,-1],[-16,55],[61,36],[-2,74],[-42,90],[30,26],[-60,34],[56,45],[6,74],[-44,52],[-109,32],[-111,62],[-12,52],[-152,25],[-51,30],[-48,71],[-100,30],[-83,4],[-64,60],[-61,0],[-55,26],[-72,1],[-43,47],[-63,0],[-78,70],[-47,-8],[-85,18],[-153,-58],[-81,5],[-46,43],[-13,83],[30,18],[-3,93],[-104,19],[8,48],[-33,67],[50,8],[-18,71],[-97,59],[-203,54],[-53,4],[-51,-30],[-70,6],[-42,39],[-81,27],[-15,88],[-73,26],[-95,66],[-70,-6],[-24,-34],[-135,49],[-35,-13],[-89,69],[-117,33],[-78,4],[-31,47],[-66,20],[-68,-5],[-74,46],[-90,31],[-91,-2],[-14,25],[-163,-6],[-16,-26],[-99,-34],[-48,-37],[-55,7],[-80,-38],[-65,38],[-180,-56],[-60,-59],[-208,28],[-4,31],[-111,44],[-147,-27],[-53,-49],[-111,-4],[-58,29],[90,33],[-94,27],[-69,-39],[-177,25],[-84,-17],[-85,-41],[-115,23],[-92,60],[-86,1],[9,83],[-88,41],[-67,-34],[-139,65],[-41,77],[-8,84],[-54,0],[-26,70],[-131,14],[-61,76],[-123,41],[-52,55],[-60,-22],[-103,8],[-80,-27],[-183,-114],[-84,-23],[-67,1],[-33,29],[-180,33],[-29,34],[-188,-50],[-113,11],[-54,-42],[-78,31],[-46,-7],[14,-60],[-104,-31],[-84,30],[-41,-31],[-83,-17],[-90,34],[-113,-17],[-27,-36],[-136,-53],[-55,-35],[-105,-20],[-54,20],[-71,-27],[-116,23],[-107,-6],[-23,-43],[-99,1],[-96,60],[-283,14],[-81,-49],[-25,28],[-70,3],[-251,-35],[-114,13],[-18,-29],[-115,13],[-6,29],[-97,-18],[-82,-92],[-110,-7],[-67,64],[-141,39],[-41,65],[-73,22],[-121,-31],[-86,111],[-162,35],[-102,-34],[-120,19],[-117,-32],[-50,26],[-98,-11],[-40,-32],[-55,2],[-41,-47],[-125,-8],[-27,-45],[-82,-37],[22,-47],[-80,-27],[8,-58],[-32,-57],[-47,-23],[-87,-107],[-42,3],[-70,-97],[-44,22],[-114,3],[-35,25],[-80,-61],[-61,-9],[-53,-35],[-109,-35],[-110,5],[-90,-103],[-215,-37],[-43,-47],[-46,-3],[-32,-64],[-55,-4],[-196,-71],[-28,-63],[17,-24],[-168,-81],[-134,19],[20,-54],[-24,-52],[-72,-38],[-94,28],[-99,-9],[-114,-58],[0,-74],[-61,-67],[-100,-64],[56,-15],[-51,-75],[17,-43],[-48,-33],[-34,-76],[-58,-55],[-13,-45],[-107,-28],[-44,13],[-51,-63],[-199,-50],[-7,-35],[-84,-69],[-1554,0],[-797,0],[-1087,0],[-1255,0],[-1486,0],[-1624,0],[-1134,0],[-1474,0],[-1179,0],[-1061,0],[-1543,0],[-1120,0],[-1581,0],[-1592,0],[-1061,0],[-1061,0],[-1062,0],[-1592,0],[-1080,0],[-1646,0],[-1072,0],[-978,0],[-1201,0],[-1018,0],[-1072,0],[-1497,0],[-1050,0],[-1511,0],[-1772,0],[-1127,1],[-1291,0],[-1285,-1],[-1285,0],[-1286,0],[-1164,0],[-1406,0],[-1344,1],[-1394,-1],[-1118,0],[-1291,0],[1,884],[0,508],[0,911],[1,1940],[0,728],[0,654],[0,1034],[0,931],[0,655],[0,1238],[0,946],[-1,762]]],"transform":{"scale":[0.00015559545595455934,0.00019991479914799147],"translate":[137.99465,-29.17924]},"objects":{"qld_qps_regions_gda94_simp10":{"type":"GeometryCollection","geometries":[{"arcs":[[0,1,2,3]],"type":"Polygon","properties":{"QPS Region":"Brisbane"}},{"arcs":[[4,5,6,7,8]],"type":"Polygon","properties":{"QPS Region":"Central"}},{"arcs":[[9,10]],"type":"Polygon","properties":{"QPS Region":"Far Northern"}},{"arcs":[[-3,11,-5,12]],"type":"Polygon","properties":{"QPS Region":"North Coast"}},{"arcs":[[[-8,13,-10,14]],[[15]],[[16]],[[17]],[[18]]],"type":"MultiPolygon","properties":{"QPS Region":"Northern"}},{"arcs":[[-1,19,20]],"type":"Polygon","properties":{"QPS Region":"South Eastern"}},{"arcs":[[-2,-21,21,-6,-12]],"type":"Polygon","properties":{"QPS Region":"Southern"}}]}}}