{"type":"Topology","arcs":[[[90419,23304],[21,-31],[-44,-22],[-59,16],[-46,-20],[-112,2],[-56,64],[-44,18],[-69,-14],[-55,-49],[32,-28],[-51,-37],[-22,-67],[-50,-18],[-46,-52],[3,-33],[-42,-54],[160,-30],[-20,-100],[-164,15],[37,-82],[-34,-31],[-10,-46],[79,-3],[80,-20],[17,-54],[50,-5],[-22,-122],[-194,22],[-5,-64],[17,-58],[-58,-5],[-71,-28],[-67,-2],[-56,-55],[-27,-69],[27,-30],[-212,-37],[24,-38],[-37,-24],[-26,-51],[-57,-37],[-54,-8],[-38,-44],[-76,0],[-69,49],[-84,41],[-70,13],[-102,108],[-82,25],[-225,17],[-49,-149],[-96,52],[-40,51],[-9,45],[-56,29],[-85,84],[-92,29],[-37,63],[-50,-14],[-64,-45],[-58,1],[-50,-45],[49,-38],[-83,-34],[-79,40],[-60,57],[-102,45],[-52,9],[-154,-51],[-107,59],[-56,-13],[-82,24],[-107,132],[115,47],[39,62],[24,99],[1,54],[-119,88],[-78,9],[-44,22],[28,36],[-27,41],[-95,62],[-33,68],[10,55],[-59,26],[-44,-3],[-45,-117],[-70,-52],[-90,37],[-20,-40],[43,-29],[-59,-74],[-56,-21],[-88,-4],[-25,-94],[-57,-9],[-154,37],[-45,-12],[-57,-88],[-149,-7],[7,-71],[-85,6],[-85,-42],[-20,-70],[-59,-6],[-36,51],[-159,19],[-18,-31],[-55,-13],[-117,46],[-46,52],[-65,46],[-84,-20],[-50,-31],[-36,45],[90,52],[145,-17],[-74,210],[31,71],[31,173],[-60,19],[-141,-37],[-86,-6],[-95,-39],[-73,15],[-29,46],[-4,53],[22,27],[-12,44],[48,70],[18,60],[32,39],[-97,68],[-5,24],[-100,25],[-24,-41],[-75,-23],[-48,-31],[-51,22],[-6,39],[-40,20],[-11,41],[-53,46],[-115,16],[-15,26],[-78,25],[-78,74],[16,55],[-22,38],[-95,11],[-82,-25],[-76,13],[-36,-58],[-41,-18],[1,-165],[-33,-21],[4,-47],[-59,-176],[-57,-22],[-45,-63],[27,-125],[87,-79],[-75,-15],[-5,-132],[-161,44],[-75,13],[-331,76],[-86,-39],[-75,7],[-70,-18],[-120,33],[-47,-240],[27,-6],[101,-68],[66,-9],[119,-55],[98,29],[45,-33],[51,6],[20,-59],[66,-40],[-109,-92],[-63,-43],[-18,-54],[-43,-41],[27,-22],[-39,-105],[-118,-11],[-219,35],[-43,39],[-196,-24],[-49,-34],[-166,89],[-95,9],[-167,-12],[-126,6],[-63,17],[-83,-23],[-69,51],[-92,-12],[-32,-68],[-94,1],[-69,-12],[-160,-100],[98,-291],[11,-57],[-34,-173],[-41,-48],[-70,-11],[-143,-261],[-14,-75],[11,-44],[-102,-178],[-18,-8],[44,-84],[44,-44],[-32,-98],[9,-195],[-7,-76],[61,-117],[-10,-54],[143,-91],[-55,-15],[-87,-92],[35,-59],[-30,-80],[-39,-16],[-131,-1],[-146,-43],[-66,-65],[27,-31],[-101,-11],[-97,22],[4,-60],[28,-96],[-12,-55],[-63,-46],[-19,-74],[-61,-34],[41,-72],[-97,-20],[32,-106],[-71,-112],[-70,8],[-65,-35],[19,-94],[-78,-78],[69,-23],[-145,-103],[58,-36],[-34,-26],[17,-56],[-71,-24],[89,-64],[-44,-79],[-143,-70],[-5,-52],[-30,-44]],[[79536,18501],[-69,-36],[-70,-10],[-172,113],[-89,26],[-105,77],[-12,53],[-87,13],[-70,-8],[-100,137],[-48,10],[-54,-72],[-12,-129],[-49,1],[-84,-27],[-8,40],[-95,32],[27,37],[-57,44],[-20,47],[-154,-26],[2,67],[-44,66],[23,30],[115,8],[42,23],[-9,69],[-100,27],[-31,119],[49,62],[-11,42],[-66,36],[83,94],[133,57],[-17,51],[-84,-27],[-118,40],[5,58],[144,87],[26,-6],[132,48],[-24,44],[3,56],[-41,65],[-53,42],[-1297,110],[-100,31],[-42,-21],[-68,10],[-307,23],[-305,28],[-53,40],[35,25],[49,85],[80,100],[-17,62],[-50,1],[-76,42],[-46,79],[-96,16],[-100,111],[-54,5],[-42,30],[-82,4],[-39,18],[-111,-27],[-196,36],[-64,35],[-59,63],[34,55],[-255,22],[-44,52],[-68,25],[6,36],[-102,2],[0,38],[-158,33],[-50,35],[-68,-10],[-100,22],[-13,108],[-43,454],[-19,241],[-101,-2],[-15,40],[-171,-16],[-1,-28],[-51,-69],[-61,-8],[-62,-40],[-36,-90],[-4,-100],[-124,-52],[-93,-53],[-30,-155],[-40,-58],[-56,-18],[51,-112],[39,-229],[-70,-74],[1,-37],[-50,-14],[-84,19],[-139,-37],[-50,58],[-83,17],[-159,74],[-33,-33],[-40,8],[-95,-24],[-17,-73],[-63,-66],[-39,-8],[-46,50],[-110,25],[-68,-28],[-18,-77],[23,-54],[8,-96],[-19,-37],[-47,-17],[-173,39],[-39,27],[-63,8],[-71,81],[-18,77],[-143,24],[-58,21],[-5,-58],[57,-78],[-37,-12],[-36,-67],[9,-51],[-44,-55],[-40,8],[-15,-77],[18,-20],[-58,-48],[-37,-52],[-52,4],[-63,-61],[-107,-40],[-27,-35],[-89,-4],[-53,16],[-18,69],[-105,28],[-30,21],[24,48],[95,39],[37,51],[-4,128],[-93,96],[52,90],[-6,60],[-136,38],[0,54],[-71,46],[-40,127],[-24,29],[11,44],[-43,40],[-7,68],[55,10],[-107,123],[32,74],[-158,-10],[-151,48],[-23,40],[-76,22],[-16,49],[-220,53],[-492,-285],[68,4],[36,-79],[-56,-35],[-44,-59],[-154,-39],[-69,-123],[27,-75],[-42,-68],[33,-18],[-17,-49],[-84,-42],[27,-122],[-31,-49],[27,-131],[76,-88],[25,-70],[89,-115],[52,-27],[26,-54],[54,4],[33,-51],[-66,-7],[-24,-50],[28,-102],[35,-9],[76,-73],[-5,-46],[31,-33],[-20,-64],[263,-18],[72,-62],[-33,-21],[-22,-67],[133,-84],[66,-6],[54,-104],[55,-15],[42,-36],[-15,-33],[-53,-20],[-85,-8],[-33,-26],[13,-49],[97,-15],[71,-75],[-1,-81],[-28,-61],[-52,-60],[-58,-27],[-14,-66],[62,8],[-36,-150],[-34,-68],[-97,-11],[-123,-45],[-76,2],[-43,-26],[-152,13],[-26,44],[-59,-18],[-194,24],[-57,31],[-62,9],[-37,59],[-72,-24],[-44,32],[-98,20],[-92,88],[-113,21],[-118,62],[-6,52],[-38,17],[50,222],[42,24],[89,96],[78,39],[-90,156],[-111,-39],[-43,6],[-84,41],[-38,-29],[-54,-5],[-61,21],[-45,-100],[-69,-49],[-36,19],[-111,112],[-41,25],[-75,-3],[-140,28],[-79,65],[-146,59],[-76,-19],[-88,32],[-174,19],[-182,-17],[-43,18],[-75,-9],[-131,-59],[-184,35],[-44,-52],[-92,80],[-102,-6],[-33,48],[-63,21],[-53,-17],[-56,26],[-27,46],[-69,11],[-70,37],[-133,-9],[6,43],[-87,109],[12,80],[-22,23],[-97,41],[5,21],[-101,66],[-36,10],[-124,97],[-11,69],[-136,71],[-21,31],[-73,-8],[-112,12],[-39,-24],[-91,2],[-70,113],[-32,0],[-69,91],[-82,6],[-33,96],[-112,22],[-90,81],[-62,130],[10,47],[-32,52],[12,66],[-61,36],[-14,60],[-60,66],[-48,8],[-101,-10],[-104,63],[-59,9],[-59,-13],[-140,90],[-137,-9],[-31,51],[-59,58],[-133,68],[-21,47],[36,69],[-66,46],[-55,6],[-15,40],[-79,63],[-141,39],[-64,32],[-40,72],[-67,53],[-61,14],[5,44],[-29,39],[-82,-10],[-131,32],[-93,-41],[-87,50],[-111,1],[-101,-21],[-66,-50],[-25,-37],[-72,-14],[-18,-37],[-98,-21],[-32,-42],[-55,15],[-140,-5],[-46,-29],[33,-59],[-28,-58],[-179,-23],[-60,-34],[-102,-33],[-87,-89],[-124,15],[-6,70],[-51,-10],[-51,18],[-152,-64],[-78,35],[15,-58],[-80,-61],[-31,-93],[-37,-51],[-61,-12],[-130,-2],[-235,-13],[-124,9],[-125,43],[-72,-29],[-128,6],[-53,21],[-149,-7],[8,-48],[-92,-13],[-50,-37],[-22,-51],[-68,-83],[-46,-31],[7,-75],[35,-48],[-30,-35],[-49,-1],[-105,-92],[-106,-54],[-108,29],[-95,-54],[-160,-8],[-90,18],[-40,35],[-13,85],[-152,34],[-103,-45],[-58,-76],[-10,-63],[-76,-34],[-65,6],[-68,44],[-73,11],[-39,-34],[222,-363],[-28,-4],[-264,24],[-107,-61],[-154,11],[-29,-160],[28,-24],[-39,-206],[-356,26],[-47,-309],[-256,9],[-123,-65],[-148,-199],[-78,-69],[-3,-23],[-302,-179],[-346,-193],[-29,28],[127,799],[-1105,94],[-70,-25],[-48,-327],[37,-40],[-52,-304],[-59,-10],[-370,29],[25,-25],[59,-128],[-940,82],[25,138],[-120,6],[-307,29],[-68,10],[-492,39],[-99,-579],[64,-5],[-18,-118],[-103,-456],[-57,6],[-67,-417],[-481,25],[-813,68],[14,97],[-2,115],[23,198],[-244,0],[23,-59],[-18,-171],[-29,-157],[213,-353],[-25,-13],[27,-160],[5,-155],[-34,-49],[-119,-49],[-98,9],[-64,24],[-743,77],[-376,35],[-28,89],[49,291],[-456,35],[-23,-147],[-472,-591],[-699,50],[62,390],[3,254],[34,-24],[128,-8],[67,102],[58,425],[16,45],[-562,30],[-95,20],[-42,36],[-105,11],[-114,-25],[-71,118],[-295,111],[-58,6],[20,135],[50,279],[-1475,128],[-62,20],[-74,-16],[-83,13],[-228,19],[42,96],[5,48],[-81,48],[72,32],[17,60],[-501,37],[-62,-8],[-63,35],[-440,19],[-84,18],[-83,-11],[395,224],[63,19],[-11,58],[44,26],[150,38],[100,613],[70,274],[-230,-121],[-116,-10],[-188,8],[-90,-30],[-89,92],[-65,1],[-79,99],[-100,48],[-11,29],[80,188],[6,49],[-35,51],[49,39],[-415,30],[51,363],[-678,48],[94,611],[23,132],[-224,17],[22,150],[-215,-68],[-156,-1526],[-936,-553],[-130,238],[-399,-504],[-114,94],[-830,-486],[-178,-229],[-56,-44],[-377,-469],[-13,-64],[39,-22],[46,-95],[-44,-89],[-74,-106],[-186,-49],[-9,-24],[31,-83],[-31,-48],[-55,-24],[17,-104],[-56,-53],[6,-21],[-64,-41],[-37,-54],[-41,-4],[-78,-38],[-9,-81],[-233,-117],[-214,-2],[-508,439],[-640,48],[-2,-14],[-476,28],[-44,28],[36,38],[126,-7],[76,42],[15,40],[50,10],[-141,254],[-96,91],[3,18],[-114,86],[-185,47],[-34,45],[-247,135],[-153,58],[-111,-40],[-179,152],[-762,-444],[-211,13],[-27,-27],[12,-64],[-59,-470],[-29,-29],[16,-67],[-66,-474],[234,-15],[-38,-272],[-331,21],[-23,-15],[-113,47],[-75,13],[-987,70],[-29,-202],[-47,-361],[-1380,98],[-77,-524],[-557,43],[66,416],[45,308],[-1118,85],[-77,28],[114,32],[35,98],[-955,58],[-423,-257],[-78,-52],[-3,-36],[-197,-85],[-3,-11],[-159,-64],[-134,-75],[-123,-21],[-229,-49],[-16,-56],[-99,-25],[-37,7],[-129,-15],[-121,-36],[-102,-61],[-102,-27],[-71,0],[-303,-199],[-92,-42],[-102,1],[-29,-141],[-134,11],[-80,-457],[-111,-732],[116,-515],[-32,-47],[-86,-54],[-42,-43],[-68,-134],[2,-57],[-63,-63],[-35,-112],[-77,-45],[-47,-106],[-69,-70],[-2,-87],[-40,-128],[-99,52],[-6,-32],[-1074,74],[2,41],[-600,40],[-5,-36],[-504,34],[-10,-42],[-69,-98],[-16,-40],[18,-80],[29,-60],[-32,-72],[64,-75],[-31,-25],[44,-86],[21,-84],[41,-13],[53,-60],[-11,-15],[52,-75],[-21,-49],[21,-41],[65,-70],[107,-95],[13,-38],[78,-80],[12,-48],[59,-46],[30,-54],[77,-40],[1,-71],[-42,-88],[59,-42],[-9,-49],[32,-47],[63,-39],[72,-21],[-46,-67],[16,-125],[-52,-12],[-2,-38],[-339,29],[-105,23],[-197,15],[-147,-11],[-196,28],[-63,23],[-51,-14],[-455,35],[-260,227],[-947,70],[-909,-4],[-230,1],[-29,-204],[-518,38],[-70,-394],[-794,66]],[[19311,12092],[1,1204],[0,582],[-1,655],[0,1388],[-577,0]],[[18734,15921],[102,792],[79,611],[-108,7],[12,170],[-166,8],[93,772],[-196,287],[-118,-71],[-109,-31],[-46,-53],[-85,-133],[-323,253],[-624,38],[54,441],[96,843],[87,-19],[914,-62],[141,1168],[-492,32],[18,191],[37,537],[393,-22],[71,734],[-298,19],[13,128],[790,-23],[789,-3],[1016,-59],[-24,-196],[538,327],[248,153],[93,731],[350,-2],[565,-471],[33,-30],[1337,-266],[96,29],[109,-11],[66,41],[245,29],[72,35],[44,42],[185,92],[131,127],[146,20],[45,33],[142,60],[37,-5],[127,21],[56,31],[37,40],[-687,585],[427,252],[-51,47],[274,162],[-214,162],[-807,619],[729,487],[672,-551],[186,171],[307,191],[134,928],[152,1045],[-895,34],[-106,8],[-9,-70],[-1022,73],[-954,4],[-6,-73],[-954,81],[-483,423],[-435,357],[-26,35],[-46,-6],[-516,431],[-228,186],[-128,94],[-554,474],[-694,-421],[-52,18],[-332,275],[-79,-44],[-195,167],[-741,608],[-47,43],[803,469],[-145,117],[351,223],[432,261],[-152,122],[-30,7],[-122,118],[792,469],[-50,150],[38,112],[16,15],[-36,233],[-93,63],[-51,240],[-34,69],[8,50],[277,-15],[75,-61],[343,179],[-440,381],[-326,279],[472,290],[595,362],[51,69],[-162,118],[-295,243],[103,972],[615,-34],[-27,84],[4,106],[-42,70],[2,105],[161,246],[1116,-37],[159,976],[479,-31],[-21,-181],[1026,-64],[10,79],[1277,-79],[702,-43],[114,591],[21,465],[18,326]],[[26206,38215],[95,-8],[491,-10],[440,-39],[-23,-227],[686,-54],[-19,-49],[-9,-97],[1032,-40],[28,231],[446,-28],[1,5],[588,-39],[-34,-299],[675,413],[11,-1],[28,268],[341,208],[300,-262],[516,317],[70,-60],[301,196],[1207,730],[312,-22],[1,9],[790,-54],[-127,-923],[289,-43],[20,-86],[-119,-80],[29,-337],[-3,-9],[481,-36],[11,9],[1268,-90],[-44,-321],[-74,-464],[514,-41],[465,-43],[100,4],[822,-39],[54,-11],[703,-41],[-35,-313],[131,-19],[225,-3],[124,-15],[-2,-22],[479,-37],[-36,-379],[533,-37],[44,-179],[-11,-76],[956,-69],[-25,-183],[-71,-74],[-30,-229],[681,-42],[-8,-102],[281,-16],[52,2],[535,-28],[178,-12],[336,-30],[39,9],[105,-46],[85,588],[279,-21],[29,265],[914,-68],[47,343],[38,301],[809,-61],[14,161],[-66,54],[6,42],[500,-38],[34,214],[52,355],[567,-43],[50,-175],[696,-59],[309,-29],[106,771],[606,-49],[22,218],[936,-50],[-30,-255],[-68,1],[-112,-393],[-33,-482],[-67,5],[-82,-720],[979,-53],[-3,-95],[714,-69],[-1,-23],[968,-97]],[[51648,35390],[226,-60],[52,-36],[-61,-312],[39,-204],[-118,-557],[4,-3],[444,-48],[-84,-488],[31,-6],[1040,-79],[-41,-230],[132,55],[137,22],[156,-11],[76,-22],[162,-97],[98,0],[89,41],[174,116],[53,4],[96,-61],[-80,-248],[-97,7],[-146,-1041],[941,-66],[2,-47],[-45,-48],[-98,-39],[6,-89],[123,-129],[27,-106],[55,-87],[115,-61],[112,10],[108,34],[81,-27],[145,17],[20,-47],[97,-70],[-7,-74],[175,-147],[52,-16],[24,-42],[107,-14],[89,-25],[129,-71],[73,-87],[22,-45],[69,-51],[51,-67],[17,-48],[-44,-54],[37,-125],[-61,-45],[50,-68],[-8,-54],[50,-112],[45,-44],[75,-24],[21,-23],[120,-27],[132,-40],[67,-40],[67,-103],[-17,-60],[17,-31],[64,-35],[3,-32],[-41,-113],[10,-59],[-34,-70],[-67,-23],[-25,-56],[-37,-12],[-2,-55],[502,-54],[45,276],[245,-17],[651,-80],[-27,-136],[539,-97],[20,-67],[802,-58],[-4,72],[-19,28],[66,38],[-21,49],[-70,56],[-5,41],[57,80],[-21,23],[-81,32],[-7,58],[-62,60],[-1,171],[57,16],[53,53],[240,16],[160,53],[74,-21],[125,54],[10,26],[69,26],[73,90],[65,21],[43,45],[108,27],[84,47],[34,62],[85,43],[27,32],[75,-2],[72,71],[-15,44],[9,74],[-16,40],[112,45],[43,41],[79,6],[-154,144],[43,71],[325,-120],[6,86],[44,26],[-37,47],[67,69],[42,17],[67,-12],[35,201],[58,-6],[13,73],[48,8],[41,56],[48,0],[-8,-50],[139,-99],[131,25],[5,27],[58,17],[164,-4],[32,58],[7,78],[222,121],[45,3],[81,35],[108,139],[69,35],[26,59],[38,34],[173,88],[151,-11],[72,23],[134,79],[119,15],[80,63],[47,99],[-13,53],[104,0],[169,60],[133,25],[57,-14],[54,51],[17,44],[-14,43],[47,52],[50,27],[47,-12],[-7,-48],[52,-97],[176,-33],[66,-53],[22,-149],[40,-8],[105,-51],[28,-25],[117,-52],[151,-10],[69,20],[40,-74],[126,-17],[43,-36],[56,5],[75,40],[106,-4],[115,23],[29,28],[24,160],[158,3],[40,28],[71,17],[108,-9],[209,36],[83,-3],[175,-201],[22,-9],[-34,-139],[-93,-73],[-50,8],[-89,-51],[-12,-46],[-215,-135],[-44,-62],[-35,-7],[-36,-52],[8,-35],[64,-69],[-11,-42],[61,-9],[173,-201],[525,247],[330,165],[405,-37],[47,-60],[81,-61],[0,-40],[-72,-99],[107,-51],[-57,-74],[-38,25],[-31,73],[2,62],[-76,36],[3,-60],[34,-105],[-56,-23],[78,-61],[-3,-113],[-46,-45],[-9,-51],[-44,-36],[58,-18],[465,0],[-14,-232],[-18,-73],[-147,-199],[109,-9],[291,-157],[-381,-365],[111,-60],[-452,-275],[-61,-207],[308,-86],[128,-159],[-129,-138],[145,-310],[-323,-182],[11,-40],[-9,-110],[18,-75],[66,-25],[62,15],[30,-17],[119,15],[32,38],[9,51],[70,15],[44,-55],[122,17],[42,19],[100,135],[7,69],[-9,82],[19,16],[99,-6],[132,110],[67,39],[114,32],[28,43],[-89,2],[-117,40],[33,24],[19,72],[87,11],[113,80],[-45,59],[-7,49],[52,59],[158,24],[47,-83],[19,-65],[58,-18],[94,12],[34,34],[10,99],[99,-1],[42,-50],[110,-42],[63,-43],[41,27],[115,29],[88,56],[25,30],[9,113],[-17,60],[-84,43],[-59,108],[57,33],[21,79],[111,17],[-4,41],[36,22],[49,-43],[176,-46],[71,17],[-29,52],[45,37],[124,10],[37,87],[-37,20],[36,62],[67,28],[34,36],[120,12],[66,93],[53,36],[-1,88],[-112,30],[21,67],[-67,7],[-52,24],[25,65],[-41,39],[53,56],[169,35],[122,19],[46,25],[46,60],[53,35],[273,-16],[150,25],[50,-27],[180,12],[244,55],[61,-19],[55,22],[83,130],[88,98],[39,108],[27,29],[79,2],[216,88],[-6,79],[109,69],[31,74],[41,36],[48,1],[59,40],[-24,53],[18,60],[115,-21],[59,13],[73,-8],[194,98],[95,-1],[138,148],[-6,71],[-23,37],[2,69],[-22,81],[11,35],[75,20],[53,124],[-88,59],[-24,51],[5,86],[-73,28],[-77,6],[-32,69],[-84,-22],[-88,132],[75,214],[32,9],[68,-38],[22,-76],[60,-43],[48,-9],[85,24],[95,72],[41,-17],[29,169],[43,-2],[50,-35],[38,-57],[63,-28],[39,19],[151,0],[82,19],[174,98],[87,11],[205,-31],[119,6],[2,73],[86,-11],[-23,54],[2,54],[-30,82],[69,74],[66,23],[38,37],[48,98],[341,88],[383,262],[65,104],[-32,75],[4,54],[-6,996],[-5,1014],[-2,413],[1742,-11],[1180,-6],[2880,-11],[1667,-4],[642,0],[5630,5],[4851,24]],[[94357,36408],[373,-496],[-1,-73],[38,-176],[64,-206],[12,-126],[55,-102],[28,-17],[12,-54],[-16,-141],[13,-101],[-25,-56],[22,-200],[-54,-89],[-119,-96],[-9,-131],[-23,-157],[-68,-65],[-15,-31],[945,-3139],[263,-868],[854,-2835],[663,-2208],[519,-1715],[-2193,3],[-5141,-3],[-144,0],[9,-22]],[[93146,4631],[-25,-21],[-131,-8],[-14,-53],[-40,-43],[-62,-35],[-8,-59],[-146,-11],[-30,13],[-39,-68],[-1,-50],[45,-56],[-47,-49],[-59,-28],[-60,-77],[-42,-32],[-44,16],[-85,-3],[-55,25],[-95,-34],[-138,5],[-70,21],[-13,-31],[-109,-70],[-56,-49],[-97,10],[-40,-50],[-137,-86],[-141,-156],[-63,27],[-17,28],[-93,21],[-26,-23],[-138,30],[-146,-49],[-42,-49],[-88,-43],[-97,-12],[-173,-37],[-65,10],[-16,-83],[-48,-29],[-91,-21],[-63,-62],[-108,-53],[-14,-36],[-105,-14],[-75,12],[-28,44],[-11,68],[-61,-9],[-115,-70],[19,-40],[-32,-64],[23,-117],[64,-46],[60,-5],[63,-43],[20,-97],[30,-65],[-18,-51],[74,-78],[-3,-52],[79,-76],[42,10],[117,-4],[87,-88],[69,14],[31,-28],[-10,-59],[61,-57],[-30,-34],[-59,-16],[-128,-68],[35,-43],[-73,-81],[27,-120],[-40,-42],[23,-42],[-17,-31],[-12,-122],[-79,-43],[-40,-68],[132,-41],[14,-30],[-48,-28],[-43,-104],[-42,-20],[-40,-60],[-58,-9],[-44,49],[-74,-40],[-70,-17],[-73,-45],[-154,-14],[-92,-31],[-58,40],[-117,34],[-90,9],[-82,-11],[-58,35],[-80,-9],[-48,-22],[-30,-96],[30,-53],[-28,-70],[-63,-36],[-80,21],[9,46],[-50,26],[-189,-59],[-26,95],[-68,15],[-108,99],[-93,171],[15,49],[-48,22],[-85,-43],[-44,19],[-67,-83],[-61,-3],[-75,-94],[-56,11],[-103,-61],[-83,-23],[-164,-6],[-149,-43],[-61,-60],[-78,12],[-141,-58],[-47,-131],[-92,-49],[-110,-87],[-53,-71],[-18,-47],[14,-60],[-44,-75],[77,-41],[-57,-31],[-40,-80],[-156,-53],[-33,-94],[-67,-69],[-97,-46],[-48,-45],[-96,-24],[-93,-117],[-100,1],[-138,24],[-127,-35],[-106,63],[-66,27],[-17,73],[57,41],[-89,87],[-21,35],[-59,0],[-82,75],[-25,113],[68,58],[-5,147],[-55,-1],[-16,55],[61,36],[-2,74],[-28,29],[-14,61],[30,26],[-60,34],[56,45],[6,74],[-44,52],[-109,32],[-111,62],[-12,52],[-152,25],[-51,30],[-2,32],[-46,39],[-100,30],[-83,4],[-64,60],[-61,0],[-55,26],[-72,1],[-43,47],[-63,0],[-78,70],[-47,-8],[-85,18],[-153,-58],[-81,5],[-46,43],[-13,83],[30,18],[-3,93],[-104,19],[8,48],[-33,67],[50,8],[-18,71],[-97,59],[-203,54],[-53,4],[-51,-30],[-70,6],[-42,39],[-81,27],[-15,88],[-73,26],[-95,66],[-70,-6],[-24,-34],[-135,49],[-35,-13],[-75,40],[-14,29],[-117,33],[-78,4],[-31,47],[-66,20],[-68,-5],[-74,46],[-64,2],[-26,29],[-91,-2],[-14,25],[-163,-6],[-16,-26],[-99,-34],[-48,-37],[-55,7],[-80,-38],[-65,38],[-180,-56],[-60,-59],[-208,28],[-4,31],[-111,44],[-147,-27],[-53,-49],[-111,-4],[-58,29],[90,33],[-94,27],[-69,-39],[-177,25],[-43,-34],[-41,17],[-85,-41],[-115,23],[-92,60],[-86,1],[9,83],[-88,41],[-67,-34],[-43,9],[-96,56],[-41,77],[-8,84],[-54,0],[-30,31],[4,39],[-131,14],[-42,28],[-19,48],[-123,41],[-52,55],[-60,-22],[-103,8],[-80,-27],[-183,-114],[-46,10],[-38,-33],[-67,1],[-33,29],[-180,33],[-29,34],[-188,-50],[-113,11],[-54,-42],[-78,31],[-46,-7],[14,-60],[-104,-31],[-84,30],[-41,-31],[-83,-17],[-90,34],[-113,-17],[-27,-36],[-136,-53],[-55,-35],[-105,-20],[-54,20],[-71,-27],[-116,23],[-107,-6],[-23,-43],[-99,1],[-96,60],[-283,14],[-81,-49],[-25,28],[-70,3],[-107,-21],[-144,-14],[-114,13],[-18,-29],[-115,13],[-6,29],[-97,-18],[-41,-30],[-41,-62],[-110,-7],[-67,64],[-141,39],[-41,65],[-73,22],[-121,-31],[-86,111],[-28,14],[-134,21],[-102,-34],[-120,19],[-117,-32],[-50,26],[-98,-11],[-40,-32],[-55,2],[-41,-47],[-125,-8],[-27,-45],[-82,-37],[22,-47],[-80,-27],[8,-58],[-32,-57],[-47,-23],[-87,-107],[-42,3],[-70,-97],[-44,22],[-114,3],[-35,25],[-80,-61],[-61,-9],[-53,-35],[-51,-4],[-58,-31],[-62,11],[-60,-27]],[[72606,2320],[-161,146],[-32,-30],[-238,218],[42,21],[-153,139],[-16,-10],[-293,255],[-229,20],[70,402],[164,-4],[39,227],[-320,27],[43,261],[-6,45],[56,340],[80,529],[275,-22],[19,15],[879,-87],[-1,-7],[510,-50],[163,796],[95,-8],[78,392],[1090,-109],[28,137],[235,-21],[762,-75],[313,69],[450,90],[175,38],[669,-75],[189,-18],[23,137],[305,-26],[125,265],[131,-61],[424,140],[60,-56],[104,-10],[-14,280],[197,1],[-16,244],[335,-29],[56,236],[167,-17],[116,-86],[49,-6],[35,44],[-59,51],[173,89],[187,-108],[43,35],[55,-24],[25,28],[198,-138],[158,109],[46,-32],[349,-35],[113,-54],[71,-80],[113,-24],[79,-73],[72,-125],[11,-222],[179,-43],[21,-76],[106,-72],[56,-7],[145,705],[44,-7],[54,261],[-19,19],[14,143],[43,233],[66,323],[89,95],[78,19],[71,112],[80,66],[65,88],[61,60],[61,15],[65,249],[-59,164],[78,44],[-25,40],[-127,76],[-9,156],[108,33],[48,112],[106,19],[256,-77],[560,-124],[59,-6],[158,14],[535,-53],[30,9],[342,-33],[77,10],[168,-11],[22,148],[218,-58],[22,-11],[146,-16],[-5,-70],[240,-27],[217,-8],[464,-6],[128,220],[95,19],[9,38],[65,67],[101,27],[99,58],[-7,29],[-233,115],[41,184],[-19,2],[43,196],[-64,7],[15,106],[36,171],[57,-6],[22,40],[-36,140],[117,-12],[-11,-54],[96,-11],[5,23],[183,-18],[6,30],[85,-12],[43,33],[69,-8],[-7,-31],[81,-8],[16,71],[34,53],[-2,61],[33,158],[100,-10],[28,138],[45,11],[97,-10],[28,138],[67,22],[165,34],[-10,61],[83,106],[-25,21],[-12,78],[-146,94],[8,33],[-118,69],[-60,-6],[-137,74],[-61,0],[-74,27],[-36,53],[-12,55],[-52,34],[-84,80],[-5,32],[-57,49],[-55,8],[-77,86],[17,38],[-27,26],[15,107],[-86,-1],[-86,22],[-67,41],[-57,-30],[-59,-8],[-154,26],[-109,53],[-30,28],[-5,58],[-32,18],[26,41],[-22,34],[27,39],[-22,26],[-109,30],[-37,35],[98,52],[12,79],[-54,41],[-49,61],[-53,6],[-39,35],[-173,62],[-12,45],[-110,37],[-15,38],[-79,14],[-85,53],[-23,46],[-73,26],[-16,102],[-53,6],[-49,-26],[-86,6],[-71,55],[4,44],[-64,27],[-52,-23],[-113,66],[-51,65],[25,32],[-30,28],[28,50],[-839,82],[244,416],[121,536],[15,47],[-449,41],[-320,-8],[-22,321],[61,-17],[324,115],[20,54],[151,7],[-7,52],[110,45],[63,-53],[88,-38],[69,-3],[77,51],[-36,79],[20,65],[-62,77],[-100,0],[-52,-46],[-70,-21],[-27,30],[-86,10],[-122,70]],[[84091,15419],[197,24],[37,47],[-97,37],[52,63],[11,99],[265,-40],[877,-89],[74,-26],[63,37],[25,47],[109,74],[5,34],[-43,48],[104,70],[53,-2],[43,31],[174,-18],[556,31],[33,9],[-3,49],[53,7],[19,67],[40,17],[-13,43],[61,31],[30,37],[-19,46],[36,81],[-9,29],[-102,24],[13,42],[-46,17],[32,45],[38,-18],[33,-62],[59,3],[58,264],[121,15],[65,-2],[219,-27],[56,-26],[152,52],[98,-30],[46,-52],[117,-9],[-21,-43],[62,-36],[12,-41],[-29,-76],[221,-28],[156,-73],[133,-32],[47,26],[55,-26],[16,-42],[63,-13],[318,-32],[-49,-247],[73,-7],[-44,-68],[144,-13],[34,70],[473,-47],[8,10],[165,-17],[-3,-49],[58,-65],[-29,-45],[-50,-14],[32,-38],[-33,-149],[316,-34],[-38,-48],[-72,-36],[-94,-7],[27,-59],[119,-23],[25,-102],[-21,-100],[96,-10],[126,-115],[2,-30],[-39,-54],[26,-65],[74,15],[127,-99],[77,41],[60,-29],[30,-164],[78,-48],[11,-47],[-29,-27],[-14,-93],[-70,-125],[-26,-1],[-69,-82],[21,-74],[-13,-22],[128,-19],[24,119],[101,-34],[52,-39],[155,-19],[19,-35],[-15,-41],[174,-47],[146,-126],[18,-55],[-40,-185]],[[91087,13524],[-115,-36],[-87,11],[-24,-36],[25,-31],[-68,-62],[11,-62],[28,-18],[-34,-46],[61,-174],[-32,-43],[43,-39],[24,-62],[-68,-27],[35,-69],[-49,-64],[-12,-55],[-180,-78],[-113,-21],[-49,-52],[17,-88],[44,-17],[39,-53],[151,-31],[73,-56],[37,-52],[22,-70],[63,11],[136,-13],[-53,-61],[1,-73],[80,-20],[53,-35],[-37,-83],[36,-63],[-15,-62],[103,-11],[-15,-71],[-43,-44],[15,-34],[5,-88],[-131,-15],[-120,-43],[-41,-60],[71,-49],[-39,-32],[2,-83],[-103,-85],[26,-86],[116,-19],[121,-59],[63,7],[41,-44],[-66,-38],[89,-9],[-14,-63],[76,-8],[45,-32],[101,-39],[-14,-20],[-127,-7],[-27,-145],[209,-21]],[[91473,10596],[-84,-71],[-148,14],[-39,55],[-32,-143],[-283,-223],[37,-59],[299,-114],[-21,-42],[-45,-20],[18,-64],[-124,26],[-18,-84],[63,-24],[71,27],[220,-18],[38,38],[105,-11],[-18,-92],[-51,-35],[-108,-34],[-50,-38],[-65,6],[-14,-64],[114,-33],[-65,-105],[48,-55],[-24,-70],[-51,-19],[-13,-45],[73,-9],[-14,-96],[-21,2],[-29,-125],[64,31],[-20,-90],[-35,-38],[102,-25],[121,10],[215,-22],[-18,-82],[30,-36],[102,34],[28,39],[53,7],[18,-136],[63,9],[41,-19],[33,154],[177,-18],[7,15],[188,-13],[105,-47],[76,-18],[-13,-69],[93,-9],[-33,-32],[172,-16],[0,-89],[57,-29],[85,-4],[96,-46],[47,-48],[-51,-18],[35,-48],[-22,-58],[83,-10],[-22,-91],[81,-8],[-25,-111],[170,0],[-40,-113],[-30,-33],[-69,-9],[47,-65],[-105,-38],[-101,-122],[-16,-51],[-37,-33],[-7,-48],[-33,-41],[-46,-15],[-39,-49],[-139,-65],[-104,-160],[21,-3],[-32,-141],[-85,-39],[-15,-64],[38,-61],[46,-38],[44,-6],[-16,-74],[-88,-22],[-9,-39],[57,-36],[-38,-30],[50,-150],[-6,-29],[63,-84],[-5,-89],[-43,-23],[10,-67],[66,-127],[-87,-72],[-3,-63],[-47,-30],[-75,-6],[-31,-59],[-20,-109],[51,-61],[48,-32],[-12,-27],[42,-63],[-33,-51],[170,-53],[-10,-45],[24,-49],[-58,-36],[13,-85],[94,-82],[51,-10],[-13,-58],[22,-68],[72,-51],[-30,-48],[34,-53],[55,-45],[96,3],[16,-47],[-92,-111],[150,-14],[65,-72],[-30,-48]],[[53357,53414],[-294,43],[-136,14],[-125,-93],[-22,-42],[-151,-79],[-25,38],[-94,37],[-58,-7],[-220,55],[-41,63],[43,54],[-51,32],[0,28],[-44,46],[-19,49],[-68,10],[-1,56],[52,38],[-24,58],[-83,101],[-70,-13],[-138,42],[-40,-8],[-62,42],[-66,-18],[-102,15],[-62,-24],[-112,-17],[-140,13],[-93,151],[-116,-27],[-132,-78],[-68,-58],[-119,-53],[-39,37],[-108,-28],[-115,-3],[-39,20],[-46,-24],[-44,19],[3,82],[-51,43],[-28,-39],[-84,-20],[-9,-67],[-64,46],[-87,-26],[-69,-2],[-20,-73],[32,-48],[-36,-35],[3,-37],[-99,-58],[-74,-80],[-129,-24],[41,-47],[2,-42],[-585,58],[-797,73],[-35,-573],[-667,60],[-42,-27],[-167,169],[-389,360],[-27,-143],[-31,-55],[42,-61],[-10,-69],[-37,-33],[-31,-61],[52,-99],[-65,-67],[-55,6],[-68,-97],[-73,-74],[-85,-65],[-129,-26],[-79,11],[-101,51],[-44,-4],[-49,-59],[-136,-34],[-112,13],[-44,-11],[-161,-77],[-22,-41],[-77,-49],[-29,-38],[-58,1],[-42,-43],[-99,7],[-75,39],[-123,-33],[-120,31],[-222,117],[12,96],[-255,246],[-123,24],[-3,53],[-270,299],[-207,2],[-40,-27],[-94,0],[-112,-30],[-24,43],[-173,18],[-124,-83],[-74,16],[5,-160],[22,-97],[-17,-26],[-103,-78],[16,-61],[40,-48],[25,-59],[9,-73],[-20,-44],[-48,-34],[-38,-104],[-27,-25],[-69,-9],[-279,-59],[-64,-43],[-48,-80],[-130,-54],[-46,-35],[-46,-106],[-72,-74],[0,-38],[-42,-66],[-11,-58],[-42,-27],[-56,-132],[-50,-61],[4,-58],[-53,-41],[-74,-1],[-65,-34],[-88,-10],[-155,-183],[-52,-43],[21,-73],[-110,-277],[-65,-54],[-21,-47],[14,-89],[-15,-48],[31,-37],[-21,-100],[-38,-59],[-6,-174],[17,-95],[-8,-76],[-73,-83],[-88,7],[-212,-55],[-43,-33],[-172,-90],[-59,-8],[-69,-107],[-41,-125],[9,-69],[62,-37],[4,-71],[22,-57],[-21,-53],[-63,-35],[-21,-52],[-45,-45],[-36,-203],[24,-48],[-30,-98],[-148,-87],[-41,-48],[-111,-57],[-112,-104],[-42,-119],[15,-100],[-86,-153],[-66,-50],[-42,-156],[7,-65],[-33,-116],[-91,43],[-37,32],[-170,47],[-34,29],[-16,60],[-99,45],[-113,10],[-98,-32],[-44,1],[-87,-40],[-94,8],[-223,38],[-61,-65],[-102,-72],[-95,-85],[-66,-32],[-176,-8],[-134,17],[-113,-39],[-84,-17],[-186,-16],[-284,-16],[-176,33],[-177,65],[-137,59],[-267,79],[-122,23],[-211,-58],[-31,-1],[-198,67],[-178,119],[-87,148],[-96,116],[-162,108],[-101,45],[-90,24],[-140,-41],[-39,-20],[35,-107],[-24,-53],[-51,-42],[-75,-33],[-151,-45],[-53,-34],[-28,-46],[-64,-50],[-89,14],[-83,-20],[-25,14],[-123,-61],[2,-101],[-72,-79],[-99,-1],[-105,42],[-60,-6],[-58,-78],[-102,-37],[-73,-55],[-47,-84],[-57,-67],[-7,-73],[-87,-61],[-31,11],[-55,59],[-31,3],[-45,-40],[-1412,94],[-357,21],[-1162,75],[-1240,82],[10,77]],[[29613,47816],[47,362],[-112,6],[81,717],[-1337,74],[-9,-69],[-135,9],[56,445],[113,925],[-301,20],[-10,-125],[-744,57],[-9,-67],[-486,37],[110,850],[-305,13],[-16,-119],[-1190,75],[-66,-557],[-1029,58],[-58,-569],[-113,1],[-100,63],[-86,0],[-73,42],[-49,56],[-40,17],[-75,3],[-62,-18],[-213,17],[-132,65],[-27,64],[-14,83],[72,-6],[103,737],[205,-12],[85,717],[68,563],[-447,31],[-413,33],[-1247,97],[38,280],[-354,25],[-101,54],[23,21],[-19,84],[-34,18],[-18,93],[55,16],[-10,34],[-68,51],[-17,82],[-5,123],[84,29],[10,33],[-41,40],[36,47],[-30,40],[14,45],[56,54],[-26,107],[-54,6],[-75,46],[20,32],[-15,92],[-43,12],[-47,55],[-8,45],[-75,24],[-35,71],[-47,16],[-25,50],[-97,34],[-32,188],[-38,20],[-20,127],[-29,38],[-68,6],[-33,59],[7,48],[-55,97],[-134,54],[-21,32],[-78,2],[-55,39],[9,48],[34,45],[-2,61],[-52,97],[-5,62],[42,63],[42,12],[291,-15],[50,490],[539,-39],[-13,-118],[729,-52],[32,266],[-76,-13],[31,359],[469,-21],[13,143],[-1052,57],[79,810],[74,18],[67,-57],[119,2],[31,-57],[134,21],[66,-9],[69,-51],[62,9],[125,63],[34,348],[-386,16],[25,343],[157,-10],[101,831],[967,-73],[24,190],[979,-63],[-20,-182],[714,-65],[-331,300],[679,430],[159,-81],[621,-593],[292,185],[775,-660],[575,372],[1,23],[-57,80],[-92,67],[-98,31],[-79,49],[-72,-3],[-139,23],[-60,27],[1064,731],[392,-345],[901,906],[-43,-10],[-83,9],[-53,22],[-29,37],[-99,72],[-118,57],[-80,72],[-33,73],[-133,37],[-99,68],[553,573],[97,804],[151,1266],[-233,35],[-223,-33],[-246,53],[-90,10],[-136,-25],[-170,-12],[-136,-32],[-112,2],[-74,36],[-48,2],[-137,34],[-115,11],[-82,23],[-202,40],[-78,-17],[-133,-1],[-103,-17],[-116,5],[-93,43],[-62,7],[-83,-16],[-188,-59],[-104,-5],[-77,34],[-114,13],[-241,-32],[-26,28],[-99,-5],[-67,43],[-26,52],[-110,74],[-22,76],[-87,18],[-54,25],[-122,9],[-25,15],[-120,-2],[-91,20],[-71,-12],[-79,38],[-119,8],[-38,24],[-54,-24],[-116,-3],[-40,26],[-77,17],[-89,59],[-22,31],[-61,14],[-60,-31],[-101,-6],[-119,-21],[-255,-2],[-93,-16],[-81,-31],[-120,-26],[-303,2],[-6,26],[-170,76],[-117,6],[-85,23],[-27,46],[-48,6],[-49,37],[-113,10],[-114,-50],[-84,12],[-58,83],[-25,9],[-98,-16],[-56,-22],[-113,-17],[-58,47],[26,45],[-29,73],[-68,-5],[-21,-52],[-63,27],[-90,-33],[-53,46],[-44,-7],[-47,-35],[-41,46],[-60,-8],[-81,-84],[-67,-12],[-60,40]],[[21193,63947],[42,80],[130,169],[104,286],[24,46],[38,160],[-19,60],[15,42],[101,154],[113,127],[47,81],[70,62],[187,275],[-5,127],[-127,166],[-27,88],[-89,205],[-15,112],[-85,129],[147,157],[81,159],[61,401],[16,293],[57,227],[11,88],[52,84],[21,114],[189,562],[126,134],[296,578],[64,172],[97,95],[31,56],[65,449],[47,100],[212,132],[90,69],[35,86],[-79,139],[104,189],[100,193],[-19,184],[-121,144],[-170,250],[-148,281],[-25,183],[-59,170],[-54,61],[-19,270],[-84,383],[6,304],[-38,92],[-124,377],[51,255],[149,406],[167,280],[113,260],[14,154],[-66,297],[39,84],[3,46],[-23,110],[-25,64],[-54,81],[-128,149],[-79,63],[-174,114],[-215,201],[-133,232],[-27,258],[102,426],[123,281],[48,357],[30,163],[97,300],[184,359],[85,48],[107,92],[129,176],[69,162],[116,189],[331,321],[35,52],[51,123],[-32,133],[-223,173],[-183,234],[-100,332],[30,163],[-4,48],[-198,158],[-38,104],[9,348],[35,35],[233,-1],[74,81],[35,-8],[276,115],[445,272],[70,91],[42,112],[128,268],[16,23],[49,155],[8,85],[-42,-13],[-559,-102],[-20,16],[0,130],[113,66],[613,304],[-26,67],[-35,20],[-83,-4],[-44,33],[-101,35],[-57,51],[14,36],[-47,34],[-10,44],[-85,6],[-84,51],[-144,36],[-40,-6],[-31,-44],[30,-79],[-74,-85],[-131,-1],[-123,-27],[-18,-53],[-71,-5],[-72,-27],[-76,54],[-73,8],[-64,25],[-19,36],[103,159],[19,68],[58,120],[108,160],[25,53],[156,275],[153,319],[86,239],[10,78],[61,86],[20,71],[64,23],[77,63],[122,189],[224,414],[58,81],[47,112],[87,126],[112,96],[83,145],[119,112],[113,62],[148,-7],[6,-38],[52,-26],[90,23],[34,30],[41,154],[21,212],[45,252],[67,154],[91,149],[133,65],[7,112],[63,176],[23,128],[65,56],[-3,61],[122,313],[54,171],[46,78],[40,32],[20,61],[80,158],[55,129],[56,29],[-3,72],[121,334],[29,52],[-11,49],[29,146],[9,96],[-16,44],[-25,374],[56,2],[80,103],[36,132],[27,203],[42,78],[-9,50],[-49,72],[30,33],[-45,131],[7,71],[-10,48],[-86,206],[-781,-2],[-3368,-12],[-1478,-3],[-1621,-3],[10,3140],[4,14],[753,356],[3473,1645],[2187,1036],[375,50],[0,2474],[312,241],[229,82],[188,-10],[278,50],[132,-17],[247,-193],[455,-182],[964,-500],[193,22],[212,-62],[216,94],[668,89],[232,7],[476,70],[108,-30],[93,-62],[60,-84],[30,-102],[-5,-75],[0,-1404],[964,42],[535,583],[818,0],[789,0],[1071,751],[672,58],[1257,109],[1142,-264],[1750,-403],[8,-5],[-46,-921],[6,-73],[-13,-39],[21,-214],[-25,-37],[-164,-146],[-77,-47],[-17,-69],[49,-66],[-29,-43],[35,-100],[-113,-106],[-121,28],[-111,-4],[-85,-78],[-84,-130],[0,-40],[-29,-80],[-11,-72],[-125,-153],[-77,-38],[-90,-69],[-29,-39],[-63,-137],[-211,-205],[-208,-154],[-42,-42],[-40,-174],[32,-29],[-40,-107],[-55,-69],[-6,-47],[6,-122],[-83,-136],[-25,-117],[-30,-88],[13,-30],[-22,-134],[17,-27],[3,-117],[-52,-56],[-19,-90],[5,-79],[-20,-61],[-46,-48],[20,-68],[-18,-81],[-69,-65],[10,-44],[-33,-48],[13,-54],[-11,-153],[22,-152],[-21,-101],[21,-64],[-4,-45],[49,-74],[32,-111],[-33,-74],[24,-57],[-14,-60],[-51,-34],[35,-128],[280,-295],[63,-36],[41,-67],[28,-77],[39,-146],[41,-86],[36,-110],[61,-151],[33,-115],[-11,-47],[8,-78],[59,-195],[3,-76],[-8208,0],[-98,0],[40,-53],[-23,-89],[38,-33],[7,-36],[63,-26],[-1,-53],[131,-92],[7,-81],[23,-62],[-18,-115],[33,-31],[-6,-43],[42,-61],[6,-50],[-24,-80],[-6,-77],[-63,-140],[27,-86],[37,-63],[7,-104],[19,-56],[47,-33],[97,4],[52,-99],[74,-28],[96,-125],[9,-66],[44,-22],[-13,-56],[51,-63],[-28,-41],[-206,-218],[-27,-104],[-12,-123],[41,-51],[41,-18],[-20,-101],[3,-99],[-9,-133],[56,-83],[56,-57],[2,-166],[39,-64],[-5,-171],[13,-25],[1,-113],[-10,-117],[22,-159],[-14,-81],[-40,-85],[-12,-80],[13,-80],[-5,-115],[34,-41],[70,-28],[27,-64],[70,-34],[96,5],[76,-101],[40,-16],[60,14],[133,-56],[136,-136],[66,13],[131,-35],[98,1],[133,15],[71,19],[231,93],[60,35],[5,47],[44,-2],[77,-46],[116,-39],[53,-34],[52,-6],[9,-116],[43,-45],[45,-19],[12,-50],[41,-37],[227,49],[23,34],[90,8],[28,-18],[97,-3],[114,25],[36,-95],[71,-73],[-47,-28],[-70,-4],[-32,-29],[-79,-8],[-169,60],[2,54],[-75,-13],[-118,-64],[-49,-105],[-74,-85],[-36,-74],[-54,-56],[-92,-151],[-77,-69],[-37,-73],[-32,-28],[-107,-164],[-62,-51],[60,-27],[-7,-76],[-44,-75],[69,-80],[-53,-70],[-28,-59],[6,-33],[56,-24],[-95,-207],[-16,-195],[29,-45],[194,40],[55,-29],[261,-20],[34,15],[87,5],[44,-41],[36,8],[88,-58],[42,1],[98,-106],[45,-10],[87,8],[20,-52],[95,-10],[4,-48],[45,-22],[-28,-135],[56,-24],[4,-48],[-24,-90],[-2,-139],[-14,-75],[100,-63],[12,-45],[43,7],[22,-79],[54,-46],[104,-7],[104,-48],[74,16],[50,-42],[182,-115],[80,-10],[40,40],[58,2],[200,-51],[183,-160],[111,-442],[302,-489],[191,-220],[-6,-481],[228,-793],[-154,-1198],[-5,-105],[19,-117],[31,-59],[31,-13],[22,-67],[-9,-97],[-76,-168],[-25,-83],[-9,-76],[18,-76],[28,-33],[-4,-77],[-84,-93],[-88,-127],[-50,-146],[-7,-65],[-23,-63],[-1,-184],[-19,-170],[-20,-62],[-44,-61],[-14,-80],[48,-74],[22,-106],[58,-90],[50,-43],[77,-43],[59,-107],[77,-57],[51,-113],[2,-126],[73,-116],[25,-90],[70,-107],[53,-51],[99,-49],[54,-46],[98,-40],[52,-71],[15,-140],[59,-106],[2351,214],[2026,492],[235,-26],[48,-47],[215,-99],[100,-37],[174,3],[258,-2],[204,61],[33,22],[111,139],[112,71],[299,-22],[67,-86],[66,-47],[10,-53],[127,-86],[4,-54],[171,-26],[74,3],[45,-40],[141,-35],[109,-2],[61,-44],[6,-30],[-49,-56],[-2,-69],[-23,-30],[93,-190],[127,-166],[43,-26],[84,-19],[62,-35],[151,-177],[131,-77],[164,1],[46,-35],[112,23],[86,-39],[12,-32],[71,-67],[38,-12],[191,1],[149,-14],[78,-27],[94,-11],[72,11],[116,-53],[24,-31],[105,-34],[98,-16],[91,-39],[76,-47],[89,-18],[58,9],[82,-17],[30,-21],[115,-35],[167,-24],[149,-30],[81,-43],[53,-76],[70,-46],[67,3],[39,-49],[175,-15],[92,13],[80,-43],[117,-37],[25,-34],[159,-46],[58,-32],[12,-64],[85,-160],[44,-22],[262,9],[76,-14],[66,-44],[80,-78],[199,-53],[128,-102],[18,-46],[138,-121],[34,8],[77,-56],[43,-69],[45,-6],[64,-80],[5,-55],[102,-75],[-5,-66],[18,-60],[58,-79],[63,-11],[30,-46],[12,-61],[76,-65],[15,-62],[69,-23],[17,-64],[90,-48],[26,-34],[7,-65],[25,-30],[1,-72],[46,-30],[18,-110],[83,-294],[-4,-41],[33,-91],[6,-150],[-54,-148],[-51,-44],[-79,-161],[43,-81],[32,-14],[27,-55],[-83,-90],[-24,-58],[18,-97],[77,-57],[-6,-41],[46,-78],[4,-59],[-52,-70],[-24,-105],[65,-131],[-20,-66],[49,-59],[4,-38],[-24,-65],[28,-58],[62,-26],[-25,-73],[-7,-186],[58,-96],[4,-52],[28,-63],[32,-30],[4,-41],[79,-104],[20,-66],[46,-272],[65,-97],[8,-40],[-20,-88],[-3462,-38],[66,-33],[-4,-51],[52,-13],[31,-105],[51,-21],[-82,-111],[-5,-91],[55,-29],[37,-64],[78,-1],[37,31],[109,-98],[-1,-85],[51,-17],[7,-88],[-44,14],[-46,-42],[31,-99],[-47,-44],[14,-44],[127,-57],[9,-98],[106,-76],[37,-70],[64,-168],[9,-75],[-14,-86],[-60,-74],[-21,-66],[18,-27],[10,-93],[84,-8],[43,-35],[3,-42],[-42,-38],[-39,-66],[-62,-135],[12,-81],[29,-34],[67,-33],[67,-2],[60,-66],[71,-5],[77,-62],[8,-34],[81,-74],[-6,-50],[46,-51],[-5,-31],[94,-60],[27,-95],[52,-35],[3,-138],[38,-53],[46,-18],[-61,-53],[-9,-69],[-48,-53],[-14,-87],[-71,-124],[-17,-96],[0,-77],[15,-45],[166,-25],[32,-60],[-7,-80],[82,-35],[-15,-110],[35,-52],[603,-604],[-795,-195],[-215,-208],[91,3],[47,-32],[104,3],[26,-20],[-14,-98],[17,-66],[110,-123],[9,-25],[86,-53],[80,-98],[5,-50],[45,-4],[7,-72],[52,-55],[93,-48],[133,-121],[42,-103],[73,-106],[39,-3],[275,-59],[2364,-3],[76,-366],[-221,-116],[-1360,-333],[35,-16],[40,-86],[-77,-32],[-6,-74],[131,2],[85,-26],[130,49],[25,51],[92,57],[108,15],[78,-103],[-18,-38],[78,-16],[71,10],[49,33],[25,51],[47,-40],[76,65],[-33,78],[26,23],[90,-14],[41,-42],[146,-115],[330,-114],[-35,-90],[-53,-40],[-94,10],[-307,-32],[-45,-19],[-141,-143],[-20,-89],[24,-34],[-65,-152],[2,-118],[119,-117],[45,-8],[37,-118],[149,-95],[29,-53],[-1,-44],[297,-33],[49,5],[47,-32],[-25,-23],[-1,-49],[277,-8],[329,-113],[-33,-360],[-572,-158],[46,-106],[41,-65],[60,-62],[58,-38],[74,-97],[80,-6],[96,-78],[-1,-58],[-33,-197],[13,-101],[67,-69],[-6,-155],[-61,-35],[66,-106],[54,-60],[-3,-44],[73,-36],[80,-55],[104,-114],[332,2],[66,-559],[-127,-454],[-517,-17],[65,-52],[-34,-104],[136,-97],[-93,-72],[-31,-69],[60,0],[-5,-186],[54,24],[604,15],[-2,-756],[-269,1],[-338,333],[-184,5],[-118,-190],[-147,-281],[-126,-199],[2,-161],[574,158],[1456,35],[306,-1556],[-178,-342],[-415,4],[-56,-3]],[[97771,4633],[-2,32],[-46,36],[-32,126],[-41,55],[32,58],[-59,-6],[21,64],[72,87],[-24,39],[47,189],[75,-2],[10,44],[77,57],[31,60],[-123,25],[19,73],[80,53],[25,147],[40,73],[-137,15],[19,69],[-63,7],[-46,73],[107,11],[33,100],[-18,24],[-102,11],[26,38],[20,79],[-8,39],[19,76],[-52,25],[8,59],[29,16],[20,122],[-47,7],[43,91],[-29,117],[-170,26],[-41,-5],[-58,54],[84,28],[69,72],[3,60],[29,19],[-1,92],[27,32],[117,22],[21,56],[-30,32],[93,32],[21,43],[114,51],[82,1],[34,-22],[92,18]],[[98281,7433],[95,-69],[77,8],[99,49],[63,-6],[132,28],[16,-83],[33,-23],[48,21],[40,-14],[73,15],[8,-35],[53,-33],[44,-96],[47,-15],[91,13],[109,30]],[[99309,7223],[21,-67],[-30,-77],[-110,-560],[-7,-162],[40,-121],[-11,-210],[4,-110],[34,-168],[69,-216],[38,-70],[47,-9],[10,-41],[98,-132],[48,-2],[105,-115],[55,-45],[82,-39],[101,-4],[77,24],[19,-19],[-147,-58],[-291,91],[-57,1],[-55,-28],[-102,-93],[-108,-31],[-134,-101],[-59,-18],[-95,-84],[-22,-43],[-195,-64],[-116,-7],[-47,23],[-13,46],[-161,-14],[-55,29],[-122,-2],[-85,-46],[-129,-19],[-53,-47],[-18,-42],[-90,8],[-74,52]],[[91473,10596],[109,83],[-16,58],[66,8],[106,50],[33,27],[170,53],[29,92],[106,-22],[38,61],[115,58],[180,-32],[-30,55],[41,25],[109,17],[91,-10],[9,38],[122,-14],[100,-26],[21,36],[102,-11],[-33,-116],[66,-32],[81,-10],[-11,-31],[174,-17],[60,-16],[16,-38],[-83,-62],[47,-67],[7,-47],[-29,-40],[8,-53],[109,-178],[70,-8],[89,17],[127,-13],[33,24],[21,62],[63,-38],[61,43],[20,84],[114,-4],[24,-21],[175,-24],[12,54],[47,-5],[55,25],[60,-11],[61,-79],[8,-57],[-69,-28],[20,-29],[67,10],[117,-18],[65,-29],[106,-1],[-27,-32],[1,-86],[57,-125],[-66,-64],[28,-35],[-136,-90],[-56,-53],[4,-48],[-25,-107],[-61,-28],[12,-27],[-70,-64],[12,-88],[135,-27],[16,-76],[180,-24],[27,17],[83,-9],[27,-27],[-4,-44],[-34,-14]],[[94835,9338],[-28,-15],[141,-112],[23,-60],[-58,-23],[-19,-47],[15,-40],[59,-40],[28,-46],[0,-63],[148,-18],[48,-58],[116,-36],[28,-43],[-7,-66],[-25,-53],[-86,-36],[2,-52],[79,-69],[125,-39],[17,-56],[-23,-45],[79,-147],[-24,-105],[40,-83],[2,-67],[46,2],[41,74],[43,5],[156,-113]],[[95801,7887],[15,-16],[90,9],[105,-42],[67,-68],[-19,-20]],[[96059,7750],[-15,-54],[-83,-89],[36,-40],[-50,-204],[-212,18],[-50,-219],[-61,-29],[-99,12],[-7,-32],[-134,8],[-9,40],[-79,-44],[-92,-11],[-30,-136],[97,3],[38,-43],[14,-106],[-65,7],[-15,-63],[-64,7],[-26,-50],[-44,4],[-24,-95],[34,-18],[6,-76],[-35,-59],[28,-15],[-18,-47],[33,-22],[88,-17],[157,19],[79,22],[308,-25],[23,-120],[-29,-52],[14,-27],[-31,-56],[-49,-30],[-102,-20],[-21,-39],[-50,-18],[-78,7],[-191,-58],[-76,-38],[-149,32],[94,-91],[17,2],[121,-116],[-207,-103],[-23,22],[-85,-42],[58,-56],[-39,-16],[-104,14],[-43,-150],[-4,-62],[-183,-94],[60,-25],[51,-45],[12,-48],[-69,0],[123,-117],[10,-50],[-32,-88],[-37,-19],[-74,9],[-52,-163],[-36,-40],[-70,-35],[-55,-72],[-177,-17],[-81,-41],[-23,-59],[31,-73],[58,-13],[30,-49]],[[94297,4340],[-50,9],[-68,-18],[-56,6],[-73,43],[-70,105],[-9,54],[-82,-37],[-39,-60],[29,-80],[-143,-160],[-47,62],[-53,16],[-65,-4],[-63,27],[-33,38],[-84,27],[22,40],[-3,57],[49,104],[-95,26],[-38,44],[-41,13],[-139,-21]],[[97771,4633],[-51,-18],[-72,46],[-74,-11],[-34,-48],[24,-75],[-90,-28],[52,-66],[-31,-24],[-136,-34],[-112,-63],[-6,-34],[34,-31],[-145,-142],[-215,32],[-57,40],[-104,11],[-71,-7],[-102,27],[-78,-16],[-170,15],[-67,32],[-219,-15],[-31,-14],[-70,30],[-149,31],[-71,50],[-71,18],[-79,-9],[-106,12],[-68,-55],[-48,13],[-82,-77],[-59,-35],[-2,-43],[-101,-17],[-102,40],[-114,-32],[14,-29],[-70,-28],[-69,23],[-111,75],[-95,0],[-62,43],[-65,4],[-93,43],[-3,41],[-43,32]],[[96059,7750],[207,-47],[34,-36],[124,-39],[246,-27],[25,28],[121,-14],[57,29],[60,-4],[118,35],[-5,66],[42,70],[30,123],[104,-10],[9,39],[211,-22],[24,-20],[153,-84],[-13,-59],[-38,4],[-13,-54],[55,1],[34,-33],[124,-2],[9,-21],[200,-21],[103,-1],[48,-32],[109,-12],[18,-78],[-11,-46],[37,-50]],[[51648,35390],[56,405],[176,-16],[33,144],[833,-50],[62,496],[-597,38],[53,439],[-369,22],[102,1053],[53,442],[250,-21],[117,70],[1261,-90],[-37,-261],[363,-465],[316,-24],[239,-63],[29,167],[28,292],[-18,11],[14,100],[1057,-79],[-48,-85],[15,-49],[278,-58],[69,-25],[92,-2],[71,-28],[204,-24],[447,-33],[30,36],[-27,154],[37,102],[-20,59],[63,48],[26,76],[51,46],[6,121],[92,140],[75,-4],[142,96],[41,78],[-15,59],[-71,33],[-19,50],[-87,68],[-54,84],[12,60],[42,44],[4,55],[73,21],[67,39],[40,77],[41,39],[87,17],[129,94],[54,8],[49,41],[15,64],[-47,132],[-79,82],[-114,6],[-35,31],[-126,40],[-67,2],[-70,30],[-93,90],[-23,69],[108,60],[-67,63],[-13,53],[-60,65],[-6,95],[-83,90],[43,117],[-12,25],[48,42],[12,81],[-17,84],[141,126],[13,55],[-31,25],[-10,61],[-59,126],[-17,71],[-71,103],[52,66],[31,101],[-60,61],[41,88],[9,52],[-39,41],[80,44],[134,20],[32,46],[119,59],[-28,24],[28,36],[55,23],[-44,93],[43,35],[88,-41],[21,-65],[55,13],[47,-39],[-29,-26],[73,-77],[46,3],[-2,50],[-83,81],[-18,94],[37,20],[96,-27],[-4,40],[-52,18],[38,41],[71,-18],[40,26],[-34,27],[58,85],[25,71],[-81,37],[-49,-12],[-26,59],[65,16],[36,-25],[51,2],[46,-26],[52,55],[-77,64],[-66,38],[17,120],[106,16],[123,-46],[12,-56],[44,11],[41,51],[75,-30],[12,-51],[-98,-93],[0,-38],[83,20],[86,105],[84,-31],[43,14],[29,48],[93,25],[75,-22],[59,35],[55,4],[66,-31],[72,4],[54,93],[74,69],[14,77],[67,6],[31,45],[75,23],[45,58],[118,-41],[74,14],[127,113],[88,18],[47,115],[2,40],[34,47],[64,46],[14,50],[-74,102],[43,142],[109,59],[134,32],[59,43],[27,109],[-26,73],[-87,33],[-53,35],[-40,49],[-51,125],[-49,88],[13,96],[47,80],[11,82],[-13,241],[-35,100],[-22,98],[-51,122],[-106,138],[-13,32],[26,83],[45,84],[47,55],[17,62],[-60,119],[-74,64],[70,47],[84,28],[9,-84],[83,-44],[34,-57],[166,-47],[133,6],[143,-43],[29,-49],[-9,-54],[486,-39],[161,1118],[119,-10],[10,127],[161,79],[-19,51],[39,49],[171,21],[61,32],[164,17],[394,-58],[5,14]],[[62145,46876],[46,77],[299,471],[315,12],[459,-10],[1047,-2],[1198,-2],[1252,-1],[1242,1],[0,-1499],[1355,-1],[1379,0],[3214,1],[5785,18],[24,-146],[267,-223],[472,-271],[272,-217],[259,-432],[179,-231],[395,-343],[214,-211],[251,-264],[369,-333],[193,-159],[240,-117],[247,-103],[223,-76],[284,-144],[181,-86],[363,-112],[632,-203],[280,-129],[334,-150],[225,-132],[267,-149],[249,-169],[268,-97],[325,-100],[229,-103],[252,-161],[198,-131],[248,-78],[302,-110],[293,-72],[253,-114],[251,-213],[149,-144],[124,-182],[265,-128],[351,-48],[323,-14],[299,25],[340,104],[160,137],[-28,169],[-145,198],[-134,162],[-140,199],[-66,148],[-8,269],[21,203],[80,129],[124,37],[104,15],[171,-127],[197,-124],[229,-160],[337,-127],[258,-52],[213,-51],[586,-110],[328,-22],[630,-52],[298,-36],[275,-87],[88,-105],[70,-111],[82,-163],[11,-167],[-48,-182],[-47,-137],[-60,-97],[-255,-216],[-24,-36],[-61,-26],[-76,-116],[-14,-105],[16,-161],[-10,-24],[11,-107],[-22,-225],[-29,-89],[-28,-125],[-77,-53],[17,-81],[-3,-141],[-83,-101],[25,-402],[12,-147],[101,-192],[64,-66],[117,-173],[54,-54],[45,-15],[118,-143],[39,-32],[73,-101],[0,-102],[135,-290]],[[91087,13524],[111,-53],[65,-47],[81,-81],[51,-2],[39,42],[72,-2],[-21,58],[154,41],[58,78],[69,23],[5,54],[68,5],[227,-123],[69,9],[87,36],[172,28],[41,-49],[85,-19],[83,10],[60,48],[56,-15],[142,37],[-26,-129],[40,-4],[-4,-93],[-39,-39],[-20,-54],[19,-57],[63,-13],[-53,-97],[68,-6],[-12,-57],[61,-6],[-10,-50],[405,-38],[-54,105],[273,-25],[41,-46],[95,-11]],[[93708,12982],[-8,-58],[49,-21],[40,-71],[-30,-157],[-70,-70],[-129,-108],[35,-53],[-38,-28],[8,-45],[78,-6],[92,-45],[39,-85],[-14,-36],[108,-57],[15,-30],[95,-8],[98,-25],[43,13],[42,-59],[55,27],[85,-23],[10,-84],[79,-53],[112,-14],[-15,-30],[82,-10],[76,12],[77,-32],[40,35],[67,-37],[22,91],[52,24],[118,-23],[-14,-62],[41,-14],[20,-50],[34,-24],[142,0],[5,-31],[61,-81],[51,-33],[101,-11],[60,-65],[77,-8],[-17,-81],[-73,8],[-1,-72],[27,-47],[103,-12],[-19,-83],[-72,-30],[-21,-100],[102,-11],[74,12],[37,-24],[80,34],[103,-8],[83,-39],[107,-12],[78,-34],[78,-65],[96,11],[95,-7],[88,28],[10,64],[157,-15],[78,-55],[72,-17],[40,57],[-35,47],[-74,30],[-47,69],[113,7],[18,16],[4,93],[14,48],[74,68],[56,2],[120,46],[43,59],[-41,103],[9,52],[62,76],[-1,55],[24,58],[63,-19]],[[97306,11849],[51,-65],[-33,-283],[170,-476],[79,-186],[185,-235],[39,-116],[810,169]],[[98607,10657],[-802,-1333]],[[97805,9324],[-861,254],[-54,28],[-30,-82],[-85,4],[-98,-48],[3,-49],[-56,-27],[-90,53],[-10,-60],[-104,-10],[-36,-79],[-236,25],[-56,26],[-122,9],[-117,41],[-139,-22],[-25,-69],[-35,4],[-50,-55],[-227,-59],[-76,28],[-65,-11],[-69,42],[-211,43],[-29,-14],[-87,10],[-5,32]],[[18734,15921],[-973,0],[-1033,0],[-1034,-1],[-1033,0],[-1034,0],[-1550,0],[-1550,0],[-1549,0],[-1177,0],[-890,-1],[-1033,0],[-1032,0],[-1033,0],[-1033,0],[-1033,0],[-1719,0],[0,1090],[-1,1090],[0,726],[0,727],[0,726],[0,727],[0,1090],[0,1090],[0,1089],[0,727],[0,727],[-1,727],[0,1090],[-1,1090],[-1,727],[0,726],[-1,829],[-1,1061],[0,654],[-1,1017],[-1,815],[0,711],[-1,1190],[-1,1135],[-1,947],[-1,1090],[-1,727],[0,728],[-1,727],[-1,1090],[0,728],[-1,727],[0,727],[-1,728],[0,727],[-1,1091],[-1,728],[0,727],[-1,728],[2,897],[-1,557],[0,727],[-1,728],[-1,1090],[0,727],[-1,1091],[-1,727],[0,728],[-1,1090],[-1,728],[-1,1043],[0,848],[-1,1018],[0,728],[-1,783],[61,-45],[84,-37],[70,-46],[8,-27],[95,-33],[108,-116],[116,-62],[98,-75],[172,-109],[226,-98],[39,-39],[174,-78],[274,-93],[269,-50],[85,-61],[65,-31],[137,-37],[93,43],[78,-19],[105,1],[82,-19],[168,-67],[139,-74],[85,9],[102,-5],[157,-27],[29,-24],[97,15],[76,-10],[191,-2],[201,30],[70,-9],[186,34],[164,1],[148,-32],[13,-32],[89,-61],[178,-62],[167,-34],[117,-36],[92,-53],[126,-45],[271,-55],[41,-13],[83,-56],[76,-22],[152,-22],[131,-11],[109,3],[61,-18],[166,-31],[113,5],[156,-12],[147,-38],[191,-97],[-40,-63],[55,-118],[190,-105],[39,-85],[78,-66],[184,-75],[237,-49],[9,-27],[-94,-138],[-26,-118],[21,-96],[39,-98],[51,-226],[33,-99],[180,-312],[59,-79],[47,-106],[85,-90],[197,-122],[176,-77],[200,-78],[201,-44],[166,-6],[217,19],[89,-6],[175,-63],[85,-45],[161,-46],[224,-126],[86,-54],[115,-56],[66,-74],[-3,-35],[247,-67],[28,-20],[33,-82],[53,-10],[52,-73],[134,-52],[64,-47],[160,-32],[200,-19],[28,-25],[73,10],[134,-47],[72,-11],[40,-26],[130,-6],[44,-20],[161,32],[58,-4],[66,-66],[61,-44],[174,-62],[146,-35],[66,-26],[101,-9],[85,-19],[54,-36],[52,-65],[-31,-28],[25,-70],[137,-124],[178,-103],[101,-34],[249,-37],[195,4],[50,-8],[259,25],[187,37],[187,17],[123,29],[89,-27],[49,22],[178,28],[50,-7],[275,45],[220,15],[306,44],[244,90],[52,36],[148,41],[47,-19],[145,15],[245,62],[123,54],[97,68],[153,37],[40,-1],[87,37],[243,125],[149,118],[85,53],[15,23],[82,38],[55,9],[62,41],[79,-17],[106,1],[29,56],[167,118],[129,26],[237,73],[65,65],[66,49],[115,169],[93,89],[1,55],[76,135],[-6,53],[60,160],[24,124],[25,34],[6,148],[12,65],[72,91],[-1,66],[72,60],[63,151],[25,31],[3,93],[30,82],[0,66],[25,94],[-30,80],[5,55],[-31,35],[-4,72],[44,125],[135,180],[227,157],[138,122],[202,212],[76,114],[17,45],[8,110],[40,95],[51,34],[72,-15],[109,52],[113,76],[144,120],[29,39],[105,82],[99,117],[49,46],[88,127],[29,73],[6,135],[41,87],[2,72],[76,105],[21,56],[89,43],[69,-1],[5,32],[49,79],[66,136],[65,89],[34,104],[-2,89],[-25,45],[-75,82],[3,68],[33,57]],[[29613,47816],[-1455,101],[-83,-628],[-88,-669],[193,-13],[-118,-1005],[-89,-745],[-72,-594],[288,-18],[-65,-528],[20,-1],[-78,-644],[-110,-10],[-22,-149],[25,-2],[-39,-339],[-36,3],[-150,-234],[343,-26],[-54,-383],[-154,12],[-64,-461],[-100,-10],[-63,-537],[-595,40],[-26,-116],[249,-17],[-34,-281],[-12,2],[-59,-492],[211,-12],[-34,-328],[-587,7],[-642,91],[-67,-38],[581,-497],[-474,-282],[178,-13],[-73,-529],[-270,-159],[227,-16],[-9,-81]],[[12475,62625],[-23,-74],[-59,-71],[-177,-118],[-147,-75],[-442,-171],[-188,-70],[-265,-75],[-265,-97],[-183,-145],[-153,-338],[-36,-167],[0,-176],[77,-180],[132,-152],[92,-199],[12,-136],[-18,-53],[-65,-66],[-82,-53],[-106,-44],[-464,-14],[-89,-18],[-83,6],[-59,23],[-113,-14],[-139,33],[-109,1],[-59,20],[-11,-44],[-64,-54],[-89,-24],[-135,24],[-112,56],[-103,77],[-56,68],[-69,123],[-98,56],[-141,17],[-390,14],[-175,30],[-137,50],[-213,118],[-118,84],[-15,41],[-23,174],[-45,70],[-90,84],[-222,99],[-177,44],[-96,30],[-230,96],[-54,69],[4,62],[80,100],[77,47],[87,16],[5,81],[30,74],[55,57],[66,26],[134,33],[34,40],[-22,65],[-1,69],[45,79],[-41,99],[25,89],[46,75],[59,58],[2,71],[-38,94],[9,70],[41,48],[9,58],[61,77],[183,109],[102,47],[5,63],[29,80],[51,55],[96,44],[17,55],[51,52],[110,57],[43,42],[49,90],[43,174],[29,205],[-19,167],[-35,61],[2,87],[-71,35],[-54,72],[-2,57],[-23,77],[-3,113],[81,54],[77,11],[133,-40],[50,-59],[61,-166],[-3,-27],[90,-21],[124,-92],[122,-71],[153,-72],[130,-40],[217,-43],[299,-30],[420,-36],[113,1],[146,-49],[106,2],[112,-17],[77,-35],[77,-85],[100,-62],[61,-53],[100,4],[177,-35],[101,0],[105,25],[159,57],[74,8],[73,-21],[124,-91],[184,-195],[40,-63],[492,-622],[59,-61],[59,-110],[11,-75]],[[97805,9324],[-153,-151],[-96,-107],[-50,7],[-24,-65],[-53,-41],[-9,-52],[-37,-74],[-47,-46],[-130,-52],[-56,-47],[-133,-35],[-167,31],[-86,0],[-12,-21],[38,-128],[-52,-25],[-49,46],[-77,-65],[-62,57],[-108,-53],[-31,-51],[108,-7],[48,-23],[-7,-40],[-109,-18],[-32,-79],[-152,88],[-39,-30],[31,-75],[9,-88],[-51,0],[-41,50],[-51,26],[-92,9],[-61,-13],[-34,-64],[-103,-6],[-7,-67],[-53,-11],[31,-42],[-42,-36],[13,-60],[51,-47],[-27,-32]],[[98607,10657],[421,88],[350,49],[71,-23],[12,-40],[-59,-101],[-172,-449],[-46,-156],[-22,-109],[-24,-199],[3,-118],[49,-202],[66,-106],[78,-68],[1,-103],[-91,-178],[37,18],[94,1],[175,-133],[75,-21],[120,4],[87,-29],[50,10],[65,-13],[-18,-74],[-219,-364],[-243,-560],[-85,-329],[-18,-120],[15,-45],[-31,-51],[-39,-13]],[[79536,18501],[43,-49],[55,12],[0,-71],[79,8],[33,-36],[-70,-61],[2,-58],[80,-29],[-9,-72],[59,-79],[-73,-130],[85,-18],[6,-21],[140,-25],[59,37],[243,-36],[74,-111],[53,-38],[131,-47],[140,25],[45,-6],[112,17],[96,-27],[38,-46],[53,0],[352,-35],[9,-61],[51,-62],[-109,-105],[-22,-52],[41,-52],[95,-33],[-4,-125],[18,-30],[-43,-48],[-62,-5],[-39,-60],[82,-73],[-49,-12],[55,-52],[81,-34],[159,-149],[23,-32],[-36,-77],[-84,-54],[-2,-76],[27,-19],[7,-60],[-35,-73],[-69,-71],[37,-103],[-12,-32],[189,-22],[79,-54],[72,19],[244,-3],[22,-48],[43,-36],[12,-70],[66,-32],[-33,-49],[60,-102],[383,-37],[349,185],[13,54],[92,17],[84,-42],[106,16],[79,-19],[139,30],[34,-36],[30,-80],[59,-60],[-7,-31],[42,-50],[12,-58],[36,-30],[107,-40],[102,-18],[122,18],[42,-50],[32,-8]],[[72606,2320],[-26,-49],[-52,-33],[-215,-37],[-43,-47],[-46,-3],[-32,-64],[-55,-4],[-106,-39],[-50,-2],[-40,-30],[-28,-63],[17,-24],[-105,-59],[-63,-22],[-134,19],[20,-54],[-24,-52],[-72,-38],[-94,28],[-63,-22],[-36,13],[-114,-58],[0,-74],[-30,-5],[-31,-62],[-100,-64],[56,-15],[-51,-75],[17,-43],[-48,-33],[-34,-76],[-58,-55],[-13,-45],[-107,-28],[-44,13],[-51,-63],[-199,-50],[-7,-35],[-84,-69],[-1554,0],[-797,0],[-1087,0],[-1255,0],[-1486,0],[-1624,0],[-1134,0],[-1474,0],[-1179,0],[-1061,0],[-1543,0],[-1120,0],[-1581,0],[-1592,0],[-1061,0],[-1061,0],[-1062,0],[-1592,0],[-1080,0],[-1646,0],[-1072,0],[-978,0],[-1201,0],[-1018,0],[-1072,0],[-1497,0],[-1050,0],[-1511,0],[-1772,0],[-1127,1],[-1291,0],[-1285,-1],[-1285,0],[-1286,0],[-1164,0],[-1406,0],[-1344,1],[-1394,-1],[-1118,0],[-1291,0],[1,884],[0,508],[0,911],[1,1940],[0,728],[0,654],[0,1034],[0,931],[0,655],[0,1238],[0,946],[-1,762]],[[93708,12982],[82,21],[49,-22],[193,11],[116,-22],[107,-54],[130,-3],[3,69],[32,35],[58,7],[0,38],[100,57],[26,51],[89,47],[59,-16],[55,-51],[43,2],[108,94],[-64,31],[15,72],[-118,12],[10,45],[53,42],[53,17],[33,48],[-65,18],[5,29],[200,-23],[43,202],[-12,73],[27,11],[-52,64],[-75,5],[8,33],[-65,8],[10,105],[-34,3],[43,133],[132,-29],[30,133],[59,81],[11,46],[126,302],[-16,77],[36,37],[124,-10],[19,99],[150,-14],[54,-30],[36,-55],[89,56],[120,-12],[-3,48],[114,6],[34,32],[77,10],[47,48],[45,79],[18,89],[-5,50],[806,-91]],[[97076,15126],[-74,-184],[-99,-282],[-42,-171],[-19,-129],[-1,-119],[36,-137],[66,-93],[94,-41],[50,37],[100,13],[-6,-98],[-64,-215],[-40,-171],[-40,-296],[75,-72],[-25,-47],[-16,-105],[2,-120],[33,-86],[-9,-110],[40,-144],[112,-69],[76,2],[-15,-280],[16,-103],[-6,-69],[27,-76],[45,-13],[12,-62],[-51,-1],[-47,-36]],[[53357,53414],[-3,-31],[106,-67],[31,14],[57,-23],[378,19],[-7,-18],[-303,-16],[-6,-34],[71,-128],[-40,-26],[20,-48],[-34,-202],[-6,-106],[-83,-116],[-95,-175],[-61,-135],[-44,-121],[-35,-121],[-65,-186],[-13,-106],[2,-177],[58,-61],[18,-68],[156,-134],[38,-9],[92,-117],[26,-78],[39,-17],[78,-1],[56,-40],[55,-101],[76,-55],[80,1],[70,-55],[28,-46],[51,-41],[177,-191],[61,-45],[108,-10],[95,-72],[73,-29],[61,2],[135,-54],[37,-36],[62,-29],[98,-110],[65,-18],[99,7],[69,-12],[194,-107],[152,-37],[76,-44],[212,-66],[114,47],[51,35],[176,0],[121,-18],[51,-23],[13,-115],[49,-103],[47,-45],[107,20],[26,-29],[104,-28],[28,37],[58,-2],[57,-53],[-94,-89],[63,-6],[101,-61],[8,-22],[72,-51],[90,-33],[78,-1],[85,22],[56,-2],[47,28],[83,16],[61,-12],[147,64],[154,155],[19,40],[-16,38],[37,47],[64,27],[39,45],[-76,130],[39,35],[59,-69],[107,-67],[67,-163],[67,-90],[-21,-20],[25,-97],[-73,12],[-29,-72],[58,-133],[105,-141],[94,-84],[170,-91],[19,-36],[-16,-39],[42,-58],[63,19],[249,-20],[83,0],[188,-65],[83,20],[65,1],[61,-65],[51,-9],[49,32],[84,25],[65,2],[67,50],[63,19],[66,-1],[95,-30],[122,-18],[99,-4],[165,8],[140,-41],[95,4],[86,18],[67,73],[15,84],[-54,45],[-17,73],[-60,33],[-58,54],[-47,71],[4,34],[-64,54],[-73,30],[-15,34],[174,-63],[89,-64],[57,-65],[166,-239],[33,-77],[31,-133],[38,-107],[60,-96],[55,-47],[69,-29],[41,-38],[126,-159],[75,-10],[83,-123],[68,-147],[21,-127],[31,-98],[-26,-36],[65,-51],[63,-14],[79,-88],[-19,-138],[-55,-76],[2,-32],[-52,-13],[-22,-32],[61,-54],[23,-73],[59,-91],[152,-112],[206,-105]],[[55970,52118],[-23,-37],[-230,-88],[-341,-95],[-256,-76],[-52,-41],[-24,-84],[-27,-39],[-106,-10],[-156,108],[-17,31],[-25,132],[-8,114],[0,230],[-41,150],[7,104],[-16,21],[-73,-16],[-35,56],[-2,118],[36,63],[-46,55],[-30,70],[-5,123],[18,96],[29,39],[-2,83],[34,28],[76,3],[61,-50],[-9,-81],[-66,-67],[35,-88],[41,-63],[-13,-52],[45,-48],[-24,-141],[21,-26],[146,8],[74,36],[36,-12],[172,-126],[108,-12],[45,-42],[11,-42],[66,-15],[60,-32],[93,-75],[45,-109],[50,-7],[188,60],[39,0],[62,-32],[29,-122]],[[57148,50352],[-49,-91],[-29,-109],[-53,2],[-56,-53],[-41,-1],[-24,-59],[-76,-41],[-87,66],[-50,21],[-84,72],[-44,10],[-13,47],[-94,42],[-3,25],[72,67],[66,10],[101,-16],[69,24],[28,34],[51,-1],[41,-45],[70,-17],[37,9],[-12,60],[49,9],[45,-38],[62,-4],[24,-23]],[[55457,50760],[-38,-32],[-125,24],[144,31],[19,-23]],[[90419,23304],[42,-24],[205,-245],[157,-91],[54,-70],[201,-148],[149,-55],[93,-15],[204,-111],[124,-106],[122,-74],[94,-39],[196,-56],[148,-24],[31,16],[204,10],[152,-107],[-2,-36],[87,-6],[48,-89],[46,-14],[70,-48],[37,-56],[74,-14],[59,-63],[20,-80],[72,-60],[-10,-32],[33,-48],[5,-72],[34,-52],[-9,-56],[24,-88],[40,-42],[-28,-158],[31,-144],[93,-151],[141,-172],[91,-100],[70,-154],[40,-43],[166,-113],[248,-95],[46,-34],[-30,-38],[-37,-110],[2538,-1],[68,43],[186,64],[75,40],[372,227],[180,132],[120,120],[171,191],[73,97],[47,88],[-6,35],[28,58],[24,124],[-26,94],[-218,272],[-66,72],[-156,117],[-93,42],[-68,14],[-80,-17],[-28,32],[22,47],[62,58],[123,92],[153,147],[209,132],[120,52],[152,55],[110,3],[17,-86],[-19,-168],[-25,-336],[5,-153],[36,-172],[86,-174],[70,-107],[53,-45],[102,-66],[86,-33],[58,-6],[79,20],[18,-178],[36,-75],[-23,-63],[-515,-849],[-64,-112],[-327,-529],[-127,-215],[-313,-553],[-58,-98],[-164,-302],[-104,-237],[-81,-218],[-25,-150],[3,-90],[89,-286],[-69,-210],[-48,-44],[-18,-43],[18,-30],[14,-187],[58,-154],[28,-53],[153,-147],[141,-91],[155,-22],[79,14],[43,67],[50,26],[43,-27],[-38,-41],[-226,-350],[-28,-85],[-57,-88],[-66,-138],[-32,-45],[-55,-113],[-108,-259]]],"transform":{"scale":[0.00015559545595455934,0.00019991479914799147],"translate":[137.99465,-29.17924]},"objects":{"qld_qps_districts_gda94_simp10":{"type":"GeometryCollection","geometries":[{"arcs":[[0,1,2,3,4,5,6]],"type":"Polygon","properties":{"QPS District":"Capricornia","District Id":2019}},{"arcs":[[7,8,9,10,11]],"type":"Polygon","properties":{"QPS District":"Darling Downs","District Id":2020}},{"arcs":[[12,13,14]],"type":"Polygon","properties":{"QPS District":"Far North","District Id":2021}},{"arcs":[[15,16,17]],"type":"Polygon","properties":{"QPS District":"Gold Coast","District Id":2022}},{"arcs":[[-12,18,19,20,21,22]],"type":"Polygon","properties":{"QPS District":"Ipswich","District Id":2023}},{"arcs":[[-16,23,-22,24]],"type":"Polygon","properties":{"QPS District":"Logan","District Id":2024}},{"arcs":[[-6,25,26]],"type":"Polygon","properties":{"QPS District":"Mackay Whitsunday","District Id":2025}},{"arcs":[[-11,27,28,29,30,31,-19]],"type":"Polygon","properties":{"QPS District":"Moreton","District Id":2026}},{"arcs":[[[-4,32,-14,33]],[[34]]],"type":"MultiPolygon","properties":{"QPS District":"Mount Isa","District Id":2027}},{"arcs":[[-20,-32,35]],"type":"Polygon","properties":{"QPS District":"North Brisbane","District Id":2028}},{"arcs":[[-17,-25,-21,-36,-31,36]],"type":"Polygon","properties":{"QPS District":"South Brisbane","District Id":2029}},{"arcs":[[-2,37,-9,38]],"type":"Polygon","properties":{"QPS District":"South West","District Id":2030}},{"arcs":[[-29,39,40]],"type":"Polygon","properties":{"QPS District":"Sunshine Coast","District Id":2031}},{"arcs":[[[-5,-34,-13,41,-26]],[[42]],[[43]],[[44]]],"type":"MultiPolygon","properties":{"QPS District":"Townsville","District Id":2032}},{"arcs":[[-1,45,-40,-28,-10,-38]],"type":"Polygon","properties":{"QPS District":"Wide Bay Burnett","District Id":2033}}]}}}