{"type":"FeatureCollection","name":"qld_north_coast_ldmg_boundaries_gda2020_simp200m_schematic","crs":{"type":"name","properties":{"name":"urn:ogc:def:crs:EPSG::7844"}},"features":[{"type":"Feature","properties":{"LGA Code":"1820","Abbreviated Name":"Bundaberg","LGA Name":"Bundaberg Regional","Area Sq Km":12403.88,"LDMG Name":"Bundaberg","fill-opacity":0.72,"Source Area Sq Km":12403.99881,"Police Region Name":"North Coast Region","Police Region Code":"NCR","Police Region Short Name":"North Coast","Region Slug":"north_coast","Layer Id":"qld_north_coast_ldmg_boundaries_gda2020_simp200m_schematic","Layer Group":"schematic","Layer Kind":"ldmg","Source":"Local government area boundaries - Queensland, Department of Natural Resources and Mines, Manufacturing and Regional and Rural Development; ASGS Edition 3 (2021) Local Government Areas, Australian Bureau of Statistics","Source URL":"https://www.data.qld.gov.au/dataset/local-government-area-boundaries-queensland","Licence":"CC BY 4.0","Licence URL":"https://creativecommons.org/licenses/by/4.0/","Dataset Date":"extract of 14/09/2026","Simplification Tolerance M":200,"Coordinate Precision Decimals":4,"CRS":"GDA2020 (EPSG:7844)","Fidelity":"schematic, non-cartographic display variant: Cook Shire's coastal waters and islets reassigned so the Power BI Azure Maps visual renders without faults; contains intentional boundary inaccuracies; not for planning, dispatch, analysis or jurisdiction","Modified":"Simplified and repackaged from the source dataset; see Source URL","Schematic Change":"unchanged from the standard layer"},"geometry":{"type":"Polygon","coordinates":[[[153.2256,-24.516],[152.8844,-24.5153],[152.0845,-24.516],[152.0621,-24.516],[152.0569,-24.5214],[152.0469,-24.5265],[152.0316,-24.53],[152.025,-24.5263],[152.0168,-24.5159],[152.0107,-24.5137],[151.9987,-24.5156],[151.9932,-24.5218],[151.9905,-24.5273],[151.9966,-24.5346],[151.9953,-24.5364],[151.9866,-24.5363],[151.9891,-24.5403],[151.9871,-24.5493],[151.9841,-24.5536],[151.9768,-24.557],[151.9742,-24.5635],[151.9691,-24.5687],[151.9701,-24.5747],[151.9688,-24.5801],[151.9632,-24.5856],[151.9593,-24.5876],[151.9887,-24.5913],[151.9857,-24.6113],[151.9601,-24.6084],[151.9613,-24.6166],[151.9658,-24.6247],[151.9645,-24.6329],[151.9605,-24.6309],[151.9591,-24.6402],[151.9626,-24.6419],[151.9714,-24.6407],[151.9838,-24.6446],[151.9878,-24.6435],[151.9961,-24.6442],[151.9954,-24.6493],[151.9875,-24.6483],[151.9864,-24.6555],[151.9943,-24.6565],[151.9908,-24.6809],[151.9779,-24.6787],[151.9606,-24.6765],[151.9598,-24.6893],[151.9625,-24.701],[151.9611,-24.7033],[151.9535,-24.702],[151.9424,-24.7076],[151.9319,-24.708],[151.9279,-24.7118],[151.9232,-24.7189],[151.9194,-24.7284],[151.9191,-24.7326],[151.9232,-24.7387],[151.9125,-24.7404],[151.9074,-24.7425],[151.897,-24.7443],[151.8926,-24.7425],[151.8903,-24.746],[151.8939,-24.7538],[151.8882,-24.7584],[151.8842,-24.7687],[151.8754,-24.7762],[151.8669,-24.7777],[151.8652,-24.784],[151.861,-24.7866],[151.8492,-24.7865],[151.8461,-24.7908],[151.8397,-24.7901],[151.8419,-24.7819],[151.8385,-24.7766],[151.8314,-24.7733],[151.8254,-24.7686],[151.8143,-24.7661],[151.8115,-24.7592],[151.8061,-24.7558],[151.8039,-24.7499],[151.7985,-24.7446],[151.7878,-24.7405],[151.7508,-24.7358],[151.7451,-24.7698],[151.7433,-24.7657],[151.7283,-24.7554],[151.7221,-24.7451],[151.7207,-24.7362],[151.712,-24.7304],[151.7094,-24.7262],[151.7023,-24.7192],[151.6987,-24.7136],[151.6877,-24.7106],[151.6844,-24.7077],[151.6825,-24.7015],[151.6771,-24.6954],[151.6716,-24.698],[151.6684,-24.703],[151.6608,-24.7073],[151.6539,-24.7071],[151.6449,-24.7145],[151.6523,-24.7177],[151.6525,-24.7231],[151.645,-24.7293],[151.639,-24.7304],[151.6345,-24.7251],[151.6266,-24.7221],[151.6172,-24.7108],[151.6114,-24.7088],[151.6013,-24.7018],[151.5933,-24.6999],[151.5802,-24.7043],[151.5762,-24.702],[151.5692,-24.7102],[151.5653,-24.7105],[151.5617,-24.7041],[151.5527,-24.6983],[151.5436,-24.7006],[151.533,-24.6957],[151.5312,-24.6962],[151.5252,-24.6885],[151.5241,-24.6845],[151.5206,-24.6813],[151.5197,-24.6759],[151.5146,-24.6698],[151.5184,-24.6644],[151.5244,-24.6658],[151.5277,-24.6612],[151.5324,-24.6604],[151.5385,-24.648],[151.5416,-24.6456],[151.5383,-24.6408],[151.5421,-24.6283],[151.5403,-24.6241],[151.5423,-24.6174],[151.537,-24.6141],[151.5337,-24.6074],[151.5238,-24.5999],[151.5117,-24.5981],[151.5048,-24.5936],[151.5092,-24.5863],[151.5082,-24.5817],[151.505,-24.5782],[151.4971,-24.5749],[151.4982,-24.5712],[151.4903,-24.5659],[151.4883,-24.5574],[151.4851,-24.5522],[151.4891,-24.548],[151.4867,-24.5411],[151.4775,-24.536],[151.4706,-24.5366],[151.4667,-24.5394],[151.4685,-24.5433],[151.4637,-24.56],[151.4585,-24.5659],[151.457,-24.5706],[151.4528,-24.5704],[151.4388,-24.563],[151.4335,-24.5635],[151.4356,-24.5711],[151.4423,-24.5769],[151.4332,-24.5916],[151.4245,-24.5958],[151.4157,-24.595],[151.4107,-24.5966],[151.4098,-24.6071],[151.4068,-24.6154],[151.398,-24.6171],[151.3909,-24.6147],[151.3846,-24.6083],[151.3814,-24.6122],[151.376,-24.6129],[151.374,-24.6098],[151.367,-24.6122],[151.3613,-24.6235],[151.3585,-24.6252],[151.3578,-24.6306],[151.3514,-24.6354],[151.3418,-24.6493],[151.3471,-24.6587],[151.3491,-24.6677],[151.3551,-24.6726],[151.3587,-24.6805],[151.3523,-24.6836],[151.3448,-24.7002],[151.344,-24.7074],[151.3487,-24.714],[151.3431,-24.721],[151.3455,-24.7259],[151.3527,-24.7306],[151.357,-24.7307],[151.3678,-24.7191],[151.3664,-24.7107],[151.3724,-24.7122],[151.3811,-24.7073],[151.3856,-24.707],[151.3969,-24.7027],[151.4014,-24.6987],[151.4119,-24.695],[151.4208,-24.699],[151.4247,-24.6982],[151.429,-24.7025],[151.4308,-24.707],[151.4299,-24.7119],[151.4351,-24.7187],[151.4407,-24.729],[151.4414,-24.7399],[151.4532,-24.7754],[151.4509,-24.7792],[151.4459,-24.7776],[151.4409,-24.7793],[151.4349,-24.7788],[151.4282,-24.7803],[151.4206,-24.7776],[151.4188,-24.7805],[151.4252,-24.7895],[151.4226,-24.7934],[151.4253,-24.8006],[151.4306,-24.803],[151.4303,-24.807],[151.426,-24.8145],[151.4271,-24.8203],[151.434,-24.8273],[151.4337,-24.8356],[151.4426,-24.8396],[151.4458,-24.8393],[151.4509,-24.8461],[151.4571,-24.8504],[151.4605,-24.8489],[151.472,-24.8509],[151.4798,-24.8411],[151.4845,-24.8424],[151.486,-24.8478],[151.4905,-24.8503],[151.5016,-24.8478],[151.5053,-24.8448],[151.5136,-24.8414],[151.5188,-24.841],[151.5252,-24.8382],[151.5283,-24.8329],[151.5361,-24.8356],[151.5405,-24.833],[151.5457,-24.8326],[151.5502,-24.8356],[151.5493,-24.8426],[151.5569,-24.8521],[151.5566,-24.8595],[151.5631,-24.8608],[151.5686,-24.8705],[151.5656,-24.8759],[151.5706,-24.8819],[151.5761,-24.8835],[151.5764,-24.8923],[151.5729,-24.8972],[151.5749,-24.9014],[151.5751,-24.9115],[151.5705,-24.9161],[151.5692,-24.9249],[151.5723,-24.9316],[151.5678,-24.9331],[151.5671,-24.9375],[151.5574,-24.941],[151.547,-24.9417],[151.5423,-24.9455],[151.5397,-24.9501],[151.5343,-24.9462],[151.5305,-24.9454],[151.5255,-24.9524],[151.5268,-24.9566],[151.524,-24.963],[151.5341,-24.9733],[151.5306,-24.9814],[151.5322,-24.9885],[151.5356,-24.9921],[151.5421,-24.9929],[151.556,-25.0097],[151.555,-25.0142],[151.5593,-25.0182],[151.5593,-25.0243],[151.556,-25.0373],[151.5573,-25.0443],[151.5563,-25.0474],[151.5646,-25.0497],[151.5638,-25.0537],[151.555,-25.0698],[151.5528,-25.0724],[151.5497,-25.0827],[151.5443,-25.0861],[151.5401,-25.0921],[151.5446,-25.096],[151.555,-25.0988],[151.5592,-25.1029],[151.5616,-25.0992],[151.5708,-25.1024],[151.5787,-25.099],[151.5844,-25.1002],[151.59,-25.0987],[151.5988,-25.1026],[151.5996,-25.1005],[151.6079,-25.1032],[151.61,-25.1053],[151.6088,-25.1146],[151.6176,-25.1149],[151.622,-25.1126],[151.6496,-25.116],[151.6532,-25.0917],[151.6573,-25.0943],[151.6627,-25.0945],[151.6632,-25.0887],[151.6715,-25.0876],[151.6745,-25.084],[151.6777,-25.0879],[151.6828,-25.0902],[151.6918,-25.0832],[151.6952,-25.0867],[151.6955,-25.0902],[151.7005,-25.093],[151.7139,-25.0903],[151.7123,-25.0872],[151.7187,-25.0829],[151.7266,-25.0839],[151.7294,-25.0794],[151.7372,-25.0815],[151.7378,-25.0755],[151.7429,-25.0738],[151.7733,-25.1103],[151.7777,-25.1088],[151.7799,-25.114],[151.7835,-25.1153],[151.7849,-25.123],[151.782,-25.1307],[151.7848,-25.1348],[151.7849,-25.1452],[151.7876,-25.1497],[151.7858,-25.1566],[151.7944,-25.1592],[151.7945,-25.1624],[151.8008,-25.1646],[151.8042,-25.1754],[151.8125,-25.1729],[151.8193,-25.183],[151.8235,-25.1868],[151.8275,-25.1827],[151.8387,-25.1826],[151.8433,-25.1842],[151.8486,-25.1836],[151.8527,-25.1767],[151.8505,-25.1746],[151.8521,-25.1691],[151.8487,-25.16],[151.8502,-25.1549],[151.8562,-25.1444],[151.8601,-25.1424],[151.8689,-25.1475],[151.87,-25.1506],[151.8781,-25.1525],[151.8855,-25.1497],[151.8871,-25.1453],[151.8909,-25.1421],[151.9019,-25.1414],[151.906,-25.1464],[151.9168,-25.1494],[151.9154,-25.1541],[151.9205,-25.1594],[151.9242,-25.1592],[151.9314,-25.1751],[151.9266,-25.1748],[151.9252,-25.1791],[151.9155,-25.18],[151.9103,-25.1844],[151.9074,-25.1911],[151.9156,-25.1957],[151.9157,-25.1987],[151.9107,-25.201],[151.905,-25.198],[151.8976,-25.2104],[151.9048,-25.2139],[151.9042,-25.2205],[151.9017,-25.2245],[151.9036,-25.2288],[151.8952,-25.2342],[151.8921,-25.2342],[151.884,-25.2402],[151.8813,-25.2437],[151.8829,-25.2525],[151.8793,-25.266],[151.8741,-25.2688],[151.8725,-25.2732],[151.8806,-25.2761],[151.8831,-25.2809],[151.8888,-25.285],[151.887,-25.2939],[151.882,-25.295],[151.8757,-25.2918],[151.8707,-25.2947],[151.8727,-25.3022],[151.8624,-25.3004],[151.8656,-25.3169],[151.8683,-25.3207],[151.8669,-25.3272],[151.8642,-25.3311],[151.8609,-25.3306],[151.8609,-25.3372],[151.8666,-25.3394],[151.8686,-25.3431],[151.8726,-25.3396],[151.878,-25.3398],[151.8809,-25.3424],[151.8786,-25.3567],[151.8815,-25.3609],[151.8897,-25.3591],[151.8956,-25.354],[151.9014,-25.3526],[151.9099,-25.3558],[151.9159,-25.3543],[151.9195,-25.3476],[151.9238,-25.3431],[151.9356,-25.3235],[151.9377,-25.3165],[151.9443,-25.3007],[151.9515,-25.2917],[151.9596,-25.2865],[151.9661,-25.2803],[151.9736,-25.2793],[151.9835,-25.2821],[151.9969,-25.2909],[152.0036,-25.2929],[152.01,-25.2895],[152.0133,-25.2843],[152.0126,-25.2741],[152.0256,-25.2732],[152.0308,-25.2747],[152.0368,-25.2792],[152.0382,-25.2842],[152.0491,-25.2877],[152.0513,-25.2951],[152.0556,-25.296],[152.0598,-25.3075],[152.0679,-25.3143],[152.0738,-25.3146],[152.0762,-25.3204],[152.0847,-25.3182],[152.0852,-25.3145],[152.0906,-25.3131],[152.0975,-25.3222],[152.106,-25.3279],[152.1243,-25.3271],[152.133,-25.3342],[152.1399,-25.3363],[152.1517,-25.3372],[152.1673,-25.3361],[152.1709,-25.3406],[152.1725,-25.3467],[152.171,-25.349],[152.1738,-25.36],[152.1704,-25.3654],[152.1719,-25.3694],[152.1764,-25.3723],[152.1837,-25.3813],[152.1889,-25.3826],[152.1994,-25.3945],[152.2027,-25.3949],[152.2096,-25.3901],[152.2146,-25.3901],[152.2186,-25.3874],[152.2238,-25.3938],[152.2342,-25.4001],[152.239,-25.3991],[152.2542,-25.4021],[152.2621,-25.4122],[152.2653,-25.4132],[152.2722,-25.4186],[152.2736,-25.4313],[152.2986,-25.4102],[152.2991,-25.4081],[152.308,-25.4064],[152.32,-25.4075],[152.324,-25.4016],[152.327,-25.4016],[152.3357,-25.3922],[152.3341,-25.3894],[152.3367,-25.3859],[152.3346,-25.3825],[152.347,-25.3751],[152.3545,-25.3661],[152.359,-25.3665],[152.3644,-25.3635],[152.373,-25.363],[152.3724,-25.353],[152.3847,-25.3562],[152.4062,-25.3345],[152.4095,-25.3127],[152.4156,-25.2903],[152.441,-25.2486],[152.449,-25.2334],[152.4506,-25.2283],[152.4593,-25.2238],[152.4688,-25.2151],[152.4738,-25.2168],[152.4834,-25.2169],[152.494,-25.2097],[152.5011,-25.2108],[152.5039,-25.2089],[152.5101,-25.2092],[152.5122,-25.2129],[152.5103,-25.2158],[152.517,-25.2213],[152.5246,-25.2149],[152.5255,-25.2108],[152.5335,-25.2127],[152.5472,-25.2068],[152.5478,-25.2007],[152.542,-25.1938],[152.5442,-25.1882],[152.554,-25.1817],[152.5576,-25.1759],[152.562,-25.1718],[152.5689,-25.1684],[152.5779,-25.1686],[152.5864,-25.173],[152.6023,-25.1724],[152.6095,-25.175],[152.6141,-25.1795],[152.624,-25.1814],[152.8006,-25.1817],[152.8807,-25.1817],[153.0006,-25.1817],[153.0252,-25.182],[153.0313,-25.1769],[153.0517,-25.1683],[153.0628,-25.1627],[153.082,-25.1497],[153.0942,-25.1397],[153.1057,-25.1313],[153.1127,-25.1252],[153.129,-25.1135],[153.137,-25.1052],[153.1599,-25.0844],[153.1684,-25.0745],[153.1776,-25.0616],[153.2003,-25.0324],[153.209,-25.0188],[153.2221,-24.9957],[153.226,-24.9846],[153.2267,-24.9764],[153.2325,-24.9541],[153.2341,-24.9393],[153.2331,-24.929],[153.2304,-24.9204],[153.2256,-24.911],[153.2124,-24.8917],[153.1968,-24.8657],[153.1831,-24.8463],[153.1735,-24.836],[153.1649,-24.8286],[153.1558,-24.8223],[153.1477,-24.8182],[153.137,-24.8148],[153.1316,-24.8143],[153.1233,-24.8169],[153.1175,-24.8149],[153.1239,-24.8031],[153.129,-24.7964],[153.1521,-24.7743],[153.1572,-24.7685],[153.1655,-24.756],[153.1734,-24.7468],[153.1821,-24.7387],[153.2079,-24.7193],[153.2154,-24.7146],[153.2356,-24.7044],[153.2511,-24.6976],[153.2572,-24.6979],[153.2648,-24.7003],[153.2628,-24.6805],[153.2256,-24.516]]]},"id":"1820"},{"type":"Feature","properties":{"LGA Code":"2330","Abbreviated Name":"Cherbourg Aboriginal","LGA Name":"Cherbourg Aboriginal Shire","Area Sq Km":31.58,"LDMG Name":"Cherbourg","fill-opacity":0.72,"Source Area Sq Km":31.7648,"Police Region Name":"North Coast Region","Police Region Code":"NCR","Police Region Short Name":"North Coast","Region Slug":"north_coast","Layer Id":"qld_north_coast_ldmg_boundaries_gda2020_simp200m_schematic","Layer Group":"schematic","Layer Kind":"ldmg","Source":"Local government area boundaries - Queensland, Department of Natural Resources and Mines, Manufacturing and Regional and Rural Development; ASGS Edition 3 (2021) Local Government Areas, Australian Bureau of Statistics","Source URL":"https://www.data.qld.gov.au/dataset/local-government-area-boundaries-queensland","Licence":"CC BY 4.0","Licence URL":"https://creativecommons.org/licenses/by/4.0/","Dataset Date":"extract of 14/09/2026","Simplification Tolerance M":200,"Coordinate Precision Decimals":4,"CRS":"GDA2020 (EPSG:7844)","Fidelity":"schematic, non-cartographic display variant: Cook Shire's coastal waters and islets reassigned so the Power BI Azure Maps visual renders without faults; contains intentional boundary inaccuracies; not for planning, dispatch, analysis or jurisdiction","Modified":"Simplified and repackaged from the source dataset; see Source URL","Schematic Change":"unchanged from the standard layer"},"geometry":{"type":"Polygon","coordinates":[[[151.9688,-26.3189],[151.9757,-26.316],[151.9726,-26.3118],[151.9747,-26.3073],[151.9702,-26.3058],[151.9773,-26.2921],[151.9724,-26.289],[151.9671,-26.2949],[151.9596,-26.2913],[151.9585,-26.2878],[151.9639,-26.2773],[151.9688,-26.2762],[151.9705,-26.2692],[151.9671,-26.2673],[151.9593,-26.2674],[151.9535,-26.2629],[151.9546,-26.2701],[151.9524,-26.2734],[151.9462,-26.2743],[151.9413,-26.2725],[151.9403,-26.2687],[151.9472,-26.2623],[151.9403,-26.2563],[151.937,-26.2618],[151.9318,-26.2647],[151.9251,-26.2622],[151.9219,-26.2568],[151.9141,-26.2675],[151.9167,-26.2718],[151.9168,-26.2797],[151.9142,-26.2809],[151.9059,-26.2763],[151.9008,-26.2792],[151.8984,-26.2924],[151.8879,-26.2981],[151.8875,-26.3025],[151.967,-26.3119],[151.9688,-26.3189]]]},"id":"2330"},{"type":"Feature","properties":{"LGA Code":"3220","Abbreviated Name":"Fraser Coast","LGA Name":"Fraser Coast Regional","Area Sq Km":7996.28,"LDMG Name":"Fraser Coast","fill-opacity":0.72,"Source Area Sq Km":7995.76593,"Police Region Name":"North Coast Region","Police Region Code":"NCR","Police Region Short Name":"North Coast","Region Slug":"north_coast","Layer Id":"qld_north_coast_ldmg_boundaries_gda2020_simp200m_schematic","Layer Group":"schematic","Layer Kind":"ldmg","Source":"Local government area boundaries - Queensland, Department of Natural Resources and Mines, Manufacturing and Regional and Rural Development; ASGS Edition 3 (2021) Local Government Areas, Australian Bureau of Statistics","Source URL":"https://www.data.qld.gov.au/dataset/local-government-area-boundaries-queensland","Licence":"CC BY 4.0","Licence URL":"https://creativecommons.org/licenses/by/4.0/","Dataset Date":"extract of 14/09/2026","Simplification Tolerance M":200,"Coordinate Precision Decimals":4,"CRS":"GDA2020 (EPSG:7844)","Fidelity":"schematic, non-cartographic display variant: Cook Shire's coastal waters and islets reassigned so the Power BI Azure Maps visual renders without faults; contains intentional boundary inaccuracies; not for planning, dispatch, analysis or jurisdiction","Modified":"Simplified and repackaged from the source dataset; see Source URL","Schematic Change":"unchanged from the standard layer"},"geometry":{"type":"Polygon","coordinates":[[[152.2736,-25.4313],[152.2725,-25.4322],[152.262,-25.459],[152.2602,-25.4619],[152.2636,-25.4704],[152.262,-25.4765],[152.2685,-25.4817],[152.2734,-25.4831],[152.2744,-25.4877],[152.2707,-25.4898],[152.2686,-25.5035],[152.2727,-25.5063],[152.2721,-25.5127],[152.2693,-25.5154],[152.269,-25.5227],[152.2635,-25.5216],[152.2523,-25.5213],[152.2393,-25.5152],[152.2332,-25.515],[152.2303,-25.5193],[152.2273,-25.5145],[152.215,-25.513],[152.2157,-25.5201],[152.21,-25.521],[152.207,-25.5186],[152.2012,-25.5197],[152.1936,-25.5191],[152.1794,-25.523],[152.1794,-25.5291],[152.1757,-25.5357],[152.1689,-25.5419],[152.1658,-25.5473],[152.1631,-25.5597],[152.1646,-25.5743],[152.1543,-25.5831],[152.1459,-25.5843],[152.1398,-25.587],[152.1296,-25.5876],[152.1301,-25.591],[152.125,-25.5922],[152.1242,-25.5959],[152.1115,-25.5984],[152.11,-25.6035],[152.1122,-25.611],[152.1159,-25.6154],[152.1154,-25.6231],[152.1121,-25.6268],[152.1088,-25.626],[152.1043,-25.629],[152.0927,-25.6324],[152.0907,-25.6364],[152.0828,-25.6327],[152.0762,-25.6254],[152.0647,-25.6215],[152.0559,-25.6275],[152.0527,-25.6159],[152.0459,-25.613],[152.0415,-25.6196],[152.0383,-25.6426],[152.0299,-25.6422],[152.0271,-25.6504],[152.0187,-25.6573],[152.0125,-25.6651],[152.011,-25.674],[152.0176,-25.6802],[152.0153,-25.686],[152.0164,-25.6898],[152.0141,-25.7087],[152.0098,-25.7137],[152.003,-25.7178],[151.9967,-25.7115],[151.9883,-25.7147],[151.9821,-25.7153],[151.9824,-25.729],[151.9802,-25.7334],[151.9953,-25.7371],[151.9977,-25.7467],[151.9965,-25.7508],[151.9977,-25.771],[152.0017,-25.7722],[152.0032,-25.7765],[152.0082,-25.7824],[152.0185,-25.7864],[152.0219,-25.7892],[152.0292,-25.787],[152.039,-25.7902],[152.0353,-25.7952],[152.036,-25.8038],[152.0291,-25.8102],[152.0293,-25.8195],[152.0319,-25.8218],[152.0289,-25.8294],[152.0316,-25.8369],[152.0323,-25.8432],[152.0294,-25.8452],[152.0287,-25.8501],[152.0332,-25.8522],[152.0384,-25.8513],[152.0492,-25.8518],[152.0507,-25.8557],[152.0472,-25.8678],[152.0432,-25.8751],[152.0474,-25.8785],[152.0575,-25.8829],[152.059,-25.8864],[152.071,-25.8836],[152.0729,-25.8774],[152.0807,-25.875],[152.085,-25.8714],[152.0901,-25.8728],[152.1002,-25.8678],[152.102,-25.8622],[152.1064,-25.8623],[152.1133,-25.8572],[152.1172,-25.8621],[152.1147,-25.8694],[152.1168,-25.8766],[152.1219,-25.8819],[152.123,-25.8859],[152.1301,-25.8857],[152.1302,-25.8777],[152.1334,-25.8735],[152.1373,-25.8773],[152.1433,-25.8804],[152.1462,-25.8837],[152.1526,-25.884],[152.1596,-25.8787],[152.1694,-25.8819],[152.1695,-25.8874],[152.2057,-25.8914],[152.2313,-25.8947],[152.2316,-25.8937],[152.2634,-25.8978],[152.3307,-25.9075],[152.3334,-25.8921],[152.3408,-25.8936],[152.3456,-25.8633],[152.375,-25.867],[152.3775,-25.8739],[152.3809,-25.8749],[152.3867,-25.8726],[152.3898,-25.8631],[152.4116,-25.8659],[152.4109,-25.8704],[152.4226,-25.8719],[152.4207,-25.883],[152.446,-25.8865],[152.4489,-25.8916],[152.4635,-25.8937],[152.4648,-25.8986],[152.4727,-25.8989],[152.4749,-25.9054],[152.4969,-25.9083],[152.5004,-25.9058],[152.5059,-25.9078],[152.5454,-25.9129],[152.5506,-25.9217],[152.5487,-25.9301],[152.5579,-25.9325],[152.5596,-25.9211],[152.5681,-25.922],[152.5637,-25.9284],[152.568,-25.9337],[152.5668,-25.9431],[152.6006,-25.9476],[152.6023,-25.9494],[152.601,-25.9551],[152.6141,-25.9569],[152.6111,-25.9733],[152.6219,-25.9747],[152.6211,-25.9814],[152.655,-25.9861],[152.6571,-25.9801],[152.665,-25.9792],[152.6678,-25.9616],[152.6739,-25.9624],[152.6754,-25.9537],[152.6698,-25.9529],[152.6723,-25.9381],[152.6883,-25.9403],[152.6945,-25.936],[152.6945,-25.9329],[152.704,-25.9276],[152.704,-25.9232],[152.7077,-25.9168],[152.7201,-25.9124],[152.7291,-25.913],[152.7352,-25.9119],[152.7387,-25.9088],[152.7385,-25.9019],[152.7434,-25.8929],[152.7442,-25.8882],[152.752,-25.8867],[152.7505,-25.8775],[152.7445,-25.8746],[152.7344,-25.8728],[152.7335,-25.8672],[152.7292,-25.8678],[152.7187,-25.8527],[152.7235,-25.8473],[152.7195,-25.8455],[152.7122,-25.8456],[152.7129,-25.8414],[152.7181,-25.8415],[152.7289,-25.8442],[152.736,-25.8474],[152.7352,-25.8424],[152.8275,-25.8566],[152.8407,-25.8588],[152.9912,-25.8818],[152.995,-25.8787],[153.0052,-25.8761],[153.0191,-25.8668],[153.0263,-25.8601],[153.0366,-25.8559],[153.0386,-25.8463],[153.035,-25.8333],[153.0345,-25.8247],[153.0366,-25.8156],[153.0397,-25.8075],[153.0443,-25.8007],[153.0632,-25.8006],[153.0753,-25.8022],[153.076,-25.7943],[153.0813,-25.7861],[153.0883,-25.7609],[153.0876,-25.7495],[153.0843,-25.7388],[153.0804,-25.7212],[153.0785,-25.7079],[153.0771,-25.69],[153.078,-25.6703],[153.0816,-25.6501],[153.0856,-25.632],[153.0941,-25.6017],[153.1051,-25.5689],[153.1255,-25.516],[153.1361,-25.4911],[153.1401,-25.4807],[153.1598,-25.4356],[153.1673,-25.4192],[153.1789,-25.392],[153.1946,-25.3572],[153.2034,-25.3392],[153.2121,-25.3191],[153.229,-25.2856],[153.2317,-25.2793],[153.2518,-25.2384],[153.2613,-25.2176],[153.2684,-25.2044],[153.3092,-25.1149],[153.314,-25.1056],[153.3227,-25.0858],[153.34,-25.0511],[153.3479,-25.0369],[153.3541,-25.0238],[153.3578,-25.011],[153.357,-25.0064],[153.3528,-25.0007],[153.351,-24.9913],[153.35,-24.9807],[153.3506,-24.9683],[153.3494,-24.9645],[153.3419,-24.9662],[153.3346,-24.9659],[153.3214,-24.9623],[153.3107,-24.9549],[153.299,-24.9451],[153.2895,-24.934],[153.2847,-24.9257],[153.2794,-24.9145],[153.2734,-24.8994],[153.2717,-24.8975],[153.2664,-24.8809],[153.2636,-24.8668],[153.261,-24.8488],[153.2597,-24.8189],[153.2602,-24.8028],[153.2619,-24.7707],[153.2648,-24.7352],[153.2669,-24.7148],[153.2671,-24.7053],[153.2648,-24.7003],[153.2572,-24.6979],[153.2511,-24.6976],[153.2356,-24.7044],[153.2154,-24.7146],[153.2079,-24.7193],[153.1821,-24.7387],[153.1734,-24.7468],[153.1655,-24.756],[153.1572,-24.7685],[153.1521,-24.7743],[153.129,-24.7964],[153.1239,-24.8031],[153.1175,-24.8149],[153.1233,-24.8169],[153.1316,-24.8143],[153.137,-24.8148],[153.1477,-24.8182],[153.1558,-24.8223],[153.1649,-24.8286],[153.1735,-24.836],[153.1831,-24.8463],[153.1968,-24.8657],[153.2124,-24.8917],[153.2256,-24.911],[153.2304,-24.9204],[153.2331,-24.929],[153.2341,-24.9393],[153.2325,-24.9541],[153.2267,-24.9764],[153.226,-24.9846],[153.2221,-24.9957],[153.209,-25.0188],[153.2003,-25.0324],[153.1776,-25.0616],[153.1684,-25.0745],[153.1599,-25.0844],[153.137,-25.1052],[153.129,-25.1135],[153.1127,-25.1252],[153.1057,-25.1313],[153.0942,-25.1397],[153.082,-25.1497],[153.0628,-25.1627],[153.0517,-25.1683],[153.0313,-25.1769],[153.0252,-25.182],[153.0006,-25.1817],[152.8807,-25.1817],[152.8006,-25.1817],[152.624,-25.1814],[152.6141,-25.1795],[152.6095,-25.175],[152.6023,-25.1724],[152.5864,-25.173],[152.5779,-25.1686],[152.5689,-25.1684],[152.562,-25.1718],[152.5576,-25.1759],[152.554,-25.1817],[152.5442,-25.1882],[152.542,-25.1938],[152.5478,-25.2007],[152.5472,-25.2068],[152.5335,-25.2127],[152.5255,-25.2108],[152.5246,-25.2149],[152.517,-25.2213],[152.5103,-25.2158],[152.5122,-25.2129],[152.5101,-25.2092],[152.5039,-25.2089],[152.5011,-25.2108],[152.494,-25.2097],[152.4834,-25.2169],[152.4738,-25.2168],[152.4688,-25.2151],[152.4593,-25.2238],[152.4506,-25.2283],[152.449,-25.2334],[152.441,-25.2486],[152.4156,-25.2903],[152.4095,-25.3127],[152.4062,-25.3345],[152.3847,-25.3562],[152.3724,-25.353],[152.373,-25.363],[152.3644,-25.3635],[152.359,-25.3665],[152.3545,-25.3661],[152.347,-25.3751],[152.3346,-25.3825],[152.3367,-25.3859],[152.3341,-25.3894],[152.3357,-25.3922],[152.327,-25.4016],[152.324,-25.4016],[152.32,-25.4075],[152.308,-25.4064],[152.2991,-25.4081],[152.2986,-25.4102],[152.2736,-25.4313]]]},"id":"3220"},{"type":"Feature","properties":{"LGA Code":"3620","Abbreviated Name":"Gympie","LGA Name":"Gympie Regional","Area Sq Km":6936.31,"LDMG Name":"Gympie","fill-opacity":0.72,"Source Area Sq Km":6936.26533,"Police Region Name":"North Coast Region","Police Region Code":"NCR","Police Region Short Name":"North Coast","Region Slug":"north_coast","Layer Id":"qld_north_coast_ldmg_boundaries_gda2020_simp200m_schematic","Layer Group":"schematic","Layer Kind":"ldmg","Source":"Local government area boundaries - Queensland, Department of Natural Resources and Mines, Manufacturing and Regional and Rural Development; ASGS Edition 3 (2021) Local Government Areas, Australian Bureau of Statistics","Source URL":"https://www.data.qld.gov.au/dataset/local-government-area-boundaries-queensland","Licence":"CC BY 4.0","Licence URL":"https://creativecommons.org/licenses/by/4.0/","Dataset Date":"extract of 14/09/2026","Simplification Tolerance M":200,"Coordinate Precision Decimals":4,"CRS":"GDA2020 (EPSG:7844)","Fidelity":"schematic, non-cartographic display variant: Cook Shire's coastal waters and islets reassigned so the Power BI Azure Maps visual renders without faults; contains intentional boundary inaccuracies; not for planning, dispatch, analysis or jurisdiction","Modified":"Simplified and repackaged from the source dataset; see Source URL","Schematic Change":"unchanged from the standard layer"},"geometry":{"type":"Polygon","coordinates":[[[151.9977,-25.771],[151.995,-25.7737],[151.9903,-25.7737],[151.9865,-25.7785],[151.989,-25.7832],[151.9855,-25.7888],[151.9847,-25.7937],[151.9861,-25.8011],[151.9788,-25.8135],[151.9732,-25.8107],[151.972,-25.8164],[151.9687,-25.8229],[151.9702,-25.8304],[151.9629,-25.8339],[151.9593,-25.833],[151.9552,-25.8425],[151.9508,-25.8454],[151.9482,-25.8507],[151.9443,-25.8508],[151.9377,-25.856],[151.9346,-25.8627],[151.9304,-25.8629],[151.9284,-25.8675],[151.9213,-25.8679],[151.9127,-25.8725],[151.9032,-25.8703],[151.8957,-25.8652],[151.892,-25.8589],[151.891,-25.852],[151.8924,-25.8489],[151.889,-25.8423],[151.8821,-25.842],[151.8805,-25.8347],[151.8771,-25.8331],[151.8763,-25.8276],[151.8723,-25.8203],[151.8745,-25.8151],[151.8626,-25.8068],[151.8458,-25.8039],[151.8403,-25.7983],[151.829,-25.7945],[151.8287,-25.7848],[151.8264,-25.7829],[151.8183,-25.7869],[151.813,-25.785],[151.8136,-25.7801],[151.8113,-25.7709],[151.8083,-25.7667],[151.8105,-25.7634],[151.8058,-25.7593],[151.8003,-25.7569],[151.7899,-25.7585],[151.791,-25.767],[151.7887,-25.7721],[151.7795,-25.7735],[151.7754,-25.7793],[151.7808,-25.7861],[151.7808,-25.7894],[151.7758,-25.7897],[151.7676,-25.7874],[151.7624,-25.7992],[151.7578,-25.8013],[151.7577,-25.8049],[151.7645,-25.8068],[151.765,-25.8104],[151.773,-25.8118],[151.7747,-25.8143],[151.7717,-25.8215],[151.7669,-25.8232],[151.7647,-25.8271],[151.7668,-25.8328],[151.7664,-25.8395],[151.7698,-25.8433],[151.7701,-25.8494],[151.7673,-25.8532],[151.7694,-25.8598],[151.7728,-25.862],[151.7756,-25.8713],[151.7757,-25.8782],[151.7741,-25.8845],[151.7756,-25.8886],[151.7805,-25.8942],[151.7793,-25.9004],[151.7763,-25.9048],[151.7763,-25.9126],[151.7781,-25.915],[151.7772,-25.9227],[151.7699,-25.9291],[151.764,-25.9316],[151.7628,-25.9364],[151.759,-25.9384],[151.753,-25.9374],[151.7557,-25.9458],[151.7645,-25.9499],[151.814,-25.9562],[151.8064,-26.0057],[151.8178,-26.007],[151.8155,-26.0142],[151.8114,-26.0171],[151.811,-26.0206],[151.8318,-26.023],[151.8339,-26.0085],[151.8492,-26.0103],[151.9123,-26.0186],[151.9122,-26.0163],[151.9392,-26.02],[151.9387,-26.0297],[151.9438,-26.0385],[151.9477,-26.0429],[151.9432,-26.0519],[151.9354,-26.0545],[151.9354,-26.0584],[151.9404,-26.0619],[151.9353,-26.092],[151.9845,-26.0988],[151.9786,-26.1083],[151.9744,-26.1088],[151.9672,-26.1156],[151.9604,-26.1147],[151.9527,-26.117],[151.9568,-26.1288],[151.9648,-26.1314],[151.9754,-26.1334],[151.9766,-26.1488],[151.9757,-26.1521],[151.9789,-26.1556],[151.9761,-26.1737],[151.9905,-26.1757],[152.0019,-26.1882],[152.0008,-26.1937],[152.0105,-26.1988],[152.0109,-26.2046],[152.0078,-26.2119],[152.0049,-26.2155],[152.0089,-26.2285],[152.0203,-26.2254],[152.0294,-26.2364],[152.0319,-26.2356],[152.04,-26.2453],[152.052,-26.2372],[152.0614,-26.243],[152.0615,-26.2512],[152.0652,-26.2646],[152.0666,-26.2751],[152.071,-26.2768],[152.0741,-26.2819],[152.0794,-26.2869],[152.0801,-26.2948],[152.0762,-26.3013],[152.0731,-26.3221],[152.0701,-26.3316],[152.068,-26.3319],[152.0625,-26.3439],[152.0579,-26.3448],[152.0508,-26.3539],[152.0088,-26.349],[152.0136,-26.3528],[152.0121,-26.3557],[152.0006,-26.3625],[152.0039,-26.3668],[152.0035,-26.3738],[152.0094,-26.3726],[152.015,-26.3753],[152.0662,-26.3816],[152.0688,-26.3831],[152.0725,-26.3595],[152.0839,-26.3637],[152.0881,-26.3662],[152.0962,-26.374],[152.0998,-26.3735],[152.112,-26.3777],[152.1204,-26.3778],[152.1196,-26.384],[152.1234,-26.3847],[152.1212,-26.3931],[152.1264,-26.3964],[152.1343,-26.3972],[152.1398,-26.4012],[152.1422,-26.407],[152.1469,-26.4028],[152.1518,-26.4052],[152.1531,-26.4091],[152.1571,-26.4109],[152.1596,-26.4157],[152.1671,-26.4165],[152.1672,-26.4236],[152.171,-26.4277],[152.1719,-26.4367],[152.1736,-26.4385],[152.1674,-26.4756],[152.1742,-26.4817],[152.1846,-26.4862],[152.1876,-26.4901],[152.1948,-26.4956],[152.1975,-26.5002],[152.2046,-26.507],[152.2066,-26.5111],[152.2153,-26.5122],[152.219,-26.5052],[152.2216,-26.5038],[152.2295,-26.508],[152.2326,-26.5041],[152.2321,-26.4952],[152.2293,-26.4927],[152.2351,-26.4888],[152.2439,-26.4879],[152.2456,-26.4856],[152.2533,-26.4844],[152.2562,-26.4785],[152.2593,-26.4765],[152.2597,-26.4714],[152.2622,-26.4689],[152.268,-26.4689],[152.273,-26.4643],[152.2738,-26.4535],[152.2844,-26.4524],[152.2891,-26.4566],[152.2942,-26.4587],[152.2973,-26.4622],[152.3053,-26.4668],[152.3045,-26.4688],[152.3114,-26.4724],[152.3155,-26.4808],[152.3196,-26.477],[152.3304,-26.4753],[152.3393,-26.4716],[152.344,-26.4679],[152.3501,-26.4693],[152.3561,-26.4652],[152.3606,-26.4663],[152.3644,-26.4631],[152.3708,-26.4624],[152.3731,-26.4682],[152.3771,-26.4722],[152.3868,-26.4722],[152.3904,-26.4759],[152.3994,-26.4708],[152.4032,-26.4739],[152.4077,-26.4711],[152.4126,-26.4642],[152.4213,-26.4672],[152.4251,-26.4642],[152.4352,-26.4628],[152.4368,-26.4597],[152.4435,-26.46],[152.4393,-26.4858],[152.4456,-26.4866],[152.4482,-26.484],[152.4449,-26.5047],[152.439,-26.5113],[152.4397,-26.5173],[152.4355,-26.5238],[152.4352,-26.5286],[152.4387,-26.5351],[152.4426,-26.5333],[152.4435,-26.5277],[152.4496,-26.5308],[152.4403,-26.5571],[152.4508,-26.5584],[152.449,-26.5698],[152.4585,-26.571],[152.457,-26.5809],[152.5199,-26.5885],[152.5224,-26.5865],[152.5152,-26.5777],[152.5115,-26.5675],[152.5541,-26.5725],[152.5604,-26.5818],[152.565,-26.5837],[152.5695,-26.5825],[152.5752,-26.584],[152.5793,-26.5809],[152.5879,-26.5797],[152.5922,-26.5844],[152.5955,-26.5841],[152.6025,-26.5779],[152.6059,-26.5797],[152.6063,-26.5843],[152.6122,-26.583],[152.6187,-26.5843],[152.6256,-26.582],[152.6358,-26.5851],[152.6437,-26.5862],[152.6526,-26.5902],[152.6536,-26.5928],[152.6603,-26.5971],[152.67,-26.5961],[152.6805,-26.5977],[152.6829,-26.5893],[152.681,-26.5839],[152.686,-26.577],[152.695,-26.5756],[152.6949,-26.5679],[152.7008,-26.5652],[152.7106,-26.5566],[152.7124,-26.5462],[152.7147,-26.5463],[152.7285,-26.537],[152.7334,-26.543],[152.7377,-26.5402],[152.7451,-26.5496],[152.7498,-26.5472],[152.7527,-26.5498],[152.7582,-26.5439],[152.7585,-26.5364],[152.7634,-26.5387],[152.7672,-26.5373],[152.7695,-26.5312],[152.7674,-26.5273],[152.7597,-26.525],[152.7621,-26.5106],[152.7437,-26.5082],[152.7448,-26.4993],[152.7493,-26.4978],[152.7524,-26.4914],[152.7616,-26.4837],[152.7656,-26.482],[152.7654,-26.4758],[152.7577,-26.4754],[152.7576,-26.4684],[152.7886,-26.473],[152.7892,-26.4694],[152.7953,-26.4326],[152.7912,-26.4318],[152.7935,-26.4179],[152.7964,-26.4191],[152.7934,-26.4069],[152.7893,-26.4035],[152.7815,-26.4045],[152.7779,-26.4024],[152.7791,-26.3953],[152.769,-26.3939],[152.7684,-26.3855],[152.7706,-26.3727],[152.7653,-26.3724],[152.7652,-26.3623],[152.7675,-26.3627],[152.7721,-26.3457],[152.7831,-26.35],[152.7926,-26.3514],[152.7972,-26.3249],[152.7995,-26.3183],[152.8064,-26.3086],[152.8081,-26.2994],[152.8254,-26.2482],[152.8227,-26.2401],[152.8277,-26.2389],[152.8252,-26.2236],[152.8303,-26.2205],[152.8309,-26.2161],[152.8501,-26.2184],[152.853,-26.1984],[152.8764,-26.2012],[152.8848,-26.2072],[152.8926,-26.2166],[152.8963,-26.2192],[152.8977,-26.2105],[152.9036,-26.2113],[152.9043,-26.2071],[152.9229,-26.2096],[152.9226,-26.1987],[152.9339,-26.1966],[152.9401,-26.1984],[152.9444,-26.1965],[152.9453,-26.1921],[152.9566,-26.19],[152.9608,-26.185],[152.9613,-26.1813],[152.9651,-26.1802],[152.9664,-26.1734],[152.9719,-26.1648],[152.9747,-26.1472],[152.9725,-26.1452],[152.9738,-26.1371],[153.0965,-26.1548],[153.1095,-26.1149],[153.1223,-26.0812],[153.1333,-26.0509],[153.146,-26.0207],[153.1612,-25.9874],[153.1762,-25.957],[153.1861,-25.9381],[153.1914,-25.9361],[153.1915,-25.9326],[153.1865,-25.9269],[153.1819,-25.9307],[153.1752,-25.9456],[153.1706,-25.9493],[153.1645,-25.9502],[153.1538,-25.9496],[153.145,-25.9476],[153.1322,-25.9423],[153.1183,-25.9325],[153.1091,-25.9233],[153.1041,-25.9171],[153.0949,-25.9033],[153.0908,-25.899],[153.0871,-25.8921],[153.0827,-25.8803],[153.0784,-25.8641],[153.0745,-25.8381],[153.0734,-25.8217],[153.0706,-25.8103],[153.0753,-25.8022],[153.0632,-25.8006],[153.0443,-25.8007],[153.0397,-25.8075],[153.0366,-25.8156],[153.0345,-25.8247],[153.035,-25.8333],[153.0386,-25.8463],[153.0366,-25.8559],[153.0263,-25.8601],[153.0191,-25.8668],[153.0052,-25.8761],[152.995,-25.8787],[152.9912,-25.8818],[152.8407,-25.8588],[152.8275,-25.8566],[152.7352,-25.8424],[152.736,-25.8474],[152.7289,-25.8442],[152.7181,-25.8415],[152.7129,-25.8414],[152.7122,-25.8456],[152.7195,-25.8455],[152.7235,-25.8473],[152.7187,-25.8527],[152.7292,-25.8678],[152.7335,-25.8672],[152.7344,-25.8728],[152.7445,-25.8746],[152.7505,-25.8775],[152.752,-25.8867],[152.7442,-25.8882],[152.7434,-25.8929],[152.7385,-25.9019],[152.7387,-25.9088],[152.7352,-25.9119],[152.7291,-25.913],[152.7201,-25.9124],[152.7077,-25.9168],[152.704,-25.9232],[152.704,-25.9276],[152.6945,-25.9329],[152.6945,-25.936],[152.6883,-25.9403],[152.6723,-25.9381],[152.6698,-25.9529],[152.6754,-25.9537],[152.6739,-25.9624],[152.6678,-25.9616],[152.665,-25.9792],[152.6571,-25.9801],[152.655,-25.9861],[152.6211,-25.9814],[152.6219,-25.9747],[152.6111,-25.9733],[152.6141,-25.9569],[152.601,-25.9551],[152.6023,-25.9494],[152.6006,-25.9476],[152.5668,-25.9431],[152.568,-25.9337],[152.5637,-25.9284],[152.5681,-25.922],[152.5596,-25.9211],[152.5579,-25.9325],[152.5487,-25.9301],[152.5506,-25.9217],[152.5454,-25.9129],[152.5059,-25.9078],[152.5004,-25.9058],[152.4969,-25.9083],[152.4749,-25.9054],[152.4727,-25.8989],[152.4648,-25.8986],[152.4635,-25.8937],[152.4489,-25.8916],[152.446,-25.8865],[152.4207,-25.883],[152.4226,-25.8719],[152.4109,-25.8704],[152.4116,-25.8659],[152.3898,-25.8631],[152.3867,-25.8726],[152.3809,-25.8749],[152.3775,-25.8739],[152.375,-25.867],[152.3456,-25.8633],[152.3408,-25.8936],[152.3334,-25.8921],[152.3307,-25.9075],[152.2634,-25.8978],[152.2316,-25.8937],[152.2313,-25.8947],[152.2057,-25.8914],[152.1695,-25.8874],[152.1694,-25.8819],[152.1596,-25.8787],[152.1526,-25.884],[152.1462,-25.8837],[152.1433,-25.8804],[152.1373,-25.8773],[152.1334,-25.8735],[152.1302,-25.8777],[152.1301,-25.8857],[152.123,-25.8859],[152.1219,-25.8819],[152.1168,-25.8766],[152.1147,-25.8694],[152.1172,-25.8621],[152.1133,-25.8572],[152.1064,-25.8623],[152.102,-25.8622],[152.1002,-25.8678],[152.0901,-25.8728],[152.085,-25.8714],[152.0807,-25.875],[152.0729,-25.8774],[152.071,-25.8836],[152.059,-25.8864],[152.0575,-25.8829],[152.0474,-25.8785],[152.0432,-25.8751],[152.0472,-25.8678],[152.0507,-25.8557],[152.0492,-25.8518],[152.0384,-25.8513],[152.0332,-25.8522],[152.0287,-25.8501],[152.0294,-25.8452],[152.0323,-25.8432],[152.0316,-25.8369],[152.0289,-25.8294],[152.0319,-25.8218],[152.0293,-25.8195],[152.0291,-25.8102],[152.036,-25.8038],[152.0353,-25.7952],[152.039,-25.7902],[152.0292,-25.787],[152.0219,-25.7892],[152.0185,-25.7864],[152.0082,-25.7824],[152.0032,-25.7765],[152.0017,-25.7722],[151.9977,-25.771]]]},"id":"3620"},{"type":"Feature","properties":{"LGA Code":"5740","Abbreviated Name":"Noosa","LGA Name":"Noosa Shire","Area Sq Km":869.6,"LDMG Name":"Noosa","fill-opacity":0.72,"Source Area Sq Km":870.10279,"Police Region Name":"North Coast Region","Police Region Code":"NCR","Police Region Short Name":"North Coast","Region Slug":"north_coast","Layer Id":"qld_north_coast_ldmg_boundaries_gda2020_simp200m_schematic","Layer Group":"schematic","Layer Kind":"ldmg","Source":"Local government area boundaries - Queensland, Department of Natural Resources and Mines, Manufacturing and Regional and Rural Development; ASGS Edition 3 (2021) Local Government Areas, Australian Bureau of Statistics","Source URL":"https://www.data.qld.gov.au/dataset/local-government-area-boundaries-queensland","Licence":"CC BY 4.0","Licence URL":"https://creativecommons.org/licenses/by/4.0/","Dataset Date":"extract of 14/09/2026","Simplification Tolerance M":200,"Coordinate Precision Decimals":4,"CRS":"GDA2020 (EPSG:7844)","Fidelity":"schematic, non-cartographic display variant: Cook Shire's coastal waters and islets reassigned so the Power BI Azure Maps visual renders without faults; contains intentional boundary inaccuracies; not for planning, dispatch, analysis or jurisdiction","Modified":"Simplified and repackaged from the source dataset; see Source URL","Schematic Change":"unchanged from the standard layer"},"geometry":{"type":"Polygon","coordinates":[[[152.7892,-26.4694],[152.8043,-26.4715],[152.8033,-26.4774],[152.8086,-26.4819],[152.8134,-26.4888],[152.8124,-26.4945],[152.8144,-26.4982],[152.827,-26.4994],[152.8281,-26.4927],[152.8358,-26.4893],[152.8438,-26.484],[152.846,-26.4867],[152.8533,-26.4815],[152.8693,-26.4742],[152.8709,-26.4655],[152.8796,-26.4667],[152.8854,-26.4698],[152.8853,-26.4622],[152.8924,-26.455],[152.8999,-26.454],[152.9034,-26.4509],[152.9124,-26.4507],[152.9174,-26.4492],[152.9219,-26.443],[152.9356,-26.445],[152.9359,-26.4431],[152.945,-26.4446],[152.9463,-26.4372],[152.965,-26.4403],[152.9663,-26.4322],[152.9865,-26.435],[152.9968,-26.4334],[153.0057,-26.4353],[153.0071,-26.4399],[153.0291,-26.4429],[153.0353,-26.443],[153.043,-26.4415],[153.0482,-26.4423],[153.0501,-26.431],[153.0608,-26.4326],[153.0638,-26.4391],[153.0597,-26.4397],[153.0548,-26.4468],[153.0543,-26.4517],[153.0607,-26.4561],[153.0732,-26.4586],[153.0794,-26.4572],[153.0785,-26.4665],[153.0755,-26.4729],[153.0692,-26.48],[153.083,-26.4826],[153.0811,-26.4938],[153.0821,-26.4956],[153.0958,-26.4986],[153.0989,-26.478],[153.1007,-26.4618],[153.1087,-26.4235],[153.1141,-26.3996],[153.117,-26.3926],[153.1149,-26.387],[153.1162,-26.3807],[153.1082,-26.3772],[153.1056,-26.3797],[153.101,-26.3794],[153.0933,-26.3863],[153.0852,-26.3841],[153.0804,-26.3813],[153.0756,-26.375],[153.0693,-26.3636],[153.0634,-26.345],[153.0614,-26.3257],[153.0623,-26.3004],[153.0649,-26.2819],[153.0739,-26.2372],[153.0792,-26.2155],[153.0912,-26.172],[153.0965,-26.1548],[152.9738,-26.1371],[152.9725,-26.1452],[152.9747,-26.1472],[152.9719,-26.1648],[152.9664,-26.1734],[152.9651,-26.1802],[152.9613,-26.1813],[152.9608,-26.185],[152.9566,-26.19],[152.9453,-26.1921],[152.9444,-26.1965],[152.9401,-26.1984],[152.9339,-26.1966],[152.9226,-26.1987],[152.9229,-26.2096],[152.9043,-26.2071],[152.9036,-26.2113],[152.8977,-26.2105],[152.8963,-26.2192],[152.8926,-26.2166],[152.8848,-26.2072],[152.8764,-26.2012],[152.853,-26.1984],[152.8501,-26.2184],[152.8309,-26.2161],[152.8303,-26.2205],[152.8252,-26.2236],[152.8277,-26.2389],[152.8227,-26.2401],[152.8254,-26.2482],[152.8081,-26.2994],[152.8064,-26.3086],[152.7995,-26.3183],[152.7972,-26.3249],[152.7926,-26.3514],[152.7831,-26.35],[152.7721,-26.3457],[152.7675,-26.3627],[152.7652,-26.3623],[152.7653,-26.3724],[152.7706,-26.3727],[152.7684,-26.3855],[152.769,-26.3939],[152.7791,-26.3953],[152.7779,-26.4024],[152.7815,-26.4045],[152.7893,-26.4035],[152.7934,-26.4069],[152.7964,-26.4191],[152.7935,-26.4179],[152.7912,-26.4318],[152.7953,-26.4326],[152.7892,-26.4694]]]},"id":"5740"},{"type":"Feature","properties":{"LGA Code":"5760","Abbreviated Name":"North Burnett","LGA Name":"North Burnett Regional","Area Sq Km":19670.51,"LDMG Name":"North Burnett","fill-opacity":0.72,"Source Area Sq Km":19670.52276,"Police Region Name":"North Coast Region","Police Region Code":"NCR","Police Region Short Name":"North Coast","Region Slug":"north_coast","Layer Id":"qld_north_coast_ldmg_boundaries_gda2020_simp200m_schematic","Layer Group":"schematic","Layer Kind":"ldmg","Source":"Local government area boundaries - Queensland, Department of Natural Resources and Mines, Manufacturing and Regional and Rural Development; ASGS Edition 3 (2021) Local Government Areas, Australian Bureau of Statistics","Source URL":"https://www.data.qld.gov.au/dataset/local-government-area-boundaries-queensland","Licence":"CC BY 4.0","Licence URL":"https://creativecommons.org/licenses/by/4.0/","Dataset Date":"extract of 14/09/2026","Simplification Tolerance M":200,"Coordinate Precision Decimals":4,"CRS":"GDA2020 (EPSG:7844)","Fidelity":"schematic, non-cartographic display variant: Cook Shire's coastal waters and islets reassigned so the Power BI Azure Maps visual renders without faults; contains intentional boundary inaccuracies; not for planning, dispatch, analysis or jurisdiction","Modified":"Simplified and repackaged from the source dataset; see Source URL","Schematic Change":"unchanged from the standard layer"},"geometry":{"type":"Polygon","coordinates":[[[150.4371,-25.6064],[150.441,-25.6015],[150.4461,-25.5989],[150.482,-25.6054],[150.484,-25.6062],[150.4955,-25.6284],[150.5038,-25.636],[150.5172,-25.6407],[150.5242,-25.6454],[150.5378,-25.6417],[150.5458,-25.6404],[150.553,-25.6416],[150.5612,-25.6394],[150.5703,-25.6382],[150.5853,-25.6435],[150.5912,-25.6527],[150.612,-25.6543],[150.6542,-25.6598],[150.6556,-25.672],[150.6588,-25.6787],[150.6638,-25.6812],[150.6636,-25.6843],[150.6565,-25.6922],[150.6563,-25.6974],[150.6518,-25.6987],[150.6465,-25.7052],[150.6432,-25.7156],[150.6496,-25.7262],[150.6643,-25.7327],[150.6629,-25.7449],[150.6637,-25.7576],[150.6665,-25.7637],[150.6598,-25.7733],[150.6502,-25.7742],[150.6465,-25.7788],[150.6441,-25.7862],[150.6569,-25.801],[150.6492,-25.8033],[150.6577,-25.8137],[150.6704,-25.8205],[150.6718,-25.827],[150.6788,-25.8304],[150.6951,-25.8502],[150.6986,-25.8567],[150.6948,-25.8645],[150.6931,-25.8721],[150.6872,-25.879],[150.68,-25.8827],[150.6784,-25.889],[150.6798,-25.898],[150.6851,-25.9052],[150.685,-25.9139],[150.6806,-25.9225],[150.6795,-25.9285],[150.6689,-25.9427],[150.6693,-25.9492],[150.6731,-25.9572],[150.6745,-25.9632],[150.6728,-25.9696],[150.6818,-25.9702],[150.6907,-25.9724],[150.7021,-25.9739],[150.7144,-25.9848],[150.7197,-25.9852],[150.7256,-25.981],[150.7298,-25.9802],[150.739,-25.9811],[150.7569,-25.9807],[150.7636,-25.9816],[150.767,-25.9911],[150.7736,-25.9983],[150.7775,-26.0086],[150.7758,-26.0122],[150.7832,-26.0156],[150.786,-26.0186],[150.7854,-26.0224],[150.7809,-26.0285],[150.79,-26.0489],[150.8496,-26.0564],[150.9039,-26.0194],[150.9064,-26.0127],[150.906,-26.0083],[150.9141,-26.0041],[150.9204,-26.005],[150.9268,-26.0118],[150.9325,-26.0131],[150.9498,-26.01],[150.9622,-26.0139],[150.984,-26.0078],[150.9834,-26.0115],[150.9892,-26.0152],[150.9939,-26.0312],[151.003,-26.0433],[151.002,-26.0496],[151.0085,-26.0596],[151.0104,-26.0711],[151.0159,-26.0771],[151.0325,-26.0851],[151.0401,-26.0876],[151.0484,-26.0887],[151.0592,-26.0882],[151.0674,-26.0852],[151.0738,-26.0952],[151.0788,-26.0967],[151.1144,-26.0908],[151.1128,-26.0888],[151.1152,-26.0827],[151.1146,-26.0772],[151.1065,-26.0793],[151.0999,-26.0752],[151.1009,-26.0706],[151.1081,-26.0625],[151.1101,-26.0482],[151.11,-26.0428],[151.1342,-26.0469],[151.1417,-26.0502],[151.1512,-26.0508],[151.248,-26.0633],[151.2741,-26.067],[151.279,-26.0696],[151.2876,-26.0685],[151.2986,-26.0735],[151.3084,-26.066],[151.3127,-26.0587],[151.3264,-26.0436],[151.3295,-26.0417],[151.3306,-26.0354],[151.3249,-26.0299],[151.324,-26.0257],[151.34,-26.0118],[151.3484,-26.0121],[151.355,-26.006],[151.3821,-26.0096],[151.4685,-26.0034],[151.4734,-26.0017],[151.4726,-25.9922],[151.4735,-25.9893],[151.4794,-25.9904],[151.4828,-25.9875],[151.4837,-25.9767],[151.4893,-25.9745],[151.4877,-25.9662],[151.496,-25.9602],[151.502,-25.9517],[151.4991,-25.9429],[151.505,-25.9252],[151.504,-25.921],[151.4966,-25.9182],[151.4894,-25.9205],[151.487,-25.9183],[151.4911,-25.913],[151.4902,-25.9077],[151.4821,-25.9032],[151.4826,-25.9],[151.4872,-25.8943],[151.4912,-25.8949],[151.4948,-25.9005],[151.4944,-25.9055],[151.4993,-25.9104],[151.5084,-25.9099],[151.5173,-25.8573],[151.5243,-25.8551],[151.5282,-25.8564],[151.5361,-25.8542],[151.5388,-25.8565],[151.5462,-25.8547],[151.5537,-25.8591],[151.5597,-25.857],[151.5803,-25.86],[151.5844,-25.8645],[151.589,-25.8652],[151.6004,-25.8605],[151.6041,-25.8554],[151.6127,-25.8549],[151.6196,-25.8596],[151.6279,-25.8609],[151.6318,-25.8686],[151.635,-25.8712],[151.6413,-25.8692],[151.6447,-25.8728],[151.6532,-25.873],[151.65,-25.8816],[151.6597,-25.8889],[151.6575,-25.8932],[151.6616,-25.897],[151.6571,-25.9122],[151.6651,-25.9126],[151.6915,-25.9179],[151.7027,-25.9258],[151.7156,-25.9324],[151.7256,-25.9337],[151.7364,-25.9388],[151.7438,-25.9336],[151.7489,-25.9343],[151.753,-25.9374],[151.759,-25.9384],[151.7628,-25.9364],[151.764,-25.9316],[151.7699,-25.9291],[151.7772,-25.9227],[151.7781,-25.915],[151.7763,-25.9126],[151.7763,-25.9048],[151.7793,-25.9004],[151.7805,-25.8942],[151.7756,-25.8886],[151.7741,-25.8845],[151.7757,-25.8782],[151.7756,-25.8713],[151.7728,-25.862],[151.7694,-25.8598],[151.7673,-25.8532],[151.7701,-25.8494],[151.7698,-25.8433],[151.7664,-25.8395],[151.7668,-25.8328],[151.7647,-25.8271],[151.7669,-25.8232],[151.7717,-25.8215],[151.7747,-25.8143],[151.773,-25.8118],[151.765,-25.8104],[151.7645,-25.8068],[151.7577,-25.8049],[151.7578,-25.8013],[151.7624,-25.7992],[151.7676,-25.7874],[151.7758,-25.7897],[151.7808,-25.7894],[151.7808,-25.7861],[151.7754,-25.7793],[151.7795,-25.7735],[151.7887,-25.7721],[151.791,-25.767],[151.7899,-25.7585],[151.8003,-25.7569],[151.8058,-25.7593],[151.8105,-25.7634],[151.8083,-25.7667],[151.8113,-25.7709],[151.8136,-25.7801],[151.813,-25.785],[151.8183,-25.7869],[151.8264,-25.7829],[151.8287,-25.7848],[151.829,-25.7945],[151.8403,-25.7983],[151.8458,-25.8039],[151.8626,-25.8068],[151.8745,-25.8151],[151.8723,-25.8203],[151.8763,-25.8276],[151.8771,-25.8331],[151.8805,-25.8347],[151.8821,-25.842],[151.889,-25.8423],[151.8924,-25.8489],[151.891,-25.852],[151.892,-25.8589],[151.8957,-25.8652],[151.9032,-25.8703],[151.9127,-25.8725],[151.9213,-25.8679],[151.9284,-25.8675],[151.9304,-25.8629],[151.9346,-25.8627],[151.9377,-25.856],[151.9443,-25.8508],[151.9482,-25.8507],[151.9508,-25.8454],[151.9552,-25.8425],[151.9593,-25.833],[151.9629,-25.8339],[151.9702,-25.8304],[151.9687,-25.8229],[151.972,-25.8164],[151.9732,-25.8107],[151.9788,-25.8135],[151.9861,-25.8011],[151.9847,-25.7937],[151.9855,-25.7888],[151.989,-25.7832],[151.9865,-25.7785],[151.9903,-25.7737],[151.995,-25.7737],[151.9977,-25.771],[151.9965,-25.7508],[151.9977,-25.7467],[151.9953,-25.7371],[151.9802,-25.7334],[151.9824,-25.729],[151.9821,-25.7153],[151.9883,-25.7147],[151.9967,-25.7115],[152.003,-25.7178],[152.0098,-25.7137],[152.0141,-25.7087],[152.0164,-25.6898],[152.0153,-25.686],[152.0176,-25.6802],[152.011,-25.674],[152.0125,-25.6651],[152.0187,-25.6573],[152.0271,-25.6504],[152.0299,-25.6422],[152.0383,-25.6426],[152.0415,-25.6196],[152.0459,-25.613],[152.0527,-25.6159],[152.0559,-25.6275],[152.0647,-25.6215],[152.0762,-25.6254],[152.0828,-25.6327],[152.0907,-25.6364],[152.0927,-25.6324],[152.1043,-25.629],[152.1088,-25.626],[152.1121,-25.6268],[152.1154,-25.6231],[152.1159,-25.6154],[152.1122,-25.611],[152.11,-25.6035],[152.1115,-25.5984],[152.1242,-25.5959],[152.125,-25.5922],[152.1301,-25.591],[152.1296,-25.5876],[152.1398,-25.587],[152.1459,-25.5843],[152.1543,-25.5831],[152.1646,-25.5743],[152.1631,-25.5597],[152.1658,-25.5473],[152.1689,-25.5419],[152.1757,-25.5357],[152.1794,-25.5291],[152.1794,-25.523],[152.1936,-25.5191],[152.2012,-25.5197],[152.207,-25.5186],[152.21,-25.521],[152.2157,-25.5201],[152.215,-25.513],[152.2273,-25.5145],[152.2303,-25.5193],[152.2332,-25.515],[152.2393,-25.5152],[152.2523,-25.5213],[152.2635,-25.5216],[152.269,-25.5227],[152.2693,-25.5154],[152.2721,-25.5127],[152.2727,-25.5063],[152.2686,-25.5035],[152.2707,-25.4898],[152.2744,-25.4877],[152.2734,-25.4831],[152.2685,-25.4817],[152.262,-25.4765],[152.2636,-25.4704],[152.2602,-25.4619],[152.262,-25.459],[152.2725,-25.4322],[152.2736,-25.4313],[152.2722,-25.4186],[152.2653,-25.4132],[152.2621,-25.4122],[152.2542,-25.4021],[152.239,-25.3991],[152.2342,-25.4001],[152.2238,-25.3938],[152.2186,-25.3874],[152.2146,-25.3901],[152.2096,-25.3901],[152.2027,-25.3949],[152.1994,-25.3945],[152.1889,-25.3826],[152.1837,-25.3813],[152.1764,-25.3723],[152.1719,-25.3694],[152.1704,-25.3654],[152.1738,-25.36],[152.171,-25.349],[152.1725,-25.3467],[152.1709,-25.3406],[152.1673,-25.3361],[152.1517,-25.3372],[152.1399,-25.3363],[152.133,-25.3342],[152.1243,-25.3271],[152.106,-25.3279],[152.0975,-25.3222],[152.0906,-25.3131],[152.0852,-25.3145],[152.0847,-25.3182],[152.0762,-25.3204],[152.0738,-25.3146],[152.0679,-25.3143],[152.0598,-25.3075],[152.0556,-25.296],[152.0513,-25.2951],[152.0491,-25.2877],[152.0382,-25.2842],[152.0368,-25.2792],[152.0308,-25.2747],[152.0256,-25.2732],[152.0126,-25.2741],[152.0133,-25.2843],[152.01,-25.2895],[152.0036,-25.2929],[151.9969,-25.2909],[151.9835,-25.2821],[151.9736,-25.2793],[151.9661,-25.2803],[151.9596,-25.2865],[151.9515,-25.2917],[151.9443,-25.3007],[151.9377,-25.3165],[151.9356,-25.3235],[151.9238,-25.3431],[151.9195,-25.3476],[151.9159,-25.3543],[151.9099,-25.3558],[151.9014,-25.3526],[151.8956,-25.354],[151.8897,-25.3591],[151.8815,-25.3609],[151.8786,-25.3567],[151.8809,-25.3424],[151.878,-25.3398],[151.8726,-25.3396],[151.8686,-25.3431],[151.8666,-25.3394],[151.8609,-25.3372],[151.8609,-25.3306],[151.8642,-25.3311],[151.8669,-25.3272],[151.8683,-25.3207],[151.8656,-25.3169],[151.8624,-25.3004],[151.8727,-25.3022],[151.8707,-25.2947],[151.8757,-25.2918],[151.882,-25.295],[151.887,-25.2939],[151.8888,-25.285],[151.8831,-25.2809],[151.8806,-25.2761],[151.8725,-25.2732],[151.8741,-25.2688],[151.8793,-25.266],[151.8829,-25.2525],[151.8813,-25.2437],[151.884,-25.2402],[151.8921,-25.2342],[151.8952,-25.2342],[151.9036,-25.2288],[151.9017,-25.2245],[151.9042,-25.2205],[151.9048,-25.2139],[151.8976,-25.2104],[151.905,-25.198],[151.9107,-25.201],[151.9157,-25.1987],[151.9156,-25.1957],[151.9074,-25.1911],[151.9103,-25.1844],[151.9155,-25.18],[151.9252,-25.1791],[151.9266,-25.1748],[151.9314,-25.1751],[151.9242,-25.1592],[151.9205,-25.1594],[151.9154,-25.1541],[151.9168,-25.1494],[151.906,-25.1464],[151.9019,-25.1414],[151.8909,-25.1421],[151.8871,-25.1453],[151.8855,-25.1497],[151.8781,-25.1525],[151.87,-25.1506],[151.8689,-25.1475],[151.8601,-25.1424],[151.8562,-25.1444],[151.8502,-25.1549],[151.8487,-25.16],[151.8521,-25.1691],[151.8505,-25.1746],[151.8527,-25.1767],[151.8486,-25.1836],[151.8433,-25.1842],[151.8387,-25.1826],[151.8275,-25.1827],[151.8235,-25.1868],[151.8193,-25.183],[151.8125,-25.1729],[151.8042,-25.1754],[151.8008,-25.1646],[151.7945,-25.1624],[151.7944,-25.1592],[151.7858,-25.1566],[151.7876,-25.1497],[151.7849,-25.1452],[151.7848,-25.1348],[151.782,-25.1307],[151.7849,-25.123],[151.7835,-25.1153],[151.7799,-25.114],[151.7777,-25.1088],[151.7733,-25.1103],[151.7429,-25.0738],[151.7378,-25.0755],[151.7372,-25.0815],[151.7294,-25.0794],[151.7266,-25.0839],[151.7187,-25.0829],[151.7123,-25.0872],[151.7139,-25.0903],[151.7005,-25.093],[151.6955,-25.0902],[151.6952,-25.0867],[151.6918,-25.0832],[151.6828,-25.0902],[151.6777,-25.0879],[151.6745,-25.084],[151.6715,-25.0876],[151.6632,-25.0887],[151.6627,-25.0945],[151.6573,-25.0943],[151.6532,-25.0917],[151.6496,-25.116],[151.622,-25.1126],[151.6176,-25.1149],[151.6088,-25.1146],[151.61,-25.1053],[151.6079,-25.1032],[151.5996,-25.1005],[151.5988,-25.1026],[151.59,-25.0987],[151.5844,-25.1002],[151.5787,-25.099],[151.5708,-25.1024],[151.5616,-25.0992],[151.5592,-25.1029],[151.555,-25.0988],[151.5446,-25.096],[151.5401,-25.0921],[151.5443,-25.0861],[151.5497,-25.0827],[151.5528,-25.0724],[151.555,-25.0698],[151.5638,-25.0537],[151.5646,-25.0497],[151.5563,-25.0474],[151.5573,-25.0443],[151.556,-25.0373],[151.5593,-25.0243],[151.5593,-25.0182],[151.555,-25.0142],[151.556,-25.0097],[151.5421,-24.9929],[151.5356,-24.9921],[151.5322,-24.9885],[151.5306,-24.9814],[151.5341,-24.9733],[151.524,-24.963],[151.5268,-24.9566],[151.5255,-24.9524],[151.5305,-24.9454],[151.5343,-24.9462],[151.5397,-24.9501],[151.5423,-24.9455],[151.547,-24.9417],[151.5574,-24.941],[151.5671,-24.9375],[151.5678,-24.9331],[151.5723,-24.9316],[151.5692,-24.9249],[151.5705,-24.9161],[151.5751,-24.9115],[151.5749,-24.9014],[151.5729,-24.8972],[151.5764,-24.8923],[151.5761,-24.8835],[151.5706,-24.8819],[151.5656,-24.8759],[151.5686,-24.8705],[151.5631,-24.8608],[151.5566,-24.8595],[151.5569,-24.8521],[151.5493,-24.8426],[151.5502,-24.8356],[151.5457,-24.8326],[151.5405,-24.833],[151.5361,-24.8356],[151.5283,-24.8329],[151.5252,-24.8382],[151.5188,-24.841],[151.5136,-24.8414],[151.5053,-24.8448],[151.5016,-24.8478],[151.4905,-24.8503],[151.486,-24.8478],[151.4845,-24.8424],[151.4798,-24.8411],[151.472,-24.8509],[151.4605,-24.8489],[151.4571,-24.8504],[151.4509,-24.8461],[151.4458,-24.8393],[151.4426,-24.8396],[151.4337,-24.8356],[151.434,-24.8273],[151.4271,-24.8203],[151.426,-24.8145],[151.4303,-24.807],[151.4306,-24.803],[151.4253,-24.8006],[151.4226,-24.7934],[151.4252,-24.7895],[151.4188,-24.7805],[151.4206,-24.7776],[151.4282,-24.7803],[151.4349,-24.7788],[151.4409,-24.7793],[151.4459,-24.7776],[151.4509,-24.7792],[151.4532,-24.7754],[151.4414,-24.7399],[151.4407,-24.729],[151.4351,-24.7187],[151.4299,-24.7119],[151.4308,-24.707],[151.429,-24.7025],[151.4247,-24.6982],[151.4208,-24.699],[151.4119,-24.695],[151.4014,-24.6987],[151.3969,-24.7027],[151.3856,-24.707],[151.3811,-24.7073],[151.3724,-24.7122],[151.3664,-24.7107],[151.3678,-24.7191],[151.357,-24.7307],[151.3527,-24.7306],[151.3455,-24.7259],[151.3431,-24.721],[151.3487,-24.714],[151.344,-24.7074],[151.3448,-24.7002],[151.3523,-24.6836],[151.3587,-24.6805],[151.3551,-24.6726],[151.3491,-24.6677],[151.3471,-24.6587],[151.3418,-24.6493],[151.3361,-24.6454],[151.327,-24.6455],[151.3228,-24.6442],[151.3177,-24.6481],[151.3153,-24.6472],[151.3093,-24.6524],[151.3103,-24.6565],[151.3069,-24.6579],[151.3065,-24.6665],[151.3023,-24.6683],[151.2973,-24.6677],[151.2918,-24.6575],[151.2835,-24.6551],[151.2748,-24.6538],[151.2721,-24.6562],[151.2669,-24.6538],[151.2642,-24.6599],[151.2557,-24.6625],[151.2536,-24.666],[151.2475,-24.6565],[151.2374,-24.6533],[151.2303,-24.643],[151.2302,-24.639],[151.2243,-24.6386],[151.2201,-24.6339],[151.207,-24.6377],[151.2064,-24.6403],[151.1992,-24.6439],[151.1947,-24.6425],[151.1937,-24.6349],[151.1983,-24.6298],[151.2044,-24.6279],[151.2077,-24.6246],[151.216,-24.6245],[151.2235,-24.6277],[151.2302,-24.6279],[151.2187,-24.5861],[151.2207,-24.5795],[151.2185,-24.5755],[151.2236,-24.5717],[151.2259,-24.567],[151.2244,-24.5642],[151.2284,-24.5372],[151.228,-24.5327],[151.2213,-24.5296],[151.2092,-24.5327],[151.2021,-24.5313],[151.1995,-24.5398],[151.1837,-24.5421],[151.1735,-24.5454],[151.169,-24.5497],[151.1621,-24.5503],[151.1575,-24.547],[151.1568,-24.5413],[151.1529,-24.5377],[151.1543,-24.5321],[151.1523,-24.5269],[151.1559,-24.5217],[151.1541,-24.5127],[151.1554,-24.5076],[151.1614,-24.4989],[151.1616,-24.4933],[151.1643,-24.4868],[151.1689,-24.4845],[151.1692,-24.479],[151.1542,-24.4654],[151.1534,-24.4606],[151.1436,-24.4591],[151.1379,-24.4556],[151.1341,-24.4638],[151.1225,-24.4683],[151.1181,-24.4671],[151.1149,-24.4746],[151.107,-24.4702],[151.1061,-24.4625],[151.0998,-24.4584],[151.0981,-24.4503],[151.0899,-24.441],[151.072,-24.4379],[151.0697,-24.4326],[151.061,-24.4261],[151.0574,-24.4276],[151.0549,-24.4202],[151.0524,-24.4202],[151.0453,-24.4129],[151.0451,-24.4048],[151.0478,-24.4018],[151.0444,-24.3943],[151.0296,-24.3921],[151.0283,-24.3941],[151.0218,-24.3938],[151.0168,-24.397],[151.005,-24.3945],[151.0007,-24.3989],[150.9995,-24.406],[150.9931,-24.4096],[150.9919,-24.4165],[150.9942,-24.4242],[150.9932,-24.4427],[150.9881,-24.4469],[150.9887,-24.4562],[150.9863,-24.4633],[150.9856,-24.4698],[150.9831,-24.4718],[150.9829,-24.4787],[150.9795,-24.483],[150.9795,-24.4914],[150.9743,-24.4954],[150.9707,-24.4959],[150.969,-24.504],[150.9638,-24.5085],[150.9638,-24.5146],[150.966,-24.5206],[150.9679,-24.5334],[150.9727,-24.5368],[150.9814,-24.5492],[150.9747,-24.5489],[150.9698,-24.5523],[150.9691,-24.5611],[150.9698,-24.5697],[150.9728,-24.5763],[150.969,-24.5786],[150.944,-24.5697],[150.9322,-24.5672],[150.8808,-24.552],[150.8791,-24.5566],[150.8712,-24.5556],[150.8674,-24.5599],[150.8557,-24.5583],[150.8527,-24.5516],[150.8491,-24.5512],[150.8483,-24.5569],[150.8447,-24.562],[150.8378,-24.558],[150.8299,-24.56],[150.8261,-24.5555],[150.8188,-24.6035],[150.823,-24.6047],[150.8387,-24.6181],[150.8491,-24.6199],[150.8556,-24.6228],[150.8575,-24.6256],[150.8676,-24.631],[150.8828,-24.6252],[150.8897,-24.6318],[150.8976,-24.6305],[150.8982,-24.6369],[150.9008,-24.6423],[150.9111,-24.6504],[150.9076,-24.6533],[150.902,-24.6616],[150.8942,-24.6688],[150.8903,-24.6759],[150.8843,-24.6774],[150.8816,-24.688],[150.878,-24.6891],[150.8749,-24.6963],[150.879,-24.7007],[150.8764,-24.716],[150.873,-24.7218],[150.8652,-24.7244],[150.8584,-24.7225],[150.8546,-24.7238],[150.8287,-24.718],[150.7906,-24.7119],[150.7817,-24.7156],[150.7761,-24.7154],[150.7669,-24.7074],[150.7597,-24.7038],[150.7468,-24.7024],[150.7369,-24.6983],[150.7311,-24.6979],[150.7247,-24.7016],[150.7091,-24.7037],[150.6995,-24.7021],[150.6894,-24.7024],[150.6797,-24.699],[150.6668,-24.7037],[150.6631,-24.7028],[150.6557,-24.6932],[150.6418,-24.6959],[150.6383,-24.7002],[150.6369,-24.7094],[150.6221,-24.7092],[150.6114,-24.7116],[150.587,-24.7305],[150.5865,-24.7315],[150.6018,-24.7896],[150.606,-24.7985],[150.6035,-24.8011],[150.5982,-24.8357],[150.5947,-24.8383],[150.5918,-24.8453],[150.5809,-24.8474],[150.5586,-24.8996],[150.5566,-24.9147],[150.5582,-24.9235],[150.5424,-24.9589],[150.5396,-24.9607],[150.5463,-24.9774],[150.5533,-24.9862],[150.5483,-25.0058],[150.5479,-25.0157],[150.5492,-25.0209],[150.5497,-25.0448],[150.5483,-25.0514],[150.5486,-25.0599],[150.5542,-25.0726],[150.5558,-25.0795],[150.5581,-25.0833],[150.5565,-25.0941],[150.5591,-25.0972],[150.566,-25.1012],[150.5788,-25.1124],[150.5701,-25.1153],[150.5653,-25.1239],[150.5606,-25.127],[150.5566,-25.1338],[150.559,-25.1419],[150.562,-25.1456],[150.562,-25.152],[150.5576,-25.156],[150.5575,-25.1616],[150.5514,-25.1647],[150.531,-25.1648],[150.5185,-25.1705],[150.5082,-25.1736],[150.4981,-25.1866],[150.5023,-25.1926],[150.4864,-25.195],[150.4778,-25.1908],[150.4714,-25.1905],[150.4722,-25.1958],[150.4701,-25.1988],[150.4721,-25.2026],[150.4764,-25.2216],[150.4746,-25.2328],[150.4715,-25.2342],[150.4647,-25.2418],[150.4651,-25.2481],[150.4617,-25.2568],[150.4543,-25.2575],[150.4522,-25.2636],[150.4586,-25.278],[150.4543,-25.281],[150.4436,-25.2819],[150.4422,-25.2885],[150.4464,-25.2924],[150.4461,-25.2984],[150.4485,-25.303],[150.4418,-25.3166],[150.4426,-25.3206],[150.4375,-25.3254],[150.4266,-25.324],[150.4165,-25.3308],[150.4185,-25.336],[150.4179,-25.347],[150.4194,-25.3497],[150.4155,-25.3564],[150.4065,-25.362],[150.4073,-25.3652],[150.4179,-25.3699],[150.414,-25.3721],[150.4118,-25.3768],[150.4069,-25.3785],[150.3955,-25.3904],[150.4045,-25.3976],[150.3991,-25.4028],[150.4019,-25.414],[150.3937,-25.4162],[150.3909,-25.4188],[150.3996,-25.428],[150.4048,-25.4314],[150.3978,-25.4473],[150.3756,-25.4613],[150.3747,-25.4718],[150.3691,-25.4762],[150.3701,-25.4807],[150.376,-25.4828],[150.3746,-25.4894],[150.3767,-25.4904],[150.3854,-25.488],[150.3878,-25.4948],[150.3853,-25.5021],[150.3892,-25.5031],[150.3977,-25.5006],[150.4017,-25.5034],[150.4027,-25.5077],[150.3918,-25.52],[150.3943,-25.5268],[150.3921,-25.5315],[150.4043,-25.5372],[150.4026,-25.5415],[150.4033,-25.5518],[150.4102,-25.5614],[150.4125,-25.5676],[150.408,-25.5802],[150.4038,-25.5837],[150.401,-25.5936],[150.402,-25.5986],[150.407,-25.5964],[150.4142,-25.5971],[150.4152,-25.6013],[150.4265,-25.6028],[150.4371,-25.6064]]]},"id":"5760"},{"type":"Feature","properties":{"LGA Code":"6630","Abbreviated Name":"South Burnett","LGA Name":"South Burnett Regional","Area Sq Km":8379.78,"LDMG Name":"South Burnett","fill-opacity":0.72,"Source Area Sq Km":8378.58755,"Police Region Name":"North Coast Region","Police Region Code":"NCR","Police Region Short Name":"North Coast","Region Slug":"north_coast","Layer Id":"qld_north_coast_ldmg_boundaries_gda2020_simp200m_schematic","Layer Group":"schematic","Layer Kind":"ldmg","Source":"Local government area boundaries - Queensland, Department of Natural Resources and Mines, Manufacturing and Regional and Rural Development; ASGS Edition 3 (2021) Local Government Areas, Australian Bureau of Statistics","Source URL":"https://www.data.qld.gov.au/dataset/local-government-area-boundaries-queensland","Licence":"CC BY 4.0","Licence URL":"https://creativecommons.org/licenses/by/4.0/","Dataset Date":"extract of 14/09/2026","Simplification Tolerance M":200,"Coordinate Precision Decimals":4,"CRS":"GDA2020 (EPSG:7844)","Fidelity":"schematic, non-cartographic display variant: Cook Shire's coastal waters and islets reassigned so the Power BI Azure Maps visual renders without faults; contains intentional boundary inaccuracies; not for planning, dispatch, analysis or jurisdiction","Modified":"Simplified and repackaged from the source dataset; see Source URL","Schematic Change":"unchanged from the standard layer"},"geometry":{"type":"Polygon","coordinates":[[[151.753,-25.9374],[151.7489,-25.9343],[151.7438,-25.9336],[151.7364,-25.9388],[151.7256,-25.9337],[151.7156,-25.9324],[151.7027,-25.9258],[151.6915,-25.9179],[151.6651,-25.9126],[151.6571,-25.9122],[151.6616,-25.897],[151.6575,-25.8932],[151.6597,-25.8889],[151.65,-25.8816],[151.6532,-25.873],[151.6447,-25.8728],[151.6413,-25.8692],[151.635,-25.8712],[151.6318,-25.8686],[151.6279,-25.8609],[151.6196,-25.8596],[151.6127,-25.8549],[151.6041,-25.8554],[151.6004,-25.8605],[151.589,-25.8652],[151.5844,-25.8645],[151.5803,-25.86],[151.5597,-25.857],[151.5537,-25.8591],[151.5462,-25.8547],[151.5388,-25.8565],[151.5361,-25.8542],[151.5282,-25.8564],[151.5243,-25.8551],[151.5173,-25.8573],[151.5084,-25.9099],[151.4993,-25.9104],[151.4944,-25.9055],[151.4948,-25.9005],[151.4912,-25.8949],[151.4872,-25.8943],[151.4826,-25.9],[151.4821,-25.9032],[151.4902,-25.9077],[151.4911,-25.913],[151.487,-25.9183],[151.4894,-25.9205],[151.4966,-25.9182],[151.504,-25.921],[151.505,-25.9252],[151.4991,-25.9429],[151.502,-25.9517],[151.496,-25.9602],[151.4877,-25.9662],[151.4893,-25.9745],[151.4837,-25.9767],[151.4828,-25.9875],[151.4794,-25.9904],[151.4735,-25.9893],[151.4726,-25.9922],[151.4734,-26.0017],[151.4685,-26.0034],[151.3821,-26.0096],[151.355,-26.006],[151.3484,-26.0121],[151.34,-26.0118],[151.324,-26.0257],[151.3249,-26.0299],[151.3306,-26.0354],[151.3295,-26.0417],[151.3264,-26.0436],[151.3127,-26.0587],[151.3084,-26.066],[151.2986,-26.0735],[151.2876,-26.0685],[151.279,-26.0696],[151.2741,-26.067],[151.248,-26.0633],[151.1512,-26.0508],[151.1417,-26.0502],[151.1342,-26.0469],[151.11,-26.0428],[151.1101,-26.0482],[151.1081,-26.0625],[151.1009,-26.0706],[151.0999,-26.0752],[151.1065,-26.0793],[151.1146,-26.0772],[151.1152,-26.0827],[151.1128,-26.0888],[151.1144,-26.0908],[151.0788,-26.0967],[151.0847,-26.1001],[151.0881,-26.1052],[151.093,-26.1063],[151.0978,-26.1107],[151.1022,-26.1104],[151.1112,-26.1127],[151.1154,-26.1187],[151.1206,-26.1177],[151.1263,-26.1145],[151.1344,-26.1053],[151.1374,-26.1077],[151.1429,-26.104],[151.1499,-26.1054],[151.1517,-26.1111],[151.1595,-26.1208],[151.1565,-26.1337],[151.1573,-26.1384],[151.1607,-26.142],[151.162,-26.1495],[151.1588,-26.1545],[151.1501,-26.1596],[151.147,-26.1579],[151.1393,-26.1592],[151.1257,-26.1514],[151.1206,-26.143],[151.1159,-26.1409],[151.0987,-26.1499],[151.0998,-26.1603],[151.0929,-26.1593],[151.0764,-26.1618],[151.0732,-26.1726],[151.0227,-26.1954],[151.0182,-26.1925],[151.0133,-26.192],[151.0167,-26.2562],[151.0665,-26.2547],[151.1364,-26.263],[151.1341,-26.2722],[151.1213,-26.3452],[151.1152,-26.3797],[151.0772,-26.4622],[151.0773,-26.4625],[151.1819,-26.4754],[151.2077,-26.4788],[151.2084,-26.4807],[151.2036,-26.4857],[151.2034,-26.4889],[151.2081,-26.4945],[151.2042,-26.5009],[151.2122,-26.5139],[151.2187,-26.5175],[151.2219,-26.5213],[151.2297,-26.5271],[151.2379,-26.5227],[151.2431,-26.5277],[151.2478,-26.5279],[151.2471,-26.5367],[151.2519,-26.5425],[151.2582,-26.5478],[151.266,-26.5499],[151.2716,-26.5489],[151.2793,-26.5437],[151.2875,-26.5449],[151.2868,-26.5538],[151.2877,-26.5573],[151.2949,-26.5665],[151.3014,-26.5705],[151.3049,-26.5797],[151.3119,-26.5866],[151.3138,-26.591],[151.3182,-26.5904],[151.3228,-26.5858],[151.3258,-26.5921],[151.3304,-26.5931],[151.3337,-26.5983],[151.3328,-26.6007],[151.342,-26.607],[151.3491,-26.6077],[151.3519,-26.6172],[151.3578,-26.6187],[151.3634,-26.6236],[151.3687,-26.6242],[151.3721,-26.6321],[151.3786,-26.6296],[151.3848,-26.6365],[151.3947,-26.6414],[151.408,-26.6566],[151.4092,-26.6606],[151.4072,-26.6739],[151.3919,-26.6842],[151.3943,-26.685],[151.3976,-26.6913],[151.4053,-26.6951],[151.417,-26.698],[151.418,-26.7025],[151.4139,-26.7104],[151.4172,-26.7172],[151.4133,-26.7252],[151.4182,-26.7289],[151.419,-26.7404],[151.4208,-26.7459],[151.4236,-26.7461],[151.4344,-26.7522],[151.4405,-26.7566],[151.4503,-26.7579],[151.4645,-26.7618],[151.4738,-26.7603],[151.476,-26.757],[151.4826,-26.7543],[151.4887,-26.7563],[151.493,-26.7625],[151.5044,-26.763],[151.5064,-26.7667],[151.5148,-26.7656],[151.5198,-26.7665],[151.5178,-26.7724],[151.5182,-26.7798],[151.5165,-26.7826],[151.5174,-26.7881],[151.5216,-26.7933],[151.5165,-26.799],[151.519,-26.8008],[151.524,-26.8107],[151.5283,-26.8117],[151.5309,-26.8181],[151.536,-26.8204],[151.5395,-26.8197],[151.5485,-26.8295],[151.5494,-26.8356],[151.5558,-26.8397],[151.5585,-26.8461],[151.5625,-26.8516],[151.568,-26.8533],[151.5675,-26.8572],[151.5712,-26.8607],[151.5722,-26.8697],[151.5778,-26.8802],[151.5822,-26.8793],[151.5871,-26.8815],[151.5893,-26.8855],[151.5991,-26.8855],[151.6004,-26.8884],[151.6079,-26.893],[151.612,-26.8924],[151.6222,-26.9008],[151.6302,-26.8989],[151.639,-26.9069],[151.6425,-26.9073],[151.6478,-26.9131],[151.652,-26.9151],[151.6596,-26.914],[151.6662,-26.9106],[151.67,-26.9167],[151.6782,-26.9221],[151.6816,-26.9218],[151.6895,-26.9266],[151.6919,-26.9317],[151.6948,-26.9324],[151.7001,-26.9386],[151.705,-26.9385],[151.7136,-26.9444],[151.7235,-26.948],[151.7308,-26.9447],[151.7378,-26.947],[151.7456,-26.9455],[151.7513,-26.9475],[151.7587,-26.9474],[151.7713,-26.9441],[151.7849,-26.9386],[151.7929,-26.9306],[151.8018,-26.9352],[151.8086,-26.9309],[151.8119,-26.932],[151.8194,-26.9282],[151.825,-26.9195],[151.8339,-26.9128],[151.838,-26.9068],[151.8428,-26.9029],[151.8432,-26.8977],[151.8865,-26.8794],[151.8873,-26.8738],[151.8924,-26.8683],[151.8968,-26.8662],[151.8986,-26.8553],[151.897,-26.8511],[151.8981,-26.8462],[151.9021,-26.8416],[151.9019,-26.8371],[151.9065,-26.8319],[151.9159,-26.8273],[151.922,-26.8218],[151.9256,-26.8154],[151.9258,-26.8105],[151.9334,-26.8013],[151.9351,-26.8012],[151.9735,-26.8059],[151.9747,-26.7984],[151.9775,-26.7981],[151.9793,-26.7865],[151.9866,-26.7823],[151.9966,-26.7831],[151.9978,-26.7759],[152.0077,-26.7694],[152.0157,-26.7791],[152.0202,-26.7811],[152.0322,-26.7827],[152.0343,-26.7784],[152.0398,-26.7741],[152.0447,-26.7733],[152.0477,-26.7697],[152.0531,-26.7669],[152.0517,-26.7771],[152.0639,-26.7785],[152.0655,-26.7878],[152.0633,-26.7926],[152.0637,-26.8029],[152.0669,-26.8091],[152.0703,-26.8092],[152.0734,-26.8146],[152.0722,-26.8204],[152.0638,-26.8203],[152.0593,-26.8283],[152.0624,-26.8337],[152.058,-26.8397],[152.0489,-26.8451],[152.0427,-26.8437],[152.0407,-26.8492],[152.0355,-26.8486],[152.0341,-26.854],[152.038,-26.8573],[152.0418,-26.8549],[152.0467,-26.8563],[152.0527,-26.8548],[152.0558,-26.8583],[152.0761,-26.8608],[152.0684,-26.8692],[152.0666,-26.8738],[152.063,-26.8765],[152.0672,-26.8818],[152.0679,-26.8979],[152.063,-26.9034],[152.0585,-26.9056],[152.0573,-26.9098],[152.053,-26.9107],[152.051,-26.9193],[152.0578,-26.9203],[152.0644,-26.9267],[152.0711,-26.9271],[152.0886,-26.9189],[152.0925,-26.9138],[152.1023,-26.9111],[152.108,-26.9031],[152.1145,-26.9035],[152.1213,-26.9],[152.1294,-26.9021],[152.1359,-26.9061],[152.138,-26.9001],[152.1414,-26.8878],[152.147,-26.8792],[152.1544,-26.8738],[152.1595,-26.8738],[152.1705,-26.8675],[152.1695,-26.8721],[152.1727,-26.8752],[152.1887,-26.8774],[152.1843,-26.871],[152.1835,-26.8534],[152.181,-26.8465],[152.1826,-26.8372],[152.1877,-26.8379],[152.1901,-26.8236],[152.1741,-26.8214],[152.1764,-26.809],[152.1707,-26.7965],[152.1746,-26.792],[152.1742,-26.7847],[152.1766,-26.7798],[152.1711,-26.777],[152.1683,-26.7729],[152.164,-26.7756],[152.1558,-26.7688],[152.1557,-26.7542],[152.157,-26.7506],[152.1622,-26.7462],[152.1639,-26.7421],[152.1508,-26.7405],[152.1526,-26.728],[152.1427,-26.7273],[152.1413,-26.7314],[152.1453,-26.7336],[152.143,-26.7385],[152.1329,-26.7412],[152.1297,-26.7342],[152.1341,-26.7305],[152.1296,-26.7277],[152.1281,-26.7229],[152.1238,-26.7173],[152.1192,-26.7142],[152.1124,-26.7062],[152.1043,-26.7095],[152.0993,-26.7059],[152.101,-26.7033],[152.089,-26.6998],[152.0831,-26.694],[152.0829,-26.6893],[152.076,-26.6858],[152.0758,-26.6785],[152.0734,-26.6684],[152.075,-26.6634],[152.0811,-26.658],[152.0901,-26.6539],[152.0987,-26.6537],[152.1052,-26.6509],[152.1073,-26.6477],[152.119,-26.6426],[152.1196,-26.6374],[152.1268,-26.638],[152.13,-26.6317],[152.1283,-26.6271],[152.1359,-26.6143],[152.1304,-26.6005],[152.1378,-26.5966],[152.1427,-26.5917],[152.1387,-26.5895],[152.1373,-26.5828],[152.1318,-26.579],[152.1309,-26.575],[152.1358,-26.5664],[152.1351,-26.5607],[152.1327,-26.5569],[152.132,-26.5501],[152.13,-26.5485],[152.1283,-26.5385],[152.1305,-26.537],[152.1263,-26.5316],[152.1301,-26.5271],[152.1317,-26.5219],[152.1274,-26.5186],[152.1277,-26.511],[152.1257,-26.5066],[152.1338,-26.5004],[152.1363,-26.4939],[152.1324,-26.4878],[152.1356,-26.4802],[152.1443,-26.4797],[152.1495,-26.4829],[152.1538,-26.4804],[152.1546,-26.4757],[152.1602,-26.4778],[152.1626,-26.4748],[152.1674,-26.4756],[152.1736,-26.4385],[152.1719,-26.4367],[152.171,-26.4277],[152.1672,-26.4236],[152.1671,-26.4165],[152.1596,-26.4157],[152.1571,-26.4109],[152.1531,-26.4091],[152.1518,-26.4052],[152.1469,-26.4028],[152.1422,-26.407],[152.1398,-26.4012],[152.1343,-26.3972],[152.1264,-26.3964],[152.1212,-26.3931],[152.1234,-26.3847],[152.1196,-26.384],[152.1204,-26.3778],[152.112,-26.3777],[152.0998,-26.3735],[152.0962,-26.374],[152.0881,-26.3662],[152.0839,-26.3637],[152.0725,-26.3595],[152.0688,-26.3831],[152.0662,-26.3816],[152.015,-26.3753],[152.0094,-26.3726],[152.0035,-26.3738],[152.0039,-26.3668],[152.0006,-26.3625],[152.0121,-26.3557],[152.0136,-26.3528],[152.0088,-26.349],[152.0508,-26.3539],[152.0579,-26.3448],[152.0625,-26.3439],[152.068,-26.3319],[152.0701,-26.3316],[152.0731,-26.3221],[152.0762,-26.3013],[152.0801,-26.2948],[152.0794,-26.2869],[152.0741,-26.2819],[152.071,-26.2768],[152.0666,-26.2751],[152.0652,-26.2646],[152.0615,-26.2512],[152.0614,-26.243],[152.052,-26.2372],[152.04,-26.2453],[152.0319,-26.2356],[152.0294,-26.2364],[152.0203,-26.2254],[152.0089,-26.2285],[152.0049,-26.2155],[152.0078,-26.2119],[152.0109,-26.2046],[152.0105,-26.1988],[152.0008,-26.1937],[152.0019,-26.1882],[151.9905,-26.1757],[151.9761,-26.1737],[151.9789,-26.1556],[151.9757,-26.1521],[151.9766,-26.1488],[151.9754,-26.1334],[151.9648,-26.1314],[151.9568,-26.1288],[151.9527,-26.117],[151.9604,-26.1147],[151.9672,-26.1156],[151.9744,-26.1088],[151.9786,-26.1083],[151.9845,-26.0988],[151.9353,-26.092],[151.9404,-26.0619],[151.9354,-26.0584],[151.9354,-26.0545],[151.9432,-26.0519],[151.9477,-26.0429],[151.9438,-26.0385],[151.9387,-26.0297],[151.9392,-26.02],[151.9122,-26.0163],[151.9123,-26.0186],[151.8492,-26.0103],[151.8339,-26.0085],[151.8318,-26.023],[151.811,-26.0206],[151.8114,-26.0171],[151.8155,-26.0142],[151.8178,-26.007],[151.8064,-26.0057],[151.814,-25.9562],[151.7645,-25.9499],[151.7557,-25.9458],[151.753,-25.9374]],[[151.9688,-26.3189],[151.967,-26.3119],[151.8875,-26.3025],[151.8879,-26.2981],[151.8984,-26.2924],[151.9008,-26.2792],[151.9059,-26.2763],[151.9142,-26.2809],[151.9168,-26.2797],[151.9167,-26.2718],[151.9141,-26.2675],[151.9219,-26.2568],[151.9251,-26.2622],[151.9318,-26.2647],[151.937,-26.2618],[151.9403,-26.2563],[151.9472,-26.2623],[151.9403,-26.2687],[151.9413,-26.2725],[151.9462,-26.2743],[151.9524,-26.2734],[151.9546,-26.2701],[151.9535,-26.2629],[151.9593,-26.2674],[151.9671,-26.2673],[151.9705,-26.2692],[151.9688,-26.2762],[151.9639,-26.2773],[151.9585,-26.2878],[151.9596,-26.2913],[151.9671,-26.2949],[151.9724,-26.289],[151.9773,-26.2921],[151.9702,-26.3058],[151.9747,-26.3073],[151.9726,-26.3118],[151.9757,-26.316],[151.9688,-26.3189]]]},"id":"6630"},{"type":"Feature","properties":{"LGA Code":"6720","Abbreviated Name":"Sunshine Coast","LGA Name":"Sunshine Coast Regional","Area Sq Km":2287.19,"LDMG Name":"Sunshine Coast","fill-opacity":0.72,"Source Area Sq Km":2286.58942,"Police Region Name":"North Coast Region","Police Region Code":"NCR","Police Region Short Name":"North Coast","Region Slug":"north_coast","Layer Id":"qld_north_coast_ldmg_boundaries_gda2020_simp200m_schematic","Layer Group":"schematic","Layer Kind":"ldmg","Source":"Local government area boundaries - Queensland, Department of Natural Resources and Mines, Manufacturing and Regional and Rural Development; ASGS Edition 3 (2021) Local Government Areas, Australian Bureau of Statistics","Source URL":"https://www.data.qld.gov.au/dataset/local-government-area-boundaries-queensland","Licence":"CC BY 4.0","Licence URL":"https://creativecommons.org/licenses/by/4.0/","Dataset Date":"extract of 14/09/2026","Simplification Tolerance M":200,"Coordinate Precision Decimals":4,"CRS":"GDA2020 (EPSG:7844)","Fidelity":"schematic, non-cartographic display variant: Cook Shire's coastal waters and islets reassigned so the Power BI Azure Maps visual renders without faults; contains intentional boundary inaccuracies; not for planning, dispatch, analysis or jurisdiction","Modified":"Simplified and repackaged from the source dataset; see Source URL","Schematic Change":"unchanged from the standard layer"},"geometry":{"type":"MultiPolygon","coordinates":[[[[152.8536,-26.8867],[152.8514,-26.8857],[152.85,-26.8872],[152.847,-26.8875],[152.8462,-26.8918],[152.8531,-26.8926],[152.8516,-26.8912],[152.8513,-26.8893],[152.8536,-26.8867]]],[[[152.5879,-26.5797],[152.5793,-26.5809],[152.5752,-26.584],[152.5761,-26.5911],[152.574,-26.5955],[152.5841,-26.5967],[152.5815,-26.5997],[152.582,-26.6043],[152.5854,-26.612],[152.5878,-26.614],[152.5832,-26.6454],[152.5715,-26.658],[152.5723,-26.6592],[152.5522,-26.6808],[152.5557,-26.6805],[152.5556,-26.6874],[152.5577,-26.6914],[152.5517,-26.697],[152.5511,-26.7031],[152.5529,-26.706],[152.5622,-26.708],[152.5651,-26.7072],[152.5729,-26.7114],[152.5794,-26.7162],[152.582,-26.7202],[152.5805,-26.7228],[152.5855,-26.7332],[152.5823,-26.7358],[152.5833,-26.7404],[152.5908,-26.7472],[152.5961,-26.7481],[152.6001,-26.7518],[152.6025,-26.7579],[152.6172,-26.7595],[152.6195,-26.762],[152.6269,-26.7624],[152.6325,-26.7644],[152.6391,-26.7618],[152.6412,-26.7675],[152.6457,-26.7736],[152.6532,-26.7687],[152.6615,-26.7691],[152.6673,-26.773],[152.6689,-26.7897],[152.6724,-26.7943],[152.679,-26.7967],[152.6792,-26.7999],[152.6988,-26.803],[152.6965,-26.8091],[152.7091,-26.8111],[152.721,-26.8085],[152.7266,-26.8115],[152.7291,-26.8166],[152.733,-26.8149],[152.7392,-26.808],[152.7495,-26.8163],[152.7531,-26.7973],[152.7592,-26.803],[152.7611,-26.7924],[152.7669,-26.7933],[152.771,-26.7959],[152.7795,-26.7971],[152.7773,-26.8094],[152.7886,-26.813],[152.7867,-26.8223],[152.7921,-26.8271],[152.801,-26.8263],[152.8049,-26.8242],[152.8114,-26.8284],[152.8184,-26.8375],[152.8181,-26.8402],[152.8245,-26.8494],[152.829,-26.8502],[152.8324,-26.8561],[152.8386,-26.855],[152.848,-26.8581],[152.8532,-26.8562],[152.8517,-26.8652],[152.8583,-26.8661],[152.8575,-26.8712],[152.8695,-26.8729],[152.8668,-26.8889],[152.8555,-26.8874],[152.8543,-26.8946],[152.8553,-26.9019],[152.8612,-26.9027],[152.8595,-26.9113],[152.8755,-26.9135],[152.8725,-26.9302],[152.8683,-26.9336],[152.8614,-26.9363],[152.8581,-26.9562],[152.874,-26.9583],[152.8855,-26.9559],[152.8912,-26.9607],[152.8984,-26.958],[152.9037,-26.9539],[152.9133,-26.954],[152.9197,-26.9555],[152.9235,-26.9601],[152.9326,-26.9633],[152.9516,-26.966],[152.9534,-26.9684],[152.9613,-26.9725],[152.9666,-26.9788],[152.975,-26.9744],[152.9781,-26.9802],[152.9851,-26.9847],[152.9884,-26.9831],[153.003,-26.9848],[153.0116,-26.979],[153.0169,-26.9791],[153.0185,-26.9663],[153.0428,-26.9694],[153.0496,-26.975],[153.0533,-26.9758],[153.0551,-26.9804],[153.0593,-26.9799],[153.0663,-26.9837],[153.0775,-26.9763],[153.0799,-26.9697],[153.0793,-26.9607],[153.0868,-26.9547],[153.087,-26.9519],[153.147,-26.9373],[153.1396,-26.9114],[153.1323,-26.8836],[153.1304,-26.8712],[153.1301,-26.859],[153.1286,-26.8429],[153.1293,-26.8371],[153.1347,-26.8103],[153.142,-26.8034],[153.1507,-26.8021],[153.1485,-26.7971],[153.1485,-26.7913],[153.1412,-26.7886],[153.1388,-26.7818],[153.1361,-26.764],[153.1373,-26.7592],[153.1349,-26.7391],[153.1345,-26.73],[153.1355,-26.7058],[153.1375,-26.6821],[153.1299,-26.6838],[153.1219,-26.6811],[153.1128,-26.6726],[153.1086,-26.6702],[153.1052,-26.6615],[153.1034,-26.648],[153.1015,-26.6404],[153.1012,-26.6239],[153.102,-26.6164],[153.0984,-26.604],[153.0976,-26.5958],[153.0977,-26.5805],[153.1006,-26.5541],[153.1026,-26.5466],[153.0957,-26.5383],[153.0927,-26.532],[153.0927,-26.5243],[153.0942,-26.5068],[153.0958,-26.4986],[153.0821,-26.4956],[153.0811,-26.4938],[153.083,-26.4826],[153.0692,-26.48],[153.0755,-26.4729],[153.0785,-26.4665],[153.0794,-26.4572],[153.0732,-26.4586],[153.0607,-26.4561],[153.0543,-26.4517],[153.0548,-26.4468],[153.0597,-26.4397],[153.0638,-26.4391],[153.0608,-26.4326],[153.0501,-26.431],[153.0482,-26.4423],[153.043,-26.4415],[153.0353,-26.443],[153.0291,-26.4429],[153.0071,-26.4399],[153.0057,-26.4353],[152.9968,-26.4334],[152.9865,-26.435],[152.9663,-26.4322],[152.965,-26.4403],[152.9463,-26.4372],[152.945,-26.4446],[152.9359,-26.4431],[152.9356,-26.445],[152.9219,-26.443],[152.9174,-26.4492],[152.9124,-26.4507],[152.9034,-26.4509],[152.8999,-26.454],[152.8924,-26.455],[152.8853,-26.4622],[152.8854,-26.4698],[152.8796,-26.4667],[152.8709,-26.4655],[152.8693,-26.4742],[152.8533,-26.4815],[152.846,-26.4867],[152.8438,-26.484],[152.8358,-26.4893],[152.8281,-26.4927],[152.827,-26.4994],[152.8144,-26.4982],[152.8124,-26.4945],[152.8134,-26.4888],[152.8086,-26.4819],[152.8033,-26.4774],[152.8043,-26.4715],[152.7892,-26.4694],[152.7886,-26.473],[152.7576,-26.4684],[152.7577,-26.4754],[152.7654,-26.4758],[152.7656,-26.482],[152.7616,-26.4837],[152.7524,-26.4914],[152.7493,-26.4978],[152.7448,-26.4993],[152.7437,-26.5082],[152.7621,-26.5106],[152.7597,-26.525],[152.7674,-26.5273],[152.7695,-26.5312],[152.7672,-26.5373],[152.7634,-26.5387],[152.7585,-26.5364],[152.7582,-26.5439],[152.7527,-26.5498],[152.7498,-26.5472],[152.7451,-26.5496],[152.7377,-26.5402],[152.7334,-26.543],[152.7285,-26.537],[152.7147,-26.5463],[152.7124,-26.5462],[152.7106,-26.5566],[152.7008,-26.5652],[152.6949,-26.5679],[152.695,-26.5756],[152.686,-26.577],[152.681,-26.5839],[152.6829,-26.5893],[152.6805,-26.5977],[152.67,-26.5961],[152.6603,-26.5971],[152.6536,-26.5928],[152.6526,-26.5902],[152.6437,-26.5862],[152.6358,-26.5851],[152.6256,-26.582],[152.6187,-26.5843],[152.6122,-26.583],[152.6063,-26.5843],[152.6059,-26.5797],[152.6025,-26.5779],[152.5955,-26.5841],[152.5922,-26.5844],[152.5879,-26.5797]]],[[[153.1143,-26.6153],[153.1163,-26.615],[153.1139,-26.6136],[153.1128,-26.614],[153.1143,-26.6153]]]]},"id":"6720"}]}