{"type":"Topology","arcs":[[[3905165,4318093],[25272,8371],[2142,-37347],[34267,-70187],[33839,-11590],[35123,18029],[15421,16742],[30412,59884],[46689,-7083],[67677,38635],[20132,-1932],[11993,-59884],[-856,-47006],[21417,-30264],[15420,23181],[17133,4508],[26129,-19318],[30412,24469],[18847,-3863],[4712,-45718],[35552,-41855],[13707,-44430],[2141,-34127],[13707,-45074],[31269,-19318],[60396,16742],[41120,35415],[31697,3220],[-4711,-23825],[14992,-31552],[-20989,-112041],[-33839,-276240],[-15420,-161622],[-8567,-62460],[-14563,-203477],[-7282,-72762],[-3427,-99807],[1714,-83709],[15420,-95943],[6853,-88861],[-1285,-155183],[-3855,-50869],[5997,-160335],[7282,-103671],[19703,-162266],[35124,-211848],[28270,-107534],[34267,-24469],[34268,-127495],[42405,-98519],[20132,-12878],[16705,5795],[53971,-126207],[35552,-57952],[29555,-34772],[37694,-32840],[29984,-9014],[21417,10302],[31697,-9658],[-32125,-66968],[-14992,15454],[-194038,117193],[-18847,-7727],[-19275,8371],[-19275,-30908],[-17134,-4508],[-42834,-81133],[-5996,-35415],[-19276,-3220],[-71961,-39922],[-49258,-68255],[-27842,-17386],[-12422,-44430],[-39407,-23181],[-34696,-50869],[-28699,-57953],[-1713,-30908],[-12850,-23825],[-65536,-40566],[-32125,-29620],[-31697,-12879],[-48831,5796],[-29127,-13523],[-30841,28333],[-8995,59240],[-17562,6439],[-37693,-16742],[-9852,8371],[-41977,-16098],[-18847,10947],[-17990,27044],[-41121,-10302],[-40264,7727],[-12850,-24469],[-21845,-3864],[-21846,-31551],[-39407,-11591],[-21845,-14166],[-24844,1288],[-35552,-59884],[-11993,-54733],[-59968,10946],[-48830,67612]],[[3565921,714746],[-1285,40566],[-30412,45718],[-10281,52801],[4284,29620],[-14992,41211],[-857,38635],[-17990,29620],[-8995,41210],[17562,43786],[3427,31552],[-39408,-8371],[14564,82422],[14563,6439],[5997,36059],[25700,68899],[-17133,34771],[11993,65680],[22274,193818],[14992,5151],[34695,-7083],[6854,56665],[23987,-16742],[6425,53445],[30412,18673],[-10280,18030],[8995,48938],[11993,27688],[-12421,16098],[-68963,16098],[11993,94011],[11994,28332],[26129,644],[15848,39279],[8567,69543],[-2998,30264],[10708,89504],[15849,-1932],[11136,95300],[-91236,19317],[14135,54733],[-1713,34127],[-41977,9015],[2142,20606],[-14136,25756],[-26985,20605],[8138,27045],[92522,-20605],[3426,28332],[-24415,6439],[21417,129427],[-26129,31552],[-53542,12878],[6853,52157],[10280,-2576],[13279,100451],[8567,25113],[-13279,26400],[11994,97875],[-14135,16742],[-134499,32196],[11137,24469],[12850,65035],[-3855,48294],[14992,119768],[-33410,7727],[3855,34771],[-9852,52801],[-17134,5796],[-11993,32195],[11993,32196],[32554,60528],[-23559,36703],[-6853,37991],[-29127,30908],[2998,27044],[52686,31552],[7710,36060],[37694,61171],[-10709,34128],[11994,36703],[20132,27688],[3855,32840],[-6854,32196],[857,47650],[15849,42498],[35123,1932],[38123,18029],[6425,14166],[-15421,47006],[18419,4508],[43262,32839],[-38550,19318],[-26129,2575],[-8138,25113],[57397,-7083],[26985,27044],[-2998,37347],[14992,8371],[-11565,52157],[5140,12879],[36837,-21893],[44547,7727],[-1285,28976],[59111,-5152],[23130,-27688],[44547,11591],[15849,10946]],[[3565921,714746],[-33839,-23181],[-48402,57952],[-49259,-13522],[-22274,-61816],[428,-28332],[12851,-31552],[2570,-36703],[-59968,-35416],[22702,-34771],[-5997,-16742],[17562,-34771],[-20560,-30908],[-39407,11590],[-9852,-37347],[-41121,-17385],[0,-48938],[-32125,644],[-11993,-34771],[-30841,1287],[-4283,-42498],[23130,-41211],[-14563,-37991],[-26986,-37347],[-16277,3220],[-5140,-39923],[-18847,-56020],[-14563,-13523],[-59539,19318],[-83955,21249],[-14992,28332],[-23130,23181],[-69391,14166],[-17990,19318],[-29127,-28332],[-32554,23824],[-35552,10947],[-51829,-21249],[-29555,10302],[-30412,-1931],[-26986,21893],[-26557,-9659],[-23130,28976],[-21417,11591],[-60824,-10947],[-35124,-644],[-24415,-13522],[-25272,6439],[-20989,-18673],[-46689,38635],[-25272,3863],[-48402,33484],[-25700,1931],[-47546,65036],[-47117,23825],[-52686,-12235],[-26557,13522],[-20988,-8370],[-22702,10302],[-24416,-53445],[-20988,-16742],[-31697,15454],[-32982,-59240],[-2570,-42498],[-19276,3219],[-39835,-45718],[-857,-54732],[-20560,-19318],[-46689,-2575],[-50116,47005],[-18418,4508],[-75388,-41211],[-6853,-17385],[15848,-20606],[-22702,-34127],[-23987,-1932],[-19275,20605],[-26557,9659],[-14135,26401],[-26129,18029],[-33410,52801],[-12422,-7727],[-29984,24469],[-20988,-18030],[-41549,55377],[-26557,-7083],[-17134,12878],[-8567,36703],[-29555,-9658],[-23559,27688],[-1713,53445],[-26129,40567],[-35980,11590],[-45404,-22537],[-37265,7727],[-18847,32196],[-29984,23825],[-18419,33483],[-8138,32840],[5568,27688],[-11137,31552],[-14563,9015],[-5997,69543],[-54827,-47650],[-15849,-28976],[-9851,-48938],[8138,-57308],[11137,-45718],[-21417,-39923],[-32554,-80489],[-17133,-15454],[-24416,-69543],[-20988,32840],[-9852,47649],[-35552,20606],[-43263,-5796],[4712,34772],[-25272,-14810],[-21417,15454],[-22273,48937],[-22702,3864],[-32982,30264],[-1285,27044],[15848,25113],[-1713,72762],[16705,45074],[428,47006],[15421,41211],[-32554,27044],[-30841,6439],[-25272,57309],[-27842,16741],[-35552,-20605],[-35124,-10946],[-21845,4507],[3427,45718],[16705,16742],[-18847,57952],[-23987,33484],[-26128,8370],[-3855,-34127],[-25701,9659],[2142,19961],[-46689,14810],[-3427,36059],[31697,27689],[32554,79845],[-9852,24469],[0,35415],[-64679,-3863],[-36409,57952],[-22273,68255],[19703,61816],[-35552,39923],[-12422,25112],[-2570,56665],[-11993,31552],[8567,74694],[-34268,12234],[-19703,30264],[-10709,36703],[-21845,15454],[-10708,23825],[2141,32196],[-14135,48293],[3427,27689],[38979,47006],[-16277,63103],[6853,57953],[-24415,6439],[-35124,21893],[-12850,16742],[-40264,23181],[21417,65035],[-2998,33484],[-24844,48293],[7710,34772],[-32125,41854],[-6425,23181],[-27414,54733],[13279,84353],[0,56020],[23986,43786],[-3426,31552],[26985,30264],[23559,-21893],[30840,39279],[2142,79845],[11565,29620],[46689,63104],[-23130,66967],[428,48294],[-21417,48937],[-6425,86285],[28270,28976],[3855,115261],[-23558,39923],[-3427,37991],[-14992,30264],[2570,18029],[72389,-11590],[6854,57308],[19703,-3863],[12851,107533],[33410,-7083],[30412,-20605],[33411,275596],[47545,-3220],[6854,56021],[14135,29620],[856,39279],[59111,-12879],[2999,22537],[53970,-11590],[19275,161622],[86953,-18673],[18847,160335],[-2998,59884],[6425,32196],[21417,28332],[53971,-4508],[84382,-17385],[857,28976],[80099,-16742],[-3855,-28976],[78815,-17386],[32553,8371],[-5140,-40567],[17562,-1931],[-4283,-35416],[130643,-28976],[3855,32840],[72389,-11591],[-2570,-19961],[56541,-12234],[-4712,-43143],[71961,-16097],[8995,36703],[77101,-18030],[13707,-56021],[128074,-33483],[1285,-5795],[86524,-19318],[20132,-35415],[-8567,-79846],[91665,-18673],[19275,-17386],[-4283,-34127],[72389,-14166],[-11565,-103671],[24843,-16098],[-6425,-50225],[42834,-9015],[9852,81134],[42834,-9015],[428,48293],[-8995,88217],[-26129,57308],[-29555,-12234],[-34696,7727],[20132,173857],[14564,23825],[46689,-9659],[2998,28332],[22274,-4507],[4712,37991],[22702,-5152],[-2999,-32839],[8995,-19318],[32126,2576],[56969,-12878],[5140,39922],[65536,-14810],[5996,45718],[34696,-6439],[33839,281391],[139638,-29620],[34696,269156],[-29128,55377],[49688,83065],[10280,31552],[9852,72762],[29983,-21893],[36409,-16098],[51401,-9659],[20560,-19317],[15849,-36703],[50972,-41211],[36409,-19961],[62966,-18030],[18418,1288],[89523,-21249],[11993,39923],[80528,-18030],[38122,36703],[44548,-5151],[74102,44430],[-3427,84997],[12422,57308],[-16277,13522],[4284,23181],[27413,-4507],[20989,159691],[68106,-14166],[5140,50869],[142637,-28332],[14563,-25757],[49688,-48293],[8138,-17386],[32126,-19962],[12850,-22537],[-8995,-75338],[-25272,5152],[-8567,-68899],[36409,644],[3855,-27045],[18847,-15454],[26985,7727],[56112,-10946],[7282,-25113],[128930,-26400],[428,12234],[68535,-14810],[-1714,-20605],[34267,-7727],[1714,-13523],[72817,-14810],[11994,-101738],[-7282,-57952],[5568,-24469],[26986,644],[-8567,-41211]]],"transform":{"scale":[2.3346004669201166e-7,1.5530003106000665e-7],"translate":[152.3749,-28.3639]},"objects":{"qld_south_east_ddmg_boundaries_gda2020_simp200m":{"type":"GeometryCollection","geometries":[{"arcs":[[0,1]],"type":"Polygon","properties":{"District Name":"Gold Coast","DDMG Name":"Gold Coast","fill-opacity":0.72,"Area Sq Km":1376.66,"Police Region Name":"South Eastern Region","Police Region Code":"SER","Police Region Short Name":"South East","Region Slug":"south_east","Layer Id":"qld_south_east_ddmg_boundaries_gda2020_simp200m","Layer Group":"per-region","Layer Kind":"ddmg","Source":"QPS Disaster Districts, Queensland Police Service, via the Queensland Government Open Data Portal","Source URL":"https://www.data.qld.gov.au/dataset/qps-disaster-districts","Licence":"CC BY 4.0","Licence URL":"https://creativecommons.org/licenses/by/4.0/","Dataset Date":"19/05/2025","Simplification Tolerance M":200,"Coordinate Precision Decimals":4,"CRS":"GDA2020 (EPSG:7844)","Fidelity":"standard: source boundaries, simplified","Modified":"Simplified and repackaged from the source dataset; see Source URL"},"id":"Gold Coast"},{"arcs":[[-2,2]],"type":"Polygon","properties":{"District Name":"Logan","DDMG Name":"Logan","fill-opacity":0.72,"Area Sq Km":5201.2,"Police Region Name":"South Eastern Region","Police Region Code":"SER","Police Region Short Name":"South East","Region Slug":"south_east","Layer Id":"qld_south_east_ddmg_boundaries_gda2020_simp200m","Layer Group":"per-region","Layer Kind":"ddmg","Source":"QPS Disaster Districts, Queensland Police Service, via the Queensland Government Open Data Portal","Source URL":"https://www.data.qld.gov.au/dataset/qps-disaster-districts","Licence":"CC BY 4.0","Licence URL":"https://creativecommons.org/licenses/by/4.0/","Dataset Date":"19/05/2025","Simplification Tolerance M":200,"Coordinate Precision Decimals":4,"CRS":"GDA2020 (EPSG:7844)","Fidelity":"standard: source boundaries, simplified","Modified":"Simplified and repackaged from the source dataset; see Source URL"},"id":"Logan"}]}}}