{"type":"Topology","arcs":[[[1298797,1704797],[-3710,2545],[-5678,1697],[-7723,0],[-6284,424],[-6284,1414],[-8708,2687],[-8707,5043],[-5754,5703],[-3559,4760],[-4239,3441],[-6739,1744],[6436,29411],[49441,27337],[7950,70134],[48305,-2216],[7345,65657],[83739,-3064],[9616,68295],[42778,-2168],[9692,68909],[-100851,4430],[-130077,5797],[-11887,-62026],[-1211,-8249],[-87071,4902],[-223357,12726],[-35888,35585],[-75411,74188],[-51940,-88893],[-4240,-330],[-4997,3064],[-8404,2309],[-4089,1603],[-8858,1084],[-6360,2168],[-5603,1037],[-3937,-4666],[-4997,-6929],[-9465,-2781],[-2801,-2121],[-76,-3299],[3634,-3347],[4543,-565],[3786,-2404],[984,-2781],[5452,-942],[3407,-1461],[1665,-2216],[8556,-5326],[1060,-1979],[5906,-2546],[2726,-2780],[-17188,-54486],[-131288,6787],[-121293,6410],[-8253,-1272],[-1439,1602],[-6738,1885],[-9919,472],[-4088,2922],[-530,1885],[-3937,2121],[-4392,-471],[-4164,1131],[-1666,-3205],[-3937,0],[-6663,-2074],[-1741,-1979],[-5224,1791],[530,3582],[2195,3016],[-6057,-377],[76,2451],[-1893,801],[-4770,-754],[-3483,754],[-2271,1839],[-3407,-849],[681,-2309],[-7723,377],[379,-3959],[4467,-377],[76,-2263],[-4846,0],[-2347,1933],[-4997,1461],[-1742,-1131],[-5073,1366],[-302,1367],[3255,849],[-1438,3346],[-2045,801],[-4770,-2121],[0,-2969],[-2650,519],[-302,3440],[5451,2875],[5981,4572],[-3634,377],[-2120,2781],[-5073,-1225],[-1135,-4148],[-5073,-1084],[833,2922],[5375,4289],[3483,3582],[11736,20220],[5375,7542],[11509,18099],[606,2215],[4013,5420],[4921,3818],[-379,2592],[1288,1603],[-152,2733],[-4164,1037],[5981,5939],[6663,5656],[4846,5090],[4013,9238],[1968,5845],[3104,11830],[1212,6787],[833,11171],[1968,1414],[7572,2734],[3483,4477],[8479,5091],[7496,4006],[5376,3865],[6663,5514],[1363,2216],[2574,7447],[-606,3063],[-3483,5421],[-2347,1225],[76,1885],[4618,2216],[1060,1319],[-2120,3347],[6285,9238],[-1439,-3959],[833,-2310],[3634,-2969],[4240,-943],[8859,-4855],[5754,-4477],[8934,707],[1817,2875],[3407,1649],[3029,95],[2877,-1650],[606,-2545],[3710,754],[2574,-2168],[152,-3818],[2952,-801],[4240,377],[909,-1461],[-2499,-1178],[2272,-1509],[2120,-4477],[5603,-1179],[378,-1414],[5376,-188],[2271,-2027],[4089,471],[-454,3158],[5678,-1272],[3710,2451],[4467,-377],[3105,-1037],[3558,1037],[1439,-755],[1968,990],[3862,-330],[2877,-2498],[6587,754],[7723,1650],[-303,1461],[4997,1556],[5376,895],[3483,-1838],[10145,2781],[5224,1838],[3483,-330],[2650,566],[6436,-519],[4543,1273],[4013,-754],[2422,1838],[4165,1084],[2650,-660],[6208,2404],[3862,612],[1968,-659],[9995,330],[757,1649],[4845,801],[3862,-377],[2195,-1649],[4619,377],[4921,3535],[3710,-94],[7875,848],[3785,1697],[4165,848],[3180,1508],[5072,1037],[4468,2216],[4845,1461],[4316,-2923],[4013,-707],[8783,1226],[1665,1650],[2877,329],[4846,2546],[4467,282],[3483,1462],[3029,-283],[6738,848],[3407,-283],[3483,2970],[5149,1084],[4921,3959],[3029,1084],[3255,0],[5830,5090],[9313,3630],[303,2875],[11054,6410],[-1438,1697],[984,2969],[-1893,518],[-4846,-4619],[-8555,-5891],[-303,-2027],[-4770,-3629],[151,-943],[-3861,-2404],[-16657,-5656],[-76,-2545],[-9388,-1319],[-2877,-1414],[-4543,1414],[-4695,-1037],[-6132,-2357],[-3559,-236],[-11054,-4477],[-6057,377],[-2120,1272],[-6133,-2026],[-7950,188],[-4013,-1602],[-4543,-755],[-3558,378],[-2499,-1273],[-6208,-1508],[-9692,-7212],[-3256,-282],[-3028,1555],[-4846,471],[-3710,-424],[-1438,-1838],[-6512,-566],[-4921,849],[-4164,-802],[-5982,-2309],[-3407,566],[-4921,-1603],[-1363,-1273],[-3634,613],[-6133,-707],[-4316,47],[-2196,-565],[-4845,707],[-4846,-2168],[-3862,-566],[-6359,-2074],[-3483,1791],[-10600,-2356],[151,-1509],[-14083,-2168],[-1741,1933],[-3634,565],[-3332,-801],[-2877,660],[-4013,-519],[-2044,1839],[-5224,424],[-1363,-2310],[-9010,943],[-7799,-1367],[-2801,1320],[-3180,-95],[-1893,5751],[2650,3346],[-4164,1461],[-3634,-1932],[-3635,1225],[1817,1791],[5225,-565],[1060,2545],[-1742,1178],[-3634,189],[-2650,-1273],[-3104,2027],[-7420,3346],[-4543,-660],[-2726,-1838],[-1514,-2686],[-8177,-189],[-2423,3017],[-5603,3723],[-9086,6693],[-454,5939],[2120,3111],[3483,329],[4467,11454],[3180,1979],[-1060,1037],[757,9333],[-984,4194],[-3331,7259],[-4392,4949],[-11811,8295],[-5073,4902],[530,2074],[-2499,2357],[-1968,-1414],[-3332,4336],[-2120,4242],[0,2969],[-3104,707],[-7496,9144],[-9842,14281],[-3029,5515],[682,2639],[-1515,707],[-1060,6834],[-2574,10417],[-7193,16685],[-1666,4242],[-16278,895],[-416730,-330],[-2120,672163],[-2044,650716],[2801,308815],[1363,143614],[1136,293921],[192465,72396],[184969,69709],[115464,46568],[263106,98743],[44217,4713],[246070,26725],[88131,2969],[256216,8531],[122506,4195],[63145,55004],[124247,0],[-6133,5232],[-2726,4148],[-1666,6174],[379,4430],[1211,3488],[2726,4101],[3029,3016],[5830,3912],[10448,4101],[11509,2498],[9237,754],[9918,-424],[5527,-990],[6436,-1885],[7874,-3818],[5982,-4949],[4013,-6551],[833,-3535],[-228,-4384],[-908,-3487],[-2272,-4148],[-5224,-5232],[-833,-2451],[126215,70699],[227142,15696],[134998,-24934],[205715,-37942],[2802,-164022],[-7042,-3959],[-9388,141],[-8026,-2356],[-2650,-2593],[-10751,-1885],[-303,-2121],[-11963,-1697],[-2953,-1037],[-8177,-6928],[909,-3724],[-3029,-1508],[-9313,-28798],[-1590,-1980],[-9161,-801],[-2953,-2357],[-41188,-24462],[-2120,-2309],[-12039,-14988],[-32708,-23991],[1893,-2734],[-3862,-7305],[-227,-2451],[-2347,-5185],[-4240,-5279],[227,-1272],[-3937,-3017],[-1212,-2074],[-4997,-4006],[1363,-2922],[-1136,-1084],[-16051,-4761],[2196,-2121],[-5754,-6598],[454,-3158],[-4543,-3582],[1514,-3771],[-1363,-471],[2953,-5468],[-605,-1791],[-4695,-4525],[-1590,-2309],[-2271,613],[-2499,-2640],[2499,-1649],[-2120,-2404],[-2196,-10699],[454,-3158],[-4088,-2734],[3180,-5137],[-379,-3630],[-1817,-1131],[4997,-4289],[-7041,-3535],[378,-9191],[3029,-2121],[-3256,-3488],[1363,-5514],[-2347,-424],[379,-2498],[1892,-330],[1515,-5232],[-2045,-1885],[2196,-2216],[606,-4996],[-2726,-2074],[-7344,-612],[-5679,-1461],[1666,-3064],[4089,-3394],[-1817,-2403],[-7420,-660],[-1818,-3677],[1060,-2356],[2802,-283],[151,-3724],[-5981,-2403],[681,-2498],[4770,-2216],[1742,-4242],[-227,-3252],[-2348,-2027],[-2650,-565],[379,-6646],[5300,566],[-530,-4242],[-1136,-3394],[3635,-2121],[302,-8012],[1742,-2169],[-682,-1743],[4316,-3441],[303,-2451],[-2120,-896],[227,-2073],[5451,-2404],[682,-2875],[1817,-2168],[3483,-1697],[2877,-2875],[-757,-2263],[1136,-2168],[4012,-3818],[-454,-2450],[2196,-2640],[1287,-3158],[3407,-1508],[4846,-5420],[1514,-3488],[454,-4195],[1742,-707],[1135,-3158],[-605,-2639],[2574,-519],[4013,-6693],[681,-2403],[5755,-8249],[302,-6268],[-378,-8107],[2423,-2027],[-152,-1791],[2499,-1650],[1363,-3158],[4618,-2262],[1060,-2875],[-530,-2545],[1363,-3959],[3710,-3205],[-227,-4997],[-2574,-5043],[-1817,-1461],[2120,-3818],[9237,-14611],[1741,-4336],[-1893,-6504],[2650,-3205],[2196,-5091],[-2499,-2922],[-151,-3912],[1211,-6504],[-151,-3912],[2726,-3205],[-152,-4290],[2347,-4289],[-1514,-1744],[-6360,-518],[-4316,613],[-10600,-1037],[-1590,-472],[833,-4053],[13932,-4666],[8480,-7918],[3634,-7636],[1060,-4006],[0,-3347],[2044,-2875],[2574,-1225],[1818,-4761],[2650,-1932],[227,-5798],[13704,-9615],[1211,-3817],[-2574,-2498],[-6663,-3818],[-1968,-2828],[-227,-2404],[-3408,-3394],[530,-2686],[2878,-4383],[-758,-3064],[2726,-11218],[2196,-1131],[2347,-5797],[833,-6363],[-1515,-2970],[-302,-5184],[-1742,-5138],[-2044,-2875],[-4391,-3865],[-1515,-4289],[-3634,-2404],[-2650,-377],[-4543,2074],[-8026,2687],[-27181,-2451],[-908,-236],[-20973,-13338],[-984,-2451],[-3029,-2451],[-681,-8484],[1438,-9427],[-757,-1178],[38766,-13009],[3028,236],[7647,-6033],[2347,-2639],[12493,-6599],[6436,-2310],[5527,-2922],[1439,189],[8934,-3441],[1514,-1744],[-1363,-1461],[1287,-2828],[152,-3252],[3937,-8955],[303,-7919],[-909,-3063],[-2423,-2404],[-4240,-1320],[-9010,-94],[-11584,-33794],[4619,-2263],[-1817,-1932],[-2120,0],[-24759,-29883],[3937,-3252],[4997,-6740],[-1968,-4147],[5527,-3394],[11736,-2215],[7647,1225],[5451,-895],[4846,141],[8783,-3016],[6435,-519],[2120,-943],[1817,-2686],[0,-13999],[-2650,1697],[-7192,1320],[-7950,-566],[-7042,425],[-5300,-3912],[-227,-1650],[1136,-6834],[8934,-4855],[757,-2027],[6587,-4336],[-530,-6881],[8253,-5986],[-1893,-3771],[-4391,-2027],[-3786,-565],[-8404,-189],[-8101,-660],[-3029,-1084],[-10297,-141],[-3710,-1650],[-5906,424],[-13174,-47792],[5906,-3630],[75,-2168],[-5527,-3487],[-5603,-2687],[-3331,-424],[-12417,-29930],[606,-2121],[-4543,-989],[-3256,-2451],[2574,-5751],[3029,-1838],[-1211,-4949],[-8102,-1649],[-2498,-1320],[605,-2404],[3407,-4006],[3029,-2074],[-4164,-2074],[-16657,-51563],[3255,-1508],[-2498,-2404],[-7572,-707],[-4240,-3677],[-908,-4336],[-2196,-3016],[2650,-5656],[6511,-1838],[-1060,-2640],[-6738,-3959],[-6209,-2687],[-10675,-5844],[-1439,-4289],[-2196,-424],[-4088,942],[-7496,-471],[-757,-2498],[5073,-3724],[-530,-2356],[-6663,377],[-6738,-1980],[-606,-2121],[984,-3016],[4467,-4619],[-1287,-2121],[-3937,-2121],[-4619,1084],[-1287,2734],[-9313,2780],[-1514,1933],[-4088,-707],[-7269,-377],[-606,-3912],[-5527,-1273],[-3407,-1979],[-9161,-1886],[-12569,-4572],[-3407,-3912],[-3180,-1508],[909,-5562],[1363,-471],[-909,-4619],[-14689,-5797],[-984,-2451],[-3861,94],[-7572,-3111],[0,-2639],[3408,-4054],[4997,-7399],[2952,-2169],[5603,-7305],[-1665,-1603],[227,-2309],[3861,-3771],[4922,-3770],[5224,-3253],[3937,-6410],[2650,-2451],[-303,-6127],[-1666,-6174],[-302,-3205],[757,-2640],[-1590,-7211],[3255,-990],[5830,-5562],[4165,-2026],[7420,-4855],[681,-4808],[5451,-4053],[3029,-1037],[8707,-4760],[-1741,-4619],[1665,-4996],[2499,-1933],[530,-5703],[3256,-3299],[4845,-3347],[76,-2168],[-6209,-4525],[-2725,-942],[-6209,471],[-12871,-94],[-5073,-2121],[-2650,-2121],[984,-5091],[-1817,-3440],[3559,-1791],[1438,-1886],[4770,-2733],[5149,-2074],[-833,-2310],[-3331,-1131],[-8405,-1272],[-1287,-849],[1060,-4148],[-3180,-7918],[-1514,-2404],[3180,-3299],[4694,-1037],[5982,-3158],[5300,-2262],[2801,-2263],[4391,-1555],[4316,-2545],[3029,-7824],[75,-5468],[-7495,-5090],[-7647,-1650],[-3180,0],[-1818,-1461],[833,-3535],[-1438,-5043],[-3407,-5514],[1438,-3017],[4997,-7777],[-681,-3441],[2574,-4289],[-2120,-4289],[757,-4147],[5376,-3818],[-2801,-4949],[7647,-2687],[1438,-1508],[10373,-6646],[-606,-3535],[1439,-4289],[2423,-3865],[8101,-4336],[1136,-1697],[984,-4430],[1287,-1037],[15673,-9427],[2877,-989],[28014,-660],[3407,1602],[2953,4478],[2575,2027],[4315,1084],[4392,-2027],[454,-7494],[-3104,-4761],[757,-2781],[9086,-4053],[2650,-660],[2498,-4336],[-227,-3629],[-5679,-5421],[-8404,-6551],[-7496,-5279],[-2347,-3111],[379,-3063],[5830,-5373],[2877,-7070],[5073,-4478],[-1893,-4855],[2499,-5090],[5830,-4383],[2725,-1320],[0,-1933],[-3407,-5514],[-5906,-1697],[-7420,-2781],[-3558,-471],[-1590,-2734],[2650,-3393],[-227,-1839],[-2575,-3393],[4468,-2498],[7192,-1885],[3786,-95],[5452,-2969],[4315,-4478],[152,-4289],[2271,-2309],[3710,-1226],[1514,-2592],[-757,-1603],[-7496,-1649],[-4315,-3300],[-2120,-3487],[-5603,-2640],[-833,-2262],[2726,-1933],[833,-4949],[8782,-6881],[152,-2074],[5906,-6834],[908,-1980],[-1287,-3016],[-2877,-613],[-2423,-2922],[1590,-3535],[-757,-3441],[10978,-8484],[3180,-330],[9238,-5986],[11508,-895],[12947,3676],[3407,1603],[2802,3676],[6814,189],[2801,1791],[2348,-425],[529,-4241],[-1438,-2546],[-5830,-3535],[-2423,-3252],[3256,-5090],[3710,-1885],[3483,-2876],[15748,-1178],[0,-2828],[-3256,-3488],[76,-5703],[3937,-5561],[2877,-943],[6360,-142],[4392,1179],[1741,-1273],[-530,-4525],[-6057,-6740],[1742,-5844],[-2878,-9285],[2120,-6457],[2499,-2169],[34374,-11170],[3104,-1508],[2196,-8861],[6133,-4054],[7420,-3110],[3786,-4290],[605,-1555],[4770,-990],[13099,-7023],[9313,-2498],[6435,-3535],[5376,-942],[12341,-6127],[3105,-4242],[-530,-3347],[2650,-5514],[8555,-7636],[-227,-3441],[8480,-5420],[6739,-1602],[5830,-4855],[3482,-7636],[12493,-6504],[11660,-7918],[12644,-10417],[4770,-9662],[-151,-2875],[2196,-1461],[605,-4619],[16355,-6457],[5678,1602],[4164,236],[4922,-849],[11433,-5938],[3861,-1084],[1514,-2074],[14462,-5091],[6890,-188],[6435,-2922],[6739,-2357],[20670,1885],[1438,1037],[6588,-330],[13401,849],[8480,-1084],[22714,4901],[3180,1744],[10600,11736],[379,1509],[6057,1461],[2877,1461],[681,3394],[2347,942],[7875,-2498],[27408,-518],[13856,-11548],[2801,-660],[833,-3818],[2877,-3770],[8632,-3912],[3255,-3771],[0,-4525],[2120,-895],[16279,47],[1135,519],[9313,-1179],[7042,-3252],[3255,-518],[5527,-2781],[3786,-660],[8026,-189],[8404,-1838],[5603,-3629],[-76,-3252],[-6057,-5326],[-757,-2923],[1211,-1036],[-2952,-2687],[1741,-5090],[2271,-1980],[2878,-5703],[908,-4619],[5073,-4148],[6057,-4147],[2271,-3724],[833,-3064],[4240,-2168],[14689,-4336],[8707,-3064],[6057,-4006],[4013,-4807],[4921,-2216],[3937,-6457],[152,-2074],[12417,-3723],[5073,-472],[5073,472],[7192,-1179],[833,-1366],[4997,-1367],[3483,612],[6587,2404],[3710,-612],[8405,-3017],[1968,-3346],[3180,-1744],[1439,-3205],[4618,-2498],[3029,-849],[17868,-2074],[2802,896],[7798,613],[4695,-755],[6284,-141],[1893,-1084],[9464,-1225],[8556,-330],[12114,565],[11130,-4666],[4240,-3346],[3028,-1509],[4695,-895],[6738,-94],[7874,-1839],[5603,-1838],[2499,47],[7041,-3770],[3407,-1179],[1136,-1649],[8934,-1131],[8783,754],[4619,-472],[4921,-2168],[6966,-895],[7723,-1838],[1211,-943],[9388,-1791],[8178,-377],[3255,-707],[18702,-2310],[8858,-3676],[2499,-3865],[5830,-3771],[10297,-4996],[7798,472],[3559,-3724],[2120,-518],[7496,0],[9010,-1273],[15824,189],[9691,-3583],[6057,-1178],[10676,-6127],[3937,-943],[4846,142],[11130,-3818],[4164,-3818],[0,-2686],[12493,-12962],[4164,-2074],[379,-1084],[15672,-2215],[2726,1602],[11887,236],[3710,-848],[9692,-1084],[5451,-2593],[7117,-4336],[5603,-4195],[1968,-3393],[8178,-4808],[4542,471],[3786,-471],[3407,-1367],[8632,-5232],[1817,-2215],[7041,-4666],[303,-2309],[9919,-7495],[4921,-659],[7571,-4714],[3559,-5043],[3180,-518],[7496,-5044],[530,-5184],[5678,-3677],[6360,-3393],[1060,-4619],[-1666,-1556],[2120,-5703],[4089,-5090],[2801,-2310],[7345,-989],[3558,-4384],[1439,-5750],[8934,-6080],[1741,-5939],[3483,-1791],[4619,-330],[2120,-6080],[2498,-471],[8102,-4007],[2953,-3252],[908,-6080],[2953,-2781],[76,-6834],[1968,-2215],[3483,-566],[2044,-10369],[2196,-4101],[757,-4053],[4695,-13197],[-303,-3252],[2423,-3158],[-379,-3818],[3786,-8578],[1060,-6646],[-303,-7541],[-3710,-7683],[-2574,-6174],[-6058,-4195],[-9312,-15130],[5072,-7635],[3710,-1320],[1818,-5750],[-1439,-2451],[1060,-4384],[-1439,-5326],[-1665,-2073],[2347,-9144],[2877,-2640],[6360,-2639],[-530,-3912],[1590,-3394],[4013,-3817],[681,-5609],[-5981,-6693],[-2423,-9851],[5981,-10369],[1969,-1933],[-2196,-6174],[1287,-2875],[4770,-2687],[530,-3535],[-1968,-2498],[-682,-3629],[1136,-3488],[2423,-1932],[7268,-2357],[-227,-2215],[-2498,-4713],[454,-6033],[-833,-1179],[227,-10369],[3256,-2592],[1211,-2451],[303,-4855],[1212,-2215],[-379,-3394],[3559,-5891],[3937,-2781],[681,-3865],[9767,-9615],[2726,-6127],[379,-4572],[2120,-4761],[605,-3299],[3635,-12914],[8101,-8956],[1136,-3770],[-455,-5656],[-1514,-2640],[4770,-7730],[2120,-4194],[-530,-6787],[530,-2169],[-3937,-9238],[-4013,-4524],[4164,-7400],[-984,-4619],[-4467,-5138],[1060,-2686],[-4619,-7730],[7269,-8955],[1287,-7070],[7420,-9851],[1514,-1414],[-2044,-7494],[984,-1933],[-1514,-2639],[-5906,-21351],[909,-5044],[-757,-5043],[-5527,-2592],[-1893,-1980],[-454,-4477],[530,-2828],[13250,-10322],[2044,-2640],[4618,-15365],[3862,-4525],[303,-3111],[-8556,-12631],[303,-5138],[1211,-2733],[-757,-3347],[4694,-15035],[6133,-11784],[-378,-6787],[-2348,-3582],[-151,-4807],[5603,-2875],[3104,-2876],[682,-4383],[5148,-8955],[4694,-2545],[5982,-3959],[2423,-2781],[3255,-6222],[833,-4148],[-3180,-5278],[-1968,-613],[-682,-9992],[5906,-4996],[-1514,-5798],[-2650,-2686],[17641,-27950],[8707,-2357],[5527,-2262],[3256,-4949],[-151,-7070],[-606,-2828],[-7193,-10841],[-7571,-3063],[8631,-16025],[8859,-17581],[3407,-1084],[2574,-2875],[303,-4478],[95778,-28704],[1438,95],[2726,-3960],[20140,-9473],[1969,-2310],[13098,-26771],[10600,-9050],[10146,-9144],[3558,-1319],[-378,-1273],[23623,-35444],[2044,-2168],[64508,-35444],[3634,-1225],[1969,-2781],[454,-2734],[8329,-14281],[5527,-896],[2574,-2074],[-606,-1414],[455,-19230],[2423,-1602],[54059,-9757],[3256,-5184],[-2726,-7872],[-832,-8059],[1438,-3158],[36116,-5845],[33617,-27243],[2271,-612],[3407,-4949],[2272,-5609],[21654,-8767],[26197,-9851],[4088,-518],[530,-1273],[-3634,-1131],[-41491,-17062],[1363,-3912],[-1439,-3771],[33996,-23849],[24380,-37282],[3407,-3346],[1438,-5232],[-2498,-4478],[-3710,-3299],[-3332,-20927],[3407,-896],[3559,-4807],[379,-2781],[-1136,-2357],[6511,-11123],[-11584,-6693],[-5527,-2262],[5527,-10746],[606,-2499],[12265,-10510],[3483,-1980],[-2044,-5373],[-379,-6834]],[[4213179,1081653],[-309821,-754],[-49896,94],[-9994,-236],[-7950,472],[833,-2593],[-6360,-3770],[-7268,-1461],[1968,-1556],[-908,-5043],[-5679,1367],[-2499,-1980],[4240,-1697],[-3104,-5467],[-3786,-1178],[-7117,377],[303,1791],[-21881,1272],[-152,-895],[-11584,660],[-9161,94],[-379,-2215],[-4770,613],[-2877,1366],[-1438,-5420],[-2953,189],[-1666,-10652],[76,-3677],[2120,-2074],[-7647,-1461],[-2878,47],[-4921,-4147],[-6284,1367],[-2650,2168],[-3483,5090],[-5679,2262],[-1741,1791],[-6966,-2356],[-1514,-4101],[-4694,-801],[-3105,566],[-2801,-3630],[-2877,-1461],[-6284,-1649],[-6436,-330],[-1666,1508],[-4164,1037],[-6663,283],[-4846,989]],[[3664177,1036452],[3635,20362],[-4316,1932],[-1817,2074],[227,3818],[-4391,4572],[-2045,3252],[530,4100],[-2120,3724],[-2422,2404],[2271,2545],[-2650,2451],[-4543,2356],[-7798,6363],[-7269,2498],[-8101,5468],[1060,2451],[-1363,1320],[4467,5703],[757,5467],[-1590,1555],[3861,2640],[4998,283],[-1818,3959],[3862,895],[378,2498],[-6057,4289],[-984,2781],[-4467,896],[303,4525],[-2347,3157],[-2423,189],[-76,3488],[-3256,1602],[-1741,2263],[1136,3063],[-2499,2169],[-7193,-1132],[-3861,-4666],[-27030,7871],[-5679,8673],[-6814,424],[303,17863],[-26046,1320],[3862,4808],[-3559,1555],[-681,1838],[-7117,236],[-4543,6976],[1287,1791],[-984,4242],[-1515,848],[-7874,990],[-2195,2262],[-2120,4006],[2120,1509],[-1590,1272],[-4240,754],[-833,1273],[-4997,990],[-228,5279],[2953,895],[4165,2922],[-530,2357],[-7345,2262],[-4013,-707],[-681,2828],[2423,1697],[-3483,4996],[4921,2168],[10600,5892],[3105,4855],[-3710,1555],[-2120,2498],[-1212,3959],[2045,613],[454,2215],[2650,1179],[1968,4901],[8859,3912],[2271,2781],[-2423,943],[-984,5986],[1439,3158],[-1439,2262],[5754,7070],[3029,754],[1514,3959],[-1968,1603],[5451,3441],[4164,7305],[-3255,2121],[-4543,4054],[-9389,471],[3332,2781],[8177,2451],[0,1272],[-5527,1320],[-2575,2074],[-4770,754],[-1287,2875],[9465,2404],[1817,-896],[5375,1320],[-7192,3346],[3104,1886],[1060,2215],[454,4572],[-4316,1272],[-454,2216],[-3634,2781],[-757,1555],[1438,5939],[-2877,3252],[-227,5043],[-2347,1980],[378,3346],[-3028,3629],[-2423,1414],[4316,4101],[-6284,2498],[-4392,424],[-2044,2357],[378,3063],[-6208,1697],[-5527,2781],[-7647,236],[-1969,1649],[-12568,2451],[-3105,2074],[-5224,141],[-2801,1792],[-4846,1743],[-6209,707],[-4315,-141],[-5755,2592],[-3861,4242],[-7420,1556],[-1893,1555],[-3104,-47],[-3407,-1650],[-3180,4855],[5754,5232],[-984,2262],[2877,1131],[-2044,5845],[6662,4996],[-5451,141],[-4240,-3346],[-1817,236],[-5527,-2546],[-4240,-2592],[-4997,-660],[-3407,-1414],[-2499,1556],[-7344,-660],[-6133,-1273],[76,-1508],[-8253,94],[-2953,2074],[-5830,424],[1590,15507],[-4164,236],[-5527,3205],[9161,-566],[379,2404],[-5528,377],[1969,2309],[-1590,7023],[1969,2074],[-4240,2215],[-5603,424],[984,7919],[-13401,10558],[-5906,3440],[2271,1084],[-4997,3630],[-14158,895],[-833,-4619],[-8101,519],[-1136,-6505],[-3483,-1744],[-227,-1461],[-3180,-1650],[-1439,-3016],[-4845,-3205],[-2423,2262],[-4467,1933],[-6966,424],[-4770,-2357],[-3256,-94],[379,4713],[-4922,472],[228,1272],[-5149,896],[-1666,1979],[-3028,377],[-3332,-2969],[-3407,-283],[-2423,1838],[1666,1462],[-5300,612],[-2726,3252],[-5602,2263],[-455,1838],[-3558,754],[-1439,3912],[0,2310],[-5451,-283],[-303,3158],[3861,1508],[-8328,2592],[757,2640],[4770,3346],[1438,2875],[-6284,-1131],[-5376,1838],[-7117,0],[1060,3205],[-2952,5609],[-3408,-141],[-5527,1791],[-1438,1414],[-833,3770],[-2953,943],[-1969,2357],[-7798,1932],[-227,1461],[3407,1226],[1968,1838],[-1211,4949],[-5906,1508],[-5148,-660],[-3029,1603],[-3785,330],[-9465,5420],[-4467,4808],[2120,1272],[-4391,4761],[-1969,282],[-1211,990],[-4316,3111],[-5376,518],[-5375,-801],[-3483,2027],[1363,1650],[151,3016],[-1287,1980],[-2953,1461],[-303,4619],[1212,4854],[-5376,1933],[606,4949],[1665,1744],[-151,2168],[-10070,2875],[-2877,283],[-5452,1838],[-1665,3299],[-3256,-235],[-4921,2262],[-7193,707],[-5603,-2404],[-4543,1414],[-6738,1367],[-2650,-895],[-4392,2262],[2650,3912],[2272,895],[-5830,2828],[303,1037],[-15749,4808],[-6663,-330],[-2953,2309],[4013,943],[-3937,1650],[-7117,-1886],[-5073,-5137],[-3558,-2545],[151,-2263],[-2423,-2262],[-3558,-1037],[454,-1885],[3861,-849],[-2498,-2309],[-6285,-1178],[-6132,-4101],[-2045,-2215],[1969,-2687],[3710,-518],[984,-3912],[2499,-2970],[3483,-1225],[908,-5373],[-2196,-1037],[-7722,-1744],[-4089,-2451],[-3256,-424],[530,-2357],[-4997,-1084],[-2423,-1838],[-5602,990],[-7648,-1791],[-4240,-2828],[-8404,2356],[-5603,3441],[-4618,471],[-2499,-895],[-3861,3299],[-2272,-613],[-757,-3770],[-6208,-2027],[-1893,-2215],[-2499,-330],[-2574,1979],[-3256,7825],[-2877,2733],[-4694,-2121],[-1211,-1838],[-6209,-1555],[-1893,-3771],[-2650,-2309],[1136,-1226],[-2650,-2451],[-5224,-94],[-4316,1225],[-2347,-2592],[0,-3582],[-5224,1838],[-3029,-47],[-1817,3346],[-2423,1697],[681,1933],[-2877,2733],[-6435,330],[-758,1933],[-4770,5420],[-12417,9285],[-10221,4101],[1439,4807],[-1818,3865],[-4542,1744],[-152,2215],[-2271,2169],[-8859,518],[-13931,424],[-10903,4336],[-3710,-754],[0,-3440],[-1363,-2876],[-4013,-612],[-5754,895],[-1968,-1979],[227,-4195],[-3635,-6080],[-454,-2875],[2044,-2451],[606,-3488],[-2801,-6410],[-4392,-1697],[-3861,-2404],[-4846,707],[-13174,2687],[-1514,1178],[-6209,1414],[-1590,1320],[-6284,-613],[-5149,-1508],[-5527,1272],[-3634,2876],[-7269,2262],[-4088,330],[-2347,1178],[-4165,377],[-7571,2498],[-3559,4195],[-4770,-47],[-9388,-1932],[-681,-2734],[-5528,-519],[-3407,-1084],[-4997,2404],[-7420,-47],[-6208,-2357],[-4997,-2733],[-379,-2451],[-3331,-1179],[1287,-2262],[4997,-754],[2347,-4996],[3028,-1508],[0,-1603],[-4694,-4383],[-2953,188],[-6208,-2498],[-2347,660],[-2726,-1037],[-3331,1555],[-1212,1697],[-4240,519],[-4694,-519],[-5830,2357],[-2801,3205],[-3559,-707],[-6739,1178],[-4921,1980],[-6436,-3724],[-3180,-1319],[-4467,754],[-5603,-3064],[-7268,-1320],[-6209,1037],[-530,3959],[-5375,4195],[-4392,990],[-2650,1744],[-2650,4619],[-2953,2074],[-3255,0],[-11433,4713],[-3634,2970],[-4165,2262],[-6284,1650],[-3407,-2074],[-3634,-47],[-5300,-3960],[-3483,-7117],[-2802,-1461],[-4845,-5137],[-5300,-754],[-3862,-3865],[-6511,-47],[-4013,1508],[-8404,5279],[-6436,-2593],[-378,-2639],[-3332,-990],[-2650,566],[-5300,-3111],[-4013,-896],[-1817,896],[-75,3064],[-1893,2498],[-3332,330],[-3255,1508],[-1666,3111],[-4316,1414],[-681,1932],[2423,1603],[-1590,8908],[-4240,-142],[-1818,1744],[3710,2263],[-7798,4807],[-682,2074],[-3709,1603],[-5603,0],[-1969,848],[-7420,-1744],[-8177,1650],[151,3346],[-6132,566],[-2953,2168],[-2877,801],[605,1555],[-1287,4808],[-1590,2168],[-4770,2310],[-4013,4100],[-3028,5609],[-2877,1980],[-985,6127],[-4845,1508],[-5830,-283],[-1287,754],[-1666,8579],[-1817,7211],[1136,3488],[-7723,-613],[-5376,1838],[-1817,2640],[-3937,-472],[-4922,2734],[-2877,-895],[-5906,-378],[-3558,472],[-1741,-2404],[-4468,-1461],[-3785,-2262],[-4770,895],[-1817,-2592],[-5452,47],[-7041,2451],[-3559,47],[-3331,1225],[-4997,236],[-4316,3346],[-3104,1509],[-7193,1885],[-4164,141],[-10373,2546],[-3029,1225],[-5527,-1555],[-454,1508],[-4467,2121],[-7269,1508],[-908,-1744],[-6285,-1037],[-4694,-2781],[-454,-2969],[-3559,-1555],[-6208,-1273],[-4543,-1791],[-3104,2027],[-909,1932],[-5149,330],[-75,2404],[-2499,660],[-908,2027],[-3786,-896],[-2044,1178],[-7647,2357],[-379,2168],[-4467,94],[-2044,-942],[-1515,-4007],[-3710,-2686],[-3634,-754],[-4694,-2687],[454,-2875],[-2044,-660],[-5679,189],[-9161,2026],[-7269,-2403],[-2801,-3158],[-3634,-754],[-3635,-3960],[-4542,-1602],[-2650,660],[-9995,-1084],[-5375,801],[-2499,-707],[-1590,-2875],[-5300,754],[-1514,943],[-4922,-2121],[-4467,942],[-681,1744],[-3634,1131],[-3408,-282],[-6814,1791],[-5527,0],[-6209,4383],[-3861,5326],[-6587,-424],[-6360,2121],[-2499,-424],[-7117,2922],[-1968,-896],[-5679,1414],[-1968,2451],[-2953,849],[-4619,-1556],[-3937,2875],[-1666,3253],[-5602,1743],[-2196,3583],[-2423,1225],[3483,3441],[-1136,3063],[-2801,1179],[-4922,471],[-4618,-990],[-3104,142],[-3029,2215],[-2650,-660],[-1363,-1932],[-8631,1366],[-4695,-1838],[-4542,-235],[-3408,1131],[-8555,-1838],[-7042,1037],[-6662,-990],[-5906,-2310],[-1136,-1320],[-4467,142],[-4846,-1084],[-2422,-1603],[-6966,1461],[-2499,1037],[-12341,990],[-5073,2875],[-4240,-141],[-3558,801],[-2878,2262],[-4315,1603],[-7117,1131],[0,2498],[3710,2310],[-3635,1697],[-6587,-613],[-7950,613],[-4921,1979],[-1969,2168],[-4770,613],[-2725,-3158],[-4770,-1508],[-6739,-519],[-7647,4855],[-8934,1367],[-10525,-283],[-7950,-660],[-7571,-1602],[-11357,-3441],[-13931,-5373],[-14462,-4525],[-3483,-3299],[-6360,-330],[-11205,-3959],[-5830,-754],[-4619,282],[-5375,-471],[-4543,-3064],[-8859,-1979],[-10448,-1178],[-7950,754],[-14613,1885],[-6814,2592],[-11887,-2404],[-15370,-1319],[-5830,660],[-14083,-896],[-6739,-141],[-6663,1414],[-23547,-2828],[-9388,-802],[-4922,-1696],[-8782,188],[-16657,9945],[-3938,-612],[-3104,-1603],[-5603,754],[-13704,5515],[-22866,3158],[-11432,329],[-12039,-471],[-15218,-3676],[-5906,235],[-16960,-1084],[-14158,755],[-14083,2262],[-12947,424],[-12796,-47],[-8253,-754],[-5224,1650],[-9919,1319],[-15067,-1697],[-5148,-47],[-1893,-1932],[-2953,-424],[-6436,-2923],[-8025,3394],[-6815,1367]],[[2458660,4822544],[-10525,565],[-6814,1179],[-10978,1272],[-4013,801],[-8556,2876],[-8101,4713],[-3256,2781],[-7799,9850],[-8025,-1319],[-5679,-424],[-7193,188],[-12341,1744],[-5073,1131],[-10903,3488],[-8858,4996],[-4619,4101],[-4088,6410],[-1136,5090],[454,4289],[1212,3394],[2574,4053],[4391,4619],[7193,4431],[6133,2403],[9540,2027],[5754,424],[8253,-94],[11660,-1791],[11509,-3205],[9085,-3724],[4619,-2922],[5073,-4572],[9161,2593],[8480,989],[11054,0],[7875,-801],[11962,-3016],[4695,-1933],[15445,-8908],[3332,-2875],[4315,-5279],[3483,-8295],[985,-6457],[-530,-3488],[-3559,-6599],[-2877,-2969],[-6436,-4714],[-9237,-4100],[-10600,-2404],[-7041,-518]],[[2149368,4936322],[-9994,802],[-5527,1178],[-6285,2168],[-8479,4902],[-3180,2969],[-3786,5845],[-1212,5326],[833,5326],[1590,3488],[3937,4760],[5603,4101],[6966,3252],[5224,1555],[8329,1414],[2725,3535],[4922,4101],[3937,2309],[10751,4242],[9389,1791],[7344,613],[10449,-471],[10297,-1791],[8404,-2970],[4240,-2215],[4694,-3252],[5073,-5138],[3407,-6457],[530,-5137],[-1968,-6976],[-3559,-4855],[-2953,-3016],[-5830,-3959],[-5754,-2640],[-6133,-2121],[-5300,-1225],[-6965,-849],[-9843,142],[-6663,-4761],[-5830,-2639],[-9313,-2451],[-10070,-896]],[[1163042,4812080],[-5603,236],[-10827,1932],[-7192,2687],[-6966,4148],[-3180,2780],[-3862,5468],[-3482,8201],[-3635,7588],[-454,5326],[2044,6080],[2272,3300],[6738,5750],[7042,3299],[22638,2121],[25061,-5891],[25440,8908],[78667,8342],[27257,660],[55801,6552],[9692,-1744],[6284,-2216],[8404,-4854],[4013,-3629],[3559,-5326],[1968,-4572],[757,-7447],[-605,-3441],[-2953,-5043],[-4164,-5468],[-3483,-3770],[-6739,-4478],[-1666,-5137],[-2725,-4007],[-4770,-4336],[-6209,-3582],[-12417,-4949],[-12720,-2687],[-6663,-518],[-12417,566],[-9161,1602],[-7269,1650],[-9994,-1084],[-9313,141],[-21427,1273],[-9767,-943],[-5451,0],[-10676,1037],[-5224,1037],[-10222,1037],[-13174,2781],[-12644,3346],[-9691,-3865],[-4392,-2592],[-7950,-3441],[-9010,-2121],[-9540,-707]],[[1003816,4744680],[-4089,142],[-16657,1885],[-10903,2027],[-9085,801],[-16355,2969],[-13325,3582],[-7874,3205],[-6360,1556],[-4695,1744],[-7798,-1791],[-5452,-566],[-7722,-94],[-5755,518],[-8177,1744],[-4997,1650],[-6511,3252],[-6739,5514],[-3861,6458],[-757,3346],[75,4242],[909,3394],[2196,4194],[3482,3912],[9162,6693],[4315,2168],[10070,3111],[17112,2640],[8253,188],[6814,-660],[8934,-2215],[6814,-2639],[9465,1744],[9540,424],[4088,-236],[21654,-2828],[10449,-1602],[17944,-3677],[11660,-1885],[7874,-1980],[5830,-2451],[9464,-4949],[3938,-2592],[5300,-5279],[2952,-5938],[606,-3441],[-1287,-6882],[-1817,-3299],[-4619,-5137],[-5754,-4289],[-6436,-3441],[-8252,-2875],[-7723,-1509],[-8405,-754],[-7495,-94]],[[969442,4877689],[-11357,849],[-4922,754],[-11584,0],[-16127,1555],[-11887,-895],[-12115,377],[-4542,565],[-10070,0],[-6966,990],[-4997,1178],[-12190,1509],[-17641,4666],[-3483,1225],[-7042,1178],[-5224,1509],[-9161,4383],[-5906,5090],[-2801,3960],[-1742,5043],[-1893,2356],[-2271,4808],[36797,22624],[26878,7730],[22109,-896],[32784,4713],[15597,-1602],[28999,-18193],[53605,-17110],[-2196,-12678],[-3180,-6646],[-2801,-3017],[-4316,-3393],[-4240,-2310],[-13401,-6410],[-7647,-2356],[-6890,-1132],[-8177,-424]],[[426270,4725921],[-8480,660],[-10600,2592],[-8783,4195],[-6663,5515],[-2801,3912],[-2120,6646],[75,4194],[2499,6599],[3786,4619],[-7723,3346],[-5603,3724],[-6663,5703],[-3634,4855],[-1666,4383],[-151,5326],[2271,6080],[4013,4808],[6436,5656],[4315,3205],[5300,2875],[10070,3205],[5452,4148],[4845,3110],[9540,3912],[5376,1273],[9919,943],[6890,-189],[9312,-1508],[8480,801],[5755,-141],[6965,-943],[5376,-1320],[9389,-4006],[5527,-4053],[4012,-4619],[2650,-5656],[909,-5703],[0,-4902],[-1514,-5656],[-1969,-3818],[-3407,-4713],[-5906,-5703],[-5830,-3865],[-6965,-3300],[-3862,-1414],[4089,-4383],[1893,-3205],[1438,-4336],[152,-3535],[-757,-4383],[-2878,-5845],[-4770,-5420],[-4315,-3441],[-5225,-2969],[-4769,-1886],[-10298,-3299],[-9464,-1650],[-9918,-424]],[[318529,4626188],[-12417,990],[-6739,1602],[-9389,4101],[-7192,5514],[-3483,4855],[-1514,4289],[-76,5326],[2271,6929],[4392,5561],[7420,5185],[4088,2074],[6814,2545],[7648,1791],[8025,1084],[8404,566],[8556,141],[5679,-377],[6814,-1272],[9843,-3488],[6890,-4431],[5375,-6221],[2196,-5138],[152,-6221],[-1515,-4337],[-2801,-4147],[-3104,-2970],[-5755,-3912],[-9767,-4336],[-10675,-3299],[-9086,-1744],[-11054,-660]],[[4213179,1081653],[-832,-2263],[-3559,-3912],[-606,-2545],[4165,-5137],[605,-3535],[76017,-54109],[18171,-13103],[18248,-28845],[7647,-11218],[2120,-2451],[-1136,-3063],[-26349,-37989],[2196,-8908],[-227,-1886],[36191,-32521],[2499,-802],[4316,-5986],[1741,-6127],[35207,-20456],[3256,142],[4315,-7164],[-832,-2121],[681,-7070],[-1439,-3441],[25137,-11783],[9768,-1367],[1514,-896],[606,-3535],[-1666,-3864],[10675,-4902],[11206,1131],[1287,-2640],[-5148,-2309],[1741,-2404],[4089,-1649],[3104,-2121],[757,-3064],[2423,-1555],[6966,-802],[4315,-2262],[-454,-3912],[50501,-27007],[4997,-707],[3180,-1980],[43687,-25216],[4695,-2121],[88509,-11595],[89343,-12066],[79272,-10605],[9465,943],[-455,-2545],[2044,-1650],[49290,-65844],[51562,-14235],[16354,-12254],[2498,-6363],[1060,-4619],[32103,-46002],[-240846,-94],[-212151,94],[0,39309],[-200112,-188],[-77455,0],[-113268,47],[-66174,47],[-75941,47],[-15295,471],[-19609,2404],[-7269,47],[-8783,1320],[-4315,-2168],[-10449,-6646],[-2650,-3912],[-5679,-2498],[-3028,330],[-3559,-1178],[152,-2216],[-5679,-1885],[-2195,1178],[-682,2404],[-3558,1603],[-7496,1838],[-6890,-660],[-6512,801],[-6965,2168],[-12417,2168],[-3483,3111],[-1287,2875],[984,2734],[4013,2310],[-2650,2121],[-3256,942],[-76,2593],[-5148,4383],[-2272,4572],[-2422,990],[-5527,47],[-1818,1649],[1590,3630],[6133,3487],[-2423,2970],[-303,2592],[1742,2687],[-5830,1696],[-5754,5091],[-8177,-1226],[-16355,3912],[-2574,1179],[-2120,-1933],[-7344,4054],[-7723,-1744],[-4543,1084],[-7496,283],[-1287,-1037],[-5981,-1179],[-6814,-94],[-6360,-1555],[-2423,801],[-4770,-236],[-9313,707],[-10978,14187],[-10525,-2922],[-3104,377],[-7799,-4006],[-1892,94],[-5906,-3441],[-76,-1225],[-7950,-4195],[-5300,-1461],[-3483,-2215],[-5224,-1320],[-1514,1980],[-3104,1508],[-1969,-1178],[-4013,94],[-6738,-1603],[-6815,472],[-6738,-707],[-4543,1932],[-5451,-2309],[-5149,1838],[-2120,2451],[1666,1272],[833,3912],[-6057,4054],[-3408,94],[-1438,-1225],[1514,-2499],[-9843,-1885],[-151,-3535],[1287,-1744],[-2271,-1037],[-3483,472],[-4013,3865],[-5149,-2216],[-5072,-282],[-5073,2639],[-3635,-896]],[[3605423,613010],[-8404,613],[0,3205],[1136,1933],[-757,3016],[-2499,2074],[-6360,1603],[-5981,2073],[-4013,660],[-2953,3158],[51864,24839],[6739,-2074],[5300,1367],[5375,519],[-1060,2403],[5528,2876],[-228,3629],[-2650,1979],[-2120,3064],[-4467,1932],[-1893,3253],[3180,2875],[-530,2969],[2348,2168],[-2045,3017],[-1817,801],[-7268,5137],[378,5044],[-4391,1037],[-2953,4053],[-2272,1508],[-302,1886],[1892,2403],[3559,1132],[151,2639],[-2120,2498],[-7268,2404],[-5376,2356],[-4543,2687],[-3028,330],[-4694,3723],[-5906,-1602],[-6663,1461],[-6360,-5137],[-8480,94],[-7041,-4289],[-152,-1084],[-7268,1791],[-2272,1885],[-6057,1273],[-1438,1696],[227,2923],[3786,1791],[1362,1697],[6133,377],[4089,5561],[-606,2875],[-1817,1744],[2726,754],[-379,3205],[2877,4714],[-454,1367],[-4392,3393],[-3407,566],[-5375,3299],[-3256,-518],[-4694,-4195],[-2726,-424],[-3256,1461],[-2650,-1414],[-4467,4477],[-1817,-471],[-8859,3771],[-4391,2356],[2044,7542],[2045,1743],[-455,1650],[4619,1226],[-2196,3582],[-303,6740],[3407,1037],[-3255,1838],[-10373,-189],[-3559,2357],[-6132,895],[0,5798],[1741,3959],[4013,1461],[5603,990],[-455,6221],[2423,1132],[3786,3535],[3028,-802],[3029,2687],[-2801,2498],[1362,2592],[3710,-47],[2423,4242],[4013,1131],[2802,-1037],[3785,189],[5982,3676],[-1666,2922],[3331,1744],[1363,2263],[-4240,2875],[455,5703],[2952,2215],[-757,2875],[-2801,2310],[-454,2168],[-3483,2451],[-2347,5373],[-2878,848],[-2120,1980],[-7344,141],[-681,5986],[-1439,2121],[303,3017],[-984,1696],[1060,4478],[3028,283],[682,3111],[-1969,1979],[-6966,3441],[-3179,2828],[-5906,-1697],[-1666,2027],[-3710,565],[-3937,1462],[-3180,-283],[-2953,-1508],[-2726,2262],[-5830,1225],[-8782,-754],[-4997,2357],[-3635,-330],[76,3582],[-5376,330],[3332,19843],[56407,6551],[-3180,2404],[227,1885],[-4997,5044],[1893,2545],[7041,1272],[5603,4572],[-2650,1084],[3407,4054],[-9616,4713],[-1968,142],[-3937,5326],[10599,-613],[-302,-2121],[4240,-2121],[6208,660],[3937,-1603],[530,-2969],[5073,-377],[76,2262],[-1666,2027],[5679,2357],[4391,-707],[2801,1366],[-1060,2074],[2348,2027],[7571,44729],[2347,-613],[4240,1980],[4770,-1414],[6284,-471],[7042,3440],[75,3865],[-6662,2027],[-152,2262],[-4770,1556],[-2271,4053],[1590,3771],[-2802,1744],[2575,1555],[-5603,4572],[89191,-5468],[908,5279]],[[3605423,613010],[1590,-3487],[7269,-2923],[-10146,660],[-530,-2969],[3786,-4525],[-1741,-2592],[-2499,-801],[379,-3488],[-6058,-3300],[-2120,-2356],[-3482,235],[-2650,-3440],[-5225,1791],[2423,-3865],[-3255,-1980],[-9919,-1178],[-5224,-1178],[4694,-4384],[1514,-3865],[-70035,5374],[-92825,7117],[-5073,-53968],[-79121,5374],[-4922,-2451],[-19837,16261],[-45807,33794],[3710,4148],[-17035,7399],[5451,4478],[-20064,1273],[6057,34077],[-55044,3440],[-606,-848],[-21048,1320],[-5830,-2640],[-2348,-5750],[-5678,0],[-6209,3111],[-1892,-2168],[-2423,235],[-1515,-4477],[2120,-2121],[-1665,-990],[1060,-3346],[3180,-2357],[3558,-236],[4089,-1367],[9540,1320],[1817,-2309],[-1893,-1226],[379,-3865],[1892,-4006],[5982,-3912],[4088,-848],[4316,-2923],[-2423,-7211],[1742,-1226],[-227,-10981],[2801,-3630],[-5754,330],[-4543,-4195],[1287,-2545],[7874,-471],[-1287,-7447],[-3861,-330],[-3635,-2592],[-605,-1886],[-9237,-6598],[-1666,-1650],[-530,-3394],[-6133,-3534],[-6208,-5939],[227,-3347],[-4013,-942],[-3483,801],[2044,1838],[-75,2263],[-4316,3205],[-5906,801],[-3028,-754],[-6360,-3017],[-4846,-1367],[-8026,283],[-3558,2969],[-4543,-377],[-2877,2828],[-5603,472],[-3862,-424],[-7647,2686],[1288,4289],[-2499,1697],[606,2639],[-1590,896],[454,5279],[-3331,1979],[-49745,2923],[909,4006],[-757,2309],[-3483,707],[-2196,4148],[-1665,5185],[-2423,1272],[-4013,-1696],[1136,-3912],[-2953,-2169],[-3332,1980],[-984,3111],[-2650,-943],[1363,-2262],[-1363,-3394],[-3407,-3959],[3256,-3064],[-22336,1367],[530,-1744],[-1666,-3676],[303,-2828],[2650,-1885],[-34752,2309],[1665,9710],[-33087,1979],[3559,19183],[-2953,5845],[5376,15082],[5300,3771],[2725,14375],[-4240,-47],[-4618,-1037],[-6739,1414],[-9237,-141],[-3937,-1226],[-13174,5892],[-14916,613],[-4543,-424],[-2195,612],[-8178,519],[-9918,12207],[-757,1791],[-3937,4384],[-48003,3016],[-1136,-52977],[-12265,-68437],[-6360,-27337],[85178,-5562],[17414,-10793],[-34374,-19513],[3937,-2263],[-2271,-2356],[984,-4384],[4391,-1555],[3483,-47],[1817,-1556],[5603,0],[5376,-3817],[3786,-1933],[7041,3158],[3937,377],[7950,-5279],[-681,-3063],[3255,-660],[682,-2357],[-1666,-2074],[2271,-1320],[606,-2403],[-47700,-22813],[33996,-24980],[-52167,-23661],[-10524,-6928],[-7193,-28327],[1287,-4289],[11811,-5515],[44747,-61838],[15143,-6693],[7572,2357],[4618,659],[10070,-471],[5754,-1414],[-45655,-21163],[-15900,11265],[-91160,-50715],[-5451,-4195],[-2650,-4100],[-1212,-7023],[-14839,896],[-5300,-30684],[-85860,6222],[-5224,-36293],[-14916,3158],[-47927,4949],[-13553,283],[-13553,2922],[-5148,-36575],[-32027,1932],[-2423,-15648],[-2801,-16873],[-2347,-1226],[-9919,-3299],[-4770,47],[-8556,-3299],[-5148,-1226],[-5376,-4100],[-6890,-6740],[-5603,-3488],[-3861,-1320],[-10676,4101],[-4391,2969],[-7193,1838],[-7571,1132],[-5300,1414],[-4013,2828],[-1893,5655],[-11584,4148],[-7496,896],[-5830,47],[-11509,-2970],[-5224,95],[-3407,-2074],[-6890,-1697],[-11130,707],[-12795,1697],[-8632,1791],[-4770,141],[-7193,-6174],[-12038,-6693],[-11130,-8060],[-7799,-3016],[-2725,-377],[-9162,141],[-8858,-518],[-6966,1131],[-8783,424],[-6208,-1131],[-7193,-2498],[-9767,-1650],[-22033,-1461],[-33466,-1461],[-20670,3111],[-20821,6080],[-16127,5562],[-17944,4430],[-13477,3017],[-14386,2168],[-24910,-5515],[-3634,-47],[-17717,4525],[-5603,1744],[-20973,11264],[-1287,1320],[-9010,12632],[-3710,4006],[-7571,6881],[-5527,2640],[-2575,2215],[-10978,5326],[-11887,4242],[-10676,2262],[-9237,-1979],[-7193,-1885],[-4618,-1839],[2574,-3629],[1590,-6457],[-2877,-5043],[-6057,-3959],[-8708,-3064],[-17868,-4289],[-3331,-2310],[-2878,-848],[-3331,-4336],[-4846,-1367],[-2650,-3394],[-7344,330],[-3180,990],[-9767,-1838],[-2877,1272],[-7799,-2733],[-3710,-2357],[-3028,-660],[530,-4572],[-303,-4949],[-8480,-7447],[-7799,-612],[-3861,565],[-12341,3959],[-4013,283],[-3180,-895],[-3937,-5232],[-2802,-2074],[-11963,-3488],[-4921,-2215],[-3710,-2969],[-5603,-7919],[-6663,-6316],[-832,-6834],[-2348,-2498],[-7874,-3252],[-3710,1037],[-3407,3582],[-3028,1932],[-3710,330],[-5300,-3817],[-39447,2073],[-126897,6740],[-42021,2027],[-136967,7117],[-146052,7683],[1136,7306],[5602,34029],[-13250,566],[9616,67589],[-33087,1414],[-124474,5561],[-1060,-6551],[-15824,895],[6587,41949],[13326,87148],[-35510,1839],[-1136,-11737],[-87752,5421],[-984,-6363],[-57316,3535],[13023,80079],[-35964,1225],[-1817,-11265],[-140223,7070],[-7874,-52412],[-121142,5374],[-6739,-53543],[-6814,-660],[-6587,707],[-4089,3110],[-3482,519],[-4165,2357],[-10221,-48],[-4922,3017],[-3634,943],[-5830,5231],[-4618,1650],[-3256,-518],[-5603,801],[-7344,-1697],[-8102,943],[-10902,-47],[-3256,1178],[-2801,-471],[-5603,2403],[-3635,47],[-1741,2169],[-4619,1508],[1060,2027],[-2952,282],[-1212,3677],[1514,2733],[-2422,1414],[-833,3677],[8480,-566],[12190,69521],[24228,-1225],[9994,67588],[8026,53119],[-52697,2828],[-48684,3205],[-146961,9144],[4543,26347],[-41643,2404],[-11962,4996],[2725,2027],[-908,1555],[454,3299],[-1741,3064],[-4013,1650],[-1893,3440],[1136,1273],[-1439,4053],[3786,330],[2725,1226],[-1211,3205],[-4846,3723],[-3180,1037],[76,2451],[-2044,5279],[530,3347],[-1893,1979],[1439,1791],[-606,4478],[4240,2451],[5527,282],[1211,3158],[-4845,3677],[0,2404],[4315,2121],[-3634,3723],[2044,1980],[-303,2309],[3710,1320],[-151,2545],[3029,1178],[-2650,4855],[984,3771],[-1439,1414],[-6284,660],[-2271,1696],[-6663,2593],[2498,3016],[-1060,2074],[985,3299],[-1742,3300],[-5073,1178],[-4088,3111],[-1514,2026],[-985,4242],[-3255,1650],[-5528,613],[-3482,4854],[-76,1509],[-5981,1932],[-2650,4525],[-11736,3912],[303,1838],[-1969,3818],[-2423,942],[1893,2263],[-1287,3629],[1211,3252],[-5602,3158],[-1288,2734],[1742,1508],[-1742,2168],[455,2121],[-1515,3535],[-3331,1508],[-227,1980],[-2423,1225],[-5906,-377],[-3255,3394],[908,3723],[-681,2923],[-2347,1084],[227,2498],[-4467,4195],[-682,1838],[-7647,2262],[-2574,1603],[-2953,-424],[-3937,4053],[-7723,1461],[-2120,-1272],[-5678,3157],[681,4337],[4089,4807],[530,2215],[-606,3630],[-2877,3582],[-379,2121],[-3028,3440],[757,2687],[-1363,3158],[1666,1414],[3180,4525],[4770,1084],[34298,-1367],[5906,46143],[63524,-3676],[-1590,-11077],[85935,-4901],[3786,25027],[-3862,0],[-5148,-1225],[2877,27667],[757,6174],[55271,-1979],[1590,13480],[-124019,5420],[9464,76449],[8631,1650],[7950,-5326],[6966,613],[7117,-424],[1666,-1132],[-227,-3723],[2120,-519],[9313,1603],[6435,330],[7950,-849],[3937,-1743],[4165,-3017],[7041,801],[6436,2781],[8404,3017],[4013,32757],[-45504,1508],[3028,32333],[18474,-895],[5376,35397],[6512,42891],[113873,-6882],[2802,17911],[115312,-5892],[-2347,-17251],[84118,-6127],[-38917,28327],[79954,40534],[5149,2687],[86768,-66222],[34450,17392],[91311,-62168],[67612,35067],[152,2121],[-3710,3158],[-3029,4430],[-4921,2545],[-833,1414],[-5073,2310],[-4618,236],[-6815,2686],[-3180,2875],[-6208,1791],[-8480,-235],[-9616,848],[-6814,1225],[-7041,2593],[125382,68908],[46185,-32569],[75336,60613],[29983,24132],[-4240,-613],[-9919,755],[-1817,1649],[-4997,613],[-3559,3912],[-2271,754],[-8859,5468],[-4997,1461],[-833,1649],[-8858,2734],[-5225,3535],[-454,1320],[-3786,1838],[455,1932],[-2650,990],[-2196,3676],[-3483,1179],[-4618,377],[-3786,1791],[-3256,188],[-5451,2263],[-909,1744],[-4618,2309],[65568,54344],[11433,75743],[17868,119576],[24835,114816],[12568,58162],[31118,27478],[46792,-19230],[32708,28846],[76,1178],[-5830,3299],[-9161,6316],[-8708,4572]]],"transform":{"scale":[0.0000013207602641520543,0.000002121660424332085],"translate":[140.9956,-19.6964]},"objects":{"qld_far_north_ddmg_boundaries_gda2020_simp200m":{"type":"GeometryCollection","geometries":[{"arcs":[[[0,1,2]],[[3]],[[4]],[[5]],[[6]],[[7]],[[8]],[[9]]],"type":"MultiPolygon","properties":{"District Name":"Cairns","DDMG Name":"Cairns","fill-opacity":0.72,"Area Sq Km":268659.12,"Police Region Name":"Far Northern Region","Police Region Code":"FNR","Police Region Short Name":"Far North","Region Slug":"far_north","Layer Id":"qld_far_north_ddmg_boundaries_gda2020_simp200m","Layer Group":"per-region","Layer Kind":"ddmg","Source":"QPS Disaster Districts, Queensland Police Service, via the Queensland Government Open Data Portal","Source URL":"https://www.data.qld.gov.au/dataset/qps-disaster-districts","Licence":"CC BY 4.0","Licence URL":"https://creativecommons.org/licenses/by/4.0/","Dataset Date":"19/05/2025","Simplification Tolerance M":200,"Coordinate Precision Decimals":4,"CRS":"GDA2020 (EPSG:7844)","Fidelity":"standard: source boundaries, simplified","Modified":"Simplified and repackaged from the source dataset; see Source URL"},"id":"Cairns"},{"arcs":[[-2,10,11]],"type":"Polygon","properties":{"District Name":"Innisfail","DDMG Name":"Innisfail","fill-opacity":0.72,"Area Sq Km":15768.83,"Police Region Name":"Far Northern Region","Police Region Code":"FNR","Police Region Short Name":"Far North","Region Slug":"far_north","Layer Id":"qld_far_north_ddmg_boundaries_gda2020_simp200m","Layer Group":"per-region","Layer Kind":"ddmg","Source":"QPS Disaster Districts, Queensland Police Service, via the Queensland Government Open Data Portal","Source URL":"https://www.data.qld.gov.au/dataset/qps-disaster-districts","Licence":"CC BY 4.0","Licence URL":"https://creativecommons.org/licenses/by/4.0/","Dataset Date":"19/05/2025","Simplification Tolerance M":200,"Coordinate Precision Decimals":4,"CRS":"GDA2020 (EPSG:7844)","Fidelity":"standard: source boundaries, simplified","Modified":"Simplified and repackaged from the source dataset; see Source URL"},"id":"Innisfail"},{"arcs":[[-3,-12,12]],"type":"Polygon","properties":{"District Name":"Mareeba","DDMG Name":"Mareeba","fill-opacity":0.72,"Area Sq Km":133479.58,"Police Region Name":"Far Northern Region","Police Region Code":"FNR","Police Region Short Name":"Far North","Region Slug":"far_north","Layer Id":"qld_far_north_ddmg_boundaries_gda2020_simp200m","Layer Group":"per-region","Layer Kind":"ddmg","Source":"QPS Disaster Districts, Queensland Police Service, via the Queensland Government Open Data Portal","Source URL":"https://www.data.qld.gov.au/dataset/qps-disaster-districts","Licence":"CC BY 4.0","Licence URL":"https://creativecommons.org/licenses/by/4.0/","Dataset Date":"19/05/2025","Simplification Tolerance M":200,"Coordinate Precision Decimals":4,"CRS":"GDA2020 (EPSG:7844)","Fidelity":"standard: source boundaries, simplified","Modified":"Simplified and repackaged from the source dataset; see Source URL"},"id":"Mareeba"}]}}}