{"type":"Topology","arcs":[[[3291638,1015105],[3826,484],[2191,968],[718,7885],[1355,1522],[1115,7884],[-558,1383],[1634,11551],[-1514,899],[-2311,-2006],[876,9060],[2312,1245],[1315,2559],[358,3597],[1315,3458],[1554,1176],[1714,8507],[-678,6709],[718,4495],[-2072,4980],[119,1729],[-2431,3596],[-6017,2075],[-757,6709],[2032,3597],[5221,1106],[3347,2767],[876,4634],[-1514,1106],[-1076,3873],[-1514,-207],[-1873,2351],[-3387,14317],[-4104,761],[-2710,1798],[120,2213],[-2192,3251],[-1116,208],[-2311,4219],[1753,4011],[-358,5256],[2032,2836],[-1355,3666],[-3148,5049],[-16298,2351],[-637,553],[1873,8369],[-1953,4565],[917,3043],[-558,3251],[-1793,3112],[-2909,7055],[-2192,1175],[-717,2214],[-80,4288],[-956,7677],[199,4634],[1315,2282],[4065,899],[637,2559],[-1992,2283],[-638,2282],[-3427,-553],[-1594,7469],[-3188,3666],[-1554,3597],[-637,3942],[-1833,3527],[-1514,4911],[-558,4979],[-1594,3251],[598,1452],[-4703,12104],[-398,8023],[-797,3251],[279,3181],[-797,3597],[1953,6778],[-758,4288],[-39,5394],[-957,2075],[80,5118],[5260,5879],[-80,2836],[1116,3873],[-2112,2628],[2630,9406],[-1435,4358],[-199,5948],[1833,4910],[-319,1453],[2710,10582],[2590,1867],[1674,3804],[1912,-2905],[3348,2559],[6256,13210],[-120,8369],[-1753,2559],[-4423,-553],[30125,39353],[13947,-7400],[916,-6847],[1514,-1522],[3188,-1383],[1395,-5533],[1315,-2006],[2311,-830],[5778,-3873],[1873,-207],[7890,1660],[-478,-5948],[-1475,-4289],[1873,-6501],[1474,-346],[399,-3527],[2271,-692],[638,-5879],[-3427,-1521],[438,-9337],[1833,-3182],[1315,-3942],[-438,-4150],[1395,-4910],[1354,-7539],[40,-4565],[2272,-7815],[3148,-2974],[-160,-7331],[957,-1384],[3865,-899],[4383,0],[-1953,-7054],[1156,-4911],[-1036,-6156],[2072,-2904],[1674,-6709],[-598,-4496],[2311,-5948],[-518,-4357],[-996,-2559],[-797,-5187],[638,-5049],[-1873,-4150],[-359,-2974],[-5937,-5256],[79,-3113],[-1593,-3596],[1872,-2974],[6575,-3804],[2391,-4565],[-1952,-899],[637,-4081],[3268,-2213],[5539,623],[1673,4772],[6615,5533],[1793,3181],[2112,5257],[3228,-484],[1793,3043],[478,4080],[2630,3528],[996,3181],[-1116,2698],[200,7746],[717,2836],[2510,-1107],[2710,7608],[1195,968],[-1713,6225],[598,4910],[1594,4288],[2311,1730],[-2112,4426],[-319,4426],[-1076,1937],[-1036,10098],[1315,-2213],[3626,-2836],[3387,-484],[1116,-1384],[2112,346],[2192,-1798],[1514,-6640],[-399,-3942],[4424,-11273],[3905,-1107],[2430,-3804],[7213,-2974],[3506,-2352],[2909,2352],[1196,5118],[-717,9337],[199,3942],[-1395,7470],[1076,3666],[-797,4288],[797,2697],[4224,3942],[4104,-2559],[2710,-899],[2869,-6985],[2431,1106],[1076,4496],[2789,4634],[1355,6709],[-279,3319],[5857,3389],[2511,-1175],[2072,4703],[2032,-2628],[7771,-7678],[5180,-2351],[239,-2836],[2869,-5118],[1634,-761],[2191,2836],[2790,968],[1992,1937],[3507,-968],[1713,-1591],[3108,1867],[-79,5257],[1195,3527],[3148,6640],[-478,10858],[-1315,3458],[598,1937],[-2511,3181],[1554,3597],[-916,4565],[2112,2282],[-1435,1729],[-1036,7331],[-1873,4703],[-279,3459],[3507,2559],[837,1660],[1634,6363],[1793,21440],[1554,346],[4263,6847],[7651,7193],[757,9683],[-518,4219],[2272,12449],[1912,4011],[1913,1591],[3905,-1452],[-119,2490],[3148,9544],[119,3873],[6774,1660],[3786,554],[956,-5464],[6256,207],[1156,-33267],[1674,-40530],[1275,3182],[2151,-692],[797,-3458],[2989,-1660],[2949,1107],[319,4841],[1753,6017],[-1036,3804],[398,7055],[-478,10858],[-2789,13487],[-518,7401],[-80,8161],[518,7054],[1435,4219],[3865,4911],[916,3043],[-39,5049],[6056,4219],[4822,5464],[3746,7262],[2630,4288],[2709,7262],[3826,6087],[3666,3181],[5578,13003],[8767,16737],[1474,4772],[1634,3044],[1235,15492],[1315,346],[3547,10167],[-8010,7469],[-1514,7401],[4822,27873],[916,12172],[18848,-3596],[-3466,8438],[2789,-485],[0,5257],[-1156,4150],[-2470,5256],[1833,4496],[-638,2835],[-1912,1868],[518,3112],[-678,4012],[-2670,3873],[558,2904],[-837,10029],[-2869,11066],[1594,3320],[-558,2697],[-119,11551],[-1714,5602],[120,3320],[-2232,1383],[279,3666],[-916,2766],[2710,6432],[-3706,23861],[-1873,1384],[-438,8714],[757,2490],[-1475,5602],[-159,2836],[-1993,4081],[-278,2559],[-8568,25659],[-2630,4841],[-1434,5534],[-3547,69],[-956,8438],[-2750,2628],[-438,3112],[-1674,1176],[558,9614],[1634,2628],[-4104,6017],[-1275,6778],[996,4703],[-1634,3320],[-2112,1660],[-1155,4288],[796,3043],[-916,3735],[-1474,899],[-2272,5395],[1196,2144],[6455,5464],[38613,-1107],[20880,-4772],[2550,-1868],[1275,415],[2033,4288],[2948,4288],[-1992,5049],[-80,4427],[-1275,3527],[2311,5049],[-2669,6778],[597,3043],[-876,2836],[1155,4150],[-79,4080],[-837,3389],[-4224,2698],[-2271,2489],[-4264,2214],[-4702,5740],[-1435,5395],[558,6086],[2232,9406],[3506,10306],[1953,6847],[3785,6916],[399,5256],[1076,1868],[3466,-968],[4224,-4358],[1873,415],[877,5326],[-438,2282],[-2551,3666],[-438,8023],[717,7539],[-558,7400],[4224,830],[5061,-5326],[2590,-4219],[3626,3044],[877,2559],[4024,69],[1833,5602],[2790,1591],[358,2835],[2710,1038],[1235,2905],[1156,6017],[-717,4634],[1434,3596],[120,4219],[1554,1868],[-598,4011],[-80,7055],[1515,3181],[23789,-6778],[25622,-2282],[-598,5879],[1276,1936],[996,4012],[2311,-1176],[2112,3112],[-2152,7539],[399,6916],[-2591,2905],[-1275,5187],[120,6363],[-1235,1315],[-3786,622],[-2351,4772],[-2232,1314],[-1394,4288],[-2192,1868],[-2470,3873],[-877,5671],[40,6986],[-1514,2420],[-877,4289],[-1116,2005],[359,3458],[-2750,3874],[518,3734],[-1434,1591],[-1873,0],[-1435,7470],[1674,2005],[1355,-415],[1713,3597],[1754,553],[1075,3873],[-3068,18259],[5619,-1245],[319,4081],[3905,-761],[4702,69],[5379,-1037],[160,1867],[7690,-1867],[1036,13971],[957,1522],[757,9890],[717,346],[1913,6017],[3028,207],[1076,3458],[2869,2075],[1594,-484],[6097,2006],[2670,2905],[3028,-2698],[478,-1521],[2391,-623],[2271,3389],[239,2283],[11158,-2352],[239,2836],[5858,-1383],[318,3319],[4424,-1037],[-160,-2144],[3706,-830],[239,2628],[5499,-1176],[2909,900],[4463,-4704],[2909,-345],[-40,-5810],[4583,-1452],[-558,-1730],[-2551,-1798],[-39,-3112],[1354,-2421],[40,-2628],[4702,-4980],[-1594,-4910],[-1394,415],[-1714,-1799],[-1155,-2835],[1673,-3182],[3427,-2628],[1674,-4288],[2470,-415],[1156,-2697],[-1196,-5326],[2511,-1867],[677,-6225],[1275,-830],[1993,-5187],[-1315,-4496],[7571,-899],[996,-2766],[2511,-1384],[-1435,-2351],[-478,-5464],[837,-1038],[40,-4080],[-2431,-2283],[-160,-2974],[2989,-2282],[-837,-12311],[1594,-1660],[120,-4565],[1514,-1452],[2670,0],[1474,8507],[1116,1937],[2391,1106],[2988,-2628],[-318,-3942],[1872,-2559],[2630,-692],[2312,-1729],[2430,-6571],[3108,-2420],[3109,-277],[2151,2490],[1913,4081],[478,4703],[2112,2005],[2550,554],[917,1521],[1833,-3734],[4025,1106],[2908,-899],[1634,-1729],[4025,-346],[956,-4426],[2232,-2490],[119,-3320],[1953,-1245],[-478,-4841],[3546,-3458],[2112,3181],[558,3112],[2590,-968],[1156,-4150],[2749,484],[1355,3251],[2869,-3458],[2670,1176],[4622,-2628],[5101,1659],[558,5879],[3705,2144],[-199,7193],[4503,2698],[3507,-2075],[1434,1176],[5738,-2767],[2471,2767],[1594,-1868],[2470,0],[3427,-7124],[2790,-1452],[2550,69],[2988,-1591],[2152,3735],[5180,-1245],[439,4911],[2670,1176],[677,4011],[1315,-346],[319,3527],[-2232,554],[-1514,2490],[438,4841],[1714,3735],[2470,968],[638,1798],[2550,-1867],[877,1522],[3068,2074],[-239,8023],[917,2006],[2749,1314],[2909,-691],[4104,1798],[2750,3250],[3028,4980],[-1394,4081],[438,1452],[3028,208],[2750,-1729],[5937,-761],[3547,-4634],[717,3942],[2351,69],[2112,2905],[80,4634],[1036,2144],[0,5118],[1673,2352],[2351,968],[3507,5741],[-120,5602],[678,2351],[2670,2006],[1394,3873],[3387,3182],[1953,-2006],[877,1937],[-1116,3389],[-2152,3734],[-1913,1245],[-797,2559],[1953,1453],[-438,2628],[-2312,-208],[359,3251],[1833,-2144],[1714,2352],[1793,968],[1434,-3320],[-239,-2628],[3905,968],[-2152,3942],[-2510,2629],[877,1314],[2829,691],[757,-2420],[2670,1798],[-439,8507],[-2072,-1591],[-438,-4011],[-2391,899],[-1076,4288],[200,5533],[2829,1383],[996,2559],[1514,69],[-279,-4634],[2272,-2005],[1155,3458],[-478,4634],[-1594,3458],[-1793,-1937],[-1753,208],[-2073,2144],[-159,3942],[2072,969],[3268,-2214],[2351,1591],[-996,2767],[-3587,2074],[-1275,2075],[-558,3943],[678,2628],[2709,4357],[1594,761],[2790,-4703],[2669,-3113],[1993,-1244],[1634,1314],[757,2766],[677,12795],[518,4288],[1753,7470],[17812,21786],[21917,31884],[3745,17360],[5181,17844],[4184,11412],[15700,28980],[83920,155409],[158076,-692],[159472,-761],[342971,1453]],[[4873721,2601773],[52958,-391878],[41123,-305285],[32197,-237160],[-135961,484],[-318744,-484],[-8926,0],[-2072,-3735],[-3985,-3527],[-6096,-2421],[-2630,2559],[-3268,7193],[-2431,1522],[-4781,-1314],[-2192,-4288],[-1076,-3804],[2431,-5049],[-518,-1245],[-3467,69],[996,-2766],[-797,-6225],[-1195,-2974],[-2909,-2352],[-1036,-4495],[-2032,-3597],[398,-4149],[-518,-3735],[-2231,-3804],[-1554,-1384],[11715,-2559],[-1196,-13832],[-10201,2006],[479,-5672],[1793,-5602],[-518,-5671],[-1594,1383],[-558,-6432],[1395,-1176],[3506,830],[4941,-2697],[1594,760],[3308,-484],[-279,-3527],[-3148,692],[-439,-4980],[3148,-692],[-1394,-16876],[-5141,1522],[-6893,1522],[-319,-8853],[1076,-8092],[-558,-1591],[-3029,899],[-4423,-3873],[-4184,-277],[-1594,-2628],[-1872,-4910],[-1515,-6571],[-119,-2905],[1634,-4219],[-4264,-1176],[-2032,-1452],[-4145,-1245],[-1753,1245],[-916,-2421],[1434,-5394],[-2271,-3182],[-1594,-7124],[-3507,-5187],[-3387,-1037],[-677,-4358],[-1674,-1798],[-4702,69],[-1235,-2974],[-2550,484],[876,5672],[-1355,3665],[-2829,2283],[-2391,3251],[-4423,1729],[-1116,4772],[-2151,2351],[-877,4081],[-2152,3666],[-4264,2835],[-14743,3251],[-2272,-23515],[-717,2835],[-5977,7124],[-2471,7124],[-558,6155],[-3466,4012],[-1036,2905],[-2830,4841],[-1434,3873],[-4383,2075],[-1315,2006],[-757,4288],[-2152,4219],[-2192,-1798],[-1275,-3459],[-3028,-2974],[-2750,139],[-3586,-5118],[2948,-2214],[80,-3734],[-2988,-4288],[-2391,-761],[-1793,3665],[-3148,2075],[-3746,7816],[-2311,1383],[-4025,4841],[-3188,1314],[-5220,-3043],[-1594,1591],[-2789,-5671],[-1554,-208],[-1435,4427],[-3586,4011],[-3626,-1591],[-4224,3389],[-717,-346],[-2391,5326],[-439,2767],[-1394,2213],[-359,3735],[-2032,4219],[1514,3734],[2391,-968],[1315,3182],[1873,553],[2431,8576],[1235,1660],[-1315,3320],[1514,8645],[-717,2905],[797,4634],[-2112,2282],[-1315,4634],[-3945,5187],[-4822,1245],[-2749,3113],[1753,5049],[-398,3181],[-1276,2421],[-3148,2282],[439,2559],[-3148,3666],[-797,5879],[-1275,3596],[1594,2905],[-957,4772],[-3666,3528],[-2749,-415],[-1554,-1937],[717,-2697],[-1913,-11551],[-2072,-4080],[-598,-3251],[-1673,139],[-5579,5118],[-2112,-346],[837,-5257],[2670,-4011],[-3626,-10167],[-3467,-2905],[-3507,553],[-1992,-1106],[-359,-7262],[-1195,-5741],[-3507,-1176],[-2829,1660],[-2510,4427],[-1276,-2698],[-2151,-484],[-797,2144],[-2790,-1660],[-2271,-7815],[-1116,-1176],[-279,-3735],[-2550,-3319],[-3825,-9614],[-2272,2697],[-3626,-69],[-1673,899],[-2033,-2697],[-956,622],[-2391,-3596],[399,-2836],[-1355,-968],[-160,-5948],[-1673,-1245],[-1993,415],[-2191,7055],[-3308,1659],[-3466,900],[-1076,-1660],[-2072,1660],[-1076,-4219],[-3387,-1799],[-837,-2420],[-2431,6570],[-4025,2213],[-2829,7124],[-40,2767],[-2351,276],[-1673,3251],[-5220,-2628],[-239,-1798],[-2869,-2490],[-1794,968],[-398,5256],[1833,3528],[2431,1314],[1315,2282],[3307,69],[2989,-2213],[2669,-138],[-4582,28910],[797,4565],[-877,2766],[2032,2628],[917,3251],[-598,1937],[1594,18674],[-159,3112],[-2670,2144],[-4822,-2144],[-2829,968],[-1036,-5879],[-6296,-1590],[-4064,-2283],[-1794,-2974],[-2749,-415],[-1833,2283],[-279,3942],[-1554,2490],[558,3873],[-797,3596],[1434,3597],[-717,6225],[518,3527],[2391,6017],[80,3873],[1076,4496],[1833,1591],[119,3803],[-5977,9407],[-319,3319],[-3905,1038],[-2271,2421],[-1515,-5672],[-4622,-3112],[-1753,830],[-1275,-5187],[-3148,3043],[-359,5325],[-2510,2836],[-678,5602],[-3267,6432],[-7133,2144],[-917,3666],[-3466,4496],[-1435,-1038],[-996,5118],[-996,0],[-2829,5049],[-80,5602],[1076,2075],[-1355,5188],[-5898,1521],[-518,-1383],[-2590,207],[-1992,-2213],[-4702,1729],[-1714,-3043],[-478,-4911],[-2550,-2489],[-478,-4773],[916,-5325],[-398,-12795],[-2032,-2905],[239,-6432],[-957,-4911],[-279,-4496],[-1076,-1590],[0,-4565],[-1354,-2974],[0,-5810],[-2072,-2766],[-1435,-346],[-677,-5602],[-2073,-3113],[0,-4219],[877,-4149],[757,-8853],[1913,-2352],[3467,-8576],[-2670,208],[-1953,-2352],[-279,-6086],[279,-5948],[1196,-4634],[-1514,-1522],[-9962,6156],[-4702,1729],[-20482,10513],[-678,-3182],[-3148,692],[-1514,-2974],[-4662,1106],[-1196,4634],[-1434,277],[-319,-3942],[-1434,-3528],[-2750,2767],[-3148,-1384],[-1514,3113],[-2909,-33198],[1674,-830],[6256,-9268],[4104,-1245],[2630,-2006],[757,-1936],[4025,-3735],[6057,4011],[2749,-4565],[3148,900],[239,-4427],[1036,-3735],[4105,-5602],[-1395,-2006],[-2232,-5740],[-3108,-4980],[-1554,-4910],[-2391,-1038],[-1076,-7331],[-1434,-761],[-1235,-4980],[1633,-3043],[-1036,-10582],[-1354,-4011],[-3109,-1798],[-2709,1314],[-1514,-899],[-10321,4011],[-15182,4219],[-3547,-2559],[-2231,138],[-3666,5533],[-2869,2490],[-5141,968],[-3944,2836],[-2312,277],[-2550,-2559],[-6216,-1453],[-3826,1107],[-4024,-208],[-3866,2352],[-5140,-3251],[-1474,623],[-2949,6570],[-5539,-1798],[-1395,-2974],[-557,-6363],[-5898,138],[-4264,-1660],[-9723,-13071],[-199,-692],[6097,-40184],[1674,-6155],[-997,-1798],[-2112,-23931],[-1394,-1798],[-1156,-4841],[-4343,-1453],[-8886,-36103],[-797,-10444],[637,-6086],[-6296,-24484],[-1115,-1245],[2669,-11550],[2790,-6086],[-1993,-13556],[-159,-6847],[518,-3597],[199,-16530],[-558,-4564],[120,-5879],[2231,-8784],[638,-4772],[916,-2628],[-637,-7470],[1036,-2144],[2749,-2767],[5101,-7746],[-3467,-2006],[-1913,-5948],[-1872,-2144],[-1594,-4703],[956,-5602],[1195,-2559],[0,-4426],[-1753,-2767],[-40,-3873],[-2430,-2144],[-8129,-69],[-4981,-3942],[-4105,-2145],[-4024,-8991],[1673,-4150],[-6336,-1659],[-3426,2904],[-2551,208],[319,-3666],[-837,-2075],[797,-2628],[1714,-13141],[-718,-7746],[-1235,-968],[-2710,-5257],[160,-4357],[-1355,-6017],[-2949,-484],[-837,-4219],[2551,-9960],[-1714,-2075],[-4263,-622],[-558,-4565],[1673,-2697],[-119,-4150],[956,-3181],[-2670,-9407],[319,-2766],[-2032,-3320],[-4344,968],[-4024,-4703],[797,-3596],[-239,-7608],[597,-1868],[-1554,-4633],[-3586,-3874],[319,-2213],[4224,-3250],[-1554,-1522],[-877,-3251],[-1953,-1175],[-4542,-8231],[3586,-4980],[-2152,-3596],[1116,-7746],[-3268,-1522],[-1115,-1798],[3466,-6363],[2073,-2352],[-2790,-10997],[-8846,-9682],[-359,-7263],[-2231,-3043],[398,-3112],[2351,-1452],[-558,-4565],[837,-692],[3467,1660],[956,-4703],[-996,-5049],[1554,-692],[3387,1730],[1594,-1937],[399,-2974],[-4344,-8507],[996,-4703],[-876,-3251],[4861,-3942],[-677,-2974],[279,-7124],[2749,-6640],[917,-4288],[-1793,-8714],[-1674,-2421],[-1116,-6847],[399,-3458],[1992,1521],[2869,-484],[399,-2905],[4503,-1037],[4223,-2490],[2192,-10444],[-2471,-27665],[-3984,-2490],[-3228,-6985],[1833,-8023],[-398,-4980],[4941,-27527],[-1873,-2351],[-1315,-25798],[-3268,-10305],[-5220,-830],[-3825,-3735],[-996,-3804],[-2431,-3112],[797,-5948],[-7332,-692],[-3905,-2006],[-6057,485],[-1833,2005],[-1793,17153],[-16577,6985],[-5140,1038],[-1076,-12173],[-2312,138],[-6136,5464],[-3347,69],[-439,-4979],[-2072,553],[-2550,4011],[-5260,1245],[-3825,1660],[-2630,-207],[-13110,3112],[2391,-10236],[39,-7124],[-796,0],[-1913,-4357],[-3587,-2421],[-2191,-2836],[-2431,-207],[-4861,-2144],[-4862,2836],[-5578,4979],[-4185,10721],[-2111,-1038],[-917,1937],[-1674,-4911],[-557,-3320],[-2112,-4219],[-11716,-691],[-1673,-17429],[-1116,-1660],[-1594,968],[-558,4841],[-1474,-207],[-1594,-2559],[-1873,-69],[-1355,1591],[-2391,-21579],[-3307,5394],[-5459,3597],[-3826,3596],[-6575,-415],[-2311,-2075],[-2510,208],[-2869,6294],[-1554,1037],[-5061,-276],[-2192,553],[-1793,5256],[-3387,3597],[-1753,3320],[-3427,3319],[-1195,-1245],[-2750,1038],[-1315,-4427],[-2670,2006],[-1514,-5879],[-13070,-5602],[-4583,69],[-4542,5948],[-1435,346],[-717,-8092],[2471,-553],[-1993,-6017],[-3746,-2490],[-2510,830],[-1554,2351],[-2152,139],[-1713,-1591],[-2471,-5187],[-6655,4011],[-1833,-4772],[6854,-21925],[-4622,-10720],[-2032,1037],[-4941,15700],[-7452,22755],[-17374,-13418],[-4184,-2351],[-3028,-2767],[-877,-2075],[-3387,-2974],[-5818,-7608],[-25582,5741],[-199,-208],[-3547,-40045],[-39170,7539],[2590,28910],[-32118,6225],[-1912,4564],[-6256,-8783],[-3109,-1038],[-3905,-5187],[-677,-4703],[-2949,-1314],[-80,-2075],[-2948,-3666],[-2351,-4080],[-2830,968],[-3068,-4011],[-10081,-28565],[-20920,3943],[-9604,1729],[-24307,6293],[-10560,2144],[-5260,-3458],[-1275,1107],[-6097,2766],[-3506,-1590],[-1156,5187],[5539,46339],[-1554,4772],[-2909,4012],[-2152,899],[-2709,3389],[-3666,7539],[-3029,830],[-1116,2628],[-4064,6778],[-917,2835],[-3506,1107],[-5101,10167],[-2510,6363],[199,2836],[2311,13417],[0,4911],[-3785,-208],[-3467,-4011],[-6575,-4288],[-4184,-1176],[-3626,-3527],[-3427,-1453],[-1873,-2075],[-7412,14871],[-13588,2489],[-518,4427],[-3546,761],[9205,13556],[-1594,8092],[637,2351],[2192,415],[638,2836],[-1315,3596],[1394,4773],[-1315,3734],[2670,2836],[917,-277],[2231,3873],[-677,4150],[1713,1660],[2710,-5049],[3028,-69],[2869,-4426],[1235,-3113],[797,-5256],[1395,-1245],[2072,3182],[1275,207],[5818,7400],[2232,139],[3227,2974],[2471,7884],[1474,139],[4822,6086],[3347,-2075],[6575,4081],[-1156,3804],[240,1867],[2550,6986],[0,3665],[-3029,-2697],[-1195,899],[-558,3873],[1514,4219],[3308,3320],[-40,3804],[-5021,2697],[-1355,-968],[199,-2836],[-1315,-2144],[-279,-3527],[-2430,-3942],[-877,2697],[2311,4703],[-398,2213],[-1913,969],[-2550,5740],[-1674,346],[-3267,3181],[159,3320],[3825,-2144],[1036,1729],[-2550,3942],[-3865,1384],[-2869,-139],[-4383,830],[-797,-2005],[717,-4496],[1395,-3181],[-1395,-2767],[-2590,4496],[598,6363],[-279,3112],[637,5810],[-1036,1867],[15621,19158],[-34310,69509]],[[2637335,1404769],[-876,-4634],[-4224,-11412],[-1634,-138],[-1275,-4219],[478,-10374],[2152,-6571],[-1833,-4910],[-3029,-139],[-2271,-2766],[-877,-4150],[-3387,-5741],[-6535,-7538],[-1952,-554],[-2431,4703],[-2391,-69],[-5857,-7538],[-9883,-1107],[-5578,2559],[-2511,4911],[-2231,345],[1673,5879],[-279,5464],[-1315,1453],[-3427,829],[-4662,2352],[-1594,-692],[-1753,-2835],[-3028,-2698],[-1116,-4080],[-1913,-3389],[-598,-2974],[718,-5257],[-1275,-3527],[-4742,-4703],[-4025,830],[-2311,2351],[-1913,3735],[-2670,1591],[-1833,-69],[-2430,-4634],[13747,-50143],[-1753,-623],[-16378,3251],[-6614,-8438],[-9524,1591],[-1833,-22063],[1793,-3320],[-518,-3666],[-1554,-18259],[-359,-6639],[-22075,3596],[-2909,-42673],[-15900,1314],[-7611,-9061],[-6495,-20057],[-2670,-7469],[-2829,-4496],[-2032,-5049],[-199,-3181],[-18729,-24761],[-21398,-26766],[-1395,-761],[-438,4703],[3347,47100],[2471,33406],[2032,29948],[-43674,8368],[-24825,4634],[-4343,-3389],[-2989,-45232],[2351,-5533],[-1514,-20888],[-1753,-21163],[-2949,691],[-717,-2075],[-24188,4565],[2112,-4565],[3507,-17014],[-57421,11135],[1554,19228],[-6974,1383],[-478,-553],[-19007,3873],[-4264,1452],[-12951,2144],[-17573,3320],[-1872,-24622],[-1515,-20956],[-2709,-34513],[3985,-760],[-997,-8715],[-159,-7539],[-5818,-57682],[-319,-5740],[-3825,761],[-4104,-57267],[-14625,1660],[-597,345],[-14585,1522],[-23789,4426],[-40,346],[-26538,4980],[836,13072],[-119,15838],[398,10651],[997,16669],[-15103,69],[757,-2352],[678,-5810],[-1315,-19296],[199,-4288],[-1833,-21786],[13229,-48760],[-1554,-1868],[1674,-22063],[279,-21371],[-2072,-6778],[-7372,-6847],[-6097,1245],[-3985,3389],[-21199,4979],[-16696,3597],[-8129,1937],[-19605,4218],[-3706,623],[-359,6985],[-1394,5326],[3068,40253],[-28332,4841],[-1673,139],[-718,-2629],[-2709,-2490],[-598,-3873],[956,-4011],[-916,-1176],[-1315,-8645],[-1554,-4427],[-3746,-1314],[-877,-3527],[-2789,-3182],[-797,-9267],[438,-2145],[-1434,-4011],[40,-3804],[-3746,-2628],[-1116,-2836],[-438,-4495],[-2989,-6363],[-3188,-3804],[-278,-5603],[-2272,-5187],[80,-4634],[-956,-1867],[-2152,-1314],[-2750,-7816],[-36461,5810],[3786,53947],[239,35066],[2112,-3320],[7930,-1037],[4144,14109],[2152,36795],[1394,21924],[837,1245],[199,4980],[-34867,4150],[-1075,-139],[-2391,2421],[-2471,484],[-2550,5049],[-4941,415],[-1554,968],[-7133,-3389],[-4344,16254],[-18290,15354],[-9484,2213],[-3785,-9129],[-8169,-3874],[-3347,-12241],[-15142,2904],[1394,19435],[7332,-1245],[4941,65290],[-278,-553],[-31480,5948],[-319,691],[-32396,6363],[-3866,2767],[-2311,-1591],[-4064,-553],[-3268,1314],[-14305,2697],[1394,5672],[-119,2766],[1474,5187],[279,6571],[-797,1867],[-4264,4842],[4503,4357],[1076,2697],[0,5741],[-11237,1798],[-398,968],[-7372,277],[-3467,1591],[-2311,-623],[-6256,1038],[-3906,-1107],[-3865,4772],[-13070,1522],[-14226,1176],[-2470,484],[-2750,1936],[-876,-1867],[-4264,415],[24467,30916],[3905,2697],[-797,8438],[2948,3942],[5021,2075],[1076,2144],[3985,1729],[4144,58097],[1873,26628],[1753,33890],[-2590,-2006],[-3467,-4703],[-4104,-3458],[-2231,-4011],[-7133,-1453],[-3427,899],[-2909,-899],[-5340,1176],[-3307,-3735],[-2271,-484],[-3507,6432],[-398,3597],[-1634,2697],[-4025,277],[-4901,13625],[-6177,6639],[-717,4012],[1554,6501],[319,3804],[1554,6778],[1554,8853],[359,6847],[-2152,7055],[3028,5325],[-25741,4219],[3188,50212],[-42080,6640],[5858,84448],[1394,18190],[-13867,2421],[1395,20749],[-13349,-9407],[-7013,-150706],[-2630,-60241],[-58099,-76563],[-8049,32852],[-24706,-69647],[-7053,13003],[-51483,-67157],[-11038,-31677],[-3467,-6156],[-7571,-21302],[-9882,-27042],[-5898,-16461],[-797,-8853],[2391,-3043],[2829,-13141],[-2669,-12311],[-4623,-14663],[-11516,-6709],[-597,-3319],[358,-3597],[1395,-4910],[199,-3044],[-1913,-6639],[-3427,-3182],[1076,-14455],[-677,-2697],[-2829,-4634],[398,-2905],[-3985,-5671],[-2311,-7539],[-2510,-415],[-4862,-5256],[-558,-11205],[-10280,-10928],[-2311,-3734],[-1833,-1522],[-13270,-346],[-199,-830],[-10759,21579],[-20562,39976],[-39648,6571],[-120,-1868],[-29527,3873],[-359,-5533],[-2590,4012],[199,5395],[1475,4910],[757,415],[7810,-1037],[4742,5740],[877,5533],[3148,1453],[-8727,35134],[-5977,12588],[199,2490],[-7133,11827],[-7571,4011],[-3825,2559],[-1634,2421],[-478,3804],[-8209,10098],[-1156,2974],[-3626,1591],[-2351,4011],[-4702,3182],[-2072,3389],[-2710,1383],[-4263,-4496],[-2630,-968],[-1235,1522],[-1156,4149],[-2670,3666],[-6017,11688],[-18768,-24345],[-28492,-37071],[-13070,1798],[-1713,-3804],[-478,-6501],[1275,-2283],[-1754,-23584],[439,-69],[-2391,-41360],[-1753,-4080],[1793,-6294],[-837,-2974],[-4104,-65429],[14544,-2144],[-2391,-37555],[-21119,3043],[-797,-2144],[-1913,2421],[-5100,4080],[-2869,-484],[-1754,2213],[-13548,2006],[-47658,7608],[-1793,-27803],[-2909,-50005],[-60808,9613],[-24786,3943],[-4741,-72483],[-27336,4634],[-7213,1383],[4065,57405],[2789,42674],[-30563,5118],[-38732,6570],[-3666,5741],[2351,138],[3148,1591],[1315,6916],[159,4150],[1116,3389],[-59174,8023],[-26220,-35550],[-4822,-7193],[-239,-4979],[-5379,-4704],[-6775,-7054],[-239,-1522],[-9842,-8853],[-5300,-5878],[-3028,-4496],[-2989,-69],[-4622,-2836],[-3746,-553],[-1474,-2075],[-8926,-4150],[-1036,-7746],[-6137,-3458],[-2311,1037],[-8010,-2213],[-7491,-4980],[-1713,-3389],[-4623,-4910],[-6296,-3804],[-4383,0],[-18808,-27527],[-5659,-5810],[-6375,208],[-1793,-19504],[-8289,1521],[-4981,-63215],[-6854,-101254],[7173,-71100],[-1634,-3735],[-398,-2835],[-3985,-6571],[-1355,-899],[-1594,-5671],[-996,-277],[-4224,-18536],[-757,-4703],[877,-3112],[-1475,-4011],[-3865,-7608],[239,-5395],[-1434,-3735],[398,-3320],[-1913,-3527],[-2749,-2905],[-1315,-3666],[80,-2766],[-1674,-8230],[-2909,-7332],[-1355,-2351],[-159,-12035],[-678,-6224],[-1753,-11481],[-6176,7262],[-319,-4496],[-66626,10236],[80,5741],[-37138,5533],[-319,-5049],[-31281,4841],[-637,-5878],[-1953,-5188],[-2311,-8438],[-917,-5533],[1395,-8023],[-319,-2904],[1275,-6433],[678,-6363],[-2072,-2351],[-40,-3182],[2112,-3596],[1833,-6709],[-598,-3942],[-1315,277],[1514,-10928],[1196,-761],[1315,-11689],[2510,-1729],[1156,-4634],[2231,-3734],[-757,-2075],[1395,-2144],[1275,-4081],[-558,-2974],[1116,-1107],[-1236,-6777],[1873,-2767],[-597,-3043],[4024,-9545],[2391,139],[1036,-1799],[-797,-2904],[1315,-4081],[2550,-3873],[917,-5810],[2152,-2144],[79,-3527],[2630,-5395],[758,-6709],[1952,-484],[0,-3181],[1714,-2629],[1833,-7469],[1912,-1453],[1514,-3873],[1355,-138],[678,-3043],[-598,-7055],[-1036,-1037],[199,-3597],[-1793,-7400],[2550,-3113],[1395,-4564],[-877,-4842],[1674,-4772],[1355,-2075],[1076,-6501],[1753,1521],[1514,-899],[1993,899],[956,-5602],[-2789,-6639],[1992,-1522],[956,-2767],[-876,-2420],[-1754,-346],[1156,-4911],[-1514,-3250],[1076,-2144],[-1355,-1868],[-1953,139],[-757,-2767],[717,-2421],[-21119,4081],[-6535,3112],[-12194,2144],[-6415,-553],[-2670,-1037],[-2311,2005],[-2032,-622],[-3905,830],[-3905,1660],[-3906,3181],[-3187,-2005],[-28213,4910],[-16098,31331],[-58736,9752],[-56345,-553],[-239,-9960],[-14824,-1591],[-11556,-170763],[-31599,5326],[-43474,7469],[-40,86523],[0,80437],[0,100839],[40,80506],[-40,90534],[0,191927],[-35783,0],[6335,109555],[4862,84378],[-6695,969],[758,23584],[-10321,1107],[5818,106718],[-12154,39492],[-2191,-2005],[-279,-1937],[-2909,-1936],[-3029,-5049],[-6096,-3320],[-2949,-4634],[677,-2352],[-1833,-7262],[-3586,-11204],[-20044,34996],[-38692,5326],[3387,60933],[5898,116539],[5419,-2628],[56703,-8507],[5181,96206],[3546,65289],[-30523,4427],[1076,26351],[2351,74281],[24387,-2974],[4343,101531],[-18489,2490],[796,17775],[48974,-3182],[48973,-484],[62959,-8161],[-1434,-27043],[48694,66397],[5738,101116],[21757,-415],[35026,-65082],[2112,-1176],[-79,-2974],[73798,-32783],[9085,-3943],[1355,2214],[4623,1729],[6774,-1522],[2749,2490],[1315,3182],[6097,2144],[2271,-761],[1036,1383],[5818,1245],[4383,4841],[2790,5879],[4024,3666],[1355,2836],[4543,4219],[1514,2005],[917,4288],[2909,4150],[2111,6294],[2232,2766],[5698,1315],[3347,1452],[2750,4565],[2909,2974],[3347,2351],[2590,2905],[2311,-622],[4822,1383],[3028,1591],[3467,4149],[957,3666],[1354,2006],[-42597,80782],[26459,34927],[-3148,6433],[16975,22478],[-13269,22339],[-33831,57751],[-16218,27804],[45227,67365],[41641,-76287],[11516,23723],[19048,26420],[4503,69578],[3825,58788],[5459,83480],[3108,49106],[837,11827],[-55468,4772],[-6615,1037],[-518,-9613],[-63398,10028],[-59134,623],[-399,-10098],[-30125,5533],[-29009,5602],[-29966,58512],[-26937,49383],[1753,2420],[-3347,2421],[-2869,-830],[-28292,52702],[-2271,2836],[-1435,3942],[-14106,25798],[-7930,13072],[-34389,65428],[-42996,-58235],[-5339,-6294],[-957,207],[-11755,21372],[-10679,19227],[-12353,23515],[-45705,83619],[-2869,6017],[49730,64805],[-2710,5395],[-6216,10790],[21757,30846],[26778,36103],[-9444,16807],[-13349,6985],[-479,692],[758,8438],[3666,1106],[49092,64945],[-3108,20748],[2351,15424],[996,2075],[-2231,32160],[-5300,7539],[-478,1176],[-3148,33337],[-1196,3250],[-916,6225],[518,6916],[3228,-69],[13907,-2075],[4662,-8299],[21239,24760],[-27256,52633],[-20243,38593],[29328,40114],[36820,49936],[3187,9545],[-10041,16391],[-18251,33544],[6336,134315],[38135,-4634],[-239,5464],[-1395,6155],[478,8784],[-1116,4219],[877,1660],[-2630,9613],[159,14663],[1515,3389],[757,4081],[7730,26489],[69176,-5187],[9883,135006],[29686,-4219],[-1355,-25037],[63638,-8922],[597,10928],[79218,-10928],[43474,-5948],[3626,42189],[3467,39492],[558,30570],[677,29810],[-1873,1383],[80,2836],[1873,-277],[598,28703],[438,15561],[36421,-1729],[27296,-5325],[-1475,-31400],[42717,-7470],[-637,-8991],[-478,-11205],[18330,-1521],[44869,-3942],[1753,31953],[26897,-3804],[797,553],[36461,-5325],[-1992,-39631],[26658,36518],[-9763,18743],[24467,33129],[23948,32715],[8488,-16876],[10082,-19366],[32037,43711],[4264,-8230],[18011,26282],[1435,-1176],[1992,2628],[239,3527],[11437,15285],[19445,26213],[41004,55261],[19326,-3043],[40,1245],[48973,-7469],[-3865,-62731],[-3985,-64806],[-3188,-48760],[-1036,-21994],[279,-1936],[11078,-1868],[119,-1245],[35983,-5948],[678,1176],[31997,-5049],[31799,-5187],[15620,-2421],[-2749,-44264],[-4622,-63768],[31161,-5602],[29009,-5948],[120,2075],[58735,-6156],[1873,-1452],[43992,-5672],[-2271,-44541],[7372,-2490],[4423,277],[9563,-692],[7651,-2005],[-119,-3113],[29049,-4841],[677,-277],[-1076,-28495],[-1195,-23930],[33114,-5464],[2669,-24345],[-637,-10582],[59254,-9545],[-1554,-25175],[-4184,-10513],[-1993,-30224],[41442,-5602],[-518,-14179],[14186,-1798],[7173,-1176],[33193,-3873],[10998,-1660],[20801,-4080],[2510,1175],[6495,-6639],[2829,43780],[-239,207],[2391,36864],[279,346],[17294,-2836],[1793,36657],[56624,-9476],[2989,47377],[2311,41705],[50168,-8507],[837,22409],[-4104,7400],[398,5741],[31002,-5187],[-80,-1245],[13230,-2283],[-1156,2075],[439,2283],[-598,4011],[1195,830],[319,3251],[2391,5879],[-40,4219],[-4582,13970],[1633,21303],[-8208,11273],[797,13141],[35185,-6086],[3069,-24069],[43155,-8299],[19127,-3874],[6615,106581],[37537,-6778],[1434,30155],[58019,-6917],[-1076,-18328],[-797,-17014],[-4224,208],[-6934,-54293],[33034,-13349],[-8129,-41290],[-4582,692],[-4344,-27873],[19606,-7885],[-4065,-7608],[-38852,9545],[-3984,-77808],[60728,-7332],[-199,-13072],[28889,-6363],[15382,-3250],[-80,-3113],[50368,-11135],[9643,-2282]],[[2133020,3335523],[1913,-553],[12153,-7747],[3188,-4979],[-3785,-43089],[2430,-28288],[-7372,-76978],[319,-484],[27495,-6640],[-2789,-35480],[-2431,-31885],[1953,-830],[64434,-10858],[-2511,-31746],[3906,3597],[-3029,-46685],[-4622,830],[-2949,-68541],[-5818,553],[-558,-6294],[9086,-1452],[23430,-4772],[1315,5464],[6296,-1522],[18609,-3735],[598,-1106],[9324,-1522],[3746,59964],[12074,-29809],[8089,-8092],[27933,-4634],[2232,-6639],[-1275,-2974],[956,-1384],[2072,1453],[558,-3528],[2192,-5671],[1992,-3251],[3746,-4495],[-797,-1591],[-9285,-6017],[-637,-4427],[558,-3873],[1514,-4841],[3945,-6916],[598,-5326],[-2591,-8092],[-1833,-4150],[-119,-7124],[-2869,-6916],[-4981,-3181],[-1475,-4496],[-119,-3596],[916,-5949],[4463,-9544],[3228,-8576],[1116,-6017],[1076,-10306],[2948,-9959],[3547,-5741],[2909,-2351],[5778,484],[39250,-29256],[30523,-18674],[-4104,-62247],[11277,-1798],[80,-5118],[797,-2075],[-40,-7193],[1434,-1729],[19008,10167],[1036,-8714],[4144,-5948],[9046,2074],[876,-4634],[19526,10513],[2909,3873],[4502,1729],[678,-5394],[-598,-7262],[3108,-8231],[-478,-4703],[3786,-7954],[-1116,-17705],[-438,-2629],[-1395,-24760],[0,-3942],[-4423,-55676],[14584,-2075],[638,-277],[40286,-11135],[-1634,-18743],[27495,-11205],[2152,69],[1156,-1867],[2590,-346],[-279,-3735],[1554,-5602],[-677,-6432],[-678,-15977],[-1434,-12933],[0,-3182],[3785,-622],[-1395,-21855],[24467,-13764],[12831,-10444]],[[2620639,2395805],[2152,-4772],[1355,5810],[3985,-5395],[79,-3596],[2272,-4219],[677,-6087],[199,-8783],[-2670,-7470],[3786,-7539],[-3905,-7608],[-1873,-1936],[-2391,-553],[-3347,-3251],[-2112,761],[-1634,-2352],[-4821,-3665],[-2152,-485],[-2989,1660],[-1116,-7538],[359,-3251],[-637,-2767],[-2471,-2420],[-80,-1591],[3228,-8645],[-996,-4980],[-3786,-3458],[-3586,-4980],[-399,-4496],[1833,-5740],[-398,-3113],[1076,-3942],[3188,-3665],[119,-2006],[-1793,-5464],[-2630,-5049],[1116,-2490],[677,-7054],[1754,-5257],[-5539,-5879],[1115,-4841],[-1354,-6086],[916,-5810],[-1395,-2490],[-239,-3942],[1634,-4842],[1235,-1521],[40,-4703],[-837,-4980],[-1354,-3112],[1992,-6502],[359,-3181],[-797,-4150],[318,-5256],[4623,-3389],[2988,-4012],[1833,-69],[2471,-2352],[-797,-2489],[1036,-4773],[2271,-4772],[837,-4081],[-2630,-5740],[-119,-5049],[-1315,-4011],[797,-4565],[2709,-6363],[-677,-4703],[1554,-5187],[-638,-1384],[-518,-8368],[-876,-3459],[1195,-7193],[1833,-4357],[40,-3527],[-956,-3527],[-638,-15631],[-4264,-11066],[-2271,-26075],[-7890,-7815],[-6415,-4012],[-1594,-24829],[916,-33337],[-7093,-4564],[-3666,-70],[-3028,4565],[-2909,208],[-3347,-4081],[-2351,-415],[-2152,-1660],[-1235,1107],[-3348,-277],[-5897,-5049],[-2351,-2697],[-3387,-6847],[-957,484],[-1992,-2836],[-4622,1038],[-4623,-1660],[-5180,-4911],[-40,-4495],[-3467,-3735],[-39,-2075],[-11437,-10997],[-4263,-8300],[-5539,-3181],[-7133,2697],[-1913,-5948],[-79,-3250],[-1116,-3528],[-199,-5187],[2111,-2974],[40,-2006],[-1315,-4564],[-40,-3251],[-4343,-5395],[1634,-6017],[-2511,-4081],[-398,-4841],[-837,-2352],[-558,-4979],[-1514,-1591],[-1315,-7815],[2471,-5879],[2909,622],[159,-2213],[-2032,-761],[478,-3666],[-438,-3803],[-4902,-3597],[-1992,-69],[-1036,-3458],[0,-6087],[-1873,-2974],[1913,-5671],[-1196,-3735],[-2709,1038],[-8169,-3597],[-2351,-1521],[-1475,-2905],[1515,-4980],[-2192,-3181],[-438,-6640],[-2232,-1383],[-359,-5395],[-2789,-208],[-1913,-2282],[-3905,1660],[-1355,-1591],[-5220,-415],[-4861,-2282],[-797,-5741],[1116,-6086],[-2590,-2490],[-2351,623],[-200,-4842],[-1833,-3181],[-2151,-7608],[-1196,5533],[-5180,3389],[-2112,69],[-956,-2006],[-1475,1729],[-2869,1107],[-4941,-2213],[-6973,-8092],[-3308,15008],[239,8438],[-3586,5049],[-4582,-277],[-1594,-2075],[-1594,1107],[-1076,3112],[-1714,-207],[-1673,-3528],[-917,-5533],[-4104,-1590],[-2351,-7401],[-3029,-2006],[-1474,2836],[-4144,623],[-1315,-4081],[-3387,-69],[-1156,1383],[-3706,-5948],[-3427,-968],[-2191,-1660],[-3108,-1107],[-1873,1660],[-1594,-277],[-2431,2559],[-3427,-899],[598,-2697],[4702,-6709],[1315,-3873],[239,-7954],[2391,-1660],[159,-4910],[1993,-415],[4024,-3320],[3627,346],[-80,-6363],[2391,-18397],[2271,-2836],[1315,830],[1913,-2490],[1315,-5879],[1992,-6432],[-916,-3666],[1394,-4011],[3547,-6916],[2311,-6156],[-1036,-3181],[1634,-3389],[757,-3251],[1713,-1798],[3108,-5533],[479,-4219],[-1833,-1591],[-1156,-2836],[-1315,-553],[-1275,-3251],[3148,-4288],[2988,-2144],[120,-3942],[2789,-4012],[3905,-2835],[5659,-2214],[3148,-4910],[2391,-1383],[4024,207],[1076,-4219],[-1235,-6155],[1355,-5257],[3985,-1452],[518,-3735],[2430,-3804],[4065,-692],[2430,1038],[997,4081],[1235,14316],[3028,6847],[5061,3943],[797,-2214],[1953,-9198],[2630,415],[2191,7262],[5898,1176],[3267,6294],[279,2005],[2351,2490],[-358,2974],[1912,623],[1754,6778],[-40,2628],[3666,2766],[1275,-1729],[-319,-3458],[2949,-2974],[1036,-2490],[1833,346],[956,-4288],[-478,-3597],[2351,-2144],[638,-5602],[1155,-3735],[-757,-5602],[2311,-6570],[2949,-1660],[917,761],[1793,-4150],[-399,-2421],[2949,-2421],[2590,-6293],[2112,-2075],[1474,-3182],[40,-4219],[2033,-7954],[836,-6432],[-3626,-1590],[-1474,-2629],[-3467,-3665],[-239,-5257],[-1275,-1521],[-1395,-4634],[-359,-3320],[-2111,-5049],[-2591,-692],[-916,-5256],[-1714,-3666],[-3546,-1729],[-1953,-3942],[-438,-4910],[2032,-2629],[1993,-1037],[1394,-6501],[4304,-11689],[46064,-3458],[28930,-2767],[-877,-22339],[19725,-1729],[-917,-23447],[63677,-8991]],[[2133020,3335523],[3467,55953],[10918,-2283],[2072,20196],[20362,-2628],[31201,-4427],[319,4634],[3347,59480],[758,9821],[-25384,2767],[-9085,1452],[-6176,277],[6455,55953],[-22952,3181],[2908,65429],[3148,71929],[319,8161],[3268,61140],[15501,-2835],[7252,9683],[78182,-12519],[-2312,-36034],[22514,-64391],[19566,-3319],[14863,-8646],[1355,21095],[438,1936],[718,18813],[1036,21648],[-1076,1383],[836,13694],[65510,-10789],[-3666,-9060],[1515,-830],[597,-5188],[40207,-21717],[31440,-5049],[797,346],[1036,4496],[-917,2835],[758,6294],[-997,3389],[399,2628],[-917,6294],[2312,14109],[-1395,3666],[119,4012],[4702,8783],[877,4911],[-80,3873],[2909,5118],[1873,5256],[2072,1591],[1594,3251],[-518,4772],[-1116,3804],[120,2282],[2231,4012],[1953,6225],[2789,5463],[4902,7954],[1952,4012],[2431,3112],[638,4634],[1115,3804],[-797,8784],[-1912,3319],[-2630,1107],[-997,6847],[-1872,2144],[-3587,7331],[-2749,12450],[119,7331],[2630,6363],[-1355,1660],[1594,6086],[4981,3389],[3706,4773],[439,3527],[1434,3043],[638,4219],[2749,6432],[4304,2559],[2231,4427],[4981,7469],[3945,1729],[2670,5049],[1116,11066],[-200,2698],[-2351,8437],[319,7263],[-1355,3596],[-2948,5049],[-7053,830],[-2152,4288],[-4623,3735],[-3187,1798],[-4145,208],[-2271,1452],[-2072,2836],[-4702,9752],[-2750,6708],[-438,4012],[837,3251],[5658,6985],[160,2075],[-3387,6086],[-837,7331],[-3746,9061],[-319,3043],[-40,10029],[-876,2766],[-2511,4703],[-1753,4980],[1315,4357],[1116,6986],[239,4841],[-717,3458],[2988,5741],[-40,3596],[757,7677],[-1235,4842],[199,6709],[1355,4149],[2112,3044],[5260,10374],[558,5671],[-2311,4703],[-757,4634],[159,4219],[-1235,5879],[-2550,9890],[-359,6018],[-956,5463],[-2870,8231],[-1155,5187],[279,4911],[3546,6847],[-358,4910],[1514,6294],[-3826,10305],[-79,2352],[1913,5326],[717,8783],[-1793,7401],[-120,4080],[-2072,8023],[-399,4288],[1754,6502],[2152,4841],[1713,-277],[2152,-3319],[1952,345],[4782,6848],[5180,691],[3467,2490],[1514,4081],[718,4219],[597,9129],[1355,2836],[2790,1521],[4662,830],[1952,1384],[6416,7054],[797,2352],[79,6363],[1037,5464],[278,4772],[-438,8369],[-1434,9406],[159,2974],[1395,5809],[4383,1660],[2749,2974],[1116,3044],[120,4495],[-2511,6294],[-2510,10098],[-438,3735],[239,3942],[1315,2697],[10440,7193],[3865,2283],[1833,-415],[1873,-2006],[478,-4980],[797,-2836],[2550,-3804],[2192,-2074],[2550,-1107],[2192,346],[1514,2282],[2431,968],[2789,-3250],[3268,-12795],[2869,-3044],[2351,761],[3745,5810],[1156,2075],[2789,2766],[2431,623],[4941,-1245],[3547,-2352],[6176,-7400],[2989,69],[1355,1729],[1434,4288],[598,5395],[2550,7608],[2789,3873],[279,8438],[2152,2905],[797,-1176],[3068,3320],[957,3665],[5339,4634],[1993,7193],[3148,139],[2191,-3389],[2630,-1799],[2710,-276],[3945,7953],[2670,4081],[2431,4980],[1155,1314],[2989,484],[1992,3320],[159,5810],[1276,5325],[677,8092],[1474,4703],[4304,6778],[677,2905],[-39,4565],[-3666,11827],[-479,5118],[1594,11204],[1315,6294],[1076,2213],[3228,4081],[4503,3389],[4343,1798],[3188,2697],[1434,3389],[1036,6018],[1037,8783],[-160,4703],[-3228,5464],[-2988,2698],[-4304,7262],[-2550,7746],[-1554,7193],[-1793,11412],[-2152,8092],[-638,5118],[479,6294],[3227,13210],[917,8230],[279,8369],[-837,27942],[-638,6985],[-2271,13141],[-518,6986],[-1793,11412],[-1674,7262],[-5140,14316],[-1674,6225],[160,7677],[2271,11827],[1395,5948],[3307,9337],[797,4496],[-319,2974],[-3427,12933],[-4742,12173],[2232,1660],[2909,3942],[5618,3873],[1355,-1037],[-1793,-4634],[80,-3735],[1195,-3181],[3945,-3874],[1992,-6639],[1515,-3320],[2749,-1867],[3826,-1315],[3984,-2628],[3627,1660],[4144,-1314],[4821,-4081],[2790,-1037],[1713,-1798],[399,-4219],[-2232,-7124],[2232,-622],[30085,-5326],[5100,78915],[-398,69],[2192,33752],[956,1383],[-518,5049],[2351,36034],[7332,-1384],[478,10721],[-1076,4979],[2869,2629],[2391,4080],[1873,1038],[1275,2559],[3188,1936],[-478,5810],[-757,1176],[757,4634],[1833,2213],[1793,-484],[916,1729],[7691,1521],[3825,4358],[10162,2351],[2311,-553],[22155,-7470],[3148,12657],[18530,65221],[48176,-69],[64274,69],[99620,0],[99620,0],[99620,0],[100058,-69],[400113,553],[2869,-3804],[5141,-3873],[4622,-2697],[6176,69],[1156,-1937],[9404,-10028],[13150,-13280],[4582,-4426],[2551,-623],[6774,-10927],[3228,-2006],[4303,-830],[7691,-8369],[2869,346],[2431,-7677],[79,-5810],[6137,-13902],[2869,70],[2112,-4150],[1275,-8161],[4224,-6640],[2709,-2006],[4663,415],[1474,-3112],[2909,-3804],[5220,-3112],[3387,-1038],[797,-3458],[2391,-3251],[598,-6363],[5419,-8438],[1275,70],[1156,-6778],[3865,-4150],[3905,-1798],[3507,-899],[2470,-4773],[1116,69],[4941,-9682],[5340,-3459],[2988,-7607],[200,-4634],[1992,-8853],[1873,-10306],[1434,-20195],[16577,-30847],[29288,-37486],[16856,-30017],[16019,-59757],[11117,-31884],[24507,-47515],[13229,-29117],[15621,-36449],[14385,-27181],[8448,-18882],[11994,-21994],[14863,-16184],[15302,-14247],[13867,-10444],[17613,-19988],[11197,-11896],[22514,-15423],[18370,-13280],[20801,-14801],[17333,-17844],[20761,-20749],[13947,-18189],[16537,-20611],[15461,-23377],[16577,-13487],[20163,-13832],[14225,-14248],[15581,-22201],[12313,-18190],[15341,-10720],[18769,-15216],[18131,-9891],[15660,-15769],[15580,-29532],[9285,-19850],[7651,-25175],[16417,-17775],[21797,-6571],[20043,-1936],[18530,3458],[21079,14316],[9883,19020],[-1754,23308],[-8966,27458],[-8328,22409],[-8647,27388],[-4104,20542],[-478,37140],[1315,28011],[4941,17913],[7690,5118],[6416,2075],[10639,-17498],[12194,-17221],[14226,-22133],[20920,-17498],[15979,-7193],[13189,-7054],[17095,-7263],[19247,-7953],[20282,-3043],[20482,-3943],[18609,-3320],[18490,-4910],[17054,-12104],[5420,-14386],[4343,-15423],[5141,-22478],[637,-23100],[-2949,-25176],[-2948,-18950],[-3746,-13487],[-5419,-10444],[-5021,-8783],[-5300,-10513],[-1554,-5049],[-2431,-1037],[-1315,-2559],[-2271,-8577],[-2391,-7469],[-159,-5948],[-718,-8507],[957,-22271],[-638,-3320],[678,-14870],[-1036,-17705],[-279,-13349],[-1873,-12380],[-1714,-17291],[-1992,-5049],[-2789,-2282],[1115,-11135],[-478,-9061],[239,-10512],[-2709,-8715],[-2391,-5256],[1514,-55400],[717,-20472],[2989,-14109],[3267,-12381],[4025,-9060],[4742,-15077],[2510,-8992],[3347,-7400],[2790,-2006],[4782,-12311],[2510,-7469],[2431,-4496],[1633,-6155],[1754,-3389],[1116,-4496],[557,-9337],[-557,-4703],[1315,-9337],[1753,-6156],[5339,-24553]],[[4781074,3476269],[-300812,-3250],[-349067,-830],[-39769,138],[-99500,415],[-182424,1591],[-83641,968],[-97508,1383],[120,-57059],[359,-142061],[199,-106511],[80,-29463],[-240,-7401],[-5020,-18120],[-13270,-21717],[-4463,-5119],[-6535,-6155],[-4303,-6640],[-6017,-9890],[-3348,-3596],[-3705,345],[-2989,-1037],[-1833,-3942],[-1514,-12242],[-1315,-2628],[-3427,-4012],[-3945,-9199],[-1076,-1798],[2750,-5118],[876,-5671],[-398,-6087],[558,-4703],[1115,-3734],[-1394,-1315],[-2830,3597],[-1036,-1037],[80,-5188],[-837,-5049],[-6375,139],[-1116,2905],[-2431,-2006],[-3905,1936],[-3148,-899],[-2670,1937],[-3745,-1038],[-2391,-2835],[-1196,-3043],[-2789,-415],[-2471,-3182],[-3068,-5118],[-2949,-1107],[-2709,-2213],[-1395,-2628],[-2152,4011],[-6136,-899],[-1475,-2213],[-4821,5533],[-1674,6709],[-3467,4911],[-2072,345],[-1873,-24276],[-2470,2352],[-2232,-1799],[-319,-1798],[-3347,-6363],[-1235,-1176],[-1753,969],[-2351,-3043],[-2909,1244],[-1794,3804],[-1952,2214],[-1395,10443],[-1833,692],[-159,2490],[-2192,2144],[-1992,-1314],[-160,-5395],[-1315,-5671],[1276,-2352],[-1475,-4219],[-1275,-1106],[-1116,-5188],[-558,-5671],[3427,-9890],[-39,-1660],[1793,-4496],[279,-2213],[2191,-69],[2989,3181],[518,-5187],[1474,-4357],[4782,-899],[3666,-2490],[837,-1453],[119,-8438],[-398,-3388],[1474,-7055],[5420,-8092],[-1156,-4496],[-2112,-12726],[-1793,-2005],[-2829,-761],[-678,-4842],[1315,-11204],[-79,-9475],[2390,-2144],[-996,-3044],[399,-9752],[-4981,-12380],[-3587,-8092],[-5897,208],[-12034,-13625],[-4662,622],[-4702,-2144],[-3906,1037],[-1235,1729],[-1394,-1798],[0,-7746],[1155,-2559],[-398,-4150],[-3348,-4150],[-2988,-276],[-2032,-3597],[-1395,-5325],[-717,-5464],[-6854,-9960],[-1116,-4080],[1674,-1453],[-359,-5325],[-3228,-4288],[-876,345],[-9484,-8714],[-3347,899],[-2192,-2490],[-1275,-4495],[-518,-5188],[-1156,-6501],[-1514,-4980],[-2311,-4979],[-2869,-7539],[-3387,-12795],[-996,-2490],[-2431,-2905],[-3268,2075],[-3506,69],[-3866,-2836],[-3307,-1245],[-5818,-3043],[-6814,-1521],[-1394,-1245],[-3069,1037],[-1115,3389],[-2112,346],[-4184,-1937],[-3587,-345],[-1394,-1176],[-3706,-415],[-2829,1245],[-6137,1106],[-4264,277],[-3068,-4703],[-2989,-9130],[-2351,-2766],[-7929,-2767],[-6934,-3665],[-3905,-1176],[-2192,-3873],[-558,-3043],[797,-3943],[1475,-1383],[-199,-3181],[-1315,-6709],[2669,-2905],[2790,1245],[1873,-3251],[-1475,-7400],[1913,-3251],[5180,-1591],[678,-2559],[-319,-9475],[-2511,-3596],[-1474,-3666],[-1315,-5187],[-3547,-7608],[-2629,1867],[-3906,-2144],[-597,-2282],[1713,-2421],[-358,-1798],[-2670,1798],[-1754,-553],[-2390,-3597],[-718,-3665],[-1394,-2352],[557,-3389],[1395,-277],[-1992,-13486],[-1634,-1314],[-5858,345],[-3028,-5463],[2351,-2905],[199,-3320],[-4941,-3389],[-3706,1037],[-7372,5257],[-3626,5533],[-2032,-4219],[119,-4427],[-2669,554],[-3148,-1937],[-1435,-3181],[-797,-5948],[359,-2629],[-2909,-2628],[-558,-3389],[2789,-10236],[1435,-4081],[2351,-2974],[1952,-1037],[1156,-4081],[120,-7123],[-518,-13902],[-1515,-3804],[-5499,-7816],[-3108,-2904],[-1235,691],[-2750,-1867],[-2630,-3873],[-2072,2282],[-1673,3735],[-6974,6086],[-1354,2974],[318,3735],[-4303,-553],[-2630,1591],[-598,-1245],[-199,-9545],[-518,-3735],[-2192,-4495],[-2510,-1384],[-5699,0],[-1115,1107],[-1116,8230],[-3188,13003],[-2909,-138],[-3307,-2559],[-1753,691],[-1953,-1660],[-2829,-7331],[518,-6985],[2391,-5672],[-239,-3458],[-4344,-6086],[-2072,-3735],[-3825,-830],[-2112,-2144],[-837,-8922],[-2112,-346],[797,-3596],[5539,-3458],[6296,-1176],[518,-2006],[-2511,-4634],[-8447,-5810],[-3706,-6708],[-5977,-11758],[-4543,-899],[-2471,1245],[-1036,-2075],[678,-13764],[-598,-7746],[-1275,-968],[-2032,-6294],[-80,-3320],[-2789,-7469],[-2591,-2559],[-2351,-1245],[-2151,691],[-3308,-2075],[-2630,6363],[-40,1799],[-3227,-623],[-1156,-3181],[-319,-5257],[1276,-1383],[-1594,-3112],[-1594,-1245],[-4384,-415],[-3148,-1729],[-1912,2351],[-3228,-2351],[-2231,761],[-2551,3181],[-1076,8507],[479,7262],[-479,7193],[439,1383],[-558,6709],[20123,25176],[-9006,42950],[8010,19089],[-8049,22478],[-17414,11204],[-1554,208],[3786,28564],[28013,38109],[-6894,8299],[23590,50420],[-18011,21786],[-6735,1107],[10162,30708],[2390,22686],[2352,24829],[-5858,1591],[757,9130],[-956,6086],[-1036,3735],[-2033,3181],[-1594,-276],[-4263,-4704],[-3148,830],[-1554,11966],[-3069,-1522],[837,3251],[-797,2697],[2710,2559],[1235,3389],[-2311,8023],[-2630,4980],[359,2559],[0,24345],[318,4980],[-16417,3251],[-16975,3527],[-3626,-4219],[-16816,-18536],[-12273,-13002],[-20283,-21164],[-4941,12726],[-3268,9198],[-2510,5879],[-3786,1176],[-597,2213],[1275,3528],[-3945,9544],[-518,4841],[1355,2767],[876,4496],[2192,968],[2710,8507],[956,207],[3945,5464],[1156,3182],[4144,5948],[1474,346],[1634,3527],[757,6432],[2431,4772],[3108,2283],[3068,-1176],[1235,1037],[1076,4288],[3507,4773],[1116,3250],[-80,2352],[1036,13694],[-1395,1245],[-10838,27734],[-5141,415],[-6973,-3458],[-5539,554],[-398,-2075],[-6695,1175],[-1434,-2213],[-2989,-69],[-2510,-3804],[-4025,-415],[-1992,1038],[-2192,-2352],[-1554,1245],[-1475,-22063],[-1833,-3942],[-7132,-3182],[-6575,623],[-3786,-3735],[-876,-1868],[-3467,-691],[-2670,4980],[-7770,2351],[-1236,2144],[-1275,8092],[-4303,-2835],[-7691,1798],[-1395,-484],[-7611,7400],[-1753,3527],[-6455,6986],[-2551,1176],[-876,2489],[558,2214],[-1116,10374],[239,5326],[-2152,3043],[-1952,4357],[-2431,1798],[-3347,554],[-5141,2144],[-1115,2905],[-80,3527],[-1275,2075],[-797,5049],[478,6639],[-1195,6432],[-1754,-4910],[-3068,-3597],[-2909,-7262],[-199,-3320],[1036,-2559],[-996,-6155],[-3786,-6916],[-3148,1798],[-1952,-415],[-2112,-2421],[-4145,-553],[-5419,-4357],[-1992,-623],[-3069,-3320],[-3705,969],[-2750,-969],[-837,-3043],[1634,-4357],[-1116,-6571],[-1315,-2489],[-518,-4634],[-1474,-1107],[-3427,-7539],[-2471,-1383],[-4941,-761],[-3068,-3735],[-3228,-2904],[-1992,-4289],[-2391,-345],[-2072,-2767],[-3945,1314],[-3546,-1106],[-1873,1314],[-3627,-3804],[-7092,-8369],[-2391,-4772],[-638,-4772],[-1753,-3666],[-3387,-5118],[-1993,-5741],[-4184,-6570],[-1952,-4427],[-837,-4772],[-2869,-2490],[-2750,139],[-1036,-1729],[-6057,-7055],[-2032,-1729],[-1873,-3458],[-2789,-2974],[518,-3182],[-1315,-2905],[478,-4634],[-717,-5048],[-2192,-4012],[-3745,1798],[-8528,-760],[-717,-5188],[-2351,-899],[-1993,-1936],[-4144,-1038],[-438,2974],[-1833,-415],[-1554,2905],[-1873,-415],[-2231,5741],[-837,3873],[358,2213],[-2510,3942],[-4543,899],[2272,-3665],[-359,-4842],[-2949,-1452],[-876,-9821],[-3547,761],[-2072,-26421],[-3746,0],[-2032,-830],[-2192,-4080],[-876,-2836],[-2192,-3873],[1275,-4911],[1036,-1590],[-518,-2905],[-2191,-692],[239,-3873],[-638,-8092],[-19446,16253],[-2829,-10443],[9006,-18882],[-1833,-1245],[-1475,1245],[-1992,-1591],[-3148,-6155],[-3467,-2352],[-2311,-2490],[797,-4149],[-1235,-3735],[1275,-2144],[-438,-5810],[797,-6640],[-3348,-8783],[-836,-899],[-3348,1175],[-1554,-760],[-1594,-4288],[-5180,-6087],[-1833,-4910],[-438,-3804],[-2551,-1522],[-2869,-4841],[-2271,69],[-4184,-4012],[-2670,-6224],[-1753,-2214],[-2391,-276],[-1355,-6087],[-3108,-6363],[-4303,-3665],[-598,-3597],[-1315,-2075],[-2152,-1037],[-3347,-6985],[-1076,2697],[-4543,2697],[-2630,-2144],[-3108,-1176],[-916,-1659],[-3268,-2283],[-1355,277],[-5339,-1868],[-4463,1245],[-3626,-1729],[-3308,-7400],[-3506,-2283],[-558,-5533],[558,-18328],[1036,-3389],[2869,-5325],[-200,-2836],[997,-2352],[478,-4218],[3387,-2214],[2072,-3527],[-1395,-3181],[-438,-5672],[-1156,-4841],[917,-4012],[2191,-2905],[2830,-7815],[-558,-2559],[-2351,-1522],[-1793,-3665],[1195,-3804],[199,-11135],[-1474,-6640],[-2989,-2352],[-4064,-12933],[478,-2836],[-478,-8299],[-678,-2905],[877,-5118],[-1634,-7608],[-239,-8576],[-1554,-5464],[-2231,-2698],[-718,-5325],[1913,-5257]],[[4781074,3476269],[23112,-68609],[598,-5395],[-677,-4703],[2351,-24345],[717,-4012],[3307,-24414],[678,-17429],[3466,-14110],[1714,-2351],[717,-7470],[-956,-19504],[797,-13902],[-1514,-7815],[1235,-19504],[518,-3181],[-399,-5049],[-1713,-4911],[-1674,-7331],[-3188,-7055],[-2271,-4011],[-1873,-2213],[-558,-18121],[359,-3873],[-1315,-6709],[-518,-11135],[-4224,-8922],[-877,-4358],[58537,-433997],[16298,-120067]],[[3291638,1015105],[-1354,-4426],[-2790,1244],[-3506,-2974],[-4742,139],[-837,-2767],[-1833,-760],[-9404,1867],[-1634,5948],[-3626,-2421],[-12034,3320],[-3547,4357],[-3825,1176],[-1076,4219],[558,1729],[-1873,2144],[-1873,-69],[-2550,-3182],[-2750,4358],[-2948,2213],[-3108,692],[-439,2213],[-3706,5187],[-1514,4772],[-7013,2836],[-2789,2421],[-4503,6155],[-399,7262],[-2351,2352],[3108,30639],[2590,3320],[120,2836],[2152,4218],[3387,2352],[-120,3804],[2192,4011],[2630,1453],[-2630,9614],[-2909,11826],[-2789,1038],[-1236,-968],[797,-3597],[-3705,-1729],[-2670,830],[-2112,3458],[-3068,2144],[-2352,-4011],[-3347,-692],[-3785,2905],[-718,-5049],[-1514,-2490],[-598,-6294],[-1554,-3181],[-1394,-208],[-1275,-3319],[-2272,2559],[-4742,10166],[-2112,5395],[-2550,3320],[-4662,-346],[-5061,2352],[-916,1245],[-2710,345],[-2909,3389],[40,2075],[-2032,3459],[-4264,4288],[-2152,276],[-2670,3528],[-4702,-2490],[-3586,968],[-1833,3389],[-4981,2006],[-2351,-346],[-3467,968],[-2271,-2075],[-2989,969],[-6017,-1176],[-2630,2351],[-4662,-1175],[-8129,-8092],[-3706,2144],[-4064,1383],[-1594,1798],[-2032,-553],[-2750,-7193],[-2391,1106],[-119,2836],[-3188,7124],[-2630,692],[-3706,-1591],[-1992,3735],[-40,2904],[-3905,2974],[-3268,-2420],[-1235,2420],[-2271,1245],[-1674,6294],[-4304,1660],[-2709,2767],[-1554,2628],[-5499,-1729],[-2750,553],[359,5810],[-3985,10374],[-1434,4772],[557,2698],[-956,1936],[1076,6363],[-1395,3182],[-2670,1591],[-3307,4011],[319,2974],[-3228,3458],[-3108,5602],[-2152,1384],[-1514,4149],[-1594,1522],[-4662,7677],[159,2697],[-837,6778],[-2231,1384],[-1474,2697],[-4742,5741],[-1315,4357],[-1674,622],[-2829,-1798],[-4344,415],[-2669,1245],[-2351,-3389],[-1674,-553],[-4025,760],[-4343,15700],[-1913,0],[-4343,12588],[-2590,-1176],[-2431,2352],[-159,4426],[-1833,2352],[-399,2421],[877,2904],[-1594,2144],[-1833,-484],[-1714,2905],[-4223,2559],[-1873,3182],[-917,4495],[-1434,1176],[199,2974],[-1913,5879],[-319,4081],[-956,2282],[0,4288],[1474,1729],[-2112,8922],[1634,6156],[-1036,4634],[-3905,4357],[-1474,3665],[239,3597],[-3188,8438],[-4264,1936],[-3108,-1660],[-2630,900],[-1235,2213],[-2949,2144],[-1753,3942],[-5499,1107],[-2710,-2283],[-3666,6778],[-3546,8438],[-4304,-761],[-4343,415],[-1515,-1106],[-1793,3112],[359,2213],[-2232,1937],[359,1798],[-1793,4150],[-1554,484],[-5061,7677],[-2391,1522],[-797,5671],[1236,6916],[1075,3113],[-4582,6916],[-2510,484],[-598,3804],[-2471,3389],[-1952,4703],[-5380,6017],[-4463,1384],[-2112,1798],[-3108,5395],[638,3112],[-1594,2282],[-1475,4081],[-4263,5464],[-1475,-277],[-1514,2974],[399,4081],[-1714,6570],[-2391,0],[-2271,-1452],[-3387,2559],[-678,-1038],[-4024,2905],[-3108,-2075],[-2670,-3665],[-1993,1037],[-597,2974],[-2829,2974],[-2551,346],[-1992,-1522],[-2311,1315],[-4304,-1107],[-1952,-1867],[-2351,-5464],[-1794,-1384],[-1514,-5049],[-2231,-2144],[-2232,139],[-1116,-5049],[-3426,-484],[-2670,-2490],[-1993,-5810],[-956,-346],[-2391,2421],[-2949,-622],[-5778,-70],[-1952,-1452],[-877,-2628],[518,-7124],[1514,-968],[-358,-4427],[-1395,-3527],[-4463,-899],[-1195,-1591],[-5420,-761],[-2151,-1867],[-1554,-2767],[-6296,-4564],[-3666,-6502],[-160,-2904],[-1634,-2905],[-3108,138],[-4582,1867],[-359,9614],[-3188,-1314],[-3148,2490],[-876,-3804],[-2391,-277],[-4065,-3873],[-2112,-830],[-4821,4842],[40,-4012],[916,-4081],[-1793,-2420],[-1235,-4358],[-1953,-1590],[-1913,-12934],[-1275,-5464],[-1036,-1521],[-3785,-1660],[-8010,-346],[-8766,-1522],[-5818,-345],[-2590,622],[-2909,1729],[-3826,1176],[-1235,-1591],[-1235,3389],[-3626,2006],[-3387,-692],[-1076,-3389],[-2590,-276],[-877,1314],[-4503,-208],[-3267,2905],[-6376,-1176],[-1395,1729],[-1434,-1452],[438,-6778],[-1315,-1245],[-4343,-553],[-558,-3251],[-2550,-1729],[-479,-2490]]],"transform":{"scale":[0.0000025095405019080987,0.0000014458602891720576],"translate":[140.6779,-26.9269]},"objects":{"qld_central_ddmg_boundaries_gda2020_simp200m":{"type":"GeometryCollection","geometries":[{"arcs":[[0,1]],"type":"Polygon","properties":{"District Name":"Gladstone","DDMG Name":"Gladstone","fill-opacity":0.72,"Area Sq Km":63413.34,"Police Region Name":"Central Region","Police Region Code":"CR","Police Region Short Name":"Central","Region Slug":"central","Layer Id":"qld_central_ddmg_boundaries_gda2020_simp200m","Layer Group":"per-region","Layer Kind":"ddmg","Source":"QPS Disaster Districts, Queensland Police Service, via the Queensland Government Open Data Portal","Source URL":"https://www.data.qld.gov.au/dataset/qps-disaster-districts","Licence":"CC BY 4.0","Licence URL":"https://creativecommons.org/licenses/by/4.0/","Dataset Date":"19/05/2025","Simplification Tolerance M":200,"Coordinate Precision Decimals":4,"CRS":"GDA2020 (EPSG:7844)","Fidelity":"standard: source boundaries, simplified","Modified":"Simplified and repackaged from the source dataset; see Source URL"},"id":"Gladstone"},{"arcs":[[2,3,4]],"type":"Polygon","properties":{"District Name":"Longreach","DDMG Name":"Longreach","fill-opacity":0.72,"Area Sq Km":240646.06,"Police Region Name":"Central Region","Police Region Code":"CR","Police Region Short Name":"Central","Region Slug":"central","Layer Id":"qld_central_ddmg_boundaries_gda2020_simp200m","Layer Group":"per-region","Layer Kind":"ddmg","Source":"QPS Disaster Districts, Queensland Police Service, via the Queensland Government Open Data Portal","Source URL":"https://www.data.qld.gov.au/dataset/qps-disaster-districts","Licence":"CC BY 4.0","Licence URL":"https://creativecommons.org/licenses/by/4.0/","Dataset Date":"19/05/2025","Simplification Tolerance M":200,"Coordinate Precision Decimals":4,"CRS":"GDA2020 (EPSG:7844)","Fidelity":"standard: source boundaries, simplified","Modified":"Simplified and repackaged from the source dataset; see Source URL"},"id":"Longreach"},{"arcs":[[-4,5,6]],"type":"Polygon","properties":{"District Name":"Mackay","DDMG Name":"Mackay","fill-opacity":0.72,"Area Sq Km":157734.76,"Police Region Name":"Central Region","Police Region Code":"CR","Police Region Short Name":"Central","Region Slug":"central","Layer Id":"qld_central_ddmg_boundaries_gda2020_simp200m","Layer Group":"per-region","Layer Kind":"ddmg","Source":"QPS Disaster Districts, Queensland Police Service, via the Queensland Government Open Data Portal","Source URL":"https://www.data.qld.gov.au/dataset/qps-disaster-districts","Licence":"CC BY 4.0","Licence URL":"https://creativecommons.org/licenses/by/4.0/","Dataset Date":"19/05/2025","Simplification Tolerance M":200,"Coordinate Precision Decimals":4,"CRS":"GDA2020 (EPSG:7844)","Fidelity":"standard: source boundaries, simplified","Modified":"Simplified and repackaged from the source dataset; see Source URL"},"id":"Mackay"},{"arcs":[[-5,-7,7,-1,8]],"type":"Polygon","properties":{"District Name":"Rockhampton","DDMG Name":"Rockhampton","fill-opacity":0.72,"Area Sq Km":113722.41,"Police Region Name":"Central Region","Police Region Code":"CR","Police Region Short Name":"Central","Region Slug":"central","Layer Id":"qld_central_ddmg_boundaries_gda2020_simp200m","Layer Group":"per-region","Layer Kind":"ddmg","Source":"QPS Disaster Districts, Queensland Police Service, via the Queensland Government Open Data Portal","Source URL":"https://www.data.qld.gov.au/dataset/qps-disaster-districts","Licence":"CC BY 4.0","Licence URL":"https://creativecommons.org/licenses/by/4.0/","Dataset Date":"19/05/2025","Simplification Tolerance M":200,"Coordinate Precision Decimals":4,"CRS":"GDA2020 (EPSG:7844)","Fidelity":"standard: source boundaries, simplified","Modified":"Simplified and repackaged from the source dataset; see Source URL"},"id":"Rockhampton"}]}}}