{"type":"Topology","arcs":[[[821281,339604],[-16,-955],[-271,-594],[0,-1162],[-414,-554],[-287,-69],[-136,-1120],[-414,-623],[0,-844],[175,-830],[152,-1770],[382,-470],[694,-1716],[-534,42],[-391,-470],[-56,-1218],[56,-1189],[239,-913],[-303,-318],[-717,428],[-1275,803],[-940,345],[-4097,2103],[-135,-636],[-630,138],[-303,-595],[-932,222],[-239,926],[-287,56],[-64,-789],[-287,-705],[-550,553],[-629,-277],[-303,623],[-582,-6640],[335,-166],[1251,-1853],[829,-249],[518,-401],[151,-388],[805,-747],[1212,803],[550,-913],[629,179],[48,-885],[207,-747],[821,-1120],[-279,-401],[-446,-1148],[-622,-996],[-311,-983],[-478,-207],[-215,-1466],[-287,-152],[-247,-996],[327,-609],[-207,-2116],[-271,-803],[-622,-359],[-542,262],[-303,-179],[-2064,802],[-3036,844],[-710,-512],[-446,28],[-733,1106],[-574,498],[-1028,194],[-789,567],[-462,55],[-510,-512],[-1243,-290],[-766,221],[-804,-41],[-774,470],[-1028,-650],[-294,125],[-590,1327],[-1108,-373],[-279,-595],[-112,-1272],[-1179,27],[-853,-332],[-1944,-2614],[-40,-138],[1219,-8037],[335,-1231],[-199,-360],[-423,-4786],[-279,-360],[-231,-968],[-868,-290],[-1778,-7221],[-159,-2089],[127,-1217],[-1259,-4897],[-223,-249],[534,-2310],[558,-1217],[-446,-3292],[119,-1508],[40,-3306],[-112,-913],[24,-1176],[447,-1756],[127,-955],[183,-525],[-127,-1494],[207,-429],[550,-554],[1020,-1549],[-693,-401],[-383,-1190],[-374,-428],[-319,-941],[191,-1120],[239,-512],[0,-885],[-350,-554],[-8,-774],[-487,-429],[-1625,-14],[-997,-788],[-820,-429],[-805,-1799],[334,-829],[-1267,-332],[-685,580],[-510,42],[64,-733],[-168,-415],[160,-526],[342,-2628],[-143,-1549],[-247,-194],[-542,-1051],[32,-872],[-271,-1203],[-590,-97],[-167,-844],[510,-1992],[-343,-414],[-853,-125],[-111,-913],[334,-539],[-23,-830],[191,-637],[-534,-1881],[64,-553],[-407,-664],[-869,193],[-804,-940],[159,-719],[-48,-1522],[120,-373],[-311,-927],[-717,-775],[63,-443],[845,-650],[-311,-304],[-175,-650],[-391,-235],[-908,-1646],[717,-996],[-430,-720],[223,-1549],[-654,-304],[-223,-360],[694,-1272],[414,-471],[-558,-2199],[-1769,-1937],[-72,-1452],[-446,-609],[80,-622],[470,-291],[-112,-913],[168,-138],[693,332],[191,-941],[-199,-1009],[311,-139],[677,346],[319,-387],[80,-595],[-869,-1701],[199,-941],[-175,-650],[972,-789],[-135,-594],[56,-1425],[549,-1328],[184,-858],[-359,-1743],[-335,-484],[-223,-1369],[80,-692],[398,305],[574,-97],[80,-581],[900,-208],[845,-498],[439,-2088],[-495,-5533],[-796,-498],[-646,-1398],[367,-1604],[-80,-996],[988,-5505],[-374,-471],[-263,-5159],[-654,-2061],[-1044,-166],[-765,-747],[-199,-761],[-486,-623],[159,-1189],[-1466,-138],[-781,-402],[-1212,97],[-366,401],[-359,3431],[-3315,1397],[-1028,207],[-216,-2434],[-462,28],[-1227,1092],[-670,14],[-87,-996],[-415,111],[-510,802],[-1052,249],[-765,332],[-526,-41],[-2622,622],[478,-2047],[8,-1425],[-159,0],[-383,-871],[-717,-484],[-438,-568],[-486,-41],[-973,-429],[-972,567],[-1116,996],[-837,2144],[-422,-207],[-183,387],[-335,-982],[-111,-664],[-423,-844],[-2343,-138],[-335,-3486],[-223,-332],[-319,194],[-111,968],[-295,-42],[-319,-511],[-374,-14],[-271,318],[-479,-4316],[-661,1079],[-1092,719],[-765,720],[-1315,-83],[-462,-415],[-502,41],[-574,1259],[-311,208],[-1012,-56],[-438,111],[-359,1051],[-677,719],[-351,664],[-685,664],[-239,-249],[-550,208],[-263,-885],[-534,401],[-303,-1176],[-2614,-1120],[-917,13],[-908,1190],[-287,69],[-144,-1618],[495,-111],[-399,-1203],[-749,-498],[-502,179],[-311,457],[-430,28],[-343,-319],[-494,-1037],[-1331,802],[-367,-954],[1371,-4385],[-924,-2144],[-407,207],[-988,3140],[-1490,4551],[-3475,-2683],[-837,-471],[-606,-553],[-175,-415],[-677,-595],[-1148,-1521],[-5132,1148],[-40,-42],[-710,-8009],[-7834,1508],[518,5782],[-6423,1245],[-383,913],[-1251,-1757],[-621,-207],[-781,-1038],[-136,-940],[-590,-263],[-16,-415],[-589,-733],[-471,-816],[-565,193],[-614,-802],[-2016,-5713],[-4184,789],[-1921,345],[-4862,1259],[-2111,429],[-1052,-692],[-256,222],[-1219,553],[-701,-318],[-231,1037],[1107,9268],[-310,955],[-582,802],[-430,180],[-542,677],[-734,1508],[-605,166],[-223,526],[-813,1355],[-184,568],[-701,221],[-1020,2033],[-502,1273],[40,567],[462,2684],[0,982],[-757,-42],[-694,-802],[-1315,-858],[-836,-235],[-726,-705],[-685,-291],[-375,-415],[-1482,2974],[-2717,498],[-104,885],[-709,153],[1841,2711],[-319,1618],[127,470],[439,83],[127,568],[-263,719],[279,954],[-263,747],[534,567],[183,-55],[447,775],[-136,830],[343,332],[542,-1010],[606,-14],[573,-885],[247,-623],[160,-1051],[279,-249],[414,636],[255,42],[1164,1480],[446,28],[646,594],[494,1577],[295,28],[964,1217],[669,-415],[1315,816],[-231,761],[48,374],[510,1397],[0,733],[-606,-540],[-239,180],[-111,775],[303,844],[661,664],[-8,760],[-1004,540],[-271,-194],[40,-567],[-263,-429],[-56,-705],[-486,-789],[-176,540],[463,940],[-80,443],[-383,194],[-510,1148],[-334,69],[-654,636],[32,664],[765,-429],[207,346],[-510,789],[-773,276],[-574,-27],[-876,166],[-160,-401],[144,-900],[279,-622],[-279,-567],[-518,899],[119,1273],[-55,622],[127,1162],[-207,373],[3124,3832],[-6862,13902]],[[658327,203021],[765,97],[439,193],[143,1577],[271,305],[223,1576],[-111,277],[326,2310],[-303,180],[-462,-401],[176,1812],[462,249],[263,512],[72,719],[263,692],[310,235],[343,1701],[-135,1342],[143,899],[-414,996],[23,346],[-486,719],[-1203,415],[-151,1342],[406,719],[1044,221],[669,554],[176,927],[-303,221],[-215,775],[-303,-42],[-375,470],[-677,2864],[-821,152],[-542,359],[24,443],[-438,650],[-223,42],[-463,844],[351,802],[-72,1051],[407,567],[-271,733],[-630,1010],[-3259,470],[-128,111],[375,1674],[-391,913],[183,608],[-111,651],[-359,622],[-582,1411],[-438,235],[-143,443],[-16,857],[-192,1536],[40,927],[263,456],[813,194],[128,498],[-399,456],[-127,457],[-686,-111],[-318,1494],[-638,733],[-311,719],[-127,789],[-367,705],[-303,982],[-111,996],[-319,650],[119,291],[-940,2421],[-80,1604],[-159,650],[56,637],[-160,719],[391,1355],[-152,858],[-8,1079],[-191,415],[16,1024],[1052,1175],[-16,568],[223,774],[-422,526],[526,1881],[-287,871],[-40,1190],[367,982],[-64,291],[542,2116],[518,374],[335,760],[382,-581],[670,512],[1251,2642],[-24,1674],[-351,512],[-884,-111],[6025,7871],[2789,-1480],[183,-1370],[303,-304],[638,-277],[279,-1106],[263,-401],[462,-166],[1155,-775],[375,-42],[1578,332],[-96,-1189],[-294,-858],[374,-1300],[295,-69],[80,-706],[454,-138],[127,-1176],[-685,-304],[88,-1867],[366,-637],[263,-788],[-87,-830],[279,-982],[271,-1508],[8,-913],[454,-1563],[629,-595],[-32,-1466],[192,-277],[773,-180],[876,0],[-390,-1411],[231,-982],[-207,-1231],[414,-581],[335,-1341],[-120,-900],[463,-1189],[-104,-872],[-199,-511],[-160,-1038],[128,-1010],[-375,-830],[-71,-594],[-1188,-1052],[16,-622],[-319,-719],[375,-595],[1315,-761],[478,-913],[-390,-180],[127,-816],[654,-443],[1107,125],[335,954],[1323,1107],[359,636],[422,1052],[646,-97],[358,608],[104,816],[518,706],[199,636],[-223,540],[40,1549],[143,567],[502,-221],[542,1521],[239,194],[-342,1245],[119,982],[319,858],[462,345],[-422,886],[-64,885],[-215,387],[-207,2020],[263,-443],[725,-567],[677,-97],[223,-276],[423,69],[438,-360],[303,-1328],[-80,-788],[885,-2255],[781,-221],[486,-761],[1443,-595],[701,-470],[582,470],[239,1024],[-144,1867],[40,789],[-279,1494],[215,733],[-159,857],[159,540],[845,788],[821,-512],[542,-179],[574,-1397],[486,221],[215,899],[558,927],[271,1342],[-56,663],[1172,678],[502,-235],[414,941],[407,-526],[1554,-1535],[1036,-471],[48,-567],[573,-1023],[327,-153],[439,568],[557,193],[399,388],[701,-194],[343,-318],[622,373],[-16,1052],[239,705],[629,1328],[-95,2172],[-263,691],[119,388],[-502,636],[311,719],[-183,913],[422,457],[-287,345],[-207,1467],[-375,940],[-55,692],[701,512],[167,332],[327,1272],[359,4288],[310,70],[853,1369],[1530,1439],[152,1936],[-104,844],[454,2490],[383,802],[382,318],[781,-290],[-23,498],[629,1909],[24,774],[1355,332],[757,111],[191,-1093],[1252,42],[231,-6654],[334,-8106],[255,637],[431,-139],[159,-691],[598,-332],[590,221],[63,968],[351,1204],[-207,760],[79,1411],[-95,2172],[-558,2697],[-104,1480],[-16,1633],[104,1411],[287,843],[773,983],[183,608],[-8,1010],[1212,844],[964,1093],[749,1452],[526,858],[542,1452],[765,1217],[733,637],[1116,2600],[1753,3348],[295,954],[327,609],[247,3098],[271,69],[701,2034],[-1601,1494],[-303,1480],[964,5574],[183,2435],[3770,-720],[-693,1688],[557,-97],[0,1052],[-231,829],[-494,1052],[367,899],[-128,567],[-382,373],[103,623],[-135,802],[-534,775],[111,581],[-167,2006],[-574,2213],[319,664],[-111,539],[-24,2310],[-343,1121],[24,664],[-446,276],[55,733],[-183,554],[542,1286],[-741,4772],[-375,277],[-87,1743],[151,498],[-295,1120],[-32,568],[-398,816],[-56,511],[-1714,5132],[-526,969],[-286,1106],[-710,14],[-191,1688],[-550,525],[-88,623],[-334,235],[111,1923],[327,525],[-821,1204],[-255,1355],[199,941],[-326,664],[-423,332],[-231,857],[160,609],[-184,747],[-295,180],[-454,1079],[239,429],[1291,1092],[7723,-221],[4176,-954],[510,-374],[255,83],[406,858],[590,857],[-398,1010],[-16,885],[-255,706],[462,1010],[-534,1355],[119,609],[-175,567],[231,830],[-16,816],[-167,678],[-845,539],[-454,498],[-853,443],[-940,1148],[-287,1079],[111,1217],[447,1882],[701,2061],[391,1369],[757,1383],[79,1052],[216,373],[693,-194],[845,-871],[374,83],[176,1065],[-88,457],[-510,733],[-88,1604],[144,1508],[-112,1480],[845,166],[1012,-1065],[518,-844],[725,609],[176,512],[805,13],[366,1121],[558,318],[127,609],[487,166],[247,581],[231,1203],[-144,927],[287,719],[24,844],[311,373],[-120,803],[-16,1411],[303,636],[4758,-1356],[5125,-442],[-120,1162],[255,387],[199,802],[463,-235],[422,623],[-430,1507],[79,1384],[-518,580],[-255,1038],[24,1273],[-247,262],[-757,125],[-470,954],[-447,263],[-278,858],[-439,373],[-494,775],[-175,1134],[8,1397],[-303,484],[-175,858],[-224,401],[72,692],[-550,774],[104,747],[-287,318],[-375,0],[-287,1494]],[[741816,438866],[335,402],[271,-83],[343,719],[351,110],[215,775],[-614,3652],[1124,-249],[64,816],[781,-152],[940,14],[1076,-208],[32,374],[1538,-374],[207,2794],[191,305],[152,1978],[143,69],[383,1203],[605,42],[216,692],[573,415],[319,-97],[1220,401],[534,581],[701,-844],[478,-124],[454,677],[48,457],[2232,-471],[47,568],[1172,-277],[64,664],[884,-208],[-32,-428],[742,-166],[47,525],[1100,-235],[582,180],[893,-941],[581,-69],[-8,-1162],[917,-290],[-112,-346],[-510,-360],[-8,-622],[271,-484],[8,-526],[941,-996],[-319,-982],[-279,83],[-343,-360],[-231,-567],[335,-636],[685,-526],[335,-857],[494,-83],[231,-540],[-239,-1065],[502,-373],[136,-1245],[255,-166],[398,-1038],[-263,-899],[1514,-180],[200,-553],[502,-277],[-287,-470],[-96,-1093],[168,-207],[7,-816],[-486,-457],[-32,-595],[598,-456],[-167,-2462],[319,-332],[24,-913],[302,-291],[534,0],[295,1702],[223,387],[479,221],[597,-525],[-64,-789],[375,-512],[526,-138],[462,-346],[486,-1314],[622,-484],[622,-55],[430,498],[383,816],[95,940],[423,402],[510,110],[183,305],[367,-747],[804,221],[582,-180],[327,-346],[805,-69],[191,-885],[447,-498],[23,-664],[391,-249],[-96,-968],[710,-692],[422,636],[112,623],[518,-194],[231,-830],[550,97],[271,650],[573,-692],[534,236],[925,-526],[1020,332],[111,1176],[742,429],[-40,1438],[900,540],[702,-415],[287,235],[1147,-554],[494,554],[319,-374],[494,0],[343,-830]],[[790957,427883],[-247,-498],[56,-650],[-152,-927],[399,-747],[-8,-345],[326,-1038],[375,-678],[-40,-470],[359,-927],[159,-719],[-32,-954],[439,-747],[-152,-1384],[383,-110],[263,-1024],[406,-775],[-95,-276],[701,-955],[534,-428],[494,664],[518,-277],[367,-706],[884,-650],[120,-802],[494,-456],[143,-1536],[231,-443],[64,-622],[359,-1079],[-8,-1037],[598,-692],[16,-622],[-359,-443],[-40,-1038],[-183,-484],[207,-525],[40,-3071],[303,-2200],[231,-511],[-56,-1010],[638,-1259],[87,-553],[582,-415],[-247,-2615],[175,-262],[-135,-720],[80,-567],[-208,-346],[471,-1023],[143,-650],[-327,-568],[-8,-843],[263,-1052],[670,-110],[406,-360],[917,-111],[175,-318],[486,166],[701,-581],[598,-249],[606,319],[24,-996],[422,152],[311,-955],[295,-249],[207,-802],[1060,-1148],[287,-941],[-72,-857],[-239,-388],[120,-581],[-630,-1120],[16,-1425],[414,-636],[-438,-1024],[-215,-2462],[-175,-456],[63,-927],[-757,-318],[-279,-484],[-64,-1079],[-605,-277],[-8,-692],[1211,-1812],[-127,-857],[-311,-346],[16,-498],[-582,-941],[8,-1438],[327,-291],[-72,-609],[-287,-456],[-191,-1757],[151,-276],[-215,-803],[-478,-899],[972,-1176],[287,-1327],[542,580],[407,125],[247,-470],[422,304],[701,-138],[168,207],[709,83],[494,-567],[829,1093],[135,844],[439,0],[542,262],[542,-13],[-72,-485],[-470,-1341],[87,-305],[-239,-816],[-470,-691],[948,-1550],[606,-1328],[-446,-345],[-184,-471],[415,-567],[1012,-1079],[223,443],[1212,83],[653,-858],[709,-55],[678,1342],[191,940],[462,346],[654,208],[71,-830],[2065,-7179],[39,-996],[1387,-595]],[[331790,400467],[430,332],[398,650],[351,69],[885,1066],[829,235],[215,802],[263,290],[-7022,1149],[335,4440],[367,3970],[-1307,166],[1044,11550],[72,277],[247,2780],[757,7497],[900,11039],[-3992,788],[717,9987],[853,13819],[5913,-692],[271,3362],[64,387],[581,6709],[-1538,290],[112,1162],[406,6460],[112,968],[159,2891],[415,-27],[95,1494],[471,913],[2008,-332],[191,2932],[391,5243],[-56,0],[430,6321],[2686,-456],[231,3416],[-2646,512],[0,69],[-2486,457],[566,8880],[286,4869],[-4096,844],[980,14220],[-5650,954],[-10408,1785],[-7308,1217],[-7141,1245],[-558,927],[-367,1577],[96,774],[-104,1135],[263,705],[-47,1383],[239,263],[135,1300],[255,402],[446,1715],[375,415],[422,166],[439,1411],[358,456],[144,858],[271,470],[-16,1245],[111,816],[-199,982],[781,2144],[40,816],[422,789],[303,138],[239,720],[486,470],[487,774],[430,983],[175,802],[447,-28],[1036,1217],[0,1038],[127,498],[-87,982],[326,304],[590,1370],[-16,802],[303,636],[-303,1135],[-32,1162],[88,1383],[231,1286],[438,1134],[40,388],[-255,747],[-3267,456],[605,3043],[-4447,678],[0,83],[-4040,609],[239,4412],[-4949,900],[-3371,567],[7,166],[-8368,1411],[-231,-4358],[-5435,969],[-303,124],[630,4039],[-7420,1093],[-701,-719],[-4981,926],[-749,208],[-3491,678],[-1427,-1868],[-15,623],[-2830,5630],[-1378,6999],[-4671,-4924],[-4223,-4385],[-1706,1051],[-5100,1784],[-4758,1633],[-56,-872],[-1291,-111]],[[234003,607001],[-2463,4662],[40,1549],[136,1494],[836,-193],[7763,10111],[390,-774],[9930,13058],[829,1065],[861,15464],[4383,-677],[9603,-1439],[40,650],[5890,-705],[3467,-360],[151,-138],[2152,-180],[-534,-10167],[5881,-719],[5595,-595],[1267,-5422],[3029,-374],[709,1383],[877,1425],[924,1037],[287,941],[2016,3776],[3140,7511],[2176,5119],[534,1424],[733,-83]],[[304645,655844],[2837,-359],[1435,-235],[6639,-775],[2199,-332],[4160,-816],[502,235],[1299,-1328],[566,8756],[-48,42],[479,7372],[55,69],[3459,-567],[359,7332],[11325,-1895],[597,9475],[463,8341],[10033,-1702],[168,4482],[-821,1480],[79,1148],[6201,-1037],[-16,-249],[2646,-456],[-231,415],[87,456],[-119,802],[239,166],[64,650],[478,1176],[-8,844],[-917,2794],[327,4261],[-1642,2254],[160,2628],[7037,-1217],[613,-4814],[8632,-1659],[3825,-775],[1323,21316],[7507,-1356],[287,6031],[11604,-1383],[-215,-3666],[-160,-3402],[-845,41],[-1386,-10858],[6607,-2670],[-1626,-8258],[-917,138],[-868,-5574],[3921,-1577],[-813,-1522],[-7771,1909],[-797,-15562],[12146,-1466],[-40,-2628],[5778,-1259],[3076,-650],[-16,-622],[10074,-2227],[1929,-457]],[[426604,667104],[382,-111],[2431,-1549],[637,-996],[-757,-8618],[487,-5657],[-1475,-15396],[64,-97],[5499,-1327],[-558,-7097],[-486,-6376],[390,-166],[12887,-2172],[-502,-6349],[781,719],[-606,-9337],[-924,166],[-590,-13708],[-1163,111],[-112,-1259],[1817,-291],[4686,-954],[263,1093],[1259,-305],[3722,-747],[120,-221],[1865,-304],[749,11993],[2415,-5962],[1617,-1619],[5587,-926],[446,-1328],[-255,-595],[192,-277],[414,291],[112,-706],[438,-1134],[398,-650],[750,-899],[-160,-318],[-1857,-1204],[-127,-885],[111,-775],[303,-968],[789,-1383],[120,-1065],[-518,-1619],[-367,-830],[-24,-1425],[-574,-1383],[-996,-636],[-295,-899],[-24,-720],[184,-1189],[892,-1909],[646,-1715],[223,-1204],[215,-2061],[590,-1992],[709,-1148],[582,-470],[1156,97],[7850,-5865],[6104,-3721],[-821,-12450],[2256,-359],[16,-1024],[159,-415],[-8,-1438],[287,-346],[3802,2033],[207,-1743],[829,-1189],[1809,415],[175,-927],[3905,2102],[582,775],[900,346],[136,-1079],[-120,-1452],[622,-1647],[-96,-940],[758,-1591],[-224,-3541],[-87,-526],[-279,-4952],[0,-788],[-885,-11135],[2917,-415],[128,-56],[8057,-2227],[-327,-3748],[5499,-2241],[430,13],[232,-373],[518,-69],[-56,-747],[311,-1121],[-136,-1286],[-135,-3195],[-287,-2587],[0,-636],[757,-125],[-279,-4371],[4893,-2753],[2566,-2088]],[[524127,479161],[431,-955],[271,1162],[797,-1079],[16,-719],[454,-844],[135,-1217],[40,-1757],[-534,-1494],[757,-1507],[-781,-1522],[-374,-387],[-478,-111],[-670,-650],[-422,152],[-327,-470],[-964,-733],[-431,-97],[-597,332],[-224,-1508],[72,-650],[-127,-553],[-494,-485],[-16,-318],[637,-1729],[-191,-996],[-757,-691],[-717,-1010],[-80,-885],[366,-1149],[-79,-622],[215,-789],[638,-733],[23,-401],[-358,-1093],[-526,-1009],[223,-498],[135,-1411],[351,-1052],[-1108,-1175],[223,-969],[-270,-1217],[183,-1162],[-279,-498],[-56,-788],[335,-968],[247,-305],[8,-940],[-168,-996],[-270,-623],[398,-1300],[72,-636],[-160,-830],[64,-1052],[925,-677],[597,-803],[367,-14],[494,-470],[-159,-498],[207,-954],[454,-955],[167,-816],[-526,-1148],[-23,-1010],[-263,-802],[159,-913],[542,-1273],[-136,-940],[311,-1038],[-127,-276],[-104,-1674],[-175,-692],[239,-1438],[366,-872],[8,-705],[-191,-706],[-127,-3126],[-853,-2213],[-454,-5215],[-1578,-1563],[-1283,-802],[-319,-4966],[183,-6667],[-1419,-913],[-733,-14],[-605,913],[-582,41],[-670,-816],[-470,-83],[-430,-332],[-247,221],[-670,-55],[-1179,-1010],[-470,-539],[-678,-1370],[-191,97],[-399,-567],[-924,208],[-925,-332],[-1036,-982],[-8,-900],[-693,-747],[-8,-415],[-2287,-2199],[-853,-1660],[-1108,-636],[-1426,539],[-383,-1189],[-16,-650],[-223,-706],[-40,-1037],[423,-595],[8,-401],[-263,-913],[-8,-650],[-869,-1079],[327,-1204],[-502,-816],[-80,-968],[-167,-470],[-120,-996],[-295,-319],[-263,-1563],[494,-1175],[582,124],[32,-443],[-406,-152],[95,-733],[-87,-761],[-981,-719],[-398,-14],[-207,-691],[0,-1218],[-375,-594],[383,-1135],[-240,-747],[-541,208],[-1634,-719],[-470,-305],[-295,-581],[303,-996],[-439,-636],[-87,-1328],[-447,-277],[-72,-1079],[-557,-41],[-383,-456],[-781,332],[-271,-319],[-1044,-83],[-972,-456],[-160,-1148],[224,-1217],[-518,-498],[-471,124],[-40,-968],[-366,-637],[-430,-1521],[-240,1106],[-1036,678],[-422,14],[-191,-401],[-295,346],[-574,221],[-988,-443],[-1395,-1618],[-661,3002],[47,1687],[-717,1010],[-916,-55],[-319,-415],[-319,221],[-215,623],[-343,-42],[-334,-705],[-184,-1107],[-821,-318],[-470,-1480],[-606,-401],[-294,567],[-829,124],[-263,-816],[-678,-14],[-231,277],[-741,-1190],[-685,-193],[-439,-332],[-621,-222],[-375,332],[-319,-55],[-486,512],[-685,-180],[119,-539],[941,-1342],[263,-775],[32,-1148],[-120,-180]],[[471010,343781],[-327,83],[-438,-664],[-1267,761],[-941,125],[-39,345],[-550,471],[-40,387],[-383,788],[8,609],[-581,1259],[-558,97],[-88,940],[-343,346],[-342,830],[55,1134],[-167,401],[-733,402],[-24,276],[-725,28],[-96,830],[-231,346],[-813,-1065],[-319,249],[-924,-222],[-215,803],[-590,138],[-327,525],[-88,485],[-900,677],[-502,830],[-526,28],[-303,1411],[-383,941],[128,677],[-175,678],[-375,623],[-661,-28],[-495,968],[-701,899],[191,1328],[-151,305],[375,5795],[-10823,1771],[438,5990],[-621,124],[725,11177],[-10903,1798],[694,10693],[494,7359],[-6798,1161],[-1658,-1480],[-669,-1328],[-223,-1120],[-455,-539],[-964,-2297],[-4933,941],[900,12214],[-876,429],[797,12228],[-1953,318],[-64,-152],[-2924,-2753],[-1180,-1203],[-64,180],[-1100,193],[184,4205],[-7508,1356],[-1171,-17761],[-3961,747],[-669,-10029],[-1993,360],[-550,-42],[-3116,789],[-1323,-2172],[-749,-8106],[199,-235],[2598,-443],[-757,-10346],[-5052,940],[16,249],[-2375,415],[-16,-249],[-8265,1397],[-167,-2586],[-5547,926],[-4527,817],[-143,124],[-4854,553],[-3530,720],[-1084,249],[-120,-1370],[-996,125],[-151,-2130],[-12226,2005],[-103,1923],[-327,41],[112,761],[-319,1411],[-295,706],[-542,733],[-526,304],[-629,761],[-248,1314],[-637,1051],[-136,-235],[-1346,415],[-343,-401],[-1188,885],[80,1107],[-199,290],[64,1079],[-367,291],[-781,-139],[-661,-636],[-1451,-512],[-359,277],[-374,1010],[-407,512],[-860,774],[-215,0],[-686,913],[-900,0]],[[282689,231198],[-693,-1231],[-1515,-4261],[-1976,-5408],[-1180,-3292],[-159,-1771],[478,-609],[566,-2628],[-534,-2462],[-924,-2933],[-2304,-1341],[-119,-664],[72,-720],[279,-982],[39,-608],[-382,-1328],[-686,-637],[216,-2891],[-136,-539],[-566,-927],[80,-581],[-797,-1134],[-462,-1508],[-502,-83],[-973,-1051],[-111,-2241],[-2056,-2185],[-463,-747],[-366,-305],[-2654,-69],[-40,-166],[-2152,4316],[-4112,7995],[-7930,1314],[-24,-373],[-5905,774],[-72,-1106],[-518,802],[40,1079],[295,982],[151,83],[1562,-207],[949,1148],[175,1106],[630,291],[-1746,7027],[-1195,2517],[40,498],[-1427,2366],[-1514,802],[-765,512],[-327,484],[-95,761],[-1642,2019],[-231,595],[-726,318],[-470,802],[-940,637],[-415,678],[-541,276],[-853,-899],[-526,-194],[-247,305],[-231,830],[-534,733],[-1204,2338],[-3753,-4870],[-5699,-7414],[-2614,360],[-342,-761],[-96,-1300],[255,-457],[-351,-4717],[88,-13],[-478,-8272],[-351,-816],[359,-1259],[-168,-595],[-820,-13086],[2908,-428],[-478,-7512],[-4224,609],[-159,-429],[-383,484],[-1020,817],[-573,-97],[-351,442],[-2710,401],[-9531,1522],[-359,-5561],[-582,-10001],[-12161,1923],[-4957,789],[-949,-14497],[-5467,927],[-1442,276],[812,11482],[558,8534],[-6112,1024],[-7747,1314],[-733,1148],[470,28],[630,318],[263,1383],[32,830],[223,678],[-11835,1604],[-5244,-7109],[-964,-1439],[-48,-996],[-1076,-941],[-1355,-1411],[-48,-304],[-1968,-1770],[-1060,-1176],[-606,-899],[-598,-14],[-924,-567],[-749,-111],[-295,-415],[-1785,-830],[-207,-1549],[-1228,-692],[-462,208],[-1602,-443],[-1498,-996],[-343,-678],[-924,-982],[-1259,-761],[-877,0],[-3762,-5505],[-1131,-1162],[-1276,42],[-358,-3901],[-1658,304],[-996,-12643],[-1371,-20251],[1435,-14220],[-327,-747],[-80,-567],[-797,-1314],[-271,-180],[-318,-1134],[-200,-55],[-844,-3707],[-152,-941],[175,-622],[-294,-803],[-773,-1521],[47,-1079],[-287,-747],[80,-664],[-382,-706],[-550,-581],[-263,-733],[16,-553],[-335,-1646],[-582,-1466],[-271,-471],[-32,-2407],[-135,-1245],[-351,-2296],[-1235,1453],[-64,-899],[-13325,2047],[16,1148],[-7428,1107],[-64,-1010],[-6256,968],[-127,-1176],[-391,-1037],[-462,-1688],[-183,-1106],[279,-1605],[-64,-581],[255,-1286],[135,-1273],[-414,-470],[-8,-637],[422,-719],[367,-1342],[-119,-788],[-263,55],[302,-2185],[239,-152],[263,-2338],[503,-346],[231,-927],[446,-747],[-151,-415],[278,-429],[256,-816],[-112,-594],[223,-222],[-247,-1355],[375,-554],[-120,-608],[805,-1909],[478,27],[207,-359],[-159,-581],[263,-816],[510,-775],[183,-1162],[431,-429],[16,-705],[526,-1079],[151,-1342],[391,-97],[0,-636],[342,-526],[367,-1493],[382,-291],[303,-775],[271,-27],[136,-609],[-120,-1411],[-207,-207],[40,-720],[-359,-1480],[510,-622],[279,-913],[-175,-968],[335,-955],[270,-415],[216,-1300],[350,304],[303,-180],[399,180],[191,-1120],[-558,-1328],[399,-304],[191,-554],[-176,-484],[-350,-69],[231,-982],[-303,-650],[215,-429],[-271,-374],[-390,28],[-152,-553],[144,-484],[-4224,816],[-1307,622],[-2439,429],[-1283,-111],[-534,-207],[-462,401],[-407,-124],[-781,166],[-781,332],[-781,636],[-637,-401],[-5643,982],[-3219,6266],[-11747,1950],[-11269,-110],[-48,-1992],[-2965,-318],[-2311,-34153],[-6272,1065],[-8743,1494],[-8,17305],[0,16087],[0,22174],[8,14095],[-8,18107],[0,38385],[-7156,0],[1267,21911],[972,16876],[-1339,193],[152,4717],[-2065,222],[1164,21343],[-2431,7899],[-438,-401],[-56,-388],[-582,-387],[-605,-1010],[-1220,-664],[-589,-927],[135,-470],[-367,-1452],[-717,-2241],[-4009,6999],[-7738,1065],[677,12187],[1180,23308],[1084,-526],[11340,-1701],[1037,19241],[709,13058],[-6105,885],[215,5270],[471,14856],[4877,-594],[869,20306],[-3698,498],[159,3555],[9795,-637],[9794,-96],[12592,-1633],[-287,-5408],[9739,13279],[1148,20223],[4351,-83],[7005,-13016],[423,-235],[-16,-595],[14760,-6557],[1817,-788],[271,442],[924,346],[1355,-304],[550,498],[263,636],[1219,429],[454,-152],[208,277],[1163,249],[877,968],[558,1176],[805,733],[271,567],[908,844],[303,401],[183,857],[582,830],[422,1259],[447,553],[1139,263],[670,291],[550,913],[581,594],[670,471],[518,581],[462,-125],[965,277],[605,318],[694,830],[191,733],[271,401],[-8520,16157],[5292,6985],[-629,1287],[3395,4495],[-2654,4468],[-6766,11550],[-3244,5561],[9045,13473],[8329,-15257],[2303,4744],[3809,5284],[901,13916],[765,11758],[1092,16695],[621,9822],[168,2365]],[[116922,446253],[1171,17996],[18936,-2116],[-151,-3846],[4909,-470],[-176,-6778],[5986,-567],[8041,-927],[1562,-332],[11014,-2268],[7109,-982]],[[175323,445963],[5738,-803],[-1251,-21924],[10751,-1564],[-837,-11522],[-550,-10513],[-414,-6335],[-160,28],[-343,-7055],[5077,-526],[-534,-10955],[-96,-816],[343,-6211],[8281,-955],[6080,-912],[773,428],[104,-207],[861,595],[374,677],[24,830],[526,941],[359,-14],[239,1093],[550,-125],[231,360],[-104,664],[566,304],[-175,678],[127,858],[853,650],[64,609],[-263,1051],[95,705],[-127,471],[-96,1189],[343,1204],[622,788],[422,1010],[183,733],[-24,3652],[263,207],[-16,1065],[399,332],[462,1619],[3754,-941],[2885,-512],[279,4039],[5889,-1023],[7962,-1314],[-526,-7926],[3889,-623],[5196,-899],[-621,-9116],[-144,-2918],[-143,-1162],[-136,-2006],[-335,55],[-111,-1659],[-717,110],[-471,-6169],[-637,69],[-717,-12339],[5132,568],[-159,-1384],[1068,-193],[-989,-13708],[-860,1244],[-2064,4109],[-8074,-10195],[215,-28],[-6901,-8645],[-32,-332],[5690,-11813],[-892,-1065],[-1961,290],[-3499,-4302],[-940,-1189],[-88,-1729],[-3952,-5077],[-2399,-3140],[-56,-1023],[-263,-678],[-112,-1411],[10313,-19117],[510,706],[669,636],[510,1369],[-31,623],[-295,802],[16,789],[717,968],[797,277],[223,1162],[279,-14],[789,595],[693,-1425],[56,-554],[351,-318],[303,-760],[2893,-5713],[860,470],[996,152],[606,374],[542,1245],[638,968],[613,1106],[295,2546],[184,1134],[494,1010],[326,1438],[933,2034],[693,373],[1634,2421],[1020,1798],[662,747],[717,1286],[414,415],[56,388],[805,1079],[845,678],[621,290],[255,788],[1275,485],[1475,1079],[398,705],[192,1065],[0,1259],[103,664],[709,1549],[2694,-5325],[1291,1659],[1068,-1812],[646,-387],[1586,-2808],[2351,-4247],[-558,-760],[1506,-2988],[159,-194],[2893,-5727],[6655,-13071],[2614,3333],[5698,-11121],[-4192,-5464],[8,-609],[-334,-774],[820,-3030],[1180,-3555],[661,-2171],[-422,-2545],[8,-1010]],[[471010,343781],[614,-595],[32,-982],[398,-83],[805,-664],[725,70],[-16,-1273],[479,-3680],[454,-567],[263,166],[382,-498],[263,-1175],[399,-1287],[-183,-733],[278,-802],[710,-1384],[462,-1231],[-207,-636],[327,-678],[151,-650],[343,-360],[621,-1106],[96,-844],[-367,-318],[-231,-567],[-263,-111],[-255,-650],[630,-858],[597,-428],[24,-789],[558,-802],[781,-567],[1132,-443],[630,-982],[478,-277],[805,42],[215,-844],[-247,-1231],[271,-1051],[797,-291],[103,-747],[486,-761],[813,-138],[487,208],[199,816],[247,2863],[605,1369],[1013,789],[159,-443],[391,-1839],[526,83],[438,1452],[1179,235],[654,1259],[56,401],[470,498],[-72,595],[383,124],[350,1356],[-8,525],[734,554],[255,-346],[-64,-692],[590,-594],[207,-498],[366,69],[192,-858],[-96,-719],[470,-429],[128,-1120],[231,-747],[-152,-1121],[463,-1314],[589,-332],[184,152],[358,-830],[-79,-484],[589,-484],[518,-1259],[423,-415],[295,-636],[8,-844],[406,-1591],[167,-1286],[-725,-318],[-295,-526],[-693,-733],[-48,-1051],[-255,-304],[-279,-927],[-71,-664],[-423,-1010],[-518,-138],[-183,-1052],[-343,-733],[-709,-346],[-391,-788],[-87,-982],[406,-526],[399,-207],[278,-1301],[861,-2337],[9213,-692],[5786,-553],[-175,-4468],[3945,-346],[-184,-4689],[12736,-1798]],[[527467,280954],[-176,-927],[-844,-2283],[-327,-27],[-255,-844],[95,-2075],[431,-1314],[-367,-982],[-606,-28],[-454,-553],[-175,-830],[-678,-1148],[-1307,-1508],[-390,-111],[-486,941],[-478,-14],[-1172,-1508],[-1976,-221],[-1116,512],[-502,982],[-446,69],[334,1176],[-56,1093],[-263,290],[-685,166],[-932,471],[-319,-139],[-351,-567],[-605,-539],[-224,-816],[-382,-678],[-120,-595],[144,-1051],[-255,-706],[-949,-940],[-805,166],[-462,470],[-382,747],[-534,318],[-367,-14],[-486,-927],[2749,-10028],[-350,-125],[-3276,650],[-1323,-1687],[-1904,318],[-367,-4413],[359,-664],[-104,-733],[-311,-3652],[-72,-1327],[-4415,719],[-581,-8535],[-3180,263],[-1523,-1812],[-1299,-4012],[-534,-1493],[-565,-900],[-407,-1009],[-40,-637],[-3745,-4952],[-4280,-5353],[-279,-152],[-88,941],[670,9419],[494,6682],[406,5989],[-8734,1674],[-4965,927],[-869,-678],[-598,-9047],[470,-1106],[-302,-4178],[-351,-4232],[-590,138],[-143,-415],[-4838,913],[423,-913],[701,-3403],[-11484,2227],[311,3846],[-1395,276],[-96,-110],[-3801,774],[-853,291],[-2590,428],[-3515,664],[-374,-4924],[-303,-4191],[-542,-6903],[797,-152],[-199,-1743],[-32,-1507],[-1164,-11537],[-63,-1148],[-766,152],[-820,-11453],[-2925,332],[-120,69],[-2917,304],[-4758,886],[-7,69],[-5308,996],[167,2614],[-24,3168],[80,2130],[199,3334],[-3020,13],[151,-470],[136,-1162],[-263,-3859],[39,-858],[-366,-4357],[2646,-9752],[-311,-373],[335,-4413],[55,-4274],[-414,-1356],[-1474,-1369],[-1220,249],[-797,677],[-4239,996],[-3340,720],[-1626,387],[-4662,968],[-71,1397],[-279,1065],[613,8051],[-5666,968],[-335,28],[-143,-526],[-542,-498],[-120,-774],[192,-803],[-184,-235],[-263,-1729],[-311,-885],[-749,-263],[-175,-705],[-558,-637],[-159,-1853],[87,-429],[-287,-802],[8,-761],[-749,-526],[-223,-567],[-88,-899],[-597,-1273],[-638,-760],[-56,-1121],[-454,-1037],[16,-927],[-191,-374],[-431,-262],[-549,-1563],[-7293,1161],[757,10790],[48,7013],[423,-664],[1586,-207],[828,2821],[431,7359],[279,4385],[167,249],[40,996],[-6973,830],[-216,-27],[-478,484],[-494,96],[-510,1010],[-988,83],[-311,194],[-1427,-678],[-868,3251],[-3658,3071],[-1897,442],[-757,-1826],[-1634,-774],[-669,-2449],[-3029,581],[279,3887],[1467,-249],[988,13058],[-56,-110],[-6296,1189],[-64,139],[-6479,1272],[-773,553],[-462,-318],[-813,-110],[-654,262],[-2861,540],[279,1134],[-24,553],[295,1038],[56,1314],[-159,373],[-853,969],[900,871],[216,540],[0,1148],[-2248,359],[-80,194],[-1474,55],[-693,319],[-463,-125],[-1251,208],[-781,-222],[-773,955],[-2614,304],[-2845,235],[-494,97],[-550,387],[-175,-373],[-853,83],[4893,6183],[781,539],[-159,1688],[590,788],[1004,415],[215,429],[797,346],[829,11619],[374,5326],[351,6778],[-518,-401],[-693,-941],[-821,-691],[-447,-803],[-1426,-290],[-685,180],[-582,-180],[-1068,235],[-662,-747],[-454,-97],[-701,1287],[-80,719],[-327,539],[-805,56],[-980,2725],[-1235,1328],[-144,802],[311,1300],[64,761],[311,1356],[311,1770],[71,1370],[-430,1411],[606,1065],[-5149,843],[638,10043],[-8416,1328],[1171,16889],[279,3638],[-2773,484],[279,4150]],[[319373,315106],[159,1799],[-2526,414],[542,8549],[56,55],[709,10651],[199,3804],[1092,18301],[359,5505],[-72,0],[606,10043],[135,1563],[6288,-1024],[40,-249],[693,-97],[431,6599],[303,276],[-375,1148],[701,10873],[104,899],[-24,1355],[1411,1619],[302,650],[399,1383],[885,1245]],[[658327,203021],[-271,-885],[-558,249],[-701,-595],[-948,27],[-168,-553],[-366,-152],[-1881,373],[-327,1190],[-725,-484],[-2407,664],[-709,871],[-765,235],[-216,844],[112,346],[-375,429],[-374,-14],[-510,-636],[-550,871],[-590,443],[-621,138],[-88,443],[-741,1037],[-303,955],[-1403,567],[-558,484],[-900,1231],[-80,1452],[-470,471],[622,6128],[518,664],[23,567],[431,844],[677,470],[-24,761],[439,802],[526,290],[-526,1923],[-582,2365],[-558,208],[-247,-194],[159,-719],[-741,-346],[-534,166],[-422,692],[-614,429],[-470,-803],[-669,-138],[-758,581],[-143,-1010],[-303,-498],[-119,-1259],[-311,-636],[-279,-27],[-255,-678],[-454,512],[-949,2033],[-422,1079],[-510,664],[-933,-69],[-1012,470],[-183,249],[-542,69],[-582,678],[8,415],[-406,692],[-853,857],[-430,55],[-534,706],[-941,-498],[-717,194],[-367,677],[-996,402],[-470,-70],[-693,194],[-455,-415],[-597,194],[-1204,-235],[-526,470],[-932,-235],[-1626,-1619],[-741,429],[-813,277],[-319,359],[-406,-110],[-550,-1439],[-478,221],[-24,568],[-638,1424],[-526,139],[-741,-318],[-399,747],[-8,580],[-781,595],[-653,-484],[-247,484],[-454,263],[-335,1245],[-861,332],[-542,553],[-311,526],[-1099,-346],[-550,111],[71,1162],[-796,2075],[-287,954],[111,540],[-191,387],[215,1272],[-271,637],[-542,318],[-661,802],[63,595],[-645,692],[-622,1120],[-430,277],[-303,830],[-319,304],[-932,1535],[32,540],[-168,1355],[-446,277],[-295,540],[-948,1148],[-263,871],[-335,125],[-566,-360],[-868,83],[-534,249],[-471,-678],[-334,-110],[-805,152],[-869,3140],[-382,0],[-869,2517],[-518,-235],[-486,470],[-32,886],[-367,470],[-79,484],[175,581],[-319,429],[-367,-97],[-342,581],[-845,512],[-375,636],[-183,899],[-287,235],[40,595],[-382,1176],[-64,816],[-191,457],[0,857],[294,346],[-422,1784],[327,1232],[-207,926],[-781,872],[-295,733],[47,719],[-637,1688],[-853,387],[-621,-332],[-526,180],[-247,443],[-590,428],[-351,789],[-1100,221],[-542,-456],[-733,1341],[-709,1702],[-861,-152],[-869,83],[-302,-222],[-359,623],[72,442],[-447,388],[72,359],[-358,830],[-311,97],[-1012,1536],[-479,304],[-159,1134],[247,1383],[215,623],[-916,1383],[-502,97],[-120,761],[-494,678],[-391,940],[-1075,1204],[-893,276],[-422,360],[-622,1079],[127,622],[-318,457],[-295,816],[-853,1093],[-295,-56],[-303,595],[80,816],[-343,1314],[-478,0],[-454,-290],[-677,512],[-136,-208],[-805,581],[-622,-415],[-533,-733],[-399,208],[-120,594],[-565,595],[-510,69],[-399,-304],[-462,263],[-861,-221],[-390,-374],[-471,-1093],[-358,-276],[-303,-1010],[-446,-429],[-447,28],[-223,-1010],[-685,-97],[-534,-498],[-399,-1162],[-191,-69],[-478,484],[-590,-124],[-1155,-14],[-391,-291],[-175,-525],[103,-1425],[303,-194],[-71,-885],[-279,-705],[-893,-180],[-239,-318],[-1084,-153],[-430,-373],[-311,-553],[-1259,-913],[-734,-1301],[-31,-581],[-327,-580],[-622,27],[-916,374],[-72,1922],[-638,-262],[-629,498],[-176,-761],[-478,-56],[-813,-774],[-422,-166],[-964,968],[8,-802],[183,-816],[-359,-484],[-247,-872],[-390,-318],[-383,-2587],[-255,-1093],[-207,-304],[-757,-332],[-1602,-69],[-1753,-304],[-1164,-69],[-518,124],[-582,346],[-765,235],[-247,-318],[-247,678],[-725,401],[-677,-139],[-216,-677],[-518,-56],[-175,263],[-901,-41],[-653,581],[-1275,-236],[-279,346],[-287,-290],[88,-1356],[-263,-249],[-869,-110],[-112,-651],[-510,-345],[-95,-498]],[[524127,479161],[-382,1051],[143,1065],[447,540],[310,1092],[48,1716],[327,1521],[-175,1024],[135,581],[96,1660],[-96,567],[813,2586],[598,471],[295,1328],[-40,2227],[-239,761],[358,733],[471,304],[111,512],[-566,1563],[-438,581],[-183,802],[231,968],[87,1135],[279,636],[-414,705],[-677,443],[-96,844],[-199,470],[40,567],[-574,1065],[-208,678],[-111,3666],[111,1106],[702,457],[653,1480],[734,346],[892,-249],[1068,373],[271,-55],[654,456],[183,332],[621,236],[526,428],[909,-539],[215,-539],[670,1397],[430,207],[263,415],[119,719],[861,733],[622,1273],[271,1217],[478,56],[351,442],[534,1245],[836,803],[455,-14],[573,968],[511,304],[87,761],[367,982],[1036,1217],[319,858],[310,152],[670,-235],[167,180],[670,1757],[-160,1328],[88,1162],[-255,428],[247,747],[-159,830],[462,498],[693,471],[630,1231],[398,318],[295,-249],[367,249],[-1801,3776],[565,2089],[3890,-3251],[127,1619],[-48,774],[439,139],[103,580],[-207,319],[-255,982],[438,774],[176,568],[438,816],[406,166],[750,0],[414,5284],[709,-152],[176,1964],[589,290],[72,968],[-454,734],[908,-180],[502,-789],[-71,-442],[167,-775],[446,-1148],[375,83],[311,-581],[366,83],[88,-595],[829,208],[398,387],[471,180],[143,1037],[1705,152],[750,-359],[438,802],[143,1010],[-95,927],[159,1217],[558,595],[375,691],[406,346],[1211,1411],[208,346],[550,-28],[573,498],[168,955],[390,885],[837,1314],[398,1148],[678,1024],[351,733],[127,954],[478,955],[1419,1673],[725,761],[375,-263],[709,222],[789,-263],[414,553],[479,69],[398,858],[646,581],[613,747],[988,152],[495,277],[685,1508],[295,221],[103,927],[263,498],[224,1314],[-327,871],[167,609],[550,193],[741,-193],[757,761],[255,27],[1084,872],[829,110],[422,485],[487,41],[534,-318],[757,1383],[199,1231],[-207,512],[16,567],[247,761],[653,1259],[319,249],[351,982],[239,-1287],[-96,-1328],[159,-1009],[256,-415],[15,-706],[224,-581],[1028,-429],[669,-110],[486,-360],[391,-871],[430,-609],[-48,-1065],[223,-2075],[-111,-443],[175,-498],[510,-235],[1291,-1397],[351,-705],[1522,-1480],[279,96],[1538,-359],[861,567],[255,-1618],[247,-429],[1554,-471],[534,-995],[693,138],[176,373],[757,747],[1315,-124],[1426,636],[367,789],[295,4412],[311,-249],[438,470],[399,-207],[804,83],[503,761],[597,14],[287,442],[1339,-235],[80,415],[1108,-111],[1394,692],[1028,-83],[2168,-5547],[279,-249],[-207,-2739],[16,-470],[-224,-650],[-701,-955],[-215,-857],[-247,-208],[-614,235],[-621,-456],[-486,-954],[-152,-1287],[-327,-705],[-295,-70],[-828,-1189],[-231,-636],[-789,-1093],[-192,-42],[-542,-1701],[-438,-194],[-175,-899],[-271,-553],[103,-968],[789,-1909],[-255,-706],[120,-442],[757,-236],[502,-1175],[654,-1840],[988,-2545],[4056,4232],[2455,2601],[3363,3707],[725,844],[3395,-706],[3284,-650],[-64,-996],[0,-4869],[-72,-511],[526,-996],[463,-1605],[-248,-678],[-541,-512],[159,-539],[-167,-650],[613,304],[311,-2393],[630,-166],[852,941],[319,55],[407,-636],[207,-747],[191,-1218],[-151,-1825],[1171,-319],[-470,-4965],[-478,-4538],[-2032,-6141],[1346,-222],[3603,-4357],[-4718,-10084],[1378,-1660],[-5602,-7621],[-757,-5713],[311,-42],[3482,-2241],[1610,-4495],[-1602,-3818],[1801,-8590],[-4024,-5035],[111,-1342],[-87,-277],[95,-1438],[-95,-1453],[215,-1701],[510,-636],[446,-152],[646,470],[382,-470],[630,345],[876,83],[319,249],[319,623],[-255,276],[64,1052],[231,636],[645,125],[8,-360],[526,-1273],[662,415],[430,-138],[470,249],[518,512],[558,1494],[16,664],[407,1258],[255,194],[119,1549],[-135,2753],[207,415],[494,-249],[909,180],[1195,2351],[741,1342],[1690,1162],[502,927],[-104,401],[-1259,235],[-1108,692],[-159,719],[422,69],[168,1785],[422,428],[765,166],[415,747],[868,1218],[48,691],[-478,1135],[-104,1397],[566,1466],[391,332],[350,-138],[662,511],[582,28],[637,-2601],[223,-1646],[223,-221],[1140,0],[502,277],[438,899],[104,747],[40,1909],[119,249],[526,-318],[861,110],[-64,-747],[271,-595],[1395,-1217],[335,-747],[414,-456],[526,774],[550,374],[247,-138],[622,581],[1100,1563],[302,760],[104,2781],[-24,1424],[-231,817],[-391,207],[-470,595],[-287,816],[-558,2047],[112,678],[582,526],[-72,525],[160,1190],[286,636],[638,388],[526,-111],[-24,885],[407,844],[725,-1107],[1474,-1051],[741,-207],[989,677],[-40,664],[-471,581],[606,1093],[1172,-69],[326,263],[399,2697],[-279,55],[-112,678],[279,471],[144,733],[478,719],[351,111],[534,-360],[71,360],[-342,484],[119,456],[781,429],[526,-373],[709,1521],[263,1038],[295,733],[502,719],[64,1895],[-135,512],[-1036,318],[-383,650],[295,1480],[-375,650],[-557,-249],[-534,581],[263,1342],[39,636],[-294,277],[-160,789],[112,608],[438,775],[781,235],[1387,733],[1586,553],[470,554],[598,1826],[613,940],[853,-55],[1227,-221],[566,-249],[741,83],[279,235],[718,69],[836,387],[423,-69],[223,-678],[614,-207],[279,249],[1362,304],[1164,609],[661,249],[773,567],[702,-14],[653,-415],[486,581],[200,498],[677,2559],[574,1508],[462,996],[303,996],[231,1300],[104,1037],[255,899],[438,498],[669,-179],[1897,1742],[176,-69],[645,858],[72,1065],[-335,291],[223,816],[1371,1992],[143,1106],[279,1051],[407,720],[598,55],[669,830],[80,830],[-231,512],[0,1549],[278,360],[248,-346],[781,-208],[940,429],[909,-207]],[[692557,560137],[868,-2103],[303,-415],[948,14],[710,-304],[143,-816],[518,-1149],[343,-1355],[135,-3375],[303,-1052],[8,-940],[-167,-1024],[-542,-1881],[-56,-1563],[375,-968],[773,-305],[239,-581],[-96,-1590],[199,-623],[742,-1314],[948,-1134],[1140,-886],[494,-290],[319,-457],[788,-746],[176,-1425],[199,-692],[112,-1715],[-88,-996],[-199,-802],[-295,-208],[-446,138],[-120,-1078],[335,-983],[821,-373],[645,-553],[183,-567],[9094,4246],[390,1204],[781,843],[247,-83],[168,692],[406,-152],[255,387],[295,-678],[518,97],[917,-595],[398,-27],[383,-830],[605,-720]],[[717772,530410],[303,-318],[781,166],[821,-180],[295,-1134],[88,-1134],[-263,-844],[-279,-1604],[-48,-983],[-542,-996],[-104,-1798],[-358,-1051],[199,-1037],[-271,-775],[-239,-208],[319,-1577],[-247,-373],[-279,-1259],[-287,-747],[-287,56],[-104,-1148],[199,-623],[487,-332],[223,-387],[-255,-1287],[263,-235],[87,-1425],[383,319],[80,719],[518,83],[111,-429],[486,-581],[614,-180],[255,-691],[-231,-1052],[88,-1079],[159,-359],[-494,-969],[135,-1521],[-143,-609],[223,-1494],[-359,-622],[72,-1259],[-255,-1231],[606,-180],[255,-359],[821,594],[223,-249],[486,637],[438,-374],[88,-830],[295,-512],[231,70],[223,-1066],[-167,-553],[350,-691],[-215,-291],[128,-1508],[430,-1051],[-96,-456],[168,-1287],[295,-636],[-399,-1010],[279,-456],[128,-623],[-136,-387],[-637,-526],[-574,-1051],[-518,-443],[-64,-484],[-661,-1452]],[[721893,483048],[-263,221],[-439,954],[-3204,-2185],[-1219,-650],[-414,-56],[-2662,-2157],[-486,1424],[-997,-387],[-175,-512],[-103,-1508],[382,-2116],[80,-927],[-32,-1743],[199,-982],[757,-55],[431,636],[637,678],[813,-290],[303,-291],[590,-1618],[-24,-554],[-454,-885],[0,-553],[804,-332],[758,180],[645,470],[478,111],[359,-153],[223,-677],[478,-14],[725,1079],[72,14],[893,-111],[24,761],[350,1065],[40,927],[-175,747],[-454,912],[2797,2394]],[[723630,476865],[502,428],[2981,-8908],[-4886,-4191],[470,-1937],[192,-1286],[183,-2061],[-56,-941],[96,-636],[303,-692],[366,-373],[630,138],[1163,1273],[455,401],[287,484],[1602,2296],[677,692],[1291,442],[1785,1079],[1522,485],[1291,-1107],[343,-636],[239,-2020],[-773,-8714],[996,-236],[176,-816],[-40,-733],[518,-581],[-279,-539],[167,-429],[821,-387],[64,-927],[390,-291],[-183,-511],[96,-512],[366,235],[208,-374],[430,-41],[-56,-1370],[415,-843],[390,-139],[805,-1162],[327,-276],[414,166],[391,-844],[653,-304],[-32,-969],[486,-332]],[[723781,449725],[239,221],[479,1591],[534,1300],[-144,733],[-446,374],[-343,1148],[-3833,788],[-96,-1272],[678,-125],[-375,-3914],[3307,-844]],[[702901,465743],[2343,-470],[407,5049],[-2336,525],[-414,-5104]],[[693879,382858],[-653,-913],[-853,-2420],[-1163,-2310],[1570,-4247],[143,-1383],[662,0],[621,595],[383,663],[279,-124],[1729,692],[1714,553],[1235,622],[1036,706],[366,761],[295,2296],[1108,1245],[367,844],[550,1991],[119,6156],[8,2434],[175,2048],[32,3818],[-191,5394],[446,2601],[-581,180],[-487,871],[-79,609],[-4073,-10070],[-3570,-8812],[558,-1272],[-176,-1453],[-1570,-2075]],[[693688,316268],[526,913],[733,1715],[431,-179],[526,2102],[-3061,2186],[-175,-2200],[534,401],[295,-207],[-247,-858],[-933,498],[-326,-415],[-3061,1038],[-151,-2034],[343,-2075],[4566,-885]],[[692676,320598],[-8,-14],[8,0],[8,14],[-8,0]],[[790957,427883],[343,-594],[557,-291],[511,14],[597,-318],[431,747],[1036,-249],[87,982],[534,235],[136,802],[263,-69],[64,706],[-447,110],[-303,498],[88,968],[343,747],[494,194],[127,360],[510,-374],[176,305],[613,415],[-47,1604],[183,401],[550,263],[582,-138],[820,359],[550,651],[606,995],[-279,817],[88,290],[605,42],[550,-346],[1188,-152],[709,-927],[144,788],[470,14],[422,581],[16,927],[207,429],[0,1023],[335,471],[494,235],[136,761],[542,345],[-24,1121],[135,470],[534,401],[279,775],[677,636],[391,-401],[175,387],[-223,678],[-430,747],[-383,249],[-159,512],[390,290],[-87,526],[-463,-41],[72,650],[367,-429],[342,470],[359,194],[287,-664],[-48,-526],[781,194],[-430,788],[-502,526],[175,263],[566,138],[151,-484],[534,360],[-87,1701],[-415,-318],[-87,-802],[-479,179],[-215,858],[40,1107],[566,276],[199,512],[303,14],[-56,-927],[454,-401],[232,692],[-96,926],[-319,692],[-358,-387],[-351,55],[-415,415],[-31,788],[414,194],[653,-443],[471,319],[-200,553],[-717,415],[-255,415],[-111,788],[135,526],[542,871],[319,153],[558,-941],[534,-622],[398,-249],[327,262],[151,554],[136,2559],[103,857],[351,1494],[3562,4357]],[[815710,467776],[4384,6377],[749,3472],[1036,3569],[837,2282],[3140,5796],[16784,31082],[31615,-138],[31894,-152],[68594,290]],[[974743,520354],[10592,-78375],[8225,-61057],[6439,-47432],[-27192,97],[-63749,-97],[-1785,0],[-414,-747],[-797,-706],[-1220,-484],[-526,512],[-653,1439],[-486,304],[-957,-263],[-438,-858],[-215,-760],[486,-1010],[-104,-249],[-693,14],[199,-554],[-159,-1244],[-239,-595],[-582,-471],[-207,-899],[-407,-719],[80,-830],[-104,-747],[-446,-761],[-311,-276],[2343,-512],[-239,-2767],[-2040,401],[96,-1134],[358,-1120],[-103,-1135],[-319,277],[-112,-1286],[279,-235],[702,166],[988,-540],[319,152],[661,-97],[-56,-705],[-629,138],[-88,-996],[630,-138],[-279,-3375],[-1028,304],[-1379,304],[-64,-1770],[215,-1619],[-111,-318],[-606,180],[-885,-774],[-836,-56],[-319,-525],[-375,-983],[-303,-1314],[-24,-581],[327,-843],[-853,-236],[-406,-290],[-829,-249],[-351,249],[-183,-484],[287,-1079],[-454,-636],[-319,-1425],[-701,-1038],[-678,-207],[-135,-872],[-335,-359],[-940,14],[-247,-595],[-510,97],[175,1134],[-271,733],[-566,457],[-478,650],[-885,345],[-223,955],[-430,470],[-176,816],[-430,733],[-853,568],[-2948,650],[-455,-4703],[-143,567],[-1196,1425],[-494,1424],[-111,1231],[-694,803],[-207,581],[-566,968],[-287,775],[-876,415],[-263,401],[-152,857],[-430,844],[-438,-360],[-255,-691],[-606,-595],[-550,28],[-717,-1024],[590,-443],[16,-747],[-598,-857],[-478,-152],[-359,733],[-630,415],[-749,1563],[-462,277],[-805,968],[-637,263],[-1044,-609],[-319,318],[-558,-1134],[-311,-42],[-287,886],[-717,802],[-725,-318],[-845,678],[-144,-70],[-478,1066],[-87,553],[-279,443],[-72,746],[-407,844],[303,747],[479,-193],[262,636],[375,111],[486,1715],[247,332],[-263,664],[303,1729],[-143,581],[159,927],[-422,456],[-263,927],[-789,1037],[-965,249],[-550,623],[351,1009],[-80,637],[-255,484],[-629,456],[87,512],[-629,733],[-160,1176],[-255,719],[319,581],[-191,955],[-733,705],[-550,-83],[-311,-387],[144,-540],[-383,-2310],[-414,-816],[-120,-650],[-335,28],[-1115,1023],[-423,-69],[168,-1051],[533,-802],[-725,-2034],[-693,-581],[-701,111],[-399,-221],[-72,-1453],[-239,-1148],[-701,-235],[-566,332],[-502,885],[-255,-539],[-430,-97],[-160,429],[-558,-332],[-454,-1563],[-223,-235],[-56,-747],[-510,-664],[-765,-1923],[-454,539],[-725,-13],[-335,179],[-407,-539],[-191,124],[-478,-719],[80,-567],[-271,-194],[-32,-1189],[-335,-249],[-398,83],[-439,1411],[-661,332],[-694,179],[-215,-332],[-414,332],[-215,-843],[-678,-360],[-167,-484],[-486,1314],[-805,443],[-566,1424],[-8,554],[-470,55],[-335,650],[-1044,-525],[-48,-360],[-574,-498],[-358,194],[-80,1051],[367,705],[486,263],[263,457],[661,13],[598,-442],[534,-28],[-917,5782],[160,913],[-175,553],[406,526],[183,650],[-119,387],[319,3735],[-32,623],[-534,429],[-965,-429],[-565,193],[-208,-1175],[-1259,-319],[-813,-456],[-358,-595],[-550,-83],[-367,457],[-56,788],[-310,498],[111,775],[-159,719],[287,719],[-144,1245],[104,706],[478,1203],[16,775],[215,899],[367,318],[24,761],[-1196,1881],[-64,664],[-781,208],[-454,484],[-303,-1135],[-924,-622],[-351,166],[-255,-1038],[-630,609],[-71,1065],[-502,567],[-136,1121],[-653,1286],[-1427,429],[-183,733],[-694,899],[-286,-207],[-200,1023],[-199,0],[-566,1010],[-16,1121],[215,415],[-270,1037],[-1180,304],[-104,-276],[-518,41],[-398,-442],[-940,345],[-343,-608],[-96,-982],[-510,-498],[-96,-955],[184,-1065],[-80,-2559],[-406,-581],[47,-1286],[-191,-982],[-56,-900],[-199,-276]],[[426604,667104],[693,11191],[2184,-457],[414,4039],[4073,-525],[6240,-886],[63,927],[670,11896],[151,1964],[-5076,554],[-1817,290],[-1236,55],[1291,11191],[-4590,636],[582,13086],[629,14386],[64,1632],[654,12228],[3100,-567],[1450,1937],[15637,-2504],[-463,-7207],[4503,-12878],[3913,-664],[2973,-1729],[271,4219],[87,387],[144,3763],[207,4329],[-215,277],[167,2739],[13102,-2158],[-733,-1812],[303,-166],[120,-1038],[8041,-4343],[6288,-1010],[159,69],[207,899],[-183,567],[152,1259],[-200,678],[80,526],[-183,1258],[462,2822],[-279,733],[24,803],[940,1756],[176,983],[-16,774],[581,1024],[375,1051],[414,318],[319,650],[-103,955],[-224,761],[24,456],[447,802],[390,1245],[558,1093],[1578,2573]],[[496186,754941],[128,-733],[294,-470],[271,-1259],[423,-484],[191,-1287],[598,-1065],[271,-816],[645,138],[223,-512],[415,-124],[964,567],[207,-290],[542,41],[279,-401],[375,41],[366,-484],[327,263],[646,-194],[526,-387],[837,111],[502,-457],[310,-41],[471,401],[398,69],[853,-470],[406,-415],[1148,-581],[510,138],[869,-567],[757,-41],[837,-817],[1370,-484],[789,-442],[383,-609],[621,-318],[598,-719],[367,-664],[685,-789],[446,-1521],[335,-581],[-40,-692],[231,-830],[232,-1715],[414,-1107],[-8,-1065],[167,-844],[638,-1964],[1195,-1369],[112,-1079],[295,-609],[430,-443],[526,0],[845,415],[526,498],[646,1162],[876,56],[829,470],[1251,-470],[686,276],[534,-27],[709,622],[343,-28],[510,-498],[175,-539],[311,-166],[845,387],[804,-262],[487,-1010],[382,-388],[502,-1231],[247,291],[470,-291],[646,-69],[255,-442],[335,124],[56,-567],[749,-318],[446,124],[239,-567],[287,512],[582,-208],[876,56],[742,-498],[494,456],[1131,263],[224,678],[693,277],[311,-166],[629,414],[287,0],[709,1439],[686,111],[119,636],[359,871],[677,-221],[335,83],[446,443],[781,-346],[192,180],[151,1272],[295,236],[558,-14],[717,-388],[399,-27],[717,318],[789,166],[741,1355],[542,678],[558,1245],[8,1605],[175,871],[462,581],[327,-27],[439,-415],[382,55],[239,401],[144,802],[-184,664],[0,692],[168,733],[685,719],[191,733],[72,2449],[247,1176],[-8,1314],[-359,2462],[136,415],[470,484],[-64,623],[455,1480],[342,332],[1156,511],[510,512],[462,-359],[869,1134],[327,1369],[454,235],[375,830],[87,969],[399,760],[398,1273],[-175,899],[741,-221],[303,290],[319,830],[486,291],[-391,913],[-103,899],[-335,844],[295,428],[111,568],[526,622],[8,1203],[965,913],[255,734],[478,553],[406,940],[231,1370],[518,41],[455,-332],[581,512],[16,733],[399,1301],[335,304],[-208,733],[128,304],[685,595],[622,-41],[303,733],[-56,346],[-430,664],[446,1189],[-375,636],[-215,651],[-661,-56],[-239,1010],[287,802],[47,2698],[-247,428],[-143,830],[-407,97],[192,1314],[-152,664],[-382,222],[-470,-388],[-829,235],[-239,581],[103,374],[606,498],[56,567],[-455,1259],[48,678],[-215,193],[-446,-553],[-670,-360],[-103,650],[334,1218],[-279,498],[3643,-720],[47,-677],[319,-263],[-350,-1135],[-184,-954],[502,-277],[303,-553],[-175,-830],[470,-747],[375,42],[271,996],[1020,-554],[183,-968],[-311,-2061],[56,-1176],[661,152],[718,678],[502,-152],[151,-401],[215,-1383],[192,-125],[573,470],[463,70],[534,-1121],[454,-429],[3634,-1701],[183,-166],[957,512],[829,-388],[804,-138],[654,180],[1164,1314],[366,69],[1769,1314],[2351,3555],[1268,222],[326,1175],[1004,1384],[431,1853],[-56,1121],[-422,539],[-216,1038],[-1131,2074],[-558,706],[-175,622],[-255,1494],[-853,2421],[-183,1107],[-550,760],[-271,139],[-176,677],[160,388],[-423,1480],[-358,622],[-176,2075],[-223,-55],[-255,1203],[191,720],[-334,940],[223,595],[406,277],[263,1037],[-135,761],[263,1314],[-263,1632],[-303,1162],[-534,443],[-454,3417],[207,373],[1323,97],[964,-1868],[574,-2323],[1578,-1494],[399,456],[1530,540],[79,1106],[829,1563],[980,263],[734,733],[733,360],[103,-1065],[7317,9268]],[[601640,829416],[263,-1135],[589,-1909],[-247,-2005],[-574,-816],[-103,-1176],[598,-97],[526,-761],[63,-733],[-462,-387],[271,-1287],[391,-719],[844,-968],[168,-678],[637,-678],[231,-1355],[542,-1370],[383,-221],[454,622],[1004,-1549],[-183,-346],[32,-733],[574,-470],[199,-1107],[135,-1687],[16,-581],[582,-568],[215,-1590],[638,-969],[319,-179],[-48,-720],[-399,-193],[-207,-484],[-1442,-1688],[-184,-1203],[-629,-803],[390,-664],[486,-249],[510,-595],[192,-636],[0,-802],[-630,-5533],[303,-1259],[590,-332],[1012,-2089],[781,-1411],[382,-152],[343,-843],[765,511],[359,-622],[295,373],[821,-760],[15,-540],[271,-636],[510,-609],[311,-1051],[455,290],[207,581],[1052,-788],[199,-858],[518,14],[526,-816],[199,-899],[470,608],[455,208],[295,1134],[502,28],[478,636],[223,-41],[566,733],[319,138],[159,-664],[590,-1023],[247,-14],[534,-844],[287,55],[526,-844],[111,-567],[478,-193],[247,-927],[503,-111],[-40,-512],[422,-830],[88,-857],[988,-872],[64,-885],[342,-1134],[311,-304],[-87,-900],[374,-1466],[733,-470],[710,14],[1084,-222],[773,56],[231,553],[438,373],[924,111],[232,-249],[239,-1508],[1044,222],[629,1355],[463,-802],[478,650],[342,194],[853,-581],[383,387],[446,56],[406,-761],[678,-706],[558,595],[-207,609],[-88,1245],[845,2102],[844,-512],[1021,-1037],[143,-1162],[255,-415],[550,-235],[127,-1162],[455,-955],[510,-567],[454,-249],[223,-525],[351,-235],[725,110],[996,1079],[558,-304],[112,-623],[8774,-1701],[199,1259],[247,318],[-119,705],[215,927],[399,415],[653,291],[454,-139],[678,-1231],[582,706],[358,-111],[199,-387],[431,553],[597,180],[630,1632],[550,28],[319,359],[414,-179],[606,276],[813,55],[502,443],[502,138],[430,817],[853,13],[191,-843],[582,-346],[191,-996],[359,-291],[255,-1009],[693,-623],[208,-595],[820,-262],[-183,-789],[-231,-166],[247,-747],[335,-1660],[350,-138],[263,-512],[-286,-844],[-24,-470],[287,-816],[454,-761],[167,-678],[-48,-788],[-263,-1314],[-79,-1951],[-263,-1480],[103,-678],[-271,-1037],[-422,-844],[-311,-207],[-103,-637],[-861,-760],[-152,-886],[0,-1203],[-215,-429],[24,-1024],[-709,-733],[765,-1424],[-534,-1315],[-96,-1590],[407,-1038],[-223,-567],[-56,-733],[247,-1245],[-423,-830],[-79,-733],[183,-277],[-127,-1120],[-399,-1231],[-367,-719],[-350,539],[-534,401],[-152,678],[-892,-567],[-375,-955],[255,-1231],[343,-567],[88,-1328],[-845,-1466],[-446,-235],[-335,-968],[56,-1024],[-88,-872],[143,-1189],[-247,-830],[-24,-816],[-191,-706],[1060,-1162],[462,-1328],[1084,-677],[152,-554],[-72,-968],[661,-2531],[853,871],[462,-166],[550,374],[-47,996],[366,1189],[-72,512],[144,1342],[613,83],[327,-374],[662,-166],[271,-332],[406,139],[502,-263],[239,-484],[359,166],[311,-249],[916,-180],[558,498],[542,-374],[335,-1203],[669,-69],[112,-318],[582,-236],[366,-539],[303,-830],[797,-277],[40,595],[502,-263],[239,1370],[454,263],[231,-761],[1005,816],[-24,526],[486,830],[279,249],[350,843],[415,-913],[924,512],[455,-304],[1012,55],[605,360],[72,567],[494,719],[526,512],[462,1065],[-8,1079],[263,1411],[487,-28],[733,180],[494,470],[518,-387],[478,498],[239,-111],[709,706],[303,1300],[327,0],[271,-747],[940,1356],[-398,719],[207,374],[733,2891],[367,-775],[438,705],[606,-152],[311,194],[534,1771],[-215,415],[79,857],[-279,387],[4431,-899],[1602,-290],[9859,-2047],[40,25299],[13253,14],[8,16669],[8,13417],[27144,-180],[139069,595],[65088,1134]],[[954405,787129],[-1084,-2088],[-1004,-1757],[-1060,-2103],[-311,-1009],[-486,-208],[-263,-512],[-454,-1715],[-478,-1494],[-32,-1189],[-144,-1702],[192,-4454],[-128,-664],[136,-2974],[-208,-3541],[-55,-2670],[-375,-2476],[-343,-3458],[-398,-1010],[-558,-456],[223,-2227],[-96,-1812],[48,-2103],[-542,-1743],[-478,-1051],[303,-11080],[143,-4094],[598,-2822],[654,-2476],[805,-1812],[948,-3016],[502,-1798],[670,-1480],[557,-401],[957,-2463],[502,-1493],[486,-900],[327,-1231],[350,-677],[224,-900],[111,-1867],[-111,-941],[263,-1867],[350,-1231],[1068,-4911]],[[956214,695253],[-60162,-650],[-69814,-166],[-7953,28],[-19900,83],[-36485,318],[-16728,194],[-19502,276],[24,-11412],[72,-28412],[40,-21302],[16,-5893],[-48,-1480],[-1004,-3624],[-2654,-4343],[-893,-1024],[-1307,-1231],[-861,-1328],[-1203,-1978],[-669,-719],[-742,69],[-597,-208],[-367,-788],[-303,-2448],[-263,-526],[-685,-802],[-789,-1840],[-215,-360],[550,-1023],[175,-1135],[-80,-1217],[112,-940],[223,-747],[-279,-263],[-566,719],[-207,-207],[16,-1038],[-168,-1010],[-1275,28],[-223,581],[-486,-401],[-781,387],[-630,-180],[-534,388],[-749,-208],[-478,-567],[-239,-609],[-558,-83],[-494,-636],[-614,-1023],[-589,-222],[-542,-442],[-279,-526],[-431,802],[-1227,-180],[-295,-442],[-964,1106],[-335,1342],[-693,982],[-415,69],[-374,-4855],[-494,470],[-447,-359],[-63,-360],[-670,-1272],[-247,-236],[-350,194],[-471,-609],[-581,249],[-359,761],[-391,443],[-279,2089],[-366,138],[-32,498],[-438,429],[-399,-263],[-32,-1079],[-263,-1134],[255,-471],[-295,-843],[-255,-222],[-223,-1037],[-111,-1134],[685,-1979],[-8,-332],[359,-899],[56,-442],[438,-14],[598,636],[103,-1037],[295,-872],[956,-180],[734,-498],[167,-290],[24,-1688],[-80,-677],[295,-1411],[1092,-1619],[-239,-899],[-423,-2545],[-358,-401],[-566,-152],[-135,-969],[262,-2240],[-15,-1896],[478,-428],[-200,-609],[80,-1950],[-996,-2476],[-717,-1619],[-1180,42],[-2407,-2725],[-23,-83]],[[956214,695253],[4622,-13722],[120,-1079],[-135,-940],[470,-4869],[143,-802],[662,-4883],[135,-3486],[694,-2822],[342,-470],[144,-1494],[-192,-3901],[160,-2780],[-303,-1564],[247,-3900],[104,-637],[-80,-1009],[-343,-982],[-335,-1467],[-637,-1411],[-454,-802],[-375,-443],[-111,-3624],[71,-774],[-263,-1342],[-103,-2227],[-845,-1785],[-175,-871],[11707,-86799],[3259,-24014]],[[815710,467776],[-4526,720],[-829,484],[-2981,2600],[-1291,1564],[-454,83],[-1108,-111],[-813,373],[-1068,830],[-1633,872],[-463,-194],[-693,-1259],[-669,-511],[-1156,829],[-701,263],[-335,-138],[-805,-788],[-1092,-1439],[-414,-429],[-590,-41],[-486,262],[95,1107],[335,470],[781,402],[757,636],[144,581],[-104,456],[-430,305],[-1475,304],[-159,166],[-574,1355],[-191,2421],[-247,498],[-446,484],[-622,222],[-558,802],[-398,1093],[-287,1535],[-1044,1646],[-718,1785],[734,857],[-208,443],[136,1466],[622,844],[-8,816],[-423,1231],[207,816],[-24,1439],[375,0],[861,-733],[255,-484],[494,456],[327,705],[-48,402],[-566,1895],[287,456],[-391,996],[-231,208],[-749,1563],[-88,428],[479,775],[-8,346],[-510,484],[-407,982],[152,1785],[-885,179],[112,1273],[-686,152],[-111,-1397],[-574,125],[-144,-1619],[-860,180],[-64,-526],[-686,139],[-79,-969],[-590,-428],[-223,276],[-199,969],[-327,69],[-685,-595],[-279,152],[-295,-1328],[-231,152],[-781,-401],[-598,-1093],[-869,235],[-335,-276],[423,-1217],[390,-581],[-581,-706],[-1068,-2434],[-327,-319],[-327,97],[-319,803],[367,1770],[0,623],[-367,1466],[-805,1881],[-263,1107],[-358,3043],[-160,664],[-63,996],[-431,705],[-494,42],[-733,691],[-646,-262],[-996,-1121],[-550,-1093],[-279,-1009],[-749,-277],[-669,484],[-431,1369],[-717,913],[-24,761],[239,512],[447,180],[510,581],[932,1535],[606,1577],[502,526],[861,691],[470,692],[223,719],[-542,844],[-454,42],[-454,747],[-64,996],[111,622],[439,304],[239,498],[16,706],[-367,830],[-263,940],[-287,97],[-1147,-608],[-765,484],[-1172,69],[-924,263],[-909,69],[-1514,470],[-829,346],[-853,664],[-2176,2227],[-733,415],[-1857,318],[-558,28],[-334,-249],[-391,-858],[-916,-1715],[-367,-484],[-1570,-1646],[-414,-180],[-319,138],[-972,996],[-550,844],[-431,1411],[0,595],[271,1618],[-47,705],[-335,498],[-861,637],[-789,221],[-805,-553],[-438,83],[-1419,608],[-589,97],[-423,484],[-56,471],[136,885],[757,2849],[112,817],[-263,788],[-415,636],[-510,471],[-1116,-484],[-1267,-761],[-215,-415],[-223,-1798],[-438,-2020],[-789,-291],[-997,-1383],[-446,42],[-343,429],[-550,318],[-1458,318],[-853,650],[-550,719],[-191,650],[-367,291],[-478,-55],[-661,788],[119,1300],[415,581],[72,733],[-279,650],[-168,1328],[367,554],[24,830],[-606,677],[-279,139],[-781,-222],[-430,637],[-383,1106],[-789,-13],[-414,373],[-311,567],[-430,180],[-821,-941],[-455,623],[-310,0],[-510,415],[-200,-844],[-534,-816],[-454,41],[-183,485],[72,691],[-439,138],[-64,969],[-533,110],[-558,-511],[-343,-844],[-646,-194],[-302,-719],[-423,-318],[-247,-720],[-398,-152],[-399,-1023],[-773,-540],[-701,111],[-598,-664],[-630,373],[-685,-1009],[-430,0],[-367,-747],[-271,-180],[-279,-982],[168,-1771],[-287,-996],[-447,-166],[-454,-525],[-1355,-1190],[-247,-457],[-79,-1314],[-184,-747]],[[319373,315106],[-2670,-1881],[-1403,-30141],[-525,-12048],[-11620,-15313],[-1610,6570],[-4941,-13929],[-1411,2601],[-10296,-13432],[-2208,-6335]],[[175323,445963],[717,7511],[-6224,1590],[1562,17637],[749,816],[757,-692],[183,2061],[-1115,166],[1283,20099],[4359,-581],[-127,526],[-335,442],[-104,844],[287,401],[446,1453],[112,857],[502,429],[526,844],[1881,-3430],[9826,13196],[-3929,7801],[-3251,6336],[606,4883],[239,4357],[1068,6861],[231,4288],[8113,-1120],[6782,9406],[1036,1397],[2630,3333],[335,720],[430,6888],[374,5686],[710,1106],[199,-401],[2526,5021],[176,415],[-518,3292],[653,1093],[7715,-761],[215,8065],[6344,-208],[1004,1619],[470,249],[6057,8050],[4582,5879],[-1402,2614]],[[601640,829416],[15,484],[-717,1770],[-143,-27],[-534,954],[-64,816],[-406,222],[-271,677],[-327,249],[-279,609],[-120,1024],[-669,-346],[-279,276],[-311,1314],[-374,236],[-327,1106],[-319,733],[-430,623],[-207,-138],[-279,788],[-176,982],[550,706],[-231,484],[534,539],[-223,1204],[103,456],[423,346],[167,719],[-95,1688],[55,761],[263,691],[-326,996],[79,1148],[10966,-2227],[-135,-1853],[4766,-941],[7643,9724],[-335,401],[-391,-221],[32,4800],[733,927],[471,14],[462,-526],[940,0],[805,10568],[454,-83],[2399,-4343],[821,719],[654,982],[605,387],[255,443],[582,512],[160,733],[422,332],[-430,1134],[-471,982],[-326,1079],[-8,1218],[-96,871],[167,761],[662,-277],[-72,-429],[423,-221],[366,-830],[917,-954],[518,13],[263,720],[406,207],[88,1466],[398,1176],[104,969],[1044,760],[1028,1370],[478,304],[303,-124],[1411,-1633],[406,-871],[502,-526],[638,-83],[2319,-719],[1474,-249],[1514,-152],[805,-208],[726,-41],[1227,-277],[1650,-844],[2271,-1466],[2136,-2075],[781,-553],[486,-138],[1299,55],[8886,2268],[0,10693],[0,22437],[12648,-14],[27200,14],[14521,-125],[29702,-166],[50679,-41]],[[798074,907335],[2646,-5824],[3124,-7290],[2877,-5436],[1689,-3776],[2399,-4399],[2973,-3237],[3060,-2849],[2774,-2089],[3522,-3998],[2240,-2379],[4502,-3085],[3674,-2655],[4160,-2961],[3467,-3568],[4152,-4150],[2790,-3638],[3307,-4122],[3092,-4676],[3316,-2697],[4032,-2767],[2845,-2849],[3116,-4440],[2463,-3638],[3068,-2144],[3754,-3044],[3626,-1978],[3132,-3153],[3116,-5907],[1857,-3970],[1530,-5035],[3284,-3555],[4359,-1314],[4009,-387],[3706,691],[4216,2864],[1976,3804],[-350,4661],[-1794,5492],[-1665,4481],[-1730,5478],[-821,4108],[-95,7429],[263,5602],[988,3582],[1538,1024],[1283,415],[2128,-3500],[2439,-3444],[2845,-4426],[4184,-3500],[3196,-1439],[2638,-1411],[3419,-1452],[3849,-1591],[4064,-608],[4089,-789],[3722,-664],[3698,-982],[3411,-2421],[1083,-2877],[869,-3084],[1028,-4496],[128,-4620],[-590,-5035],[-590,-3790],[-749,-2698]],[[723630,476865],[88,691],[-168,374],[-8,1106],[-358,927],[-574,180],[-303,1051],[-709,1190],[295,664]],[[496186,754941],[279,443],[128,926],[223,761],[-160,1757],[-382,664],[-526,221],[-200,1370],[-374,428],[-717,1467],[-550,2490],[24,1466],[526,1272],[-271,332],[318,1218],[997,677],[741,955],[88,705],[286,609],[128,844],[550,1286],[861,512],[446,885],[996,1494],[789,346],[534,1010],[223,2213],[-40,539],[-470,1688],[64,1452],[-271,720],[-590,1010],[-1410,166],[-431,857],[-924,747],[-638,360],[-829,41],[-454,291],[-414,567],[-941,1950],[-550,1342],[-87,802],[167,650],[1132,1398],[32,415],[-678,1217],[-167,1466],[-749,1812],[-64,609],[-8,2005],[-175,554],[-503,940],[-350,996],[263,872],[223,1397],[48,968],[-144,692],[598,1148],[-8,719],[151,1536],[-247,968],[40,1342],[271,830],[423,608],[1052,2075],[111,1134],[-350,651],[-232,857],[0,1204],[-247,1175],[-510,1978],[-71,1204],[-192,1093],[-573,1646],[-232,1037],[56,982],[709,1370],[-71,982],[303,1259],[-765,2061],[-16,470],[382,1065],[144,1757],[-359,1480],[-24,816],[-359,1356],[-103,1328],[319,1078],[430,969],[343,-56],[430,-664],[390,70],[957,1369],[1036,138],[693,498],[303,816],[144,844],[119,1826],[271,567],[558,305],[932,166],[391,276],[1283,1411],[159,470],[16,1273],[207,1093],[56,954],[-87,1674],[-287,1881],[32,595],[279,1162],[876,332],[550,595],[223,608],[24,900],[-502,1258],[-502,2020],[-88,747],[48,788],[263,540],[2088,1438],[773,457],[367,-83],[374,-401],[96,-996],[159,-567],[510,-761],[439,-415],[510,-222],[438,70],[303,456],[486,194],[327,-194],[319,-719],[566,-2296],[573,-609],[471,152],[860,1397],[678,733],[486,125],[988,-249],[709,-470],[1236,-1481],[597,14],[271,346],[287,858],[120,1079],[510,1521],[558,775],[55,1687],[431,581],[159,-235],[614,664],[191,733],[1068,927],[399,1439],[629,27],[438,-677],[526,-360],[542,-55],[789,1590],[534,817],[486,995],[232,263],[597,97],[399,664],[32,1162],[255,1065],[135,1619],[295,940],[861,1356],[135,581],[-8,913],[-733,2365],[-96,1024],[319,2241],[263,1258],[215,443],[646,816],[901,678],[868,359],[638,540],[287,678],[207,1203],[215,2283],[-40,415],[-645,1092],[-598,540],[-861,1452],[-510,1549],[-311,1439],[-358,2282],[-431,1619],[-127,1023],[96,1259],[645,2642],[183,1646],[56,1674],[-167,5588],[-128,1398],[-454,2628],[-104,1397],[-358,2282],[-335,1453],[-1028,2863],[-335,1245],[32,1535],[454,2366],[279,1189],[662,1868],[159,899],[-64,595],[-685,2586],[-948,2435],[446,332],[582,788],[1123,775],[271,-208],[-358,-926],[16,-747],[239,-637],[789,-774],[398,-1328],[303,-664],[550,-374],[765,-262],[797,-526],[829,360],[725,-291],[964,-816],[558,-208],[343,-359],[80,-844],[-447,-1425],[447,-124],[6017,-1065],[1020,15783],[-80,13],[438,6751],[192,276],[-104,1010],[470,7207],[1467,-277],[95,2144],[-215,996],[574,526],[478,816],[375,208],[255,511],[637,388],[-95,1162],[-152,235],[152,927],[366,442],[359,-97],[183,346],[1538,305],[765,871],[2033,470],[462,-110],[4431,-1494],[630,2531],[3705,13044],[9636,-14],[12855,14],[19924,0],[19924,0],[19923,0],[20012,-14],[80023,111],[573,-761],[1029,-774],[924,-540],[1235,14],[231,-387],[1881,-2006],[2630,-2656],[917,-885],[510,-125],[1355,-2185],[645,-401],[861,-166],[1538,-1674],[574,69],[486,-1535],[16,-1162],[1227,-2781],[574,14],[422,-830],[255,-1632],[845,-1328],[542,-401],[933,83],[294,-623],[582,-760],[1044,-623],[678,-207],[159,-692],[478,-650],[120,-1273],[1084,-1687],[255,14],[231,-1356],[773,-830],[781,-360],[701,-179],[494,-955],[223,14],[989,-1937],[1068,-691],[597,-1522],[40,-927],[399,-1770],[374,-2061],[287,-4039],[3315,-6170],[5858,-7497],[3371,-6003],[3204,-11952],[2223,-6376],[4902,-9503]],[[116922,446253],[-11094,954],[-1323,208],[-104,-1923],[-12679,2006],[-11827,124],[-80,-2019],[-6025,1106],[-5802,1121],[-5993,11702],[-5387,9877],[351,484],[-670,484],[-574,-166],[-5658,10540],[-454,568],[-287,788],[-2821,5160],[-1586,2614],[-6878,13086],[-8599,-11647],[-1068,-1259],[-192,41],[-2351,4275],[-2135,3845],[-2471,4703],[-9141,16724],[-574,1203],[9946,12961],[-542,1079],[-1243,2158],[4351,6169],[5356,7221],[-1889,3361],[-2670,1397],[-95,139],[151,1687],[733,222],[9819,12988],[-622,4150],[470,3085],[200,415],[-447,6432],[-1060,1508],[-95,235],[-630,6667],[-239,650],[-183,1245],[103,1384],[646,-14],[2781,-415],[933,-1660],[4248,4952],[-5452,10526],[-4048,7719],[5865,8023],[7364,9987],[638,1909],[-2008,3278],[-3651,6709],[1268,26863],[7626,-927],[-47,1093],[-279,1231],[95,1757],[-223,844],[176,332],[-526,1922],[31,2933],[303,678],[152,816],[1546,5298],[13835,-1038],[1976,27001],[5938,-843],[-271,-5008],[12727,-1784],[120,2185],[15843,-2185],[8695,-1190],[725,8438],[694,7898],[111,6114],[136,5962],[-375,277],[16,567],[375,-55],[119,5740],[88,3113],[7284,-346],[5459,-1065],[-295,-6280],[8544,-1494],[-128,-1798],[-95,-2241],[3666,-305],[8973,-788],[351,6391],[5380,-761],[159,110],[7292,-1065],[-398,-7926],[5331,7304],[-1952,3748],[4893,6626],[4790,6543],[1697,-3375],[2017,-3873],[6407,8742],[853,-1646],[3602,5256],[287,-235],[398,526],[48,705],[2288,3057],[3889,5243],[8200,11052],[3866,-609],[8,249],[9794,-1493],[-773,-12547],[-797,-12961],[-637,-9752],[-208,-4399],[56,-387],[2216,-373],[24,-249],[7196,-1190],[136,235],[6399,-1010],[6360,-1037],[3124,-484],[-550,-8853],[-924,-12754],[6232,-1120],[5802,-1190],[24,415],[11747,-1231],[374,-290],[8799,-1135],[-454,-8908],[1474,-498],[885,56],[1912,-139],[1530,-401],[-23,-622],[5809,-969],[136,-55],[-215,-5699],[-239,-4786],[6622,-1093],[534,-4869],[-127,-2116],[11851,-1909],[-311,-5035],[-837,-2103],[-399,-6045],[8289,-1120],[-104,-2836]]],"transform":{"scale":[0.000012547712547712539,0.0000072293072293072276],"translate":[140.6779,-26.9269]},"objects":{"qld_central_ldmg_boundaries_gda2020_simp200m":{"type":"GeometryCollection","geometries":[{"arcs":[[0,1,2,3]],"type":"Polygon","properties":{"LGA Code":"370","Abbreviated Name":"Banana","LGA Name":"Banana Shire","Area Sq Km":28548.59,"LDMG Name":"Banana","Source Area Sq Km":28548.93438,"Police Region Name":"Central Region","Police Region Code":"CR","Police Region Short Name":"Central","Region Slug":"central","Layer Id":"qld_central_ldmg_boundaries_gda2020_simp200m","Layer Group":"per-region","Layer Kind":"ldmg","Source":"Local government area boundaries - Queensland, Department of Natural Resources and Mines, Manufacturing and Regional and Rural Development; ASGS Edition 3 (2021) Local Government Areas, Australian Bureau of Statistics","Source URL":"https://www.data.qld.gov.au/dataset/local-government-area-boundaries-queensland","Licence":"CC BY 4.0","Licence URL":"https://creativecommons.org/licenses/by/4.0/","Dataset Date":"extract of 11/05/2026","Simplification Tolerance M":200,"Coordinate Precision Decimals":4,"CRS":"GDA2020 (EPSG:7844)","Modified":"Simplified and repackaged from the source dataset; see Source URL"},"id":"370"},{"arcs":[[4,5,6,7,8,9]],"type":"Polygon","properties":{"LGA Code":"410","Abbreviated Name":"Barcaldine","LGA Name":"Barcaldine Regional","Area Sq Km":53438.41,"LDMG Name":"Barcaldine","Source Area Sq Km":53439.35687,"Police Region Name":"Central Region","Police Region Code":"CR","Police Region Short Name":"Central","Region Slug":"central","Layer Id":"qld_central_ldmg_boundaries_gda2020_simp200m","Layer Group":"per-region","Layer Kind":"ldmg","Source":"Local government area boundaries - Queensland, Department of Natural Resources and Mines, Manufacturing and Regional and Rural Development; ASGS Edition 3 (2021) Local Government Areas, Australian Bureau of Statistics","Source URL":"https://www.data.qld.gov.au/dataset/local-government-area-boundaries-queensland","Licence":"CC BY 4.0","Licence URL":"https://creativecommons.org/licenses/by/4.0/","Dataset Date":"extract of 11/05/2026","Simplification Tolerance M":200,"Coordinate Precision Decimals":4,"CRS":"GDA2020 (EPSG:7844)","Modified":"Simplified and repackaged from the source dataset; see Source URL"},"id":"410"},{"arcs":[[10,11,12]],"type":"Polygon","properties":{"LGA Code":"450","Abbreviated Name":"Barcoo","LGA Name":"Barcoo Shire","Area Sq Km":62255.67,"LDMG Name":"Barcoo","Source Area Sq Km":62255.69923,"Police Region Name":"Central Region","Police Region Code":"CR","Police Region Short Name":"Central","Region Slug":"central","Layer Id":"qld_central_ldmg_boundaries_gda2020_simp200m","Layer Group":"per-region","Layer Kind":"ldmg","Source":"Local government area boundaries - Queensland, Department of Natural Resources and Mines, Manufacturing and Regional and Rural Development; ASGS Edition 3 (2021) Local Government Areas, Australian Bureau of Statistics","Source URL":"https://www.data.qld.gov.au/dataset/local-government-area-boundaries-queensland","Licence":"CC BY 4.0","Licence URL":"https://creativecommons.org/licenses/by/4.0/","Dataset Date":"extract of 11/05/2026","Simplification Tolerance M":200,"Coordinate Precision Decimals":4,"CRS":"GDA2020 (EPSG:7844)","Modified":"Simplified and repackaged from the source dataset; see Source URL"},"id":"450"},{"arcs":[[-10,13,14,15]],"type":"Polygon","properties":{"LGA Code":"760","Abbreviated Name":"Blackall-Tambo","LGA Name":"Blackall-Tambo Regional","Area Sq Km":30580.45,"LDMG Name":"Blackall-Tambo","Source Area Sq Km":30580.25956,"Police Region Name":"Central Region","Police Region Code":"CR","Police Region Short Name":"Central","Region Slug":"central","Layer Id":"qld_central_ldmg_boundaries_gda2020_simp200m","Layer Group":"per-region","Layer Kind":"ldmg","Source":"Local government area boundaries - Queensland, Department of Natural Resources and Mines, Manufacturing and Regional and Rural Development; ASGS Edition 3 (2021) Local Government Areas, Australian Bureau of Statistics","Source URL":"https://www.data.qld.gov.au/dataset/local-government-area-boundaries-queensland","Licence":"CC BY 4.0","Licence URL":"https://creativecommons.org/licenses/by/4.0/","Dataset Date":"extract of 11/05/2026","Simplification Tolerance M":200,"Coordinate Precision Decimals":4,"CRS":"GDA2020 (EPSG:7844)","Modified":"Simplified and repackaged from the source dataset; see Source URL"},"id":"760"},{"arcs":[[-2,16,-14,-9,17,18,19,20,21],[22],[23],[24],[25],[26]],"type":"Polygon","properties":{"LGA Code":"2270","Abbreviated Name":"Central Highlands","LGA Name":"Central Highlands Regional","Area Sq Km":59791.62,"LDMG Name":"Central Highlands","Source Area Sq Km":59789.95085,"Police Region Name":"Central Region","Police Region Code":"CR","Police Region Short Name":"Central","Region Slug":"central","Layer Id":"qld_central_ldmg_boundaries_gda2020_simp200m","Layer Group":"per-region","Layer Kind":"ldmg","Source":"Local government area boundaries - Queensland, Department of Natural Resources and Mines, Manufacturing and Regional and Rural Development; ASGS Edition 3 (2021) Local Government Areas, Australian Bureau of Statistics","Source URL":"https://www.data.qld.gov.au/dataset/local-government-area-boundaries-queensland","Licence":"CC BY 4.0","Licence URL":"https://creativecommons.org/licenses/by/4.0/","Dataset Date":"extract of 11/05/2026","Simplification Tolerance M":200,"Coordinate Precision Decimals":4,"CRS":"GDA2020 (EPSG:7844)","Modified":"Simplified and repackaged from the source dataset; see Source URL"},"id":"2270"},{"arcs":[[-4,27,28,29]],"type":"Polygon","properties":{"LGA Code":"3360","Abbreviated Name":"Gladstone","LGA Name":"Gladstone Regional","Area Sq Km":34864.93,"LDMG Name":"Gladstone","Source Area Sq Km":34865.48449,"Police Region Name":"Central Region","Police Region Code":"CR","Police Region Short Name":"Central","Region Slug":"central","Layer Id":"qld_central_ldmg_boundaries_gda2020_simp200m","Layer Group":"per-region","Layer Kind":"ldmg","Source":"Local government area boundaries - Queensland, Department of Natural Resources and Mines, Manufacturing and Regional and Rural Development; ASGS Edition 3 (2021) Local Government Areas, Australian Bureau of Statistics","Source URL":"https://www.data.qld.gov.au/dataset/local-government-area-boundaries-queensland","Licence":"CC BY 4.0","Licence URL":"https://creativecommons.org/licenses/by/4.0/","Dataset Date":"extract of 11/05/2026","Simplification Tolerance M":200,"Coordinate Precision Decimals":4,"CRS":"GDA2020 (EPSG:7844)","Modified":"Simplified and repackaged from the source dataset; see Source URL"},"id":"3360"},{"arcs":[[-8,30,31,32,33,34,-18]],"type":"Polygon","properties":{"LGA Code":"3980","Abbreviated Name":"Isaac","LGA Name":"Isaac Regional","Area Sq Km":82587.93,"LDMG Name":"Isaac","Source Area Sq Km":82596.00469,"Police Region Name":"Central Region","Police Region Code":"CR","Police Region Short Name":"Central","Region Slug":"central","Layer Id":"qld_central_ldmg_boundaries_gda2020_simp200m","Layer Group":"per-region","Layer Kind":"ldmg","Source":"Local government area boundaries - Queensland, Department of Natural Resources and Mines, Manufacturing and Regional and Rural Development; ASGS Edition 3 (2021) Local Government Areas, Australian Bureau of Statistics","Source URL":"https://www.data.qld.gov.au/dataset/local-government-area-boundaries-queensland","Licence":"CC BY 4.0","Licence URL":"https://creativecommons.org/licenses/by/4.0/","Dataset Date":"extract of 11/05/2026","Simplification Tolerance M":200,"Coordinate Precision Decimals":4,"CRS":"GDA2020 (EPSG:7844)","Modified":"Simplified and repackaged from the source dataset; see Source URL"},"id":"3980"},{"arcs":[[-19,-35,35,-29,36]],"type":"Polygon","properties":{"LGA Code":"4530","Abbreviated Name":"Livingstone","LGA Name":"Livingstone Shire","Area Sq Km":46964.73,"LDMG Name":"Livingstone","Source Area Sq Km":46965.607,"Police Region Name":"Central Region","Police Region Code":"CR","Police Region Short Name":"Central","Region Slug":"central","Layer Id":"qld_central_ldmg_boundaries_gda2020_simp200m","Layer Group":"per-region","Layer Kind":"ldmg","Source":"Local government area boundaries - Queensland, Department of Natural Resources and Mines, Manufacturing and Regional and Rural Development; ASGS Edition 3 (2021) Local Government Areas, Australian Bureau of Statistics","Source URL":"https://www.data.qld.gov.au/dataset/local-government-area-boundaries-queensland","Licence":"CC BY 4.0","Licence URL":"https://creativecommons.org/licenses/by/4.0/","Dataset Date":"extract of 11/05/2026","Simplification Tolerance M":200,"Coordinate Precision Decimals":4,"CRS":"GDA2020 (EPSG:7844)","Modified":"Simplified and repackaged from the source dataset; see Source URL"},"id":"4530"},{"arcs":[[-5,-16,37,-13,38]],"type":"Polygon","properties":{"LGA Code":"4710","Abbreviated Name":"Longreach","LGA Name":"Longreach Regional","Area Sq Km":40561.36,"LDMG Name":"Longreach","Source Area Sq Km":40561.49399,"Police Region Name":"Central Region","Police Region Code":"CR","Police Region Short Name":"Central","Region Slug":"central","Layer Id":"qld_central_ldmg_boundaries_gda2020_simp200m","Layer Group":"per-region","Layer Kind":"ldmg","Source":"Local government area boundaries - Queensland, Department of Natural Resources and Mines, Manufacturing and Regional and Rural Development; ASGS Edition 3 (2021) Local Government Areas, Australian Bureau of Statistics","Source URL":"https://www.data.qld.gov.au/dataset/local-government-area-boundaries-queensland","Licence":"CC BY 4.0","Licence URL":"https://creativecommons.org/licenses/by/4.0/","Dataset Date":"extract of 11/05/2026","Simplification Tolerance M":200,"Coordinate Precision Decimals":4,"CRS":"GDA2020 (EPSG:7844)","Modified":"Simplified and repackaged from the source dataset; see Source URL"},"id":"4710"},{"arcs":[[39,40,-33]],"type":"Polygon","properties":{"LGA Code":"4770","Abbreviated Name":"Mackay","LGA Name":"Mackay Regional","Area Sq Km":34367.43,"LDMG Name":"Mackay","Source Area Sq Km":34366.07648,"Police Region Name":"Central Region","Police Region Code":"CR","Police Region Short Name":"Central","Region Slug":"central","Layer Id":"qld_central_ldmg_boundaries_gda2020_simp200m","Layer Group":"per-region","Layer Kind":"ldmg","Source":"Local government area boundaries - Queensland, Department of Natural Resources and Mines, Manufacturing and Regional and Rural Development; ASGS Edition 3 (2021) Local Government Areas, Australian Bureau of Statistics","Source URL":"https://www.data.qld.gov.au/dataset/local-government-area-boundaries-queensland","Licence":"CC BY 4.0","Licence URL":"https://creativecommons.org/licenses/by/4.0/","Dataset Date":"extract of 11/05/2026","Simplification Tolerance M":200,"Coordinate Precision Decimals":4,"CRS":"GDA2020 (EPSG:7844)","Modified":"Simplified and repackaged from the source dataset; see Source URL"},"id":"4770"},{"arcs":[[-3,-22,41,-20,-37,-28]],"type":"Polygon","properties":{"LGA Code":"6370","Abbreviated Name":"Rockhampton","LGA Name":"Rockhampton Regional","Area Sq Km":6573.26,"LDMG Name":"Rockhampton","Source Area Sq Km":6573.09479,"Police Region Name":"Central Region","Police Region Code":"CR","Police Region Short Name":"Central","Region Slug":"central","Layer Id":"qld_central_ldmg_boundaries_gda2020_simp200m","Layer Group":"per-region","Layer Kind":"ldmg","Source":"Local government area boundaries - Queensland, Department of Natural Resources and Mines, Manufacturing and Regional and Rural Development; ASGS Edition 3 (2021) Local Government Areas, Australian Bureau of Statistics","Source URL":"https://www.data.qld.gov.au/dataset/local-government-area-boundaries-queensland","Licence":"CC BY 4.0","Licence URL":"https://creativecommons.org/licenses/by/4.0/","Dataset Date":"extract of 11/05/2026","Simplification Tolerance M":200,"Coordinate Precision Decimals":4,"CRS":"GDA2020 (EPSG:7844)","Modified":"Simplified and repackaged from the source dataset; see Source URL"},"id":"6370"},{"arcs":[[42,-40,-32]],"type":"Polygon","properties":{"LGA Code":"7340","Abbreviated Name":"Whitsunday","LGA Name":"Whitsunday Regional","Area Sq Km":40779.45,"LDMG Name":"Whitsunday","Source Area Sq Km":40779.62806,"Police Region Name":"Central Region","Police Region Code":"CR","Police Region Short Name":"Central","Region Slug":"central","Layer Id":"qld_central_ldmg_boundaries_gda2020_simp200m","Layer Group":"per-region","Layer Kind":"ldmg","Source":"Local government area boundaries - Queensland, Department of Natural Resources and Mines, Manufacturing and Regional and Rural Development; ASGS Edition 3 (2021) Local Government Areas, Australian Bureau of Statistics","Source URL":"https://www.data.qld.gov.au/dataset/local-government-area-boundaries-queensland","Licence":"CC BY 4.0","Licence URL":"https://creativecommons.org/licenses/by/4.0/","Dataset Date":"extract of 11/05/2026","Simplification Tolerance M":200,"Coordinate Precision Decimals":4,"CRS":"GDA2020 (EPSG:7844)","Modified":"Simplified and repackaged from the source dataset; see Source URL"},"id":"7340"},{"arcs":[[-6,-39,-12,43]],"type":"Polygon","properties":{"LGA Code":"7400","Abbreviated Name":"Winton","LGA Name":"Winton Shire","Area Sq Km":53810.04,"LDMG Name":"Winton","Source Area Sq Km":53810.28734,"Police Region Name":"Central Region","Police Region Code":"CR","Police Region Short Name":"Central","Region Slug":"central","Layer Id":"qld_central_ldmg_boundaries_gda2020_simp200m","Layer Group":"per-region","Layer Kind":"ldmg","Source":"Local government area boundaries - Queensland, Department of Natural Resources and Mines, Manufacturing and Regional and Rural Development; ASGS Edition 3 (2021) Local Government Areas, Australian Bureau of Statistics","Source URL":"https://www.data.qld.gov.au/dataset/local-government-area-boundaries-queensland","Licence":"CC BY 4.0","Licence URL":"https://creativecommons.org/licenses/by/4.0/","Dataset Date":"extract of 11/05/2026","Simplification Tolerance M":200,"Coordinate Precision Decimals":4,"CRS":"GDA2020 (EPSG:7844)","Modified":"Simplified and repackaged from the source dataset; see Source URL"},"id":"7400"},{"arcs":[[[-21,-42]],[[-23]],[[-24]],[[-25]],[[-26]],[[-27]]],"type":"MultiPolygon","properties":{"LGA Code":"7550","Abbreviated Name":"Woorabinda Aboriginal","LGA Name":"Woorabinda Aboriginal Shire","Area Sq Km":392.8,"LDMG Name":"Woorabinda","Source Area Sq Km":393.03009,"Police Region Name":"Central Region","Police Region Code":"CR","Police Region Short Name":"Central","Region Slug":"central","Layer Id":"qld_central_ldmg_boundaries_gda2020_simp200m","Layer Group":"per-region","Layer Kind":"ldmg","Source":"Local government area boundaries - Queensland, Department of Natural Resources and Mines, Manufacturing and Regional and Rural Development; ASGS Edition 3 (2021) Local Government Areas, Australian Bureau of Statistics","Source URL":"https://www.data.qld.gov.au/dataset/local-government-area-boundaries-queensland","Licence":"CC BY 4.0","Licence URL":"https://creativecommons.org/licenses/by/4.0/","Dataset Date":"extract of 11/05/2026","Simplification Tolerance M":200,"Coordinate Precision Decimals":4,"CRS":"GDA2020 (EPSG:7844)","Modified":"Simplified and repackaged from the source dataset; see Source URL"},"id":"7550"}]}}}