{"type":"Topology","arcs":[[[968850,881127],[-2542,926],[-2041,115],[-5186,-2622],[-6759,-3935],[-2509,-1812],[-8633,-7483],[-2910,-3124],[-2644,-3548],[-2777,-4822],[-1706,-2237],[-7729,-8524],[-1706,-2584],[-2142,-4551],[1941,-771],[2777,1002],[1807,-193],[3580,-1311],[2710,-1581],[3045,-2430],[2877,-2854],[3212,-3973],[4584,-7483],[5219,-10028],[4417,-7444],[1606,-3625],[903,-3317],[335,-3973],[-536,-5708],[-1940,-8601],[-234,-3163],[-1305,-4281],[-4383,-8910],[-2911,-5245],[-7595,-11263],[-3078,-4975],[-2844,-3819],[-7662,-8022],[-2677,-3201],[-5454,-4513],[-2342,-2353],[-3847,-3240],[-4082,-3857],[-6424,-5014],[-3714,-2160],[-6826,-3317],[-2041,-1967],[-8230,116],[-40117,0],[-26800,0],[-59087,116],[-3312,732],[-1539,1736],[-2409,1003],[-5320,-232],[-2844,1698],[-3012,77],[-2308,-1312],[-1472,-1581],[-1205,-2237],[-3279,-2507],[-736,-2160],[1941,-2661],[-201,-2353],[-4584,-2276],[-2676,733],[-302,-1581],[-2542,-2469],[-1673,965],[67,2275],[-703,1427],[-2074,116],[-937,-733],[-2376,424],[-3546,-2777],[-3212,39],[-1673,656],[-3179,-3356],[-2911,-1736],[-535,-1967],[-2677,-5862],[-8431,-16007],[-2108,-8717],[-1104,-8408],[-7194,-8369],[-4115,1234],[201,-3857],[-2878,-193],[-1806,-1157],[-1506,154],[-2509,-3471],[-4149,-2854],[702,-1312],[-870,-1350],[536,-1079],[-2911,-3626],[-1004,0],[-1338,-2276],[-4015,425],[-2978,-656],[-167,-810],[-8733,-8485],[-3513,-10337],[-602,-1119],[1137,-3278],[-535,-2353],[2175,-2005],[1639,-540],[335,-1775],[-1238,-810],[-703,-5284],[1372,-1080],[-201,-2468],[-936,-1041],[-101,-2816],[-1840,424],[-3747,116],[-4350,2353],[-2041,77],[-970,-1659],[-1004,1852],[-4115,578],[234,-2738],[-1907,-347],[-1004,925],[-1941,-424],[-2542,231],[-4751,-1504],[0,-2353],[-1238,-2545],[-2276,-2391],[-1037,-2083],[-903,-4783],[502,-5631],[-3446,-3394],[-2811,-463],[-2041,-1041],[-3413,-232],[168,-1311],[-1707,-463],[-267,-1427],[-4250,-964],[-501,-1967],[736,-2893],[1238,-1697],[-168,-2970],[-1104,-1427],[-1104,308],[-1506,-1157],[-3881,-1311],[-635,-1543],[-2677,1427],[-2208,2816],[-3848,1504],[-2944,-2314],[-1071,4474],[-2275,1118],[-1472,-2545],[-1071,-8871],[-2810,154],[-937,-3163],[-2811,-2661],[-2074,-3008],[-502,-3433],[2208,-2391],[-769,-2238],[368,-1465],[-770,-7290],[-1439,-1928],[-2275,-1582],[-2108,2430],[-2810,-1234],[-2075,-231],[101,-5285],[-736,-1697],[5052,-1427],[803,-3702],[-402,-1582],[402,-7791]],[[544901,468160],[-903,-1041],[-1573,0],[-1271,-1852],[836,-1812],[-1171,-2160],[-268,-1890],[469,-2854],[-2443,-4783],[-1873,1080],[-402,-2199],[-1104,-2507],[502,-2892],[-2443,-1350],[-1204,347],[-1372,-3664],[-1472,-1119],[-870,-2044],[-1305,-39],[-2208,-2005],[-1037,-2584],[-1405,-78],[-670,-1774],[-2375,-154],[-2878,-1774],[-3178,848],[-2509,1967],[-1238,2430],[-335,2662],[468,1195],[-1137,2546],[-2309,116],[-535,2815],[-1138,617],[-267,2122],[-1339,2815],[736,2006],[-3981,3201],[-5621,1119],[-1840,2160],[-3781,1465],[-100,3742],[-770,732],[-2710,-1542],[-1773,732],[200,1890],[-769,3549],[-1004,1620],[736,1272],[-1572,1582],[-1841,925],[-3479,-617],[368,-3278],[-770,-1967],[-3078,-540],[-1372,-2237],[1807,-2623],[0,-1273],[-1673,-115],[-2743,887],[-1740,-4552],[-1539,-810],[-34,-1388],[2275,-733],[168,-1388],[2676,-540],[569,-965],[-1004,-2777],[-1606,-655],[-736,-1505],[703,-2198],[-134,-2584],[1138,-1466],[100,-2353],[-937,-1465],[703,-2546],[1137,-848],[937,-3587],[34,-2662],[-536,-2430],[502,-1581],[1640,-2160],[-402,-2391],[-1004,-1697],[0,-3009],[603,-925],[-301,-2970],[-2443,-2469],[-1974,-964],[-401,-1851],[-1974,-656],[-2677,1466],[-1707,270],[-2475,-2006],[-3614,1967],[-3346,501],[-4316,2546],[-3747,3047],[-8833,2044],[-2677,155],[1506,5862],[-1372,1466],[736,1658],[-3245,2816],[1070,3317],[-2844,77],[-1137,1389],[-2108,-772],[-1071,1003],[-1305,2970],[-2777,501],[-2308,1813],[-2878,-193],[-1238,-1967],[-3814,-1813],[-1539,270],[-1372,1736],[-6892,1157],[-2008,-810],[-2509,1697],[-2476,-694],[-903,887],[-2643,-848],[-1305,501],[-2342,-849],[-2978,-20287],[-3045,-193],[-1639,1890],[133,1928],[-1204,2160],[-1338,232],[-1539,-2199],[-168,-1234],[2710,-1736],[301,-2044],[-1371,-2044],[803,-849],[2409,887],[2476,-1080],[334,-1619],[-1974,-6827],[970,-3394],[-2007,-3279],[-2777,-2314],[535,-3201],[-1873,-849],[-302,-4165],[-1137,-1119],[-1974,424],[-301,-1118],[267,-3664],[-1639,-656],[-28908,-2391],[-9067,1388],[-2208,-2353],[-2811,116],[-5353,-5361],[301,-1620],[1907,-2121],[-368,-2430],[-1037,-733],[-4584,-5824],[-1439,-2816],[-3279,-2892],[-3680,1928],[-2877,-424],[-1640,1003],[-8732,1427],[-32388,4821],[-3179,231],[-2509,1273],[-8097,1581],[34,-2082],[-670,-5516],[-2409,-3124],[-334,-1774],[2208,-1582],[2710,810],[201,-2121],[-803,-2353],[535,-771],[-11911,-2276]],[[237453,342538],[-1673,579],[-2141,3857],[-2744,-1157],[-3613,-193],[-2777,424],[-2543,964],[-5554,3086],[-1840,2314],[-636,4436],[-2175,3857],[335,2430],[-3045,4667],[-1572,6171],[-1941,1427],[201,1427],[-7294,-2353],[-4149,1504],[-5788,-1195],[-1907,501],[-2142,2623],[-2108,347],[-2710,-1620],[134,-1697],[-836,-2584],[-18168,-14271],[-19941,2893],[-3045,7868],[1506,2353],[200,1465],[-936,1157],[-2476,1312],[568,1388],[-1304,3973],[-2209,2777],[-1137,3664],[-2242,347],[-5989,-154],[-3078,347],[-1405,-308],[-1974,-1620],[-1774,154],[-4115,4204],[-3814,579],[-2978,848],[-3011,232],[568,2468],[-468,2314],[-1271,3086],[-134,2507],[3546,5477],[368,2314],[1473,3317],[33,3355],[-1773,2778],[-469,3471],[536,2430],[2409,1427],[1974,2661],[569,2931],[1304,3009],[-1204,2507],[-5454,7637],[-2342,1311],[-468,2507],[-4250,2623],[-2843,4011],[2576,887],[-4283,5709],[803,2854],[1238,1774],[3212,347],[2242,3703],[-937,2352],[-268,4899],[469,4705],[-4919,2507],[-2141,4089],[1104,4011],[1773,2507],[1506,502],[67,2005],[2376,3047],[66,1196],[-1672,964],[-1071,2584],[-469,4706],[-14119,2121],[-6959,617],[-1974,3549],[-5019,2044],[-3045,-463],[-2743,-849],[-2409,463],[-2677,-501],[-4550,-1427],[-2342,1813],[-4484,1812],[-2777,2932],[-3847,8562],[-670,309],[-12011,2507],[-1707,-1003],[-1304,-1890],[-3547,1389],[-3781,578],[-334,1620],[-2409,270],[-1673,-849],[-335,1929],[937,3818],[1405,1350],[1506,4860],[-770,2391],[-2308,3703],[-234,3973],[568,1658],[-4082,2199],[736,1813],[-836,2622],[3647,4744],[-335,1659],[-1338,1080],[-2844,-964],[-1305,385],[837,2816],[-803,2623],[-2911,-926],[-703,386],[469,2545],[-1974,810],[-335,1736],[1874,1697],[301,4050],[7428,5400],[2342,6132],[-1740,1312],[-2911,3548],[937,1003],[2743,848],[-937,4320],[1807,2006],[-3011,2777],[3814,4590],[1640,655],[736,1813],[1305,849],[-3547,1812],[-268,1235],[3012,2159],[1304,2585],[-501,1041],[200,4243],[-669,2005],[3379,2623],[3647,-540],[1707,1851],[-268,1543],[2242,5246],[-803,1774],[100,2314],[-1405,1504],[468,2546],[3580,347],[1439,1157],[-2141,5554],[702,2353],[2476,270],[1138,3356],[-134,2429],[2275,2932],[1037,540],[603,4320],[-1439,7328],[-669,1465],[702,1158],[-267,2044],[2141,-116],[2878,-1620],[5319,926],[-1405,2314],[3379,5014],[3447,1196],[4182,2198],[6825,39],[2041,1195],[34,2160],[1472,1543],[0,2469],[-1004,1427],[-803,3124],[1339,2623],[1572,1195],[1606,3317],[2911,1119],[-4283,4320],[-2308,1542],[-870,1196],[535,4166],[-769,1465],[-536,2662],[-1873,4898],[-101,3278],[469,2546],[-168,9218],[-435,2006],[134,3818],[1673,7560],[-2342,3394],[-2242,6441],[937,694],[5287,13654],[-536,3394],[669,5824],[7462,20134],[3647,810],[970,2700],[1171,1002],[1773,13346],[837,1002],[-1406,3433],[-5119,22409],[168,386],[8163,7290],[3580,925],[4952,-77],[469,3548],[1171,1659],[4650,1003],[2476,-3664],[1238,-347],[4316,1812],[3246,-1311],[3379,116],[3212,-617],[5220,809],[2141,1428],[1940,-155],[3313,-1581],[4316,-540],[2409,-1389],[3078,-3085],[1874,-77],[2977,1427],[12748,-2353],[8666,-2237],[1271,501],[2275,-732],[2610,1002],[1138,2237],[870,5902],[-1372,1697],[1037,2777],[1205,424],[903,4088],[2007,579],[1305,2738],[2610,2777],[1874,3202],[1171,1118],[-3447,3124],[-869,2083],[-201,2469],[-2643,-502],[-2309,2546],[-5086,-2237],[-3379,2083],[-636,1079],[-2208,1119],[-3446,694],[-5253,5169],[-1405,462],[2442,18514],[1272,-1736],[2643,772],[2308,-1543],[1205,1967],[268,2198],[1204,-154],[1004,-2584],[3914,-617],[1272,1658],[2643,-385],[569,1774],[17197,-5863],[3948,-964],[8365,-3433],[1271,849],[-1003,2584],[-235,3317],[235,3394],[1639,1312],[2242,-116],[-2911,4783],[-1606,1311],[-636,4937],[-736,2314],[0,2353],[1740,1735],[569,3125],[1204,192],[1740,1543],[0,3240],[1138,1659],[0,2545],[903,887],[234,2507],[803,2739],[-200,3587],[1706,1620],[334,7135],[-769,2970],[401,2661],[2142,1389],[401,2738],[1439,1697],[3948,-964],[1673,1234],[2175,-115],[435,771],[4952,-849],[1137,-2892],[-903,-1157],[67,-3125],[2375,-2815],[837,0],[836,-2854],[1205,578],[2910,-2507],[770,-2044],[5989,-1196],[2744,-3587],[568,-3124],[2108,-1581],[301,-2970],[2644,-1697],[1070,2893],[1472,-463],[3882,1735],[1271,3163],[1907,-1350],[3279,-578],[268,-1852],[5018,-5245],[-100,-2121],[-1539,-888],[-903,-2507],[-67,-2160],[-2008,-3355],[-435,-1967],[602,-3471],[-1204,-2006],[669,-2006],[-468,-2160],[1305,-1388],[234,-2199],[1539,-1272],[2308,231],[1506,1659],[3413,1272],[5286,887],[870,3279],[2376,-540],[4048,1196],[2242,-1196],[134,-1736],[-1339,-10414],[502,-1080],[-769,-1812],[-1707,-1466],[736,-1543],[-669,-2545],[3848,-16123],[-2242,78],[-2509,1234],[-2777,-39],[-1104,-1273],[-2041,-732],[-1539,-1967],[334,-2932],[1506,-540],[2409,1389],[201,1003],[4383,1465],[1405,-1813],[1974,-154],[33,-1543],[2376,-3972],[3379,-1235],[2041,-3664],[703,1350],[2844,1003],[903,2353],[1740,-926],[903,926],[2911,-502],[2777,-925],[1840,-3934],[1673,-232],[1406,694],[133,3317],[1138,540],[-335,1582],[2008,2005],[803,-347],[1706,1505],[1406,-502],[3044,39],[1907,-1505],[3212,5362],[2142,1851],[234,2083],[937,656],[1907,4358],[2342,926],[669,-1196],[1807,270],[1070,1504],[2108,-2468],[2376,-926],[2944,656],[1004,3201],[301,4050],[1673,617],[2944,-309],[2911,1620],[3045,5670],[-2242,2237],[-702,2931],[1773,193],[4684,-2854],[1405,-77],[502,1813],[1740,2275],[1606,6441],[-602,1505],[1305,1080],[2308,231],[3078,-1967],[803,-2661],[-1338,-1620],[1071,-2006],[669,-3278],[2643,-2044],[-368,-1428],[2643,-1272],[1071,-1350],[334,-1775],[-1472,-2815],[2309,-1736],[4048,-694],[3313,-2893],[1104,-2584],[1773,-1273],[-669,-2584],[602,-1620],[-1271,-4821],[1104,-1851],[-1037,-926],[-2041,-4783],[-1573,-308],[-1104,-1775],[-2007,540],[-1272,-2082],[1707,-2353],[301,-2083],[1171,-1234],[368,-1543],[2007,-2970],[603,193],[3546,-1890],[3045,887],[3011,-2237],[1205,-2468],[1304,115],[2342,3163],[1339,-887],[4383,1697],[2676,-733],[3380,-2700],[1940,-771],[3145,-4358],[2644,-1157],[1505,-2045],[2008,425],[2509,2391],[-67,2083],[-2476,1234],[3012,2854],[2308,-77],[2543,1659],[1071,1928],[1840,1003],[1807,-2353],[635,-2391],[1104,-1119],[3681,-1157],[1204,-2160],[2376,-2700],[870,-1620],[2911,-2237],[468,-3432],[2074,-3973],[5019,-3973],[602,-1581],[1908,13114],[12379,-1813],[3580,-1582],[1807,-2044],[736,-2275],[1807,-1312],[937,-2661],[3713,-964],[2008,-1813],[2375,-1273],[1138,-2044],[-736,-3163],[2141,-270],[1037,1659],[3949,-39],[1405,1003],[569,2430],[2844,578],[2944,2893],[1338,3973],[1907,1774],[-1204,3009],[769,1349],[1473,-694],[3479,694],[1707,810],[3580,656],[-1372,2353],[100,1620],[1272,3664],[1572,2738],[1338,1466],[3514,154],[3713,2160],[2543,-501],[469,887],[-904,4513],[268,4937],[5788,-849],[4316,-849],[1171,9411],[-2643,386],[368,2777],[2643,-386],[235,1968],[-2777,270],[-1339,-425],[-4149,1504],[-2944,-462],[-1171,655],[468,3587],[1339,-771],[435,3163],[-1506,3124],[-401,3163],[8565,-1119],[1004,7714],[-9837,1427],[1305,771],[1874,2122],[434,2083],[-334,2314],[1706,2005],[870,2507],[2443,1312],[1003,1658],[670,3472],[-837,1542],[2911,-38],[435,694],[-2041,2816],[903,2121],[1841,2391],[4015,733],[2040,-848],[2744,-4012],[2208,-1427],[5119,1350],[3346,1967],[1740,2083],[7495,0],[267632,270],[114160,-270],[12446,-63447],[669,-7637]],[[544901,468160],[1338,-463],[502,-1658],[1673,-2276],[3446,-1543],[1138,-1080],[2442,849],[3279,-1234],[-1238,-1929],[234,-3317],[-2308,-2468],[67,-3587],[870,-887],[-1004,-2932],[903,-2892],[235,-2430],[-971,-772],[-234,-1890],[1506,-810],[1739,348],[3614,-193],[502,-1504],[-1171,-4667],[-1339,-2816],[1406,-1311],[3379,-1697],[502,-1350],[4048,1080],[603,2391],[2609,926],[1439,1388],[1706,-540],[3380,1929],[602,2159],[1472,-38],[2309,1967],[1305,-1890],[-837,-2816],[703,-2777],[1706,-2044],[402,-1543],[2342,78],[33,3085],[1071,1620],[1305,-1466],[2007,-1195],[970,-1273],[2142,-116],[2342,2044],[3279,-1234],[33,-2121],[12112,-1543],[8565,-1273],[101,386],[10640,-1581],[22517,-3742],[903,5940],[2476,-578],[1606,11686],[9837,-1427],[836,-2661],[1138,-386],[1941,887],[1037,3664],[7294,-1080],[-235,-1735],[3915,-579],[-636,-4281],[8465,-1350],[971,-1967],[4884,-810],[435,-1890],[2644,-116],[736,-2507],[7361,-1118],[1171,964],[1840,-771],[13216,-1967],[1740,-3395],[-636,-3239],[3078,-926],[569,4397],[2844,-347],[-1472,-2469],[1438,-2044],[-401,-3625],[11309,-1736],[569,-694],[-435,-2199],[4383,-694],[-1004,-6326],[3613,-540],[-267,-2584],[11342,-1812],[703,2314],[2643,347],[937,6788],[2041,-308],[501,3355],[-1873,309],[836,5708],[5354,-849],[2074,1659],[0,1196],[3179,2044],[0,1697],[1237,2468],[4149,1697],[3012,-231],[2041,424],[1171,1196],[-67,2661],[1639,3472],[268,1812],[2609,579],[-501,3548],[-2008,1119],[-3379,694],[-301,2160],[-1439,-231],[-3513,5824],[1606,2082],[-1338,695],[-2443,-39],[234,1620],[1740,-39],[3614,-1041],[2375,-1234],[-267,1928],[30881,-5477],[4417,-848],[50355,-8871],[1271,1195],[3413,1003],[4650,3587],[2409,2584],[3447,1620],[669,3703],[-1205,5014],[-167,3317],[703,3510],[1037,3124],[1539,2623],[6324,38],[4048,-617]],[[905447,456126],[-1573,-3124],[937,-4397],[368,-6325],[1305,-10028],[1439,-6249],[1472,-4551],[1238,-2661],[1372,-1659],[3078,-5322],[1673,-2392],[3078,-3548],[4651,-3780],[4282,-2044],[2945,-772],[3580,-231],[2041,347],[1539,1427],[2241,5747],[1540,1466],[1672,-2199],[-33,-1350],[-1773,-771],[-3313,-7290],[-5018,-11725],[-5086,-12844],[-4249,-11648],[-3681,-11686],[-4282,-12998],[-4350,-15390]],[[912540,320129],[-41053,6827],[-435,-3124],[736,-771],[-937,-6789],[-1840,-3317],[-435,-2622],[-1271,-425],[-168,-1427],[-1405,-1928],[-3781,-810],[-301,-1697],[-1439,-733],[-2074,694],[-3781,-810],[101,-4204],[-6224,964],[-234,-1620],[-1974,309],[-468,-3356],[-1238,1003],[-2610,3626],[-2810,2314],[-7830,1080],[-970,-7714],[-6424,887],[-201,-1697],[-1706,-1196],[836,-5901],[-1673,-463],[904,-3124],[-5788,-19748],[-569,-3548],[-2309,-3741],[-769,-2546],[-1539,-10221],[-3179,540],[-3680,1659],[-1539,-6557],[-770,154],[33,-3896],[1774,-115],[-736,-4937],[200,-3240],[3380,-540],[-402,-2739],[1205,-809],[2609,385],[1372,-1311],[1004,-4706],[-970,463],[-770,-5361],[1372,-309],[-2242,-15582],[-10372,1774],[34,-2699],[2576,-155],[67,-2391],[-1339,-656],[-3078,-2970],[-1037,-2468],[-1505,-579],[-369,-3432],[6157,-926],[-803,-5554],[2576,-887],[703,-1504],[-770,-2353],[-1271,-540],[-1640,887],[-100,-2893],[-1840,-2275],[-971,1002],[-1572,-925],[-2476,3625],[-1439,-1080],[-1639,2315],[-4617,-3587],[-770,38],[-602,-4011],[-3279,-3317],[-1974,-1042],[33,-2969],[-3011,-540],[-1673,-2662],[636,-2082],[-803,-3240],[-3513,617],[-3246,-386],[-2241,1659],[-335,1002],[-2978,1543],[-2643,424],[-3413,1196],[-2308,-887],[-2175,501],[-1974,-501],[-134,1774],[-1138,694],[-2342,-2391],[-1104,-116],[-1438,1813],[-2878,-463],[-1372,-1195]],[[738122,154588],[-1907,578],[-1505,-463],[-1539,733],[-2108,3587],[-14254,1929],[1238,-3934],[2409,-3395],[-836,-771],[-21045,2931],[502,3819],[-3179,463],[602,4397],[-3513,501],[3112,10144],[-2041,1196],[-301,-2160],[-1305,-695],[-1171,2507],[100,1852],[1405,2507],[-234,2314],[1974,2546],[1104,7984],[-870,-1003],[-2107,308],[1405,9951],[-2242,116],[-535,-1196],[-3380,-540],[-1271,-1157],[-2911,1157],[-1639,-2661],[-1506,-1080],[-1271,1196],[-3012,-1967],[-1204,1427],[-3245,0],[-1339,1543],[-769,2237],[-2142,-270],[-1271,-1235],[-1506,425],[-2007,-1582],[-2041,540],[-1573,-1427],[-2977,-1427],[-3614,-656],[-1372,-1465],[-1372,3240],[-2308,1388],[268,772],[-2677,1774],[-1037,1350],[-1707,810],[-1572,1620],[-3547,-425],[-267,-4165],[-1673,-1774],[-1941,0],[-836,-965],[-134,-1967],[-1037,-771],[-971,-2276],[-2576,-463],[-569,-887],[-2944,-347],[-1941,-1504],[937,-964],[167,-3433],[-1037,-1504],[-2643,1620],[-870,-540],[-1238,-2700],[-2643,193],[-937,1812],[-2375,2623],[-904,1774],[-2409,2122],[-1004,1504],[-3479,1736],[-2610,2700],[-2074,-1196],[-1874,810],[-268,-1813],[-1438,-964],[-1740,1234],[-2911,-193],[-1071,-2931],[1305,-2353],[-836,-2507],[-2710,-2391],[669,-1697],[-101,-2932],[1439,-1272],[-535,-2006],[-1272,-1736],[1406,-2082],[-737,-579],[569,-3857],[669,-617],[235,-2623],[803,-1466],[234,-2198],[-1640,-3317],[301,-1543],[1841,-1465],[468,-2585],[1338,-848],[-1639,-1890],[-2476,-1504],[1840,-5323],[-2543,-4937],[569,-1774],[-1070,-2430],[-2409,231],[-201,-2005],[-3915,-1967],[-702,-1234],[-2175,-1080],[-2878,-78],[-3011,-1581],[-2041,-2083],[-535,-1928],[803,-3896],[67,-2815],[2308,-1350],[67,-1813],[1974,-2237],[4015,-1350],[-568,-1003],[1672,-1388],[2711,1272],[2275,-3085],[1539,-1196],[1439,-2160],[501,-1851],[1506,-1080],[-1472,-1427],[1071,-2700],[3379,1041],[769,1890],[-1338,849],[468,1581],[3313,-270],[-602,-4821],[4383,-617],[-569,-1581],[-1740,-1698],[-435,-1388],[33,-5631],[2744,-2623],[1439,1041],[937,-1581],[1840,-1080],[-803,-1890],[134,-2815],[-1305,-1736],[1907,-4821],[-770,-4783],[5354,-848],[-803,-5516],[-1707,270],[-535,-3587],[836,-2661],[268,-6789],[1472,-2468],[-5353,848],[-1071,1196],[335,1774],[-3681,-2430],[-1706,0],[-2476,-2082],[-1874,-3317],[-1137,-4744],[-703,-2315],[-2175,1543],[-2710,810],[-2275,-1350],[-2175,155],[-1907,-3086],[-3279,-1041],[-1304,-1968],[-5856,-3162],[-2241,154],[-2209,2469],[-2275,385],[669,3317],[1439,347],[402,1620],[1505,849],[1640,2121],[-235,6210],[-1405,2044],[1205,1041],[602,1775],[2576,3240],[-6792,964],[-1037,1350],[-2007,-579],[-1640,540],[-1271,-926],[-1305,1273],[468,2083],[1740,-231],[669,2121],[2075,-540],[3044,2083],[1472,2314],[-1037,2083],[1506,3085],[2810,-38],[402,2237],[-1037,2083],[-1138,38],[-1071,2391],[-133,3973],[736,1851],[-536,3587],[-4082,540],[469,3935],[-1807,-1080],[-1004,-1389],[-1639,-308],[-1840,-1659],[-703,-1658],[-4015,617],[-1506,771],[-2676,3741],[-3313,-2507],[-401,-2777],[-3346,309],[-2442,-1620],[-603,-4474],[-936,-116],[-402,-2893],[-12848,1813],[-569,-38],[-2543,-3549],[-66,-1890],[-1205,-2468],[-2041,-2122],[-3145,-1774],[-1539,-2005],[67,-1736],[-1338,-1774],[-368,-1890],[535,-1620],[-602,-4204],[-1473,-810],[-1706,-2122],[-268,-2159],[-14487,-7059],[-134,-2005],[-1606,-1505],[-1372,-2314],[-2977,-2584],[-1874,-3355],[-2509,-1466],[-1105,424],[-2275,-1658],[-2978,1774],[-2676,-3086],[-4551,-2121],[-4215,-1273],[-2476,-38],[-1907,771],[-2610,-579],[-2342,887],[-2443,-1272],[-3312,1388],[-2877,2276],[-1640,-39],[-1773,2392],[-970,270],[-803,1967],[-2644,1851],[-1137,-116],[-2744,2083],[-1271,2353],[-2208,-1312],[-2543,-424],[-1405,772],[-1774,2237],[-1171,154],[-2944,3085],[-2677,-732],[-3412,3239],[-1372,-231],[-2510,1774],[-435,1119],[-3279,0],[-736,1543],[-1639,848],[-1472,-347],[-1874,4050],[-334,3471],[-1171,1003],[100,1851],[-1840,656],[-1339,2121],[-903,2469],[-2141,1581],[-301,2353],[-3012,3780],[-1171,-270],[-1706,887],[-870,2468],[-1439,386],[-1673,3818],[-836,695],[1706,2198],[-1405,2006],[-301,2121],[569,1080],[-134,2854],[669,2276],[-1673,347],[-2810,-424],[-670,1427],[-3814,193],[-1438,2391],[-2041,771],[-2209,-1041],[-736,-1273],[-3111,-578],[-4751,1504],[-3279,501],[-2041,1697],[-3614,2353],[-937,77],[-602,2122],[-268,4435],[-1639,1427],[1305,3086],[-1104,2623],[1372,3047],[-335,1735],[-3915,1119],[-2576,1465],[-1104,2430],[-803,309],[5119,3972],[669,5130],[-401,1543],[-4450,5863],[-3313,1890],[-2074,2661],[-2175,-964],[-1137,3047],[-1774,231],[-1873,1890],[-1974,579],[-937,3664],[-2376,270],[-3078,2430],[301,925],[-1104,2006],[-1539,386],[-1004,2429],[-1539,-1774],[-1472,-231],[-636,1697],[-2342,2661],[-1171,3549],[-2175,1542],[-2409,3549],[-301,1350],[235,3433],[-2744,462],[-2576,-2005],[-1874,-386],[-2610,810],[-2108,2044],[-1606,2237],[235,3394],[-1573,78],[-1740,1928],[-2743,-1697],[-2610,2237],[-1071,1466],[-2175,1388],[-2676,5014],[1305,2469],[-1573,2160],[67,1234],[1606,1928],[-234,733],[-8632,1312],[-34998,4975],[-33,116],[12714,31820],[2041,13306],[4283,28156],[769,3549],[-23387,3201],[-16662,-578],[-1138,24761],[1639,-193],[1506,-1118],[16896,8794],[1071,4165],[5521,965],[2308,-386],[-368,4011],[5755,3471],[1573,-809],[1706,-3240],[4550,-3009],[2577,502],[1037,-656],[2911,1967],[1070,1928],[-435,2893],[-1137,1389],[-268,1813],[1004,4975],[-2610,3741],[-602,2199],[-2342,540],[-1840,-1427],[-1004,925],[-2710,-3548],[-1907,-1234],[-1740,-386],[-1405,2314],[-3012,887],[-1472,-115],[-1606,1697],[-1639,424],[-1138,1967],[-1974,1311]],[[968850,881127],[770,-1929],[-67,-3664],[-703,-7868],[-970,-13692],[-569,-12381],[-167,-6210],[435,-11532],[870,-6943],[937,-5438],[1773,-6403],[569,-733],[2007,-5824],[1774,-4319],[1606,-3202],[3178,-4281],[3915,-3780],[3580,-2854],[4416,-1388],[2443,-116],[2509,656],[402,-1466],[-67,-7406],[803,-5091],[1706,-3317],[-1271,-5592],[-2075,-5053],[-2643,-5477],[-5788,-13384],[-2911,-7636],[-1606,-3587],[-13651,-34520],[-2376,-5092],[-3178,-8099],[-6725,-15698],[-904,-2430],[-5654,-12921],[-2911,-7753],[-2944,-6942],[-5253,-13422],[-3881,-10491],[-2510,-6326],[-6591,-17395],[-1338,-4011],[-3547,-9604],[-6825,-20403],[-3681,-12651],[-2844,-11687],[-1338,-6981],[-1205,-7791],[-301,-7598],[469,-6904],[635,-5130],[1305,-6788],[1104,-4127],[235,-4397],[-2343,-9720],[-1773,-3163],[-234,-3047]],[[912540,320129],[-1773,-6634],[-4015,-16778],[-1773,-8369],[-3012,-17241],[-870,-7135],[-301,-9759],[669,-7443],[1975,-7174],[2107,-4397],[1606,-2430],[1606,-1080],[2710,-849],[2577,2662],[1539,-116],[870,964],[2911,-1118],[-670,-2662],[837,-1080],[-736,-2391],[-3379,-17048],[-1473,-8331],[-1338,-12342],[-836,-5014],[-502,-6750],[0,-2970],[1003,-2430],[2309,-3201],[-669,-2893],[-703,-5940],[-334,-9334],[301,-3972],[1204,-4783],[-267,-2854],[100,-6403],[636,-2931],[602,-5207],[1138,-3355],[2275,-1813],[2175,-2392],[2810,-1002],[2409,617],[-669,-9141],[-335,-9334],[134,-3510],[803,-7753],[-401,-1851],[903,-6865],[803,-2623],[2442,-1041],[0,-2238],[737,-1928],[-2911,-501],[-2443,-2662],[-1807,-10336],[-234,-2237],[502,-6210],[100,-4706],[636,-4782],[2443,-10723],[2476,-9989],[-20075,-5632],[-67,-1079],[-2510,-2315],[201,-3471],[-803,-2546],[-3747,-2854],[-2342,1466],[-1406,-193],[-602,1774],[-1238,309],[-2275,2160],[-8130,1195],[-536,-4937],[-1773,39],[-2877,-2237],[-4885,656],[-1104,-617],[-2342,1735],[-1038,2237],[-2810,-1697],[-1773,2430],[-2644,1581],[-602,926],[-6357,1042],[-3045,1234],[-1271,1774],[-2141,578],[-3212,39],[-1774,-1581],[-2409,-1042],[-1907,1852],[-3847,-926],[-5320,810],[1104,7675],[2308,1042],[1406,1311],[1003,6441],[-5353,849],[569,3317],[-1974,308],[-335,2816],[402,2777],[3781,-579],[903,6172],[-4015,655],[268,1967],[-2209,347],[502,3472],[-1740,-733],[-3145,1196],[-2074,-425],[-1138,2276],[-1505,308],[-2142,3549],[101,1041],[-2342,3510],[-2175,1620],[-1305,-810],[-2978,-308],[-1806,1851],[635,3587],[-3781,1388],[737,4744],[-2844,463],[-1372,1003],[-1941,347],[-636,-4088],[-2040,2198],[-1205,-7328],[-3446,3201],[-2075,-2661],[-1304,-656],[-837,1967],[-1874,1158],[-3981,-1003],[-4216,771],[770,2353],[-6558,1196],[-67,1234],[-2208,925],[-1171,1775],[-536,6441],[-1940,1504],[-2777,154],[-2510,-1890],[-1505,2353],[-703,2199],[-2208,-1003],[-1874,771],[-2476,154],[-769,965],[-4919,617],[-803,2353],[-1338,1427],[-1773,347],[-2510,2623],[-334,1774],[1071,1003],[-1673,4011],[501,1003],[-869,1542],[-2175,1852],[-2610,1620],[-970,-309],[-3112,772],[-602,1118],[201,2353],[2007,2160],[-702,1543],[33,2661],[-1171,-116],[6725,8331],[-268,463],[3915,4860],[1539,12111],[-803,771],[-1138,2970],[-167,1774],[870,1157],[-3379,463],[702,1697],[-301,2739]],[[917994,143017],[368,154],[836,-501],[-468,-270],[-736,617]],[[829062,37528],[1238,309],[435,-2044],[-1941,77],[268,1658]]],"transform":{"scale":[0.000002988799999999998,0.0000025927025927025933],"translate":[150.3691,-26.9848]},"objects":{"qld_north_coast_ddmg_boundaries_gda2020_simp200m":{"type":"GeometryCollection","geometries":[{"arcs":[[0,1,2]],"type":"Polygon","properties":{"District Name":"Bundaberg","DDMG Name":"Bundaberg","Area Sq Km":32074.33,"Police Region Name":"North Coast Region","Police Region Code":"NCR","Police Region Short Name":"North Coast","Region Slug":"north_coast","Layer Id":"qld_north_coast_ddmg_boundaries_gda2020_simp200m","Layer Group":"per-region","Layer Kind":"ddmg","Source":"QPS Disaster Districts, Queensland Police Service, via the Queensland Government Open Data Portal","Source URL":"https://www.data.qld.gov.au/dataset/qps-disaster-districts","Licence":"CC BY 4.0","Licence URL":"https://creativecommons.org/licenses/by/4.0/","Dataset Date":"19/05/2025","Simplification Tolerance M":200,"Coordinate Precision Decimals":4,"CRS":"GDA2020 (EPSG:7844)","Modified":"Simplified and repackaged from the source dataset; see Source URL"},"id":"Bundaberg"},{"arcs":[[-2,3,4,5,6]],"type":"Polygon","properties":{"District Name":"Gympie","DDMG Name":"Gympie","Area Sq Km":15347.81,"Police Region Name":"North Coast Region","Police Region Code":"NCR","Police Region Short Name":"North Coast","Region Slug":"north_coast","Layer Id":"qld_north_coast_ddmg_boundaries_gda2020_simp200m","Layer Group":"per-region","Layer Kind":"ddmg","Source":"QPS Disaster Districts, Queensland Police Service, via the Queensland Government Open Data Portal","Source URL":"https://www.data.qld.gov.au/dataset/qps-disaster-districts","Licence":"CC BY 4.0","Licence URL":"https://creativecommons.org/licenses/by/4.0/","Dataset Date":"19/05/2025","Simplification Tolerance M":200,"Coordinate Precision Decimals":4,"CRS":"GDA2020 (EPSG:7844)","Modified":"Simplified and repackaged from the source dataset; see Source URL"},"id":"Gympie"},{"arcs":[[-1,7,-4]],"type":"Polygon","properties":{"District Name":"Maryborough","DDMG Name":"Maryborough","Area Sq Km":7996.27,"Police Region Name":"North Coast Region","Police Region Code":"NCR","Police Region Short Name":"North Coast","Region Slug":"north_coast","Layer Id":"qld_north_coast_ddmg_boundaries_gda2020_simp200m","Layer Group":"per-region","Layer Kind":"ddmg","Source":"QPS Disaster Districts, Queensland Police Service, via the Queensland Government Open Data Portal","Source URL":"https://www.data.qld.gov.au/dataset/qps-disaster-districts","Licence":"CC BY 4.0","Licence URL":"https://creativecommons.org/licenses/by/4.0/","Dataset Date":"19/05/2025","Simplification Tolerance M":200,"Coordinate Precision Decimals":4,"CRS":"GDA2020 (EPSG:7844)","Modified":"Simplified and repackaged from the source dataset; see Source URL"},"id":"Maryborough"},{"arcs":[[[-6,8]],[[9]],[[10]]],"type":"MultiPolygon","properties":{"District Name":"Sunshine Coast","DDMG Name":"Sunshine Coast","Area Sq Km":3156.82,"Police Region Name":"North Coast Region","Police Region Code":"NCR","Police Region Short Name":"North Coast","Region Slug":"north_coast","Layer Id":"qld_north_coast_ddmg_boundaries_gda2020_simp200m","Layer Group":"per-region","Layer Kind":"ddmg","Source":"QPS Disaster Districts, Queensland Police Service, via the Queensland Government Open Data Portal","Source URL":"https://www.data.qld.gov.au/dataset/qps-disaster-districts","Licence":"CC BY 4.0","Licence URL":"https://creativecommons.org/licenses/by/4.0/","Dataset Date":"19/05/2025","Simplification Tolerance M":200,"Coordinate Precision Decimals":4,"CRS":"GDA2020 (EPSG:7844)","Modified":"Simplified and repackaged from the source dataset; see Source URL"},"id":"Sunshine Coast"}]}}}