{"type":"Topology","arcs":[[[993103,72232],[-476,-25],[-617,-275],[-906,-130],[-469,145],[-206,350],[-32,270],[-206,345],[-533,325],[-71,350],[-282,35],[-457,-190],[-392,145],[-257,-30],[-231,-180],[-322,235],[13,366],[-180,465],[-302,15],[-1015,-300],[-630,60],[-373,-150],[-610,-336],[-476,-105],[-296,20],[-424,376],[-116,405],[-321,5],[-64,200],[-315,20],[-84,190],[110,460],[-180,780],[-1099,116],[-20,105],[-514,60],[64,155],[-1034,115],[0,-105],[-1999,210],[-96,205],[-830,85],[-411,-60],[-276,120],[-58,210],[-546,-10],[122,540],[385,-40],[135,585],[-192,176],[-482,155],[-123,135],[-745,375],[-232,210],[-2114,215],[-90,-390],[-1041,100],[-296,-1236],[-411,30],[-64,-180],[244,-110],[-187,-440],[45,-655],[-1176,-345],[-597,35],[-572,-285],[-1209,140],[-257,-291],[-1388,166],[-135,-25],[-932,130],[-1240,395],[-347,365],[-476,180],[-655,40],[-932,250]],[[960602,77504],[186,195],[-668,685],[-405,111],[-643,305],[-238,-95],[-662,0],[-463,225],[-282,410],[-971,660],[-424,-55],[-411,-730],[-180,-120],[-277,100],[-25,665],[-399,836],[20,550],[218,490],[-180,410],[-302,440],[212,115],[-520,511],[77,315],[154,135],[-161,560],[-270,165],[-585,70],[-404,150],[-277,255],[-270,125],[-244,306],[-19,530],[186,135],[321,15],[360,205],[-70,270],[315,260],[-103,355],[173,300],[-283,431],[-449,225],[-232,0],[-334,245],[-148,-100],[-469,580],[-1485,170],[-70,420],[64,215],[-276,461],[-302,135],[-283,260],[19,245],[-173,155],[186,470],[251,165],[340,70],[7,305],[-245,296],[-572,380],[-244,85],[-6,190],[-392,245],[-193,220],[276,145]],[[948358,93376],[52,-320],[874,-95],[289,140],[964,-230],[1144,-200],[366,-320],[322,-95],[649,105],[765,-280],[173,90],[411,-45],[393,205],[231,-20],[289,180],[771,175],[341,-170],[161,730],[347,-45],[257,685],[437,-35],[353,195],[598,60],[341,-165],[636,-85],[186,-160],[656,-15],[565,-75],[560,-260],[2358,-250],[193,140],[534,-50],[-142,225],[-257,110],[32,365],[476,80],[96,-140],[469,160],[-32,185],[135,416],[315,-230],[579,-301],[366,5],[199,270],[-32,491],[283,160],[366,-15],[-38,210],[372,120],[855,-40],[90,340],[-405,240],[199,245],[405,0],[155,-145],[385,-140],[8580,-2521],[39,-25],[8014,13341]],[[986078,106572],[4216,880],[3053,455],[444,35],[276,-230],[437,-5],[141,-105],[-25,-295],[-257,-390],[-328,-620],[-707,-1791],[-161,-355],[-366,-1021],[-225,-510],[-270,-805],[-456,-1571],[-225,-1080],[-174,-1201],[-51,-795],[19,-1181],[103,-640],[218,-900],[167,-481],[669,-1060],[778,-680],[12,-1026],[-919,-1781],[373,180],[938,10],[399,-240],[694,-645],[662,-450],[745,-210],[1202,45],[495,-210],[373,-75],[508,95],[649,-135],[-58,-331],[238,-240],[-367,-160],[-2191,-3646],[-2423,-5598],[-855,-3291],[-173,-1196],[147,-460],[-315,-505],[-385,-125]],[[904205,233043],[-77,-136],[289,-175],[-443,-220],[-592,160],[-109,-130],[-353,-70],[-695,60],[-424,-35],[-559,631],[-437,185],[-341,-145],[-347,5],[-424,-241],[-135,-255],[328,-280],[-39,-170],[-302,-15],[-173,-180],[-90,-470],[-129,-195],[-507,-180],[-142,-300],[-308,-221],[25,-340],[-424,-540],[-283,-110],[1884,-180],[-193,-1000],[-1652,140],[84,-406],[289,-405],[-84,-415],[-257,105],[-90,-465],[225,-75],[566,45],[797,-200],[263,60],[527,-40],[-45,-245],[-508,50],[-70,-360],[507,-50],[-224,-1221],[-830,110],[-1111,110],[-52,-640],[174,-585],[-90,-115],[-489,65],[-713,-281],[-675,-20],[-257,-190],[-302,-355],[-244,-475],[-20,-210],[264,-305],[-688,-85],[-328,-105],[-668,-90],[-283,85],[-148,-175],[232,-386],[-367,-230],[-257,-515],[-565,-375],[-547,-75],[-109,-315],[-270,-130],[-758,5],[-199,-215],[-412,35],[142,410],[-219,265],[-456,165],[-386,235],[-700,135],[-180,345],[-341,170],[-141,290],[-360,271],[-366,85],[-264,220],[-186,-55],[-2256,180],[-367,-1701],[-115,205],[-964,515],[-399,516],[-96,445],[-553,290],[-167,210],[-456,350],[-238,280],[-701,150],[-212,145],[-122,311],[-251,315],[-494,-135],[-302,-321],[-341,-130],[-579,5],[-437,-310],[-64,-140],[482,-85],[13,-295],[-450,-280],[-385,-55],[-277,250],[-508,150],[-604,565],[-372,95],[-656,356],[-508,95],[-848,-221],[-251,116],[-450,-411],[-250,-15],[-238,320],[-572,291],[-566,-130],[-700,260],[-116,-30],[-386,390],[-70,200],[-225,160],[-58,270],[-328,305],[244,270],[386,-70],[212,230],[302,35],[392,621],[200,125],[-213,240],[245,625],[-116,210],[129,335],[-341,165],[-212,336],[-636,375],[-778,90],[-444,225],[283,365],[-64,230],[-206,175],[-507,165],[70,185],[-508,266],[-128,420],[-206,265],[251,210],[-148,345],[-591,255],[-444,-30],[-250,-140],[115,-195],[-308,-835],[-334,-295],[-97,-236],[-270,5],[-899,376],[-347,-25],[141,-381],[431,-290],[-585,-735],[-559,-210],[-566,35],[-321,-75],[-58,-525],[-193,-416],[-572,-85],[-450,120],[-405,321],[-205,-195],[-348,-35],[-128,155],[-450,-120],[-366,-566],[-180,-85],[-26,-230],[-488,20],[-997,-85],[-96,-255],[167,-460],[-585,-5],[-270,65],[-327,-195],[-155,40],[-366,-265],[58,-190],[-296,-291],[39,-220],[-270,-85],[-322,30],[-353,511],[-534,120],[-565,65],[-167,-120],[-334,120],[-180,-306],[-540,-130],[-135,-175],[-399,476],[-642,160],[-457,515],[-6,200],[-379,20],[-270,235],[-842,-190],[-39,-130],[-462,-180],[-290,70],[-64,380],[296,255],[392,95],[212,165],[533,5],[482,-160],[431,-10],[-739,2091],[128,325],[-141,205],[328,190],[148,236],[-97,140],[257,1350],[-225,135],[-379,55],[-1414,-375],[-855,-60],[-655,-165],[-289,-215],[-444,-30],[-289,170],[-39,285],[-250,175],[90,280],[-129,260],[219,261],[-116,450],[84,255],[385,435],[13,280],[174,325],[295,110],[19,280],[-964,676],[-51,245],[-630,75],[-366,175],[-244,-410],[-746,-225],[-283,60],[-205,-375],[-508,220],[-58,385],[-405,200],[-109,410],[-527,465],[-1151,155],[-147,265],[-560,321],[-231,-70],[-161,370],[-160,0],[-457,365],[-12,400],[173,155],[-218,375],[-952,105],[-83,-95],[-418,15],[-321,-160],[-759,120],[-282,-215],[-78,-355],[-404,-185],[-78,-340],[148,-385],[-64,-926],[-328,-210],[39,-465],[-154,-355],[-45,-325],[-174,-115],[0,-331],[-219,-220],[0,-415],[-334,-200],[-231,-25],[-109,-405],[-335,-225],[0,-310],[142,-295],[122,-641],[308,-170],[560,-620],[-431,10],[-315,-165],[-51,-440],[51,-431],[193,-335],[-244,-110],[-1607,445],[-758,126],[-3310,760],[-103,-230],[-508,50],[-244,-215],[-752,80],[-193,335],[-231,20],[-52,-285],[-231,-255],[-444,200],[-507,-100],[-244,225],[-470,-2401],[270,-60],[1009,-671],[662,-90],[424,-145],[123,-140],[649,-270],[977,290],[443,-330],[508,65],[38,-320],[167,-275],[662,-400],[-225,-145],[-359,-416],[-502,-360],[-250,-355],[-386,-75],[-174,-535],[-231,-55],[-199,-355],[263,-220],[-167,-766],[-218,-290],[-502,-130],[-437,95],[-244,-75],[-1652,290],[-539,65],[-65,145],[-366,245],[-1478,-130],[-476,-110],[-495,-340],[-1658,886],[-945,90],[-469,125],[-212,-135],[-990,-110],[-629,80],[-637,-15],[-630,170],[-829,-235],[-231,50],[-456,465],[-926,-125],[-225,-215],[-96,-466],[-939,10],[-687,-120],[-1568,-950],[-33,-45],[984,-2906],[270,-446],[-161,-130],[-341,-1730],[-225,-130],[-186,-351],[-700,-105],[-1434,-2611],[-128,-755],[103,-440],[-1016,-1771],[-180,-90],[431,-836],[450,-440],[-322,-980],[-25,-495],[83,-265],[32,-1191],[-90,-330],[20,-425],[360,-636],[102,-345],[148,-190],[-103,-540],[167,-155],[444,-200],[823,-560],[-560,-146],[-308,-430],[-302,-155],[-257,-340],[154,-405],[193,-185],[0,-325],[-283,-195],[-6,-281],[-392,-155],[-1312,-10],[-803,-280],[-662,-155],[-649,-650],[270,-305],[-1022,-115],[-553,210],[-411,15],[51,-265],[-141,-150],[135,-190],[276,-951],[-122,-560],[-193,-75],[-437,-375],[26,-315],[-218,-436],[-476,-35],[-135,-305],[411,-720],[-276,-150],[-688,-45],[-90,-330],[270,-195],[-19,-301],[148,-230],[-424,-680],[6,-230],[-283,-210],[-700,70],[-649,-340],[128,-260],[-38,-551],[96,-135],[-251,-335],[-578,-285],[51,-155],[682,-235],[-251,-110],[-141,-235],[-315,-85],[-733,-596],[572,-360],[-341,-260],[180,-560],[-527,-110],[-180,-130],[547,-470],[334,-171],[-437,-785],[-1427,-700],[-58,-525],[-360,-220],[64,-226]],[[795370,185006],[-687,-350],[-707,-110],[-1048,716],[-668,420],[-894,255],[-1054,770],[-115,530],[-367,-40],[-501,170],[-251,-120],[-449,45],[-425,481],[-578,890],[-476,95],[-257,-360],[-237,-95],[437,-180],[-245,-160],[-237,75],[-90,-405],[-258,-191],[200,-240],[-283,-215],[341,-70],[-26,-170],[-489,15],[-334,-190],[-514,-85],[-77,400],[-456,110],[-148,160],[-347,55],[270,371],[-572,435],[-193,470],[-251,130],[-212,-220],[-341,25],[-269,-150],[-470,-40],[77,445],[-57,225],[-309,365],[-135,290],[232,301],[771,25],[379,55],[418,235],[64,245],[-154,445],[-341,150],[-655,120],[-187,195],[58,170],[-193,676],[7,150],[495,620],[-110,410],[-662,370],[476,631],[353,300],[784,300],[547,275],[302,250],[-103,155],[-373,100],[-308,-140],[-527,-125],[-386,-20],[-167,250],[-630,165],[-173,205],[45,230],[180,145],[1002,571],[148,190],[296,115],[257,-65],[758,330],[334,-75],[232,230],[-251,445],[32,550],[-328,251],[-77,405],[-540,415],[-4929,420],[-8034,685],[-411,25],[-585,286],[-360,-20],[-64,-191],[-688,100],[-3066,231],[-3052,275],[-97,165],[-430,240],[353,245],[489,850],[803,1001],[-174,625],[-501,10],[-379,170],[-373,250],[-64,350],[-328,266],[-71,170],[-610,-30],[-354,190],[-996,1105],[-128,-115],[-412,175],[-424,295],[-353,-5],[-238,210],[-232,-160],[-392,175],[-668,-115],[-431,10],[-6,-160],[-688,155],[-244,-5],[-533,180],[-103,-100],[-392,120],[-643,361],[-186,310],[-405,320],[26,350],[314,10],[0,185],[-2538,220],[-450,520],[-681,251],[70,360],[-1028,15],[0,380],[-1581,330],[-495,350],[-681,-95],[-996,220],[-135,1081],[-161,1605],[-270,2937],[-186,2406],[-1009,-15],[-155,390],[-610,-35],[-1093,-125],[-19,-275],[-508,-691],[20,-180],[-630,105],[-309,-115],[-308,-290],[-367,-900],[84,-305],[-122,-701],[-1234,-520],[-688,-495],[-251,-25],[-289,-1551],[-263,-465],[-135,-115],[-566,-185],[45,-250],[302,-345],[167,-526],[232,-125],[-347,-165],[154,-335],[-251,-255],[405,-230],[-96,-140],[212,-250],[77,-786],[-508,-485],[-193,-255],[13,-375],[-501,-135],[-276,110],[-566,75],[-321,-140],[-450,-70],[-354,-205],[-270,55],[-456,370],[-38,205],[-836,170],[-1253,550],[-328,190],[-334,-335],[-405,85],[-945,-245],[45,-240],[-218,-485],[-450,-335],[-174,-325],[-392,-80],[-463,505],[-437,65],[-662,185],[-681,-285],[-128,-195],[128,-310],[-173,-266],[225,-540],[-33,-285],[116,-675],[-193,-370],[-469,-170],[-565,170],[-1164,215],[-392,275],[-630,80],[-713,815],[64,285],[-244,481],[-353,125],[-341,-20],[-180,100],[-546,35],[-585,205],[-212,160],[167,-730],[173,-141],[52,-320],[340,-320],[-372,-125],[-257,-310],[-97,-360],[276,-445],[-199,-70],[-430,-551],[-405,80],[-116,-205],[-32,-560],[180,-195],[-161,-230],[-424,-255],[-77,-295],[-289,-220],[-521,35],[-341,-381],[-289,-230],[-1067,-400],[-270,-345],[-893,-45],[-533,160],[-97,295],[315,65],[-385,330],[-1061,275],[-302,216],[257,260],[-13,225],[958,380],[58,210],[302,305],[-103,365],[84,100],[-78,636],[65,175],[-547,480],[-186,345],[-206,140],[360,450],[167,446],[-186,350],[122,260],[-437,180],[-328,-30],[-597,225],[6,535],[-405,145],[-308,315],[-213,471],[58,205],[-244,600],[-244,285],[109,440],[-424,405],[-71,676],[553,105],[-103,430],[-366,45],[-64,260],[-238,25],[-302,470],[237,310],[78,431],[-1273,-120],[-302,15],[-932,280],[-373,60],[-212,145],[-225,400],[-514,100],[-244,110],[-161,495],[-2198,536],[-4923,-2852],[688,40],[270,-290],[83,-505],[-199,-220],[-360,-130],[-64,-215],[-379,-375],[-579,-206],[-283,211],[-263,-261],[-418,-135],[-437,-770],[52,-100],[-296,-355],[32,-435],[231,-315],[-424,-681],[341,-185],[-180,-280],[13,-205],[-849,-425],[-12,-375],[154,-150],[6,-386],[122,-310],[-315,-490],[129,-260],[-45,-235],[129,-230],[64,-581],[758,-875],[-96,-105],[257,-235],[90,-360],[244,-355],[296,-256],[96,-285],[257,-260],[514,-265],[257,-540],[553,40],[97,-165],[327,-165],[-102,-185],[-656,-65],[-212,-165],[-32,-341],[154,-550],[13,-310],[116,-160],[353,-85],[469,-515],[289,-220],[90,-236],[-147,-220],[314,-330],[-302,-605],[103,-40],[2629,-170],[508,-365],[218,-265],[-328,-205],[52,-381],[-277,-290],[373,-305],[180,-15],[354,-235],[-20,-160],[437,-130],[662,-55],[547,-1036],[302,-170],[244,15],[173,-280],[245,-80],[-142,-335],[-540,-200],[-848,-80],[-328,-260],[122,-485],[977,-146],[392,-265],[-19,-125],[334,-360],[-122,-330],[116,-480],[-283,-615],[-244,-86],[-212,-250],[-58,-260],[-212,-185],[-373,-90],[-141,-655],[372,145],[245,-65],[-264,-835],[90,-101],[-180,-570],[-218,-110],[-122,-570],[-348,-70],[-617,-35],[-224,-320],[-444,90],[-572,-215],[-758,10],[-135,-205],[-296,-50],[-1517,130],[-263,435],[-585,-175],[-1941,240],[-572,315],[-617,85],[-167,300],[90,130],[-302,160],[-302,-10],[-412,-230],[-443,315],[-476,160],[-501,50],[-71,160],[-597,371],[-245,345],[-1137,205],[-450,175],[-726,445],[-65,525],[-379,170],[495,2221],[424,241],[20,205],[347,300],[546,170],[-26,280],[360,285],[424,110],[-424,690],[-469,861],[-450,75],[-199,-70],[128,-260],[-597,-130],[-431,60],[-341,255],[-494,155],[-380,-290],[-539,-50],[-611,210],[-116,-365],[-244,-180],[-96,-456],[-418,-385],[-264,-100],[-366,185],[-765,736],[-340,385],[-412,245],[-752,-25],[-816,170],[-148,90],[-437,25],[-469,245],[6,145],[-327,250],[-688,315],[-347,20],[-431,255],[-752,-185],[-584,75],[-296,246],[-803,145],[-380,-25],[-559,70],[-366,-150],[-482,70],[-971,-85],[-424,170],[-752,-85],[-1311,-591],[-598,160],[-655,100],[-257,131],[-328,-41],[-443,-520],[-386,80],[-19,205],[-515,516],[-424,50],[-597,-115],[-322,270],[-6,210],[-630,210],[-527,-170],[-199,175],[-367,90],[-270,455],[-694,115],[-694,370],[-887,-125],[-450,40],[65,420],[-637,756],[-231,340],[90,195],[-148,145],[174,455],[-219,235],[-437,115],[-527,291],[45,215],[-514,250],[-501,410],[-347,100],[-238,305],[-257,105],[-752,560],[26,196],[-129,490],[-360,100],[-238,195],[-765,415],[-218,315],[-264,45],[-456,-125],[-700,30],[-431,90],[-379,-245],[-270,-40],[-649,55],[-701,1136],[-321,0],[-187,310],[-494,605],[-598,-40],[-225,95],[-334,960],[-232,91],[-887,130],[-205,95],[-277,385],[-411,335],[-546,1040],[-84,256],[103,470],[-270,330],[-51,190],[212,415],[-90,240],[-604,360],[-142,175],[-6,426],[-276,185],[-328,480],[-476,75],[-681,-145],[-321,40],[-1042,635],[-597,95],[-585,-135],[-334,145],[-367,340],[-707,416],[-238,-60],[-507,80],[-624,-105],[-360,350],[52,160],[-354,140],[52,130],[-289,300],[-251,35],[-546,430],[-527,225],[-212,466],[359,685],[-308,270],[-354,195],[-546,55],[64,165],[-212,245],[-405,220],[-392,401],[-797,305],[-604,85],[-649,320],[-398,730],[-540,345],[-129,180],[-482,0],[-128,135],[45,446],[-283,390],[-456,5],[-367,-105],[-546,185],[-109,-75],[-649,205],[-502,-145],[-430,-265],[-322,70],[-96,220],[-456,210],[-412,30],[-321,-110],[-373,95],[-694,-80],[-315,-135],[-379,-400],[-289,-95],[-244,-366],[-360,-155],[-360,10],[-180,-365],[-553,-35],[-431,-180],[-321,-420],[-154,-25],[-386,175],[-475,-50],[-932,0],[-315,-105],[-142,-190],[84,-515],[244,-70],[-58,-321],[-225,-255],[-719,-65],[-193,-115],[-874,-55],[-347,-140],[-251,-195],[-1022,-330],[-591,-470],[-19,-215],[-264,-205],[-501,10],[-739,135],[-58,695],[-514,-95],[-508,175],[-148,-270],[-379,-20],[-662,-280],[-334,-60],[-778,345],[6,-285],[148,-295],[-289,-175],[-199,-316],[-315,-115],[-309,-935],[-205,-395],[-167,-110],[-611,-120],[-1292,-25],[-1414,-110],[-938,-25],[-1240,100],[-264,155],[-199,-115],[-199,245],[-585,145],[-547,-50],[-173,-250],[-418,-15],[-141,95],[-726,-15],[-527,210],[-1029,-85],[-225,125],[-231,-105],[71,-490],[-213,-90],[-700,-40],[-90,-236],[-411,-125],[-174,-225],[-45,-290],[-681,-825],[-264,-10],[-205,-305],[77,-751],[347,-480],[-296,-350],[-488,-10],[-367,-200],[-141,-300],[-546,-420],[-1054,-541],[-315,-40],[-392,340],[-386,-5],[-945,-545],[-1594,-80],[-899,185],[-405,350],[-360,30],[270,426],[-45,390],[-212,110],[-553,60],[-752,170],[-257,-50],[-283,-205],[-488,-195],[-180,-295],[-309,-251],[-96,-210],[116,-380],[-206,-255],[-765,-340],[-649,60],[-373,170],[-308,270],[-437,115],[-290,-5],[-392,-335],[2218,-3627],[-283,-45],[-2642,236],[-1066,-611],[-1536,115],[-296,-1595],[289,-240],[-90,-266],[-251,-1320],[-51,-480],[-3560,260],[-470,-3087],[-2564,95],[-1228,-655],[-1047,-1451],[-431,-545],[-456,-320],[-328,-365],[-32,-230],[-3021,-1791],[-3451,-1936],[-225,-55],[-71,340],[540,3407],[399,2416],[328,2166],[-7044,605],[-4011,335],[-694,-245],[-482,-3271],[379,-400],[-250,-1511],[-277,-1531],[-475,50],[-116,-150],[-2005,165],[-26,-25],[-1671,145],[257,-245],[585,-1285],[-9396,820],[250,1391],[-1124,100],[-78,-40],[-3065,280],[-688,100],[-2089,160],[-2834,240],[-302,-1781],[-244,-1516],[-437,-2496],[642,-55],[-160,-635],[-26,-540],[-1022,-4557],[-578,50],[-392,-2346],[-277,-1821],[-2358,120],[-97,25],[-2352,110],[-1684,135],[-6446,545],[141,971],[-19,1145],[51,636],[174,1340],[-2436,5],[122,-170],[109,-420],[-212,-1401],[32,-305],[-295,-1575],[2134,-3527],[-251,-135],[270,-1596],[45,-1550],[-334,-486],[-1189,-495],[-984,90],[-642,245],[-3420,360],[-3046,296],[-958,105],[-3162,300],[-597,50],[-58,505],[-225,385],[488,2911],[-4563,351],[-218,-1466],[-4724,-5918],[-6986,506],[610,3901],[39,2536],[334,-240],[1285,-75],[669,1021],[347,2661],[225,1586],[135,85],[32,365],[-5624,300],[-180,-10],[-379,175],[-398,35],[-412,365],[-797,30],[-250,70],[-1151,-245],[-700,1176],[-2950,1110],[-585,60],[199,1351],[502,2796],[-4352,375],[-5173,440],[-5225,461],[-624,200],[-739,-155],[-823,125],[-2281,190],[206,385],[-20,200],[232,375],[45,475],[-123,135],[-687,351],[726,315],[167,195],[7,415],[-1813,130],[-64,70],[-1189,20],[-566,115],[-366,-45],[-1015,75],[-624,-80],[-623,345],[-2108,110],[-2295,85],[-398,35],[-450,140],[-135,-135],[-688,25],[3946,2241],[630,195],[-109,576],[443,260],[752,130],[161,140],[591,110],[997,6128],[700,2741],[-353,-210],[-373,-115],[-559,-340],[-662,-251],[-360,-290],[-1151,-105],[-540,70],[-482,-70],[-867,85],[-527,-275],[-367,-30],[-565,460],[-64,265],[-264,196],[-649,20],[-797,985],[-990,480],[-115,290],[250,471],[52,275],[250,490],[251,640],[58,495],[-347,511],[488,385],[-4152,300],[515,3631],[-6787,486],[944,6107],[225,1316],[-2236,175],[225,1496],[-2153,-676],[-1562,-15256],[-9364,-5538],[-1298,2376],[-3985,-5037],[-1138,941],[-8303,-4858],[-1781,-2291],[-559,-445],[-977,-1240],[-1838,-2261],[-951,-1186],[-129,-640],[386,-220],[456,-951],[-430,-890],[-746,-1061],[-1857,-485],[-97,-240],[58,-260],[225,-355],[32,-220],[-308,-480],[-553,-231],[174,-1045],[-110,-195],[-456,-335],[64,-210],[-642,-411],[-373,-545],[-405,-30],[-784,-380],[-90,-810],[-1658,-791],[-373,-275],[-296,-105],[-2140,-25],[-32,-60],[-1735,1561],[-3323,2891],[-6388,475],[-20,-135],[-4762,280],[-58,-400],[-418,290],[32,391],[238,355],[122,25],[1260,-70],[765,415],[141,400],[508,105],[-1414,2541],[-958,911],[33,180],[-1151,855],[-1221,290],[-617,185],[-263,170],[-84,280],[-1318,731],[-186,215],[-591,115],[-373,285],[-758,235],[-335,245],[-437,100],[-687,-325],[-424,-70],[-200,110],[-186,300],[-431,265],[-977,846],[-3020,-1761],[-4596,-2681],[-2108,130],[-276,-275],[-77,-470],[206,-166],[-283,-1705],[71,-5],[-386,-2992],[-283,-295],[289,-455],[-135,-215],[-662,-4737],[2346,-150],[-385,-2716],[-3304,210],[-238,-145],[-302,175],[-822,290],[-470,-30],[-276,160],[-5675,395],[-4197,300],[-289,-2011],[-469,-3621],[-9808,700],[-3997,285],[-772,-5242],[-5565,435],[655,4152],[450,3081],[-11176,851],[-270,50],[-502,235],[380,195],[180,-60],[584,185],[123,575],[231,400],[-9557,586],[-4229,-2572],[-778,-520],[-38,-360],[-868,-340],[-1092,-510],[-39,-110],[-1587,-641],[-855,-425],[-489,-325],[-482,-5],[-745,-205],[-604,-40],[-238,-150],[-1440,-300],[-167,-566],[-990,-245],[-372,75],[-1292,-160],[-1209,-360],[-276,-245],[-745,-355],[-1016,-280],[-707,5],[-3040,-1991],[-906,-420],[-1028,10],[-290,-1406],[-1336,105],[-804,-4567],[-1105,-7323],[1157,-5147],[-257,-265],[-65,-206],[-649,-480],[-212,-65],[-257,-410],[-167,-20],[-392,-815],[-58,-220],[-225,-301],[-122,-340],[141,-225],[-237,-295],[-392,-340],[-187,-595],[-231,-275],[64,-246],[-302,-255],[-456,-200],[-212,-270],[12,-195],[-276,-595],[-469,-535],[-219,-166],[-25,-870],[-110,-450],[-289,-831],[-990,526],[-51,-325],[-10752,740],[19,415],[-5990,400],[-51,-365],[-5046,350],[-102,-425],[-315,-375],[-373,-610],[-154,-401],[225,-580],[-52,-215],[289,-605],[-19,-385],[-289,-100],[-13,-235],[347,-256],[296,-485],[-97,-285],[-212,25],[245,-800],[192,-55],[219,-846],[405,-125],[90,-335],[238,50],[205,-310],[-116,-150],[425,-455],[-90,-225],[186,-75],[-206,-486],[302,-200],[-89,-215],[649,-700],[385,10],[167,-130],[-128,-200],[212,-300],[424,-325],[135,-381],[347,-160],[13,-245],[424,-395],[116,-480],[321,-35],[-6,-235],[276,-190],[302,-541],[354,-150],[115,-210],[302,-35],[103,-220],[-96,-500],[-161,-80],[32,-260],[-295,-531],[417,-235],[180,-190],[-96,-485],[321,-480],[212,-45],[123,-450],[295,110],[411,-60],[309,-150],[-13,-185],[-450,-481],[328,-115],[148,-195],[-135,-165],[-283,-30],[186,-365],[-231,-140],[154,-240],[-218,-140],[-309,15],[-128,-205],[115,-175],[-3393,295],[-1054,220],[-1967,160],[-1034,-40],[-431,-75],[-379,145],[-322,-45],[-629,60],[-630,120],[-630,230],[-514,-145],[-4551,355],[-2602,2266],[-9467,705],[-9088,-40],[-2301,5],[-283,-2031],[-5193,371],[-694,-3937],[-7937,665]],[[193118,120923],[0,4742],[0,7294],[0,5822],[0,6548],[0,13881],[-5772,0]],[[187346,159210],[1022,7924],[784,6102],[-1079,70],[115,1706],[-1658,80],[938,7718],[-1786,2617],[-180,250],[-347,-145],[-58,-145],[-476,-140],[-295,-276],[-1086,-305],[-547,-315],[77,-225],[-270,-505],[-572,-826],[-3232,2532],[-6241,385],[540,4407],[958,8428],[874,-190],[9139,-615],[842,6958],[572,4722],[-4923,320],[173,1906],[379,5372],[3934,-220],[700,7349],[-2982,180],[129,1285],[7898,-230],[7899,-35],[10155,-590],[-232,-1956],[5380,3271],[2474,1531],[926,7313],[3509,-30],[5649,-4707],[341,-85],[-13,-215],[11903,-2371],[1465,-285],[218,160],[746,125],[1093,-110],[443,180],[212,225],[983,160],[367,-55],[167,100],[938,85],[707,356],[450,425],[656,260],[212,210],[732,305],[245,145],[147,310],[470,300],[340,456],[360,200],[919,95],[540,100],[444,335],[469,215],[540,170],[417,210],[373,-45],[778,100],[488,110],[559,305],[155,265],[218,141],[-6877,5847],[4274,2526],[-507,465],[2737,1621],[-2140,1621],[-5456,4177],[-2616,2011],[7295,4872],[6716,-5518],[1857,1716],[3072,1911],[726,5032],[617,4252],[881,6033],[501,3556],[135,856],[-8946,345],[-1067,75],[-84,-696],[-10225,726],[-9537,45],[-65,-731],[-4859,396],[-4678,410],[-4833,4232],[-4345,3571],[283,170],[-547,180],[-456,-60],[-4563,3807],[-366,210],[-232,285],[-2275,1866],[-1279,946],[-5546,4732],[-6942,-4212],[-520,190],[-3316,2751],[-791,-450],[-1954,1671],[-7410,6082],[-463,435],[8021,4688],[-437,390],[-1003,780],[3510,2231],[4318,2606],[-1523,1221],[-302,70],[-437,480],[-777,695],[7918,4697],[-502,1501],[379,1115],[161,151],[-360,2326],[-855,545],[-77,85],[-507,2411],[-193,235],[-148,450],[77,500],[527,-5],[2243,-150],[752,-605],[3426,1791],[-4396,3812],[-3265,2791],[4730,2901],[5945,3612],[508,690],[-1620,1185],[-2944,2427],[1022,9714],[6151,-335],[-39,395],[-225,445],[78,635],[-180,305],[141,120],[-424,696],[19,1060],[251,245],[122,295],[1247,1916],[11151,-375],[1593,9759],[4795,-300],[-219,-1810],[10264,-646],[97,791],[12777,-791],[7018,-430],[572,3051],[565,2857],[90,2206],[110,2161],[-302,100],[12,205],[296,-20],[64,875],[116,2386],[958,-80],[4910,-105],[4402,-385],[-238,-2271],[2835,-220],[4023,-320],[-45,-441],[-141,-50],[-90,-965],[5328,-205],[4993,-195],[283,2311],[4461,-280],[6,45],[5881,-385],[-341,-2992],[2770,1701],[3978,2431],[110,-15],[289,2676],[3400,2091],[1375,-1220],[1626,-1406],[5039,3086],[122,85],[700,-605],[3008,1966],[122,-45],[450,270],[-77,75],[4968,3001],[6614,3992],[3110,-215],[13,90],[7899,-540],[-624,-4537],[-642,-4687],[2892,-435],[193,-861],[-1183,-805],[289,-3367],[-32,-90],[4814,-355],[109,80],[5161,-360],[5122,-375],[2398,-160],[-444,-3206],[-745,-4643],[5154,-410],[4647,-430],[161,50],[835,-10],[8227,-385],[533,-120],[7031,-405],[-353,-3127],[1311,-190],[713,20],[1536,-55],[1241,-140],[-20,-225],[4686,-350],[109,-20],[-180,-2061],[-187,-1736],[3927,-285],[1408,-75],[437,-1791],[-103,-765],[9557,-690],[-251,-1826],[-713,-745],[-321,-2186],[25,-105],[6813,-411],[-84,-1025],[2809,-155],[514,15],[5360,-280],[1774,-120],[3361,-300],[392,85],[1054,-451],[849,5873],[2789,-205],[289,2651],[9133,-685],[482,3426],[373,3017],[8091,-616],[135,1616],[-662,540],[65,415],[5000,-375],[308,2136],[39,0],[514,3557],[5675,-440],[495,-1741],[6960,-600],[3085,-286],[1067,7714],[6054,-490],[225,2176],[9364,-496],[-302,-2556],[-681,15],[-1118,-3927],[-334,-4827],[-669,55],[-180,-1575],[-642,-5628],[9794,-530],[-32,-950],[7141,-691],[-20,-225],[8130,-805],[1556,-165],[559,4046],[1761,-165],[328,1451],[6375,-380],[1960,-120],[624,4957],[-5971,380],[527,4382],[-3695,225],[462,4737],[515,5198],[51,590],[527,4427],[2500,-205],[1170,695],[12610,-900],[-373,-2607],[3631,-4657],[3156,-240],[2397,-625],[218,1526],[71,140],[116,1360],[167,1566],[-186,110],[147,1001],[10566,-796],[-315,-485],[-167,-360],[155,-495],[1285,-291],[1491,-290],[688,-245],[925,-20],[707,-285],[797,-60],[977,-215],[270,35],[4460,-330],[154,40],[155,320],[-155,160],[65,295],[-135,480],[77,176],[-129,435],[380,1015],[-225,270],[25,315],[624,486],[276,490],[-13,275],[264,170],[238,285],[64,1211],[925,1400],[746,-45],[797,546],[321,325],[309,95],[199,455],[205,320],[-154,595],[-308,255],[-399,70],[-186,501],[-296,145],[-578,535],[-277,500],[-263,345],[122,125],[0,471],[418,435],[-219,140],[257,415],[739,210],[669,390],[58,250],[238,226],[102,295],[405,390],[418,125],[456,45],[135,145],[534,315],[186,260],[296,55],[135,170],[546,70],[488,416],[148,635],[-25,225],[-251,545],[-251,265],[52,285],[-315,461],[-476,365],[-1137,60],[-347,310],[-746,270],[-514,130],[-669,15],[-366,105],[-334,205],[-932,891],[-199,450],[-32,240],[372,280],[707,325],[-122,205],[-540,420],[-135,531],[-604,655],[-51,220],[-7,725],[-141,200],[-405,336],[-283,365],[212,315],[174,505],[45,350],[-116,250],[476,416],[0,260],[122,555],[-199,350],[32,485],[218,300],[341,221],[848,750],[123,540],[-309,250],[-109,325],[13,291],[-238,595],[-354,665],[0,290],[-167,415],[-508,631],[-199,400],[97,310],[417,350],[148,305],[-90,180],[232,345],[19,186],[-598,610],[52,330],[360,540],[192,-220],[354,50],[347,-105],[-7,220],[-392,-35],[-456,460],[52,150],[-283,211],[-110,205],[270,220],[527,225],[669,25],[283,60],[353,-70],[39,175],[321,465],[418,140],[283,-170],[102,-260],[527,-10],[-45,155],[-539,140],[-225,240],[668,350],[514,-170],[-238,405],[-559,5],[283,361],[424,115],[122,120],[-212,350],[64,150],[-282,430],[424,355],[212,-180],[418,-30],[141,285],[463,75],[-71,-270],[-244,30],[-39,-330],[212,-650],[290,110],[-45,305],[360,-100],[-52,-180],[469,-385],[-295,-270],[244,-175],[488,-586],[463,20],[-109,305],[83,196],[650,-311],[886,-255],[0,125],[-372,170],[-527,75],[-20,231],[-1150,170],[148,255],[-444,355],[-173,340],[173,190],[-173,405],[360,200],[353,-45],[611,-220],[-45,395],[-514,185],[379,406],[707,-175],[398,255],[-334,275],[1073,195],[-70,100],[-489,-65],[-283,210],[347,405],[380,-125],[276,300],[-116,100],[-321,-115],[-141,315],[173,236],[-218,215],[-598,-381],[-58,311],[58,230],[-476,-120],[-263,210],[-7,375],[290,120],[366,35],[353,-245],[515,20],[456,-255],[251,265],[-251,180],[520,105],[-584,440],[-187,195],[-559,255],[-103,130],[193,801],[-103,175],[84,225],[360,155],[205,-100],[495,95],[746,-280],[193,-140],[295,-35],[-135,-210],[251,-345],[225,145],[218,-35],[405,510],[283,-265],[315,130],[154,-170],[122,-516],[-675,-685],[-302,-235],[0,-385],[270,80],[212,-85],[347,210],[270,400],[174,140],[353,65],[-167,235],[225,205],[360,-110],[19,-355],[-83,-460],[418,270],[128,345],[251,-10],[180,145],[289,15],[-19,220],[-193,51],[-405,-76],[77,226],[540,55],[688,230],[308,210],[71,175],[803,-120],[-96,-165],[-392,50],[-450,-135],[-148,-265],[58,-256],[469,376],[373,-75],[411,110],[174,245],[552,35],[662,-315],[431,-30],[283,80],[263,265],[225,375],[52,280],[462,530],[283,165],[-13,561],[155,210],[308,-35],[360,90],[309,455],[751,235],[238,170],[206,400],[289,80],[373,-320],[521,-170],[443,10],[302,130],[360,370],[559,441],[341,330],[880,180],[142,140],[70,505],[264,505],[19,395],[341,466],[636,465],[141,500],[-732,1016],[70,490],[354,930],[469,330],[623,255],[1337,331],[251,125],[341,305],[135,710],[135,380],[-7,350],[-251,376],[-874,330],[-38,90],[-495,255],[-392,495],[-347,715],[-161,536],[-495,880],[-51,315],[186,640],[296,426],[173,380],[-6,385],[109,430],[-45,720],[20,596],[-84,480],[-13,615],[-360,1001],[-212,980],[-514,1216],[-623,780],[-437,600],[-129,330],[39,260],[224,571],[444,830],[476,555],[192,355],[-25,261],[-547,910],[-51,280],[-296,170],[-450,475],[78,120],[623,351],[842,275],[347,-105],[-354,-421],[97,-305],[212,-170],[617,-280],[347,-565],[302,-145],[739,-130],[617,-200],[309,-10],[552,130],[463,-55],[868,-315],[565,-110],[238,-196],[52,-300],[-393,-490],[309,-55],[4852,-385],[823,5712],[791,5468],[1182,-100],[-26,365],[135,905],[457,240],[122,151],[315,80],[225,195],[366,10],[129,110],[-33,290],[-160,230],[385,485],[309,-45],[135,135],[1266,115],[610,320],[1639,170],[373,-45],[3574,-535],[45,140]],[[621457,468761],[462,776],[2989,4712],[1658,85],[1491,30],[4595,-100],[10463,-15],[11987,-25],[12513,-10],[12417,10],[0,-14987],[3188,-5],[10366,-10],[6691,0],[7108,5],[32135,5],[57849,185],[238,-1460],[2674,-2231],[4724,-2717],[2718,-2166],[2584,-4322],[1793,-2311],[3953,-3431],[2133,-2106],[2520,-2636],[3682,-3332],[1935,-1590],[2397,-1171],[2468,-1035],[2237,-751],[2840,-1445],[1806,-861],[3625,-1115],[2969,-961],[3355,-1070],[2796,-1291],[3348,-1500],[2250,-1316],[2667,-1490],[2494,-1696],[2673,-976],[3252,-995],[2295,-1031],[2513,-1605],[1986,-1316],[2474,-775],[3027,-1101],[2925,-720],[2525,-1135],[2513,-2136],[1498,-1436],[1234,-1826],[2648,-1280],[3515,-476],[3233,-140],[2989,250],[3399,1036],[1594,1375],[-282,1686],[-1447,1986],[-1343,1616],[-1394,1986],[-662,1480],[-78,2692],[213,2025],[796,1296],[1241,365],[1035,155],[1716,-1265],[1966,-1246],[2295,-1601],[3374,-1270],[2577,-515],[2127,-511],[2758,-530],[3104,-570],[3271,-220],[3304,-285],[3001,-240],[2982,-356],[2751,-875],[874,-1045],[700,-1111],[830,-1626],[102,-1675],[-475,-1816],[-476,-1371],[-604,-975],[-874,-756],[-810,-635],[-855,-760],[-250,-365],[-392,-75],[-212,-185],[-367,-621],[-392,-540],[-19,-430],[-116,-615],[155,-1611],[-103,-240],[109,-1076],[-167,-1280],[-52,-971],[-295,-890],[-277,-1251],[-321,-365],[-450,-165],[180,-805],[-77,-655],[39,-761],[-437,-630],[-386,-380],[244,-4012],[116,-1476],[482,-1020],[527,-896],[649,-655],[765,-1090],[405,-651],[540,-540],[449,-145],[772,-885],[405,-540],[392,-326],[263,-445],[283,-245],[180,-325],[90,-675],[-90,-341],[212,-675],[283,-445],[861,-1776],[3728,-4967],[96,-385],[-109,-340],[379,-1761],[116,-290],[533,-1766],[109,-1261],[560,-1020],[276,-170],[116,-540],[-155,-1411],[129,-1005],[-244,-566],[199,-1410],[83,-230],[-64,-365],[-283,-356],[-263,-530],[-514,-510],[-367,-295],[-302,-155],[-96,-1311],[58,-280],[-206,-485],[-83,-806],[-682,-645],[-141,-315],[9441,-31389],[2629,-8684],[8541,-28342],[6633,-22080],[5193,-17152],[-21929,35],[-51409,-35],[-1440,0],[90,-220]],[[533580,534140],[-2937,435],[-617,0],[-745,140],[-367,-225],[-886,-705],[-225,-415],[-482,-265],[-258,35],[-314,-130],[19,-226],[-476,-205],[-186,125],[-58,256],[-302,170],[-643,195],[-578,-70],[-553,85],[-591,230],[-1054,230],[-296,330],[-109,305],[83,290],[341,245],[-225,225],[-276,101],[-7,275],[-437,465],[-192,485],[-206,100],[-469,5],[-155,180],[135,380],[521,376],[-206,315],[-32,275],[154,285],[-494,180],[-489,540],[-694,-130],[-1388,415],[-219,125],[-180,-205],[-623,426],[-656,-181],[-385,115],[-643,30],[-109,-115],[-502,-120],[-578,-10],[-540,-165],[-206,85],[-404,-25],[-791,75],[-932,1506],[-893,-310],[-264,40],[-662,-425],[-160,10],[-502,-365],[-6,-135],[-675,-446],[-450,-150],[-295,-235],[-444,-145],[-128,215],[-264,160],[-167,-125],[-347,10],[-566,-170],[-578,50],[-572,-80],[-386,210],[-462,-245],[-437,190],[-180,260],[141,140],[71,416],[-515,430],[-295,5],[-116,-125],[129,-265],[-836,-201],[-13,-375],[110,-185],[-193,-110],[-296,50],[-340,410],[-438,-240],[-430,-25],[-431,275],[-167,-5],[-90,-285],[84,-170],[617,-310],[-861,65],[-45,-310],[314,-480],[-141,-275],[-212,-85],[32,-371],[-514,-350],[-180,-250],[-296,25],[-225,-365],[-443,190],[206,-415],[-277,-210],[-842,-120],[-450,-125],[405,-471],[26,-420],[-5855,586],[-7963,730],[-353,-5733],[-6672,601],[-411,-271],[-1677,1696],[-3889,3597],[-148,-405],[148,-205],[-96,-125],[-174,-696],[-315,-550],[431,-605],[-167,-345],[64,-351],[-373,-330],[-308,-610],[520,-985],[-655,-671],[-546,60],[-270,-270],[-122,-310],[-225,-170],[-71,-220],[-726,-745],[-347,-141],[-508,-505],[-598,-165],[-681,-100],[-791,110],[-1009,515],[-443,-40],[-270,-245],[-225,-350],[-610,-225],[-746,-110],[-746,10],[-372,115],[-437,-105],[-637,-290],[-231,-345],[-141,125],[-611,-255],[-231,-210],[19,-211],[-778,-485],[-289,-380],[-578,10],[-418,-425],[-546,40],[-270,-270],[-270,50],[90,245],[-739,390],[-1234,-335],[-489,175],[-713,145],[-2218,1161],[123,965],[-2552,2461],[-1227,235],[-39,530],[-2699,2992],[-2070,25],[-398,-275],[-939,5],[-1124,-305],[-122,85],[-123,340],[-1722,185],[-1247,-826],[-623,221],[-110,-61],[58,-770],[-13,-835],[225,-971],[-167,-260],[-482,-350],[-263,-115],[-289,-310],[12,-300],[155,-315],[398,-481],[-32,-130],[283,-455],[-7,-410],[84,-315],[-193,-445],[-476,-341],[-115,-150],[-39,-315],[-231,-580],[-270,-250],[-688,-85],[-2789,-590],[-309,-110],[-327,-326],[-482,-790],[-257,-160],[-1048,-385],[-463,-345],[-167,-270],[-122,-511],[-167,-280],[-720,-745],[0,-380],[-141,-315],[-277,-346],[-109,-260],[-6,-315],[-412,-275],[-276,-485],[-212,-510],[-77,-321],[-495,-615],[32,-580],[-527,-405],[-508,40],[-231,-50],[-649,-335],[-579,15],[-302,-125],[-1549,-1826],[-514,-435],[-38,-150],[244,-581],[-103,-300],[-1003,-2461],[-649,-550],[-212,-465],[148,-891],[-154,-480],[315,-370],[-232,-620],[13,-381],[-205,-230],[-168,-360],[-32,-305],[-32,-1431],[167,-945],[-77,-765],[-733,-831],[-263,-70],[-611,140],[-2120,-545],[-431,-335],[-1729,-900],[-424,25],[-161,-101],[-688,-1070],[-167,-650],[-244,-606],[0,-540],[90,-150],[501,-190],[123,-180],[38,-710],[219,-571],[-212,-530],[-187,-180],[-437,-170],[-212,-515],[-456,-450],[-77,-681],[-277,-1350],[238,-486],[-212,-870],[-90,-100],[-1472,-875],[-411,-481],[-1112,-575],[-1125,-1030],[-83,-150],[-334,-1046],[154,-995],[-58,-150],[-598,-941],[-205,-440],[-540,-345],[-122,-155],[-425,-1561],[71,-650],[-270,-1086],[-58,-75],[-906,431],[-373,315],[-610,200],[-643,120],[-450,150],[-340,300],[-161,595],[-983,446],[-637,95],[-495,5],[-983,-316],[-437,5],[-289,-220],[-585,-175],[-945,75],[-1086,180],[-733,190],[-411,10],[-604,-650],[-1022,-710],[-945,-855],[-662,-321],[-231,-40],[-784,15],[-746,-55],[-591,120],[-745,45],[-528,-120],[-610,-265],[-829,-175],[-1870,-155],[-2841,-155],[-1755,330],[-1767,640],[-1369,591],[-1523,475],[-1144,315],[-1221,230],[-2121,-580],[-302,-10],[-1504,485],[-476,185],[-1780,1196],[-109,140],[-765,1340],[-315,426],[-643,725],[-469,285],[-219,235],[-931,565],[-1016,451],[-900,240],[-784,-210],[-610,-201],[-392,-195],[218,-385],[135,-685],[-244,-535],[-514,-421],[-739,-325],[-1517,-455],[-283,-250],[-244,-85],[-283,-465],[-411,-140],[-225,-360],[-624,35],[-270,105],[-829,-195],[-244,135],[-662,-291],[-315,-250],[-257,-70],[45,-485],[-26,-525],[-719,-790],[-662,-65],[-328,60],[-1048,420],[-340,30],[-270,-95],[-334,-556],[-238,-220],[-1016,-370],[-417,-240],[-315,-310],[-476,-845],[-566,-666],[-70,-730],[-200,-265],[-668,-345],[-315,115],[-289,375],[-257,210],[-315,35],[-450,-405],[-3348,220],[-10772,715],[-3567,215],[-11626,756],[-12398,815],[572,4387],[-1125,60],[816,7173],[-2808,150],[-10566,590],[-90,-695],[-1343,95],[559,4452],[1131,9249],[-3014,195],[-97,-1245],[-7449,575],[-83,-675],[-4865,375],[1105,8494],[-3053,135],[-154,-1196],[-11903,746],[-668,-5563],[-10283,575],[-572,-5682],[-579,-70],[-559,75],[-347,330],[-296,55],[-353,245],[-868,0],[-417,320],[-315,100],[-489,556],[-392,175],[-276,-60],[-476,90],[-623,-180],[-688,95],[-925,0],[-277,125],[-244,-50],[-469,255],[-309,5],[-147,230],[-392,160],[90,210],[-251,35],[-103,390],[129,290],[-206,150],[-71,391],[720,-60],[1035,7378],[2050,-130],[855,7173],[681,5637],[-4473,300],[-4133,341],[-12474,970],[385,2796],[-3535,255],[-1015,531],[231,215],[-77,165],[39,350],[-148,325],[-341,175],[-160,365],[96,135],[-122,431],[321,35],[232,130],[-103,340],[-412,395],[-270,110],[7,260],[-174,560],[45,356],[-167,210],[129,190],[-52,475],[360,260],[469,30],[103,335],[-411,390],[-6,255],[372,226],[-308,395],[173,210],[-25,245],[315,135],[-13,275],[257,125],[-225,515],[83,401],[-122,150],[-533,70],[-193,180],[-566,275],[206,320],[-83,220],[83,350],[-148,350],[-430,120],[-347,336],[-129,210],[-83,455],[-277,175],[-469,65],[-341,705],[-482,160],[-244,501],[-430,65],[-84,145],[-456,135],[-71,505],[-289,250],[167,310],[-129,335],[-6,476],[-366,205],[-97,270],[135,175],[-148,220],[20,265],[-116,335],[-212,50],[-84,325],[-250,115],[-425,-45],[-250,306],[-84,275],[129,220],[-58,265],[-206,120],[13,275],[-360,390],[0,180],[-726,305],[-174,171],[-231,-65],[-206,135],[-212,320],[-527,135],[-250,-115],[-412,210],[-141,175],[96,485],[335,450],[51,195],[-122,276],[58,145],[-206,310],[-45,240],[-270,410],[71,265],[-122,360],[154,150],[263,481],[418,115],[2912,-145],[501,4897],[5392,-390],[-135,-1176],[7295,-520],[321,2656],[-328,0],[-437,-130],[245,2936],[64,655],[4691,-210],[135,1431],[-10527,570],[797,8099],[739,175],[669,-565],[597,65],[598,-45],[122,-105],[-19,-406],[199,-60],[803,170],[547,41],[655,-96],[328,-175],[366,-330],[611,85],[553,295],[199,50],[501,291],[334,3476],[-3856,160],[257,3432],[1568,-95],[457,3756],[552,4552],[9667,-730],[237,1901],[9789,-630],[-200,-1826],[7141,-651],[-3304,3007],[6787,4302],[649,-376],[939,-440],[6215,-5927],[2924,1846],[7751,-6598],[5739,3721],[13,225],[-315,335],[-257,466],[-418,275],[-70,150],[-431,245],[-392,25],[-579,285],[-269,305],[-527,190],[-720,-30],[-817,95],[-578,130],[-598,276],[10643,7313],[3921,-3457],[6395,6433],[2615,2631],[-430,-105],[-829,95],[-199,180],[-335,35],[-289,375],[-379,306],[-604,405],[-405,120],[-71,160],[-707,300],[-495,385],[-57,195],[-245,135],[52,200],[-251,156],[-141,375],[-482,185],[-373,50],[-257,150],[-219,-10],[-366,175],[-482,465],[-141,35],[5533,5733],[964,8043],[1523,12651],[-360,0],[-931,150],[-457,150],[-585,55],[-1002,-105],[-804,-210],[-424,-10],[-597,105],[-393,125],[-1478,290],[-899,105],[-740,-65],[-623,-190],[-476,20],[-803,-130],[-418,-10],[-1356,-310],[-1118,20],[-321,95],[-418,255],[-482,25],[-1369,345],[-1157,100],[-816,230],[-1183,245],[-405,155],[-430,5],[-784,-170],[-1331,-15],[-604,-65],[-424,-100],[-714,-30],[-449,75],[-926,435],[-617,65],[-341,-125],[-488,-30],[-1150,-395],[-335,-40],[-398,-150],[-604,0],[-437,-55],[-771,335],[-656,45],[-482,85],[-733,-130],[-668,-20],[-495,-60],[-244,-140],[-277,35],[-257,275],[-983,-50],[-668,431],[-264,520],[-713,405],[-77,150],[-309,185],[-173,320],[-52,440],[-218,165],[-656,20],[-533,251],[-277,50],[-617,-10],[-321,50],[-251,145],[-1202,-15],[-469,55],[-443,145],[-283,5],[-431,-130],[-250,45],[-540,335],[-482,100],[-707,-20],[-379,245],[-302,-35],[-238,-210],[-861,15],[-296,-45],[-405,260],[-765,175],[-212,250],[-681,335],[-219,315],[-610,141],[-399,-85],[-199,-231],[-1009,-60],[-1195,-205],[-2545,-20],[-939,-160],[-810,-310],[-1195,-260],[-3027,20],[-58,260],[-501,145],[-148,175],[-765,345],[-289,90],[-514,-30],[-656,95],[-848,231],[-270,450],[-482,65],[-489,370],[-302,110],[-437,40],[-398,-50],[-514,-190],[-309,-210],[-315,-100],[-842,120],[-231,180],[-32,210],[-315,440],[-251,90],[-970,-155],[-566,-225],[-379,-15],[-752,-155],[-302,90],[-283,380],[45,210],[225,240],[-90,471],[-205,260],[-399,85],[-283,-140],[-193,-275],[-12,-246],[-290,-70],[-77,246],[-263,105],[-347,-85],[-367,-261],[-186,10],[-238,271],[-289,190],[-450,-65],[-289,-331],[-174,-30],[-405,471],[-398,35],[-206,-120],[-816,-841],[-308,-155],[-360,40],[-598,400]],[[211936,639481],[418,796],[430,330],[32,300],[463,470],[379,595],[650,1716],[199,400],[193,736],[231,465],[386,1596],[-161,315],[-32,285],[154,425],[1009,1536],[1125,1275],[475,811],[701,615],[1864,2751],[70,465],[-25,436],[-90,375],[-1273,1650],[-276,881],[-881,2046],[0,355],[-167,340],[13,430],[-848,1291],[1465,1575],[816,1591],[611,4007],[161,2926],[572,2266],[102,881],[521,840],[212,1145],[1890,5618],[1266,1336],[2956,5787],[212,720],[424,1001],[971,950],[315,556],[642,4486],[476,1006],[2115,1326],[906,685],[353,860],[-790,1386],[1034,1896],[1003,1920],[-193,1846],[-1214,1441],[-1697,2496],[-1485,2821],[-244,1821],[-591,1706],[-540,610],[-187,2696],[-835,3832],[51,3041],[-379,916],[-1240,3771],[514,2556],[1485,4057],[1671,2797],[1131,2596],[135,1540],[-624,2702],[-32,275],[392,840],[26,455],[-225,1101],[-257,640],[-534,815],[-649,681],[-636,800],[-790,635],[-1736,1146],[-2153,2006],[-1324,2316],[-270,2581],[1016,4262],[565,1330],[669,1481],[231,1621],[244,1950],[302,1626],[457,1476],[520,1526],[1838,3586],[842,480],[1067,921],[1298,1765],[688,1621],[1163,1886],[1549,1491],[759,795],[585,505],[411,425],[353,516],[257,525],[251,705],[-186,946],[-129,385],[-2230,1726],[-1761,2226],[-71,120],[-996,3321],[296,1631],[-45,475],[-1980,1586],[-379,1035],[97,3477],[83,310],[264,40],[2326,-10],[238,355],[501,455],[354,-80],[2757,1151],[4454,2721],[392,385],[308,520],[52,300],[193,296],[173,535],[7,300],[276,270],[996,2106],[161,225],[238,850],[257,706],[70,845],[-411,-135],[-1877,-355],[-3714,-660],[-200,165],[-6,1295],[77,100],[1054,555],[1748,861],[2565,1295],[1818,891],[71,180],[-321,490],[-360,205],[-829,-45],[-354,145],[-83,185],[-765,225],[-244,131],[-572,505],[141,355],[-296,65],[-180,280],[213,255],[-303,180],[-552,100],[-302,-35],[-476,185],[-26,130],[-340,195],[-354,20],[-540,136],[-546,205],[-398,-60],[-315,-446],[295,-505],[13,-285],[-488,-610],[-257,-230],[-1311,-15],[-971,-140],[-257,-125],[26,-376],[-206,-160],[-707,-45],[-533,-280],[-193,5],[-412,375],[-340,165],[-739,85],[-637,241],[-237,235],[45,130],[1028,1590],[193,681],[578,1195],[1086,1596],[251,535],[1016,1736],[539,1015],[444,981],[1086,2211],[328,1030],[533,1356],[97,780],[610,861],[199,710],[123,130],[514,100],[289,285],[488,350],[315,400],[906,1491],[907,1651],[1330,2486],[578,805],[168,325],[308,801],[424,555],[450,705],[161,80],[328,356],[623,525],[206,260],[103,320],[250,490],[270,375],[534,456],[655,665],[611,415],[520,210],[450,-60],[1035,-15],[58,-375],[186,-155],[334,-110],[894,235],[353,300],[405,1536],[135,870],[77,1251],[251,1485],[199,1031],[662,1545],[559,956],[360,530],[662,350],[662,300],[64,226],[7,900],[238,730],[385,1026],[244,1275],[174,210],[353,185],[116,171],[-26,605],[1215,3131],[219,780],[321,931],[463,780],[398,320],[206,611],[353,740],[444,840],[398,1001],[154,285],[457,155],[103,145],[-33,715],[155,361],[495,1395],[57,285],[258,596],[244,700],[289,520],[-109,490],[64,536],[225,930],[96,955],[-160,446],[-110,1945],[-147,1786],[199,100],[366,-75],[193,375],[296,170],[302,481],[372,1320],[257,2031],[135,335],[180,140],[110,305],[-90,501],[-405,480],[-84,245],[302,330],[-231,790],[-219,521],[71,710],[-103,480],[-559,1226],[-296,835],[-1401,0],[-6414,-25],[-33677,-115],[-14782,-35],[-16209,-30],[96,31404],[45,140],[7526,3562],[34725,16442],[21878,10359],[3747,501],[0,24745],[3123,2406],[2288,821],[1877,-100],[2783,500],[1324,-165],[2461,-1931],[4551,-1821],[9640,-5002],[1928,225],[2127,-625],[2160,940],[6678,891],[2320,70],[4756,700],[565,-115],[521,-185],[463,-255],[469,-365],[328,-356],[276,-480],[231,-620],[58,-400],[-45,-761],[0,-14031],[9641,415],[5353,5838],[8175,0],[7893,0],[10713,7503],[6717,581],[12564,1085],[11421,-2631],[17501,-4037],[77,-45],[-456,-9214],[64,-725],[-129,-390],[58,-1126],[148,-705],[-6,-315],[-245,-366],[-1034,-945],[-296,-170],[-302,-350],[-771,-460],[-174,-421],[0,-280],[489,-655],[-290,-425],[347,-1006],[-674,-595],[-450,-460],[-1215,280],[-617,45],[-488,-85],[-437,-280],[-418,-505],[-842,-1296],[0,-400],[-283,-805],[-109,-721],[-836,-1090],[-417,-435],[-772,-376],[-450,-305],[-443,-395],[-302,-385],[-148,-375],[-476,-991],[-385,-425],[-399,-310],[-385,-450],[-598,-520],[-341,-351],[-989,-765],[-592,-390],[-501,-380],[-418,-420],[-244,-1021],[-128,-270],[-26,-455],[321,-290],[-77,-350],[-334,-711],[-540,-700],[-64,-465],[58,-1221],[-367,-650],[-456,-710],[-251,-1166],[-225,-470],[-77,-410],[129,-305],[-167,-716],[-52,-630],[161,-260],[-19,-330],[77,-400],[-26,-441],[-521,-565],[-122,-410],[-58,-485],[45,-791],[-77,-405],[-122,-210],[-462,-475],[199,-675],[-174,-816],[-283,-180],[-147,-270],[-264,-200],[97,-445],[-71,-220],[-257,-255],[128,-541],[20,-680],[-71,-330],[96,-360],[-154,-165],[225,-1511],[-212,-1015],[206,-636],[-39,-450],[231,-420],[264,-325],[244,-721],[77,-385],[-295,-500],[-39,-240],[238,-575],[-19,-315],[-123,-276],[-507,-345],[64,-515],[289,-765],[347,-421],[720,-690],[283,-375],[713,-715],[405,-310],[328,-436],[630,-360],[167,-195],[244,-480],[283,-770],[392,-1456],[411,-865],[360,-1101],[604,-1506],[212,-620],[116,-530],[-109,-475],[83,-776],[174,-635],[263,-695],[148,-621],[39,-755],[-82092,0],[-971,0],[129,-355],[270,-180],[-84,-175],[-70,-620],[-77,-95],[379,-331],[64,-365],[636,-250],[187,-305],[-193,-225],[565,-450],[303,125],[64,-310],[379,-291],[174,-575],[-110,-235],[225,-620],[-103,-245],[58,-415],[-128,-486],[327,-315],[-64,-420],[225,-220],[-13,-230],[212,-160],[65,-510],[-245,-796],[-57,-775],[-309,-535],[-135,-591],[-186,-270],[173,-270],[97,-595],[372,-625],[0,-446],[71,-595],[187,-560],[469,-325],[822,130],[142,-95],[527,-991],[186,-135],[553,-145],[385,-580],[572,-665],[-19,-356],[109,-310],[437,-215],[-122,-560],[122,-345],[386,-290],[-283,-405],[-1696,-1766],[-354,-415],[-51,-371],[-225,-675],[-116,-1220],[244,-216],[161,-300],[411,-175],[26,-410],[-231,-605],[-26,-700],[64,-286],[-109,-830],[19,-500],[553,-831],[296,-80],[263,-490],[-6,-845],[25,-821],[399,-635],[6,-1130],[-58,-581],[129,-255],[6,-1120],[-96,-1171],[58,-805],[167,-790],[-167,-336],[19,-480],[-392,-845],[-122,-795],[13,-581],[109,-220],[-109,-565],[64,-585],[347,-411],[489,-255],[199,-25],[122,-485],[148,-155],[707,-345],[372,-35],[213,135],[372,-40],[251,-320],[64,-210],[450,-490],[392,-151],[277,166],[327,-25],[919,-326],[418,-240],[739,-685],[97,-175],[514,-500],[430,-90],[232,215],[302,-25],[353,-185],[656,-135],[977,10],[1337,150],[707,185],[829,305],[417,225],[1067,405],[598,345],[122,220],[-77,260],[443,-25],[322,-200],[167,-415],[276,155],[296,-185],[116,120],[752,-325],[417,-25],[116,-310],[514,-65],[-13,-530],[103,-631],[129,-220],[302,-230],[218,10],[232,-205],[128,-490],[411,-370],[187,110],[244,-55],[1555,390],[283,40],[219,340],[912,75],[277,-175],[964,-25],[462,65],[682,185],[244,230],[386,-30],[12,-140],[-533,-405],[251,-605],[707,-731],[-58,-150],[-405,-140],[-437,40],[-264,-75],[-321,-285],[-231,-75],[-566,-10],[-315,145],[-591,150],[-778,305],[13,536],[-219,45],[-520,-165],[-893,-441],[-290,-205],[-488,-1045],[-411,-530],[-328,-321],[-77,-300],[-290,-445],[-591,-460],[58,-95],[-585,-941],[-315,-325],[-32,-250],[-765,-680],[-167,-210],[-205,-525],[-322,-281],[-1067,-1640],[-617,-510],[598,-271],[-161,-455],[90,-305],[-347,-400],[-90,-350],[431,-35],[-90,-375],[353,-386],[-533,-700],[-276,-595],[51,-330],[566,-235],[19,-311],[-347,-390],[-630,-1370],[-13,-621],[-135,-550],[142,-275],[-148,-505],[295,-450],[1935,400],[553,-295],[2609,-190],[341,145],[874,45],[430,-406],[360,86],[527,-306],[360,-280],[418,5],[977,-1055],[456,-95],[861,75],[200,-520],[951,-95],[45,-481],[167,0],[276,-230],[-276,-1345],[154,-150],[399,-91],[51,-480],[-251,-900],[39,-95],[-52,-1291],[-141,-750],[219,-235],[302,-35],[482,-365],[115,-446],[431,71],[218,-791],[547,-465],[1041,-70],[1028,-480],[746,165],[501,-420],[1825,-1146],[797,-105],[405,395],[579,25],[1992,-510],[1832,-1596],[1112,-4422],[3020,-4897],[1909,-2196],[-58,-4807],[2282,-7933],[-1543,-11981],[-51,-1045],[218,-956],[-32,-220],[322,-595],[308,-125],[212,-665],[-77,-155],[-13,-821],[-758,-1680],[-64,-596],[-187,-230],[-90,-765],[180,-315],[7,-445],[276,-326],[-45,-770],[-302,-395],[-534,-540],[-527,-716],[-353,-545],[-167,-595],[-334,-871],[-84,-360],[13,-295],[-231,-625],[51,-230],[-58,-370],[0,-1241],[-71,-315],[-19,-685],[-103,-691],[-199,-625],[-443,-615],[-129,-375],[-6,-426],[122,-375],[360,-365],[109,-675],[109,-375],[579,-906],[385,-265],[116,-165],[771,-430],[315,-435],[276,-636],[534,-285],[231,-290],[514,-1125],[-38,-846],[58,-410],[475,-650],[251,-515],[251,-901],[282,-515],[418,-555],[527,-510],[990,-481],[540,-470],[990,-395],[359,-355],[155,-355],[58,-946],[96,-455],[283,-655],[302,-410],[23510,2145],[20264,4928],[2346,-260],[482,-476],[829,-360],[1324,-630],[996,-375],[1742,35],[2583,-20],[2031,610],[328,220],[1118,1391],[1119,705],[2988,-215],[669,-860],[424,-196],[244,-280],[96,-520],[425,-200],[848,-660],[39,-551],[520,-15],[219,-150],[964,-90],[745,35],[444,-405],[1414,-350],[411,40],[675,-65],[617,-440],[58,-295],[-489,-566],[-26,-685],[-218,-300],[919,-1896],[636,-785],[643,-881],[431,-260],[835,-185],[617,-350],[977,-1085],[527,-691],[1317,-770],[1646,15],[456,-350],[1118,230],[855,-390],[122,-320],[335,-225],[379,-441],[385,-130],[1909,10],[283,35],[386,-110],[816,-65],[784,-265],[938,-105],[225,100],[495,10],[501,-185],[662,-350],[238,-305],[373,-170],[668,-175],[990,-155],[906,-396],[765,-465],[881,-180],[584,85],[817,-170],[302,-205],[1150,-350],[1671,-245],[945,-235],[546,-70],[810,-421],[527,-760],[296,-95],[411,-370],[668,30],[193,-105],[199,-380],[1742,-150],[919,130],[804,-436],[1176,-370],[250,-335],[1581,-465],[585,-315],[122,-646],[849,-1595],[437,-225],[1568,75],[1054,20],[758,-140],[662,-446],[797,-775],[1999,-525],[758,-650],[515,-381],[180,-450],[494,-360],[887,-855],[341,85],[771,-566],[135,-385],[289,-305],[457,-55],[636,-805],[51,-550],[482,-391],[534,-360],[90,-490],[-135,-165],[173,-605],[347,-546],[238,-245],[624,-105],[302,-460],[128,-610],[759,-645],[147,-631],[296,-190],[392,-35],[180,-645],[206,-50],[687,-425],[258,-345],[70,-646],[251,-300],[13,-725],[167,-230],[289,-65],[180,-1096],[180,-435],[71,-430],[398,-1401],[-26,-345],[206,-335],[-38,-405],[327,-911],[90,-705],[-25,-800],[-315,-816],[-225,-655],[-508,-445],[-797,-1611],[437,-805],[315,-145],[270,-551],[-829,-895],[-84,-365],[-154,-215],[180,-976],[238,-280],[533,-290],[-58,-410],[129,-365],[328,-415],[38,-591],[-520,-700],[-238,-1045],[482,-1111],[161,-205],[-200,-650],[103,-310],[399,-291],[32,-375],[-174,-265],[-70,-380],[90,-375],[199,-210],[610,-260],[-25,-231],[-225,-500],[25,-640],[-70,-120],[-13,-1101],[270,-280],[302,-680],[45,-515],[276,-630],[322,-306],[45,-410],[784,-1040],[199,-656],[19,-485],[154,-510],[45,-350],[245,-1381],[649,-965],[83,-400],[-64,-601],[-135,-275],[-34622,-390],[655,-325],[-38,-510],[520,-130],[97,-541],[218,-505],[290,15],[212,-225],[-116,-240],[-701,-870],[-44,-916],[96,-160],[450,-130],[250,-320],[116,-315],[315,-120],[469,110],[161,280],[206,30],[417,-300],[103,-265],[572,-415],[-51,-276],[167,-240],[-129,-335],[270,-170],[244,0],[168,-310],[-135,-140],[38,-430],[-450,140],[-366,-180],[-90,-240],[315,-991],[-469,-445],[135,-435],[700,-250],[572,-326],[-45,-190],[142,-225],[-7,-555],[289,-285],[772,-475],[366,-706],[643,-1685],[96,-746],[-148,-860],[-591,-740],[-219,-656],[180,-270],[97,-930],[842,-85],[437,-345],[25,-421],[-417,-375],[-392,-660],[-367,-920],[-250,-441],[6,-455],[116,-355],[283,-335],[674,-330],[296,105],[366,-125],[611,-666],[701,-45],[777,-615],[77,-345],[804,-740],[-52,-501],[457,-505],[-52,-320],[945,-590],[96,-605],[174,-351],[520,-350],[0,-595],[65,-220],[-39,-565],[386,-526],[289,90],[167,-275],[-109,-190],[-322,-100],[-179,-240],[0,-350],[-90,-335],[-482,-535],[25,-776],[-167,-85],[-713,-1245],[0,-501],[231,-100],[-32,-225],[-366,-130],[-39,-340],[39,-430],[154,-450],[206,-90],[308,110],[444,-210],[700,-65],[321,-601],[-77,-800],[829,-350],[-154,-1101],[354,-520],[6035,-6033],[-7957,-1955],[-2153,-2086],[913,40],[469,-325],[1047,35],[257,-201],[-141,-985],[51,-375],[116,-280],[334,-285],[52,-185],[295,-366],[425,-390],[83,-255],[868,-530],[231,-425],[566,-561],[-97,-180],[142,-310],[450,-45],[70,-720],[315,-185],[206,-370],[932,-471],[1330,-1215],[354,-650],[70,-381],[727,-1055],[392,-35],[2750,-585],[23639,-30],[752,-3662],[-2205,-1160],[-13599,-3332],[347,-160],[353,-490],[52,-365],[-772,-325],[-141,-416],[84,-325],[1311,25],[636,-145],[212,-115],[624,65],[64,235],[610,185],[174,175],[71,331],[539,235],[380,340],[527,115],[154,280],[411,-240],[52,-215],[302,-200],[417,-621],[-199,-210],[19,-165],[778,-165],[720,95],[154,195],[334,145],[-6,160],[-263,566],[199,105],[244,-90],[71,-230],[469,-406],[437,321],[321,330],[-212,235],[90,210],[-199,330],[251,240],[899,-140],[418,-425],[630,-445],[154,-325],[154,60],[360,-171],[161,-265],[3303,-1145],[-64,-360],[-295,-541],[-521,-400],[-463,-75],[-482,175],[-3072,-325],[-450,-185],[-874,-845],[-533,-581],[-135,-415],[-65,-475],[238,-345],[-218,-345],[-431,-1171],[19,-1180],[360,-315],[829,-856],[457,-80],[366,-1175],[1073,-716],[418,-240],[289,-525],[-13,-445],[2976,-330],[482,50],[476,-315],[-251,-236],[-13,-490],[2770,-75],[3291,-1130],[-328,-3607],[-5720,-1576],[463,-1060],[405,-650],[604,-626],[578,-375],[572,-795],[167,-180],[264,-60],[533,10],[964,-781],[-6,-585],[-334,-1971],[0,-665],[135,-345],[527,-455],[135,-235],[-20,-1336],[-38,-205],[-636,-175],[25,-180],[547,-766],[115,-300],[547,-590],[-39,-450],[726,-355],[804,-551],[546,-530],[501,-610],[3317,25],[655,-5593],[-1260,-4542],[-5180,-165],[649,-525],[13,-180],[-347,-860],[187,-360],[372,25],[797,-631],[-925,-720],[-315,-695],[598,-5],[-78,-1116],[33,-735],[533,235],[6041,155],[0,-4592],[-32,-2791],[13,-175],[-2686,10],[-3381,3326],[-1844,50],[-1170,-1901],[-1472,-2806],[-1260,-1991],[20,-1610],[5733,1580],[14563,345],[3066,-15551],[-1781,-3427],[-4151,35],[-560,-30]],[[948358,93376],[341,150],[45,435],[-270,265],[-431,106],[-405,-16],[-270,-165],[-1124,211],[-289,160],[-380,-130],[-218,90],[116,215],[-65,455],[-906,130],[-231,-25],[-212,165],[-129,390],[13,490],[360,250],[340,386],[-115,265],[597,290],[129,190],[-109,330],[238,550],[-161,225],[116,256],[565,525],[257,105],[148,195],[283,110],[385,360],[283,130],[-276,345],[655,646],[-270,405],[-295,845],[-154,200],[128,170],[13,486],[206,70],[64,255],[-534,-45],[-520,50],[-649,295],[-784,70],[-386,105],[-418,-120],[-257,20],[-205,290],[694,285],[-84,565],[-296,546],[-314,245],[-598,110],[-392,-80],[-161,-165],[-463,55],[-122,-546],[-649,110],[-1099,126],[-244,210],[-514,-25],[-630,65],[0,-461],[-186,-380],[-617,-425],[-123,5],[-340,370],[-167,0],[-212,-615],[-328,-240],[-1273,135],[71,330],[-964,-500],[-694,75],[-142,350],[-257,235],[-302,540],[148,110],[-244,316],[-296,225],[-70,530],[276,395],[-135,270],[64,210],[-463,661],[258,130],[38,225],[534,265],[-161,385],[-289,20],[-309,145],[-925,25],[-392,110],[-425,25],[110,315],[-810,105],[-219,160],[-443,156],[103,215],[231,945],[-1022,110],[-205,-355],[-1035,110],[32,150],[-1228,130],[-83,-375],[-913,100],[-488,-115],[-604,-50],[-405,-255],[19,-290],[334,-110],[-58,-150],[-938,165],[-167,95],[-688,65],[-347,-260],[-803,-326],[-386,-615],[-308,0],[-270,-190],[-109,260],[-373,160],[-167,-195],[51,-300],[-405,-240],[238,-190],[-527,-200],[-309,-30],[-482,-230],[-282,240],[-187,-130],[84,-175],[-109,-205],[-225,-66],[19,-300],[-283,-225],[-173,65],[-45,305],[-572,-350],[-560,10],[-102,-95],[160,-575],[-141,-180],[-521,-220],[-347,55],[283,-400],[-366,-85],[-2089,215],[270,1445],[-437,35],[45,205],[1664,-165],[135,195],[-212,201],[-199,-25],[-598,220],[-417,45],[-26,265],[-765,80],[135,635],[-880,90],[102,205],[553,170],[-103,325],[-308,125],[-624,-75],[-70,431],[-425,-125],[-340,100],[-296,-90],[-83,280],[-739,40],[-425,145],[-270,585],[20,280],[720,685],[308,161],[-83,505],[64,325],[385,320],[-173,275],[-257,-75],[-283,285],[161,320],[257,281],[1202,430],[462,90],[360,-25],[489,90],[-58,880],[-154,340],[96,466],[334,-30],[154,715],[-1028,110],[148,615],[-366,630],[250,226],[-25,365],[154,245],[-354,140],[-180,200],[-276,-130],[-527,340],[-13,725],[90,180],[334,226],[110,205],[-849,80],[-38,490],[-553,110],[6,-140],[315,-140],[-244,-265],[-630,-110],[-205,370],[282,185],[-289,140],[-96,235],[-277,285],[-295,155],[-437,400],[-521,-165],[-315,185],[109,130],[-777,171],[-379,290],[-13,235],[-444,175],[-13,365],[-154,505],[103,250],[392,270],[578,206],[553,10],[457,155],[109,135],[752,260],[38,255],[444,-25],[225,325],[-110,225],[489,635],[-354,691],[682,270],[103,185],[-258,105],[-90,335],[-347,190],[-70,195],[315,431],[-45,280],[-155,195],[-45,340],[-128,80],[-109,500],[141,75],[-270,270],[244,220],[97,245],[-283,181],[19,380],[-128,235],[250,80],[270,225],[161,320],[-251,305],[238,365],[186,80],[354,-40],[334,-160],[276,125],[52,236],[360,-106],[154,151],[302,-40],[405,1850],[-109,90],[-77,466],[-270,260],[19,295],[-405,15],[-199,240],[-283,100],[-315,350],[-501,-215],[-26,245],[-334,200],[-579,80],[-295,150],[141,411],[-238,40],[52,315],[-540,5],[-784,210],[-231,-25],[-521,390],[-270,125],[-733,210],[-237,-1180],[-168,75],[-1118,105],[129,220],[-212,740],[167,315],[527,505],[263,10],[418,711],[32,225],[251,320],[135,930],[295,260],[-122,476],[-340,160],[-161,285],[-270,40],[-58,550],[-238,670],[-6,411],[-604,290],[-771,-405],[-521,485],[-161,-40],[-585,550],[-732,-155],[-264,650],[193,175],[199,370],[-25,291],[-482,245],[-52,290],[-726,620],[-951,100],[199,1001],[-167,245],[-77,770],[-682,100],[-514,130],[-263,590],[495,115],[437,-45],[379,281],[347,85],[386,470],[-3162,345],[321,1491],[-321,175],[6,210],[501,130],[289,450],[-250,220],[-328,440],[32,486],[-1652,175],[-77,-110],[-2789,280],[-129,-10],[-1812,210],[-347,-706],[-1433,131],[26,175],[263,145],[141,360],[-726,65],[489,2471],[-3182,320],[-630,130],[-154,425],[-218,225],[-335,35],[-469,-260],[-694,255],[-643,65],[-829,331],[-719,395],[-1697,265],[-521,20],[296,760],[-264,190],[142,215],[-624,366],[206,425],[-546,15],[-219,180],[-405,-100],[-205,130],[-251,385],[-533,65],[-444,235],[-553,-25],[-237,-255],[-733,-235],[-296,35],[-263,225],[-1324,150],[-386,-105],[-482,220],[-475,-90],[-174,115],[-508,-110],[-250,65],[-450,-110],[-579,-2641],[-591,-25],[-315,250],[-13,370],[-385,180],[-322,-285],[0,-165],[463,-175],[135,-240],[-257,-175],[6,-215],[482,120],[527,-150],[90,-280],[-263,-701],[-97,-120],[187,-455],[-302,-370],[-444,-280],[-160,-25],[122,-430],[-399,-176],[-32,-500],[-154,-175],[-392,65],[-142,-130],[39,-490],[-341,-90],[-5553,-310],[-1741,180],[-431,-305],[-533,15],[-1035,-696],[64,-210],[367,-275],[-52,-340],[-1086,-740],[-257,-465],[-623,-371],[-746,260],[-553,-55],[-315,130],[-1677,186],[-6228,625],[-604,30],[-482,165],[-1555,205],[19,-270],[-129,-715],[-469,-406],[-58,-230],[418,-200],[501,40],[58,-205],[-379,-470],[-1960,-245],[-328,80],[-411,500],[-527,-150],[-694,-25],[-534,55],[-495,120],[-1067,400],[-359,300],[-123,581],[-411,500],[64,315],[-584,600],[-303,801],[-372,185],[32,170],[-1388,-300],[-797,195],[-1061,-165],[-430,80],[-405,335],[-399,45],[-520,-215],[25,-200],[-160,-335],[-3490,-1851],[-3831,370],[-597,1025],[289,310],[38,181],[-655,320],[122,185],[-251,515],[-430,360],[-212,475],[-431,45],[-1150,-20],[-592,45],[-270,-40],[-379,-210],[-340,15],[-791,551],[-733,70],[-578,115],[-572,30],[109,320],[-90,300],[-244,400],[-26,325],[682,711],[70,300],[283,430],[-71,605],[-263,190],[-90,450],[103,311],[462,185],[380,350],[109,380],[244,385],[-225,330],[-1054,991],[-443,170],[-90,325],[-817,340],[-546,520],[495,115],[-823,741],[148,370],[244,225],[617,50],[431,475],[-180,305],[-51,641],[90,610],[-945,325],[-418,525],[219,525],[340,326],[289,60],[13,265],[457,395],[13,155],[-322,125],[-205,335],[-90,610],[-3516,356],[-533,0],[-380,460],[-964,265],[-585,-60],[-527,-110],[-462,60],[-521,-70],[-868,-180],[-449,235],[-862,235],[-533,380],[-739,1111],[-129,40],[-2307,325],[-328,-135],[-257,-240],[-675,180],[-726,75],[-64,210],[-463,35],[-321,-110],[-65,250],[180,495],[270,175],[290,630],[-148,311],[-444,480],[-32,515],[116,210],[-804,290],[135,235],[-154,341],[701,615],[-65,215],[-257,140],[-552,-125],[-245,50],[155,365],[-148,340],[-559,-125],[-135,55],[90,330],[-380,105]],[[904205,233043],[418,-236],[411,-550],[1131,-1315],[321,-210],[180,-376],[1575,-915],[540,-695],[2012,-1481],[1484,-555],[932,-150],[919,-541],[1125,-575],[1234,-1050],[1221,-746],[938,-390],[1209,-365],[758,-195],[1478,-240],[315,160],[861,75],[1170,30],[887,-645],[636,-425],[-19,-361],[366,20],[502,-80],[218,-280],[264,-610],[462,-140],[694,-485],[110,-300],[263,-261],[746,-135],[585,-630],[212,-95],[-142,-415],[135,-290],[322,-315],[398,-281],[-109,-325],[334,-475],[-26,-360],[71,-360],[347,-520],[-103,-281],[13,-280],[186,-290],[-38,-200],[90,-395],[398,-415],[52,-340],[-251,-416],[-77,-825],[302,-1441],[932,-1505],[1414,-1726],[906,-1005],[232,-611],[218,-320],[257,-605],[405,-430],[617,-466],[1035,-665],[1735,-680],[746,-270],[456,-340],[-296,-381],[-321,-710],[-52,-380],[25387,-15],[675,425],[1857,645],[752,396],[2185,1320],[1530,951],[1800,1325],[1201,1201],[1716,1911],[733,960],[469,890],[-64,341],[276,580],[245,1240],[-84,496],[-174,445],[-2185,2716],[-655,730],[-630,521],[-938,650],[-926,420],[-681,140],[-411,-20],[-386,-155],[-283,50],[0,265],[219,475],[623,586],[1234,915],[463,395],[353,415],[707,661],[2095,1320],[1202,515],[1074,341],[449,215],[1099,30],[168,-270],[0,-591],[-193,-1680],[-193,-2276],[-51,-1086],[51,-1536],[360,-1710],[392,-886],[463,-855],[700,-1071],[521,-455],[1028,-660],[347,-180],[508,-140],[585,-70],[495,45],[295,155],[148,-450],[-71,-511],[103,-810],[193,-425],[353,-115],[-186,-215],[-231,-631],[-566,-945],[-3168,-5232],[-1414,-2316],[-643,-1116],[-3271,-5292],[-1273,-2151],[-3123,-5527],[-579,-981],[-1645,-3016],[-1035,-2371],[-810,-2181],[-250,-1501],[25,-900],[887,-2862],[-681,-2105],[-482,-431],[-180,-435],[174,-300],[25,-655],[122,-1211],[579,-1540],[276,-536],[1530,-1465],[816,-591],[591,-320],[727,-165],[835,-55],[553,40],[231,100],[424,670],[20,186],[482,75],[430,-276],[-6,-345],[-366,-60],[-592,-950],[-1671,-2551],[-276,-846],[-572,-885],[-662,-1381],[-321,-445],[-277,-635],[-276,-495],[-296,-781],[-784,-1810],[-739,-1846],[-623,-1691],[-367,-1125],[-417,-1711],[-193,-1286],[-13,-1190],[141,-771],[219,-600],[250,-400],[418,-530],[411,-290],[521,-121],[501,366],[617,25],[386,115],[-84,-521],[258,-200],[-232,-270],[-122,-345],[-521,-1801],[-404,-1715],[12,-226],[-225,-1255],[-109,-1151],[-71,-325],[380,-185],[-45,-100],[411,-430],[-251,-475],[-160,-1051],[19,-1200],[334,-861],[-116,-665],[26,-430],[199,-866],[206,-570],[264,-145],[591,-445],[257,-105],[521,205],[244,-185],[-116,-1506],[-38,-1295],[160,-1031],[-83,-330],[25,-355],[264,-765],[450,-125],[122,-621],[-508,-15],[-469,-360],[514,-645],[-334,-2831],[880,-2421],[817,-2341],[797,-1856],[1844,-2351],[392,-1161],[8098,1691]],[[187346,159210],[-9730,0],[-10335,-5],[-10334,0],[-10335,0],[-10334,0],[-5168,0],[-10334,0],[-5168,-5],[-10328,0],[-5167,0],[-5174,-5],[-5161,5],[-5167,0],[-6594,0],[-8901,-5],[-10328,0],[-10329,0],[-10328,-5],[-10328,0],[-10328,0],[-10322,0],[-6864,-5],[-6,3637],[0,7268],[-7,7263],[0,3637],[0,7263],[0,7268],[0,7263],[0,7268],[0,7264],[0,3631],[-6,7268],[0,3632],[0,7268],[0,3632],[0,7268],[0,7263],[0,7268],[-6,7189],[-7,3716],[0,7268],[-6,3632],[-7,7268],[0,7268],[-6,5088],[-7,3196],[-6,6253],[-6,4362],[0,6533],[0,3631],[-7,6543],[-6,3632],[0,4517],[-7,7113],[-6,7268],[0,4627],[-7,7008],[0,4342],[-12,5833],[-7,3636],[0,7273],[-6,3632],[-7,7273],[0,7273],[-6,7269],[-7,4136],[-6,6773],[0,7274],[-6,7268],[-7,7273],[-6,7278],[-7,7273],[0,7279],[-6,3636],[-7,7273],[-6,7279],[-6,7273],[6,4142],[13,4827],[-7,5577],[-6,7268],[-6,7274],[-7,7273],[0,3631],[-6,7274],[-7,5817],[-6,5092],[0,7269],[-7,7273],[-6,7273],[-6,3637],[-7,7273],[0,3636],[-6,6798],[-7,4107],[0,4367],[-6,6548],[0,3637],[-7,7273],[-6,7833],[617,-440],[835,-380],[701,-450],[77,-275],[624,-171],[327,-160],[412,-355],[675,-805],[1156,-620],[984,-751],[1716,-1095],[2256,-971],[398,-395],[1742,-780],[2731,-936],[2346,-405],[347,-85],[848,-615],[650,-305],[636,-165],[296,-25],[443,-185],[135,30],[790,405],[335,0],[450,-190],[257,30],[784,-25],[829,-190],[340,-165],[643,-215],[694,-291],[1388,-740],[335,-70],[520,165],[1016,-50],[861,-150],[244,-110],[463,-10],[289,-240],[328,5],[199,120],[450,20],[758,-100],[701,15],[1208,-35],[244,95],[849,55],[373,135],[546,20],[694,-95],[803,180],[1061,165],[938,30],[411,185],[290,-210],[392,-20],[212,-105],[880,-190],[129,-325],[430,-330],[463,-280],[1768,-616],[797,-145],[160,-85],[714,-110],[572,-245],[604,-110],[610,-310],[309,-220],[1260,-450],[835,-196],[1877,-360],[411,-135],[829,-550],[765,-225],[1510,-220],[1311,-110],[463,65],[630,-35],[604,-180],[1665,-310],[430,50],[701,-5],[450,-55],[1112,-65],[732,-231],[733,-140],[1279,-615],[520,-155],[110,-205],[-399,-635],[77,-70],[225,-716],[245,-390],[1144,-670],[764,-380],[315,-431],[-96,-155],[167,-265],[784,-650],[360,-115],[713,-370],[759,-270],[1529,-335],[842,-156],[90,-265],[-282,-330],[-650,-1055],[-257,-1181],[206,-960],[386,-986],[514,-2251],[328,-995],[1799,-3121],[591,-786],[470,-1060],[854,-906],[1967,-1215],[1755,-766],[2005,-780],[2005,-440],[1665,-60],[2165,185],[900,-55],[1742,-635],[848,-446],[592,-120],[1021,-350],[939,-560],[1304,-695],[862,-535],[700,-266],[450,-295],[482,-480],[174,-260],[-32,-355],[539,-110],[849,-260],[392,-60],[687,-241],[283,-200],[90,-420],[244,-395],[225,-140],[302,45],[380,-605],[148,-135],[1330,-516],[58,-120],[585,-350],[559,-120],[565,-45],[476,-150],[771,-105],[1228,-85],[276,-255],[257,95],[482,10],[1337,-470],[238,55],[475,-165],[412,-265],[520,-75],[772,10],[443,-191],[880,136],[733,180],[572,-40],[501,-421],[161,-245],[405,-215],[206,-215],[1247,-410],[494,-210],[315,-50],[669,-225],[475,-80],[662,-260],[322,10],[681,-100],[855,-191],[546,-355],[514,-655],[-308,-275],[25,-265],[225,-435],[277,-291],[1092,-950],[906,-490],[135,-135],[746,-410],[996,-341],[373,-25],[2127,-340],[913,20],[700,-30],[335,45],[494,-70],[1414,95],[1183,150],[1870,365],[919,41],[624,135],[327,0],[547,175],[687,115],[553,-55],[334,-220],[489,225],[321,10],[572,160],[881,110],[507,-70],[1119,200],[1060,110],[572,140],[829,55],[508,80],[861,15],[354,85],[919,60],[899,120],[887,170],[1273,455],[1170,446],[514,360],[758,190],[354,195],[372,30],[463,-190],[1459,145],[1241,295],[1208,325],[1227,545],[971,671],[405,155],[398,25],[726,190],[399,0],[533,295],[335,70],[321,200],[688,300],[1426,751],[1061,790],[430,390],[855,525],[142,240],[334,96],[488,275],[547,90],[334,150],[289,265],[283,30],[501,-205],[527,-15],[135,-85],[399,110],[295,560],[983,705],[405,190],[277,291],[1292,255],[1240,400],[308,20],[830,310],[649,655],[649,491],[334,565],[508,595],[315,530],[527,601],[398,280],[19,550],[232,250],[71,325],[327,690],[122,90],[-57,531],[83,340],[251,390],[135,785],[135,90],[115,831],[122,405],[251,335],[-96,230],[160,225],[-12,1031],[122,275],[0,370],[719,910],[-57,306],[57,360],[232,305],[482,290],[630,1511],[250,305],[33,935],[302,816],[0,665],[244,940],[-296,796],[45,555],[-302,355],[-45,710],[437,1256],[373,530],[353,360],[630,911],[508,395],[938,560],[823,610],[1375,1226],[508,485],[900,936],[617,690],[469,645],[296,500],[167,446],[77,575],[0,530],[398,950],[341,60],[173,281],[483,-190],[237,35],[1086,520],[1132,770],[584,515],[457,315],[398,366],[289,390],[1048,820],[990,1171],[193,300],[302,155],[880,1270],[289,726],[78,1085],[-20,270],[405,871],[26,715],[283,530],[482,526],[205,560],[206,135],[688,290],[687,-5],[52,320],[488,790],[26,291],[308,355],[328,715],[418,490],[231,395],[341,1041],[39,515],[-58,375],[-251,455],[-578,491],[-168,320],[-38,360],[58,325],[334,575]],[[533580,534140],[-32,-310],[444,-360],[617,-300],[308,140],[566,-240],[58,175],[392,-30],[70,-125],[3265,175],[-70,-185],[-3034,-151],[109,-150],[-160,-190],[488,-810],[219,-475],[-399,-260],[193,-476],[-26,-400],[-199,-710],[-116,-910],[-64,-130],[135,-406],[-128,-520],[-830,-1165],[-944,-1751],[-611,-1346],[-443,-1210],[-347,-1216],[-245,-730],[-186,-420],[-225,-711],[-129,-1055],[0,-540],[58,-511],[116,-270],[-154,-455],[585,-610],[70,-480],[103,-195],[611,-466],[180,-245],[495,-295],[282,-340],[380,-90],[912,-1166],[103,-525],[161,-255],[392,-175],[777,-5],[566,-395],[231,-500],[315,-516],[309,-315],[456,-235],[533,60],[264,-50],[469,-455],[225,-95],[283,-460],[514,-406],[141,-265],[412,-305],[482,-565],[739,-775],[424,-376],[180,-80],[566,30],[514,-130],[951,-720],[726,-285],[611,25],[752,-240],[597,-305],[367,-360],[295,-70],[328,-226],[534,-715],[443,-385],[656,-175],[989,75],[695,-120],[1272,-765],[662,-316],[842,-245],[675,-115],[765,-445],[636,-240],[1189,-270],[289,-150],[476,0],[-65,185],[740,290],[347,40],[160,305],[405,-30],[566,65],[784,-30],[578,-90],[270,-110],[360,15],[514,-235],[26,-505],[103,-646],[212,-595],[276,-430],[476,-450],[270,-80],[173,180],[617,100],[264,-290],[443,-310],[90,90],[508,-55],[283,365],[411,-190],[167,175],[566,-535],[-932,-891],[623,-60],[373,-155],[405,-340],[238,-115],[77,-220],[720,-505],[475,-236],[424,-95],[785,-15],[841,220],[560,-25],[482,286],[539,150],[277,10],[617,-115],[276,25],[135,165],[437,250],[617,200],[926,910],[617,636],[192,400],[-186,215],[26,165],[373,470],[642,270],[379,445],[-392,396],[116,155],[-154,315],[-232,210],[-96,225],[58,205],[334,155],[366,-330],[225,-360],[463,-360],[611,-320],[405,-1106],[-135,-340],[392,-180],[109,-295],[231,-120],[335,-491],[-206,-190],[244,-970],[-289,-50],[-437,165],[-167,-165],[-122,-550],[147,-401],[431,-930],[623,-920],[425,-491],[482,-475],[462,-370],[1697,-905],[193,-365],[-161,-381],[418,-585],[527,20],[109,165],[566,0],[630,-105],[777,10],[508,-105],[829,0],[1883,-645],[836,195],[649,15],[604,-655],[514,-80],[489,320],[835,240],[649,30],[669,495],[636,185],[662,0],[328,-65],[623,-245],[1215,-175],[990,-45],[1137,40],[514,50],[457,-60],[938,-350],[964,35],[848,180],[675,730],[187,455],[-39,391],[-540,450],[45,420],[-218,305],[-592,335],[-167,245],[-417,290],[-90,346],[-380,365],[39,345],[-186,210],[-457,320],[-720,305],[-790,115],[103,255],[527,-30],[720,-290],[417,-75],[611,-265],[501,-325],[386,-315],[231,-325],[341,-325],[694,-1026],[443,-555],[219,-430],[308,-380],[328,-771],[257,-955],[45,-380],[386,-1061],[250,-300],[110,-350],[238,-315],[546,-471],[694,-285],[122,-240],[283,-145],[398,-480],[489,-705],[379,-405],[283,195],[469,-296],[829,-1225],[501,-991],[174,-480],[180,-810],[32,-460],[148,-300],[167,-681],[-264,-360],[354,-185],[295,-320],[624,-145],[347,-295],[450,-591],[-193,-1375],[-270,-440],[-276,-320],[19,-326],[-244,-130],[-283,5],[-212,-315],[604,-545],[231,-725],[335,-621],[257,-295],[854,-680],[662,-440],[2064,-1051]],[[124760,626261],[-237,-746],[-585,-705],[-887,-615],[-881,-571],[-1478,-745],[-4415,-1716],[-1883,-700],[-2655,-745],[-2647,-971],[-1826,-1450],[-591,-1361],[-945,-2021],[-353,-1666],[0,-1760],[765,-1801],[1323,-1521],[508,-980],[412,-1011],[115,-1365],[-173,-526],[-649,-660],[-830,-525],[-1060,-440],[-4634,-145],[-887,-180],[-835,60],[-592,230],[-1131,-135],[-1388,330],[-386,-75],[-700,75],[-591,205],[-110,-435],[-642,-551],[-887,-230],[-1350,235],[-1125,566],[-1028,770],[-553,675],[-694,1231],[-977,560],[-1414,170],[-3901,145],[-1748,295],[-1369,501],[-2127,1175],[-720,465],[-463,376],[-154,410],[-71,470],[13,445],[-167,825],[-456,706],[-900,840],[-758,375],[-1453,611],[-1780,440],[-958,305],[-1504,660],[-790,295],[-540,691],[38,625],[797,995],[772,471],[867,160],[58,810],[296,740],[546,571],[656,260],[1349,325],[341,405],[-225,645],[-13,696],[276,605],[180,180],[-257,355],[-154,635],[244,896],[463,745],[386,465],[205,115],[26,711],[-386,940],[90,695],[405,486],[90,580],[617,770],[1832,1091],[1015,475],[58,625],[289,800],[502,551],[964,435],[173,560],[508,510],[1099,571],[424,425],[495,895],[437,1736],[283,2051],[-186,1676],[-354,615],[-83,515],[109,355],[-714,340],[-539,726],[-20,570],[-238,765],[-96,751],[71,385],[810,535],[771,115],[919,-215],[411,-190],[495,-590],[96,-315],[425,-1031],[96,-315],[-32,-265],[893,-215],[1241,-921],[1227,-710],[1523,-710],[1305,-400],[2166,-436],[2989,-300],[4203,-360],[1131,10],[1459,-490],[1060,15],[1125,-170],[771,-340],[765,-856],[1003,-615],[610,-535],[996,45],[1774,-350],[1009,-5],[1048,250],[1587,565],[746,85],[726,-215],[1241,-905],[1844,-1946],[392,-631],[4923,-6217],[592,-616],[591,-1100],[115,-745]],[[559706,521189],[-231,-375],[-193,-95],[-1427,-555],[-675,-230],[-3406,-956],[-2564,-750],[-521,-415],[-212,-420],[-32,-416],[-264,-395],[-623,-165],[-444,70],[-552,320],[-553,451],[-456,305],[-161,315],[-122,785],[-135,535],[-77,1141],[38,1726],[-38,575],[-277,1160],[-128,341],[64,1040],[-160,205],[-508,-195],[-219,40],[-347,555],[-103,631],[78,550],[359,625],[-25,115],[-437,440],[-200,346],[-96,350],[32,615],[-77,620],[90,300],[90,656],[289,390],[-25,825],[334,290],[771,25],[353,-205],[258,-290],[0,-475],[-90,-340],[-238,-245],[-328,-205],[-96,-221],[257,-410],[90,-470],[282,-310],[129,-315],[-129,-520],[444,-476],[-154,-470],[25,-335],[-109,-615],[212,-255],[1459,80],[739,365],[367,-130],[1144,-871],[276,-270],[289,-120],[1086,-115],[450,-425],[0,-310],[109,-105],[656,-150],[604,-325],[932,-746],[225,-325],[218,-760],[508,-75],[1877,595],[385,0],[386,-135],[244,-185],[283,-1211]],[[571487,503527],[-187,-206],[129,-115],[-174,-190],[155,-210],[-405,-195],[-71,-400],[-218,-395],[-7,-290],[-341,-120],[-192,135],[-367,-225],[-192,-301],[-412,-5],[-231,-595],[167,-115],[-26,-215],[-353,-45],[-116,140],[-443,-170],[-868,655],[-495,210],[-379,266],[-161,260],[-308,195],[-437,95],[-129,475],[-598,195],[-347,225],[-19,245],[174,205],[372,220],[167,251],[662,95],[463,-155],[546,0],[688,240],[283,340],[508,-10],[411,-445],[251,-125],[456,-51],[360,86],[-154,335],[45,270],[482,85],[167,-60],[289,-320],[617,-40],[238,-225]],[[554577,507603],[-379,-315],[-630,95],[-353,-125],[-270,265],[6,160],[264,90],[218,-105],[450,80],[52,190],[456,-105],[186,-230]],[[993103,72232],[161,-230],[45,-441],[-296,-770],[-354,-1881],[-308,-1385],[-276,-1406],[-161,-930],[-71,-1076],[0,-540],[399,-1211],[147,-105],[-199,-280],[-51,-1720],[32,-1101],[96,-580],[251,-1096],[443,-1475],[245,-686],[372,-700],[476,-95],[90,-405],[527,-801],[463,-520],[475,-15],[1054,-1155],[553,-445],[816,-391],[489,-50],[411,130],[109,-125],[772,245],[186,-190],[-810,-270],[-437,-430],[-218,120],[-2912,910],[-283,-60],[-295,66],[-283,-246],[-257,-30],[-643,-630],[-96,-275],[-283,-25],[-1080,-310],[-739,-530],[-418,-140],[-186,-341],[-591,-180],[-521,-395],[-430,-450],[-26,-240],[-193,-185],[-983,-315],[-482,-235],[-476,-96],[-733,40],[-437,-100],[-462,221],[-135,460],[-264,50],[-572,-130],[-141,65],[-630,-125],[-283,85],[-270,210],[-617,-80],[-604,60],[-193,-190],[-327,-30],[-328,-245],[-592,-90],[-327,-110],[-373,10],[-533,-466],[-180,-425],[-900,85],[-733,520],[-508,-175],[-726,451],[-739,-106],[-334,-480],[6,-220],[193,-245],[39,-285],[-900,-280],[340,-265],[-90,-130],[264,-270],[-309,-241],[-597,90],[-142,-290],[-617,-135],[0,-380],[-482,5],[-180,-270],[-462,10],[-65,-330],[347,-320],[-218,-295],[-405,-291],[-244,25],[-77,-310],[-283,-435],[-219,-105],[-893,150],[-1260,165],[-225,220],[-347,180],[-1041,110],[-270,150],[-437,-220],[-488,185],[-534,86],[-777,-166],[-444,80],[-456,-15],[-405,171],[-398,-75],[-348,220],[-321,95],[-913,-85],[-533,-5],[-360,-105],[-379,45],[-315,-145],[-701,305],[-379,30],[-726,260],[-386,15],[-713,505],[-707,185],[-790,-95],[-399,105],[-315,-65],[-340,80],[-367,-415],[-315,-130],[-475,120],[-495,-460],[-39,-330],[-289,25],[-598,-356],[-13,-425],[-308,-150],[-701,-20],[-752,365],[-276,35],[-1131,-325],[-103,-130],[238,-160],[-341,-265],[-366,-15],[-283,160],[-398,75],[-212,205],[-392,140],[-502,410],[-186,-60],[-450,190],[-315,-140],[-623,431],[-399,-55],[-257,100],[-128,285],[-444,-75],[-353,215],[-26,415],[-431,320]],[[942985,43399],[-58,235],[-250,250],[-572,135],[-232,401],[-83,330],[231,585],[296,235],[514,175],[881,75],[257,270],[147,-100],[482,-75],[547,726],[527,215],[173,140],[643,145],[51,215],[-321,35],[180,720],[334,906],[739,-85],[174,210],[199,-25],[199,385],[116,495],[-167,210],[64,285],[-1227,1181],[334,125],[360,-130],[572,290],[-694,190],[-508,445],[315,160],[-913,95],[1825,941],[161,605],[-122,15],[431,1501],[1041,-135],[398,155],[-585,555],[849,420],[231,-215],[2063,1030],[-1208,1161],[-174,-25],[-932,910],[508,40],[199,-230],[778,-125],[225,275],[328,135],[205,-35],[418,145],[996,271],[277,15],[231,150],[771,-70],[502,185],[212,385],[508,150],[507,50],[489,305],[308,555],[-128,270],[282,521],[328,165],[-463,185],[7,570],[-103,280],[-925,95],[-2147,155],[-797,-220],[-797,-100],[-553,30],[-218,-120],[-881,175],[-327,215],[180,465],[-277,156],[77,295],[187,-20],[77,310],[-649,70],[64,270],[431,-10],[102,430],[-340,190],[238,951],[437,-50],[173,150],[84,350],[649,-65],[148,630],[642,-75],[7,380],[-148,685],[-373,431],[-450,-80],[-520,45],[302,1360],[225,190],[694,-75],[45,220],[334,-35],[71,296],[340,-40],[-45,-256],[135,-150],[476,20],[861,-100],[77,320],[990,-120],[84,351],[520,-55],[508,2190],[1690,-185],[418,0],[508,2046],[-367,400],[142,191],[462,390],[232,305],[148,545]],[[942985,43399],[-501,85],[-681,-175],[-566,60],[-276,250],[-450,180],[-276,265],[-129,256],[90,215],[-167,245],[-219,70],[-90,540],[-822,-370],[-238,-225],[-148,-380],[122,-446],[167,-355],[-321,-315],[-488,-620],[-258,-120],[-366,-541],[-315,256],[-148,365],[-533,165],[-649,-45],[64,270],[-373,-115],[-327,120],[-328,380],[-347,30],[-489,235],[-19,210],[238,195],[-26,566],[251,350],[6,365],[232,320],[-489,210],[-463,50],[-379,445],[-418,130],[-533,-160],[-527,-85],[-315,45],[-264,-225],[-507,-25],[-187,65],[-610,-115],[-244,-280],[96,-250],[-206,-130],[-186,-300],[-193,-20],[-424,-330],[-186,-340],[102,-251],[-546,-115],[-308,105],[-605,-95],[-308,125],[-225,-240],[45,-275],[-206,-165],[-6,-500],[450,-560],[-129,-230],[-347,-266],[-585,-280],[-141,-255],[-347,-255],[-116,-255],[-418,-320],[-437,160],[-231,-70],[-617,45],[-553,245],[-944,-340],[-399,70],[-244,-85],[-341,80],[-398,-10],[-296,165],[-411,40],[-135,-310],[-855,-510],[-225,-190],[-90,-321],[-167,-150],[-308,-20],[-964,105],[-405,-505],[-290,-130],[-443,-405],[-630,-320],[-71,-280],[-456,-306],[-148,-370],[-193,-10],[-263,-380],[-283,-215],[-205,155],[-431,115],[-167,280],[-617,100],[-315,105],[-251,-230],[-1388,300],[-533,-100],[-123,-170],[-527,-65],[-276,-155],[-424,-490],[-482,-85],[-392,-340],[-643,-180],[-328,60],[-1009,-265],[-462,-15],[-257,-95],[-650,105],[-64,-401],[-122,-110],[19,-325],[-475,-280],[-296,10],[-611,-230],[-115,-205],[-521,-410],[-1073,-530],[64,-156],[-212,-200],[-1041,-145],[-559,165],[-193,-40],[-276,436],[77,295],[-200,385],[-604,-85],[-218,-225],[-926,-485],[180,-396],[-263,-355],[-58,-285],[199,-150],[-115,-530],[250,-260],[-103,-230],[167,-171],[270,-45],[206,-250],[598,-45],[630,-430],[154,-495],[244,-145],[-193,-325],[116,-410],[180,-246],[-231,-310],[57,-195],[611,-585],[122,-200],[-26,-515],[264,-155],[180,-276],[340,-330],[425,95],[694,-115],[482,80],[372,-185],[-25,-240],[514,-455],[694,140],[309,-285],[-219,-280],[116,-305],[353,-406],[257,-170],[-302,-335],[-591,-160],[-527,-365],[-746,-315],[245,-105],[102,-325],[-437,-355],[20,-266],[-309,-195],[97,-800],[-148,-225],[315,-165],[-174,-325],[-225,-95],[32,-236],[193,-190],[-167,-315],[84,-350],[-122,-225],[-78,-645],[-424,-185],[-250,45],[-116,-285],[-270,-65],[83,-321],[-212,-295],[527,-225],[187,-175],[231,160],[514,170],[90,-150],[-225,-190],[129,-300],[-476,-275],[84,-200],[-206,-135],[-302,-711],[-424,-195],[-399,-600],[-584,-90],[-122,250],[102,185],[-212,220],[-205,-165],[-740,-400],[-700,-175],[-251,-325],[-482,-120],[-308,95],[-289,-115],[-939,-120],[-610,-160],[-302,-155],[-425,-55],[52,225],[-219,235],[-398,150],[-765,180],[-186,-95],[-720,195],[-174,-90],[-636,-20],[-225,215],[-360,130],[-810,-85],[-475,-220],[-180,-360],[26,-170],[-142,-431],[302,-535],[-250,-280],[-26,-420],[-315,-245],[-321,-115],[-797,210],[-103,205],[186,255],[-495,265],[-867,-210],[-264,-195],[-418,-30],[-347,-160],[-437,70],[206,395],[-32,490],[-675,150],[-289,255],[-58,206],[-238,155],[-424,70],[-71,305],[-417,700],[89,190],[-269,90],[-20,190],[-308,541],[135,130],[13,350],[-482,225],[-245,-75],[-205,-240],[-399,-110],[-141,215],[-296,-25],[-244,-335],[-32,-185],[-405,-321],[-604,-25],[-77,-210],[-476,-350],[-193,-375],[-565,105],[-482,-320],[-540,-285],[-379,15],[-457,-250],[-19,-235],[-225,-161],[-469,321],[-579,-120],[-347,135],[-411,-85],[-103,-115],[-970,-226],[-617,-600],[-547,-10],[-237,125],[-1196,-555],[-212,-20],[-51,-375],[-187,-460],[-334,-286],[103,-190],[-347,-280],[-566,-215],[-141,-310],[-309,-65],[-430,-405],[-225,-90],[-212,-450],[-321,-256],[12,-235],[-186,-235],[141,-595],[-205,-260],[-245,-495],[438,-280],[340,-130],[26,-221],[-604,-95],[-399,-790],[-160,-100],[-515,-85],[-887,-350],[-327,-941],[-232,-365],[-430,-325],[-971,-460],[-186,-310],[-296,-135],[-540,-10],[-424,-235],[-283,-451],[-192,-150],[-26,-270],[-431,-300],[-501,110],[-488,-95],[-1382,235],[-341,-170],[-932,-175],[-244,220],[-810,405],[-430,30],[-238,245],[19,190],[-167,191],[-19,350],[147,180],[418,225],[-353,405],[-534,465],[-205,355],[-399,65],[-199,-70],[-276,276],[-296,165],[-244,310],[-65,735],[-225,130],[33,270],[687,581],[-6,365],[161,25],[147,295],[-282,150],[-78,630],[-546,-10],[-295,250],[141,300],[610,361],[39,535],[-58,205],[-289,290],[-135,610],[296,260],[-598,341],[90,250],[476,195],[57,740],[-366,315],[-77,205],[-456,120],[-270,215],[-360,-10],[-495,296],[-424,100],[-193,220],[-122,525],[-257,225],[-334,-200],[-560,100],[-366,125],[-514,300],[-13,315],[-463,385],[-1002,306],[-360,-110],[-392,20],[-71,130],[-533,365],[-116,235],[-611,0],[-546,260],[-212,-145],[-508,150],[-437,475],[-630,5],[-430,390],[-206,-105],[-135,411],[-476,-80],[-269,125],[-579,60],[-720,-341],[0,-180],[-816,-70],[-328,-175],[-45,245],[-424,-20],[-180,255],[-283,186],[245,170],[-367,260],[-13,400],[309,180],[-58,215],[19,705],[-212,10],[-302,190],[-520,-5],[70,481],[-122,345],[-321,160],[122,160],[501,80],[-186,715],[-154,140],[-817,446],[-77,130],[-495,25],[-816,215],[-475,25],[-168,150],[-527,40],[-514,-300],[-167,105],[-533,-50],[-315,145],[-103,250],[-521,-90],[39,215],[-321,150],[-155,870],[-430,356],[-302,-95],[-527,265],[-225,325],[-193,75],[-694,-65],[-244,-335],[-380,20],[20,205],[-354,60],[-308,-240],[-334,440],[-348,-130],[-745,405],[-148,285],[-411,120],[-238,-25],[-514,235],[-784,35],[-199,170],[173,290],[-283,15],[-662,201],[-675,-50],[-739,460],[-649,25],[-263,290],[-906,-25],[-135,250],[-515,10],[-1111,-65],[-168,-260],[-719,-205],[-264,-145],[45,-210],[-527,-160],[-553,80],[-315,-221],[-488,-165],[-469,546],[-180,-160],[-746,-266],[-1047,-295],[-219,-135],[-385,-455],[-386,195],[-32,180],[-418,-10],[-90,-195],[-520,85],[-637,20],[-38,310],[-1112,441],[-579,-126],[-308,25],[-585,-170],[-244,386],[-386,-95],[-103,-186],[392,-235],[-186,-360],[-868,30],[-244,-65],[-430,145],[-142,140],[501,235],[393,100],[-495,211],[-444,55],[-244,-75],[-96,-206],[-354,-110],[-630,55],[-295,90],[-463,10],[-379,90],[-155,-240],[-270,-95],[-411,170],[-482,-280],[-366,-125],[-167,225],[-290,-85],[-694,85],[-321,145],[-257,266],[-341,195],[-450,100],[-417,-90],[-155,210],[245,120],[6,495],[-450,75],[-430,335],[-341,-85],[-334,-250],[-431,90],[135,285],[-527,-20],[-566,290],[-96,385],[58,181],[-321,45],[-45,165],[270,225],[-290,180],[-64,430],[-546,0],[-302,305],[51,400],[-546,-10],[-771,145],[-418,275],[-187,481],[-417,70],[-283,250],[-540,95],[-514,550],[-244,20],[-360,-240],[-437,10],[-270,110],[-315,-45],[-405,-215],[-399,-45],[-398,-320],[-881,-135],[264,-140],[-816,-551],[-457,105],[-456,-85],[71,-255],[-669,15],[-327,290],[-399,30],[-848,161],[263,215],[-816,-75],[-71,220],[-218,120],[-810,-170],[-77,310],[-276,-100],[-290,-440],[-276,70],[-154,-170],[-759,110],[-366,-5],[-186,-241],[-360,-175],[-778,311],[-463,-70],[148,-601],[-398,-170],[-463,-20],[-180,-120],[-341,220],[-507,80],[-367,-75],[-38,-230],[-386,-85],[-186,-205],[-257,115],[-514,55],[-386,285],[-238,65],[-218,-165],[-675,-70],[-270,-365],[-707,-225],[-212,55],[-103,-320],[-341,-35],[-552,-345],[-746,-70],[-302,-136],[-533,206],[-714,-276],[-77,-225],[-321,145],[-26,180],[-418,-20],[-321,151],[-1067,-60],[-225,-431],[-379,-45],[-624,55],[-173,195],[-566,145],[-218,261],[-405,-30],[-231,235],[-264,-220],[-630,55],[-51,-145],[-328,-80],[-360,335],[-553,-10],[-250,-250],[-566,-236],[-244,281],[-701,30],[-360,-140],[-713,-71],[-167,-130],[-270,211],[-263,-156],[-740,-70],[-559,150],[-578,-15],[-180,-295],[-437,100],[-392,-70],[-322,105],[238,216],[-295,75],[-444,-131],[-244,-230],[-289,175],[-405,-295],[244,-190],[-251,-175],[225,-200],[-282,-180],[-354,115],[-1099,-60],[-668,105],[218,200],[-218,325],[-392,145],[45,250],[-270,131],[-206,-231],[-578,100],[-187,241],[52,165],[-283,250],[-315,45],[-411,170],[-656,-75],[-553,-235],[-45,185],[-308,-45],[38,320],[-212,270],[-340,-95],[6,475],[-283,140],[-565,75],[-296,100],[-321,-75],[-155,110],[-745,-190],[-276,-155],[-444,105],[-752,85],[-392,-95],[-180,120],[-250,-255],[-360,-85],[-502,260],[-514,-95],[-456,-15],[-405,-325],[-276,125],[-264,-105],[-109,-290],[-309,-180],[-829,25],[-418,-105],[-269,-440],[-258,-25],[-565,-351],[-7,-205],[225,-260],[-456,-255],[-341,-15],[-64,-290],[142,-295],[-135,-130],[-32,-300],[-148,-140],[-489,-35],[13,-190],[-379,-416],[-32,-220],[-457,-435],[-424,30],[-385,-375],[83,-190],[-160,-265],[-232,-145],[-443,220],[-354,-135],[-276,235],[-514,-65],[-77,210],[-264,35],[-347,-320],[-315,-10],[-135,-280],[-617,-85],[-321,50],[64,-261],[-270,-135],[-508,-45],[-237,-255],[-347,-55],[-617,110],[-482,-65],[-45,-150],[-412,-370],[77,-175],[-347,-155],[-173,-180],[-579,-130],[135,-280],[-443,-140],[-257,375],[-682,-250],[-321,60],[-437,-476],[-456,-30],[-277,-345],[-45,-285],[-488,-175],[-64,130],[-534,-235],[-257,40],[-270,-195],[-501,-15],[-392,-310],[251,-165],[-399,-80],[52,-225],[-180,-160],[167,-241],[-425,-195],[-636,-390],[-623,-225],[-604,165],[-412,-35],[-327,70],[0,-275],[205,-265],[-13,-335],[-237,-190],[-521,-80],[-186,-295],[-425,195],[-212,-80],[-315,160],[-263,-160],[-360,-60],[-366,130],[-669,-310],[-77,-201],[-392,-75],[0,-735],[-302,-50],[-193,-230],[-109,-390],[-270,-60],[-186,-285],[-245,-30],[-302,-266],[84,-135],[475,-10],[-507,-750],[135,-100],[32,-335],[-219,-45],[-257,-280],[-199,25],[-51,-400],[-264,-80],[167,-306],[-353,-485],[-225,-70],[-135,-450],[-212,-220],[-206,135],[-649,-195],[-431,140],[-25,-220],[-290,10],[-205,-425],[-360,-210],[-296,45],[-1324,-336],[-77,-350],[-373,-290],[-154,-270],[-308,-130],[-6472,0],[-9075,0],[-7970,0],[-10868,0],[-7359,0],[-5186,0],[-9557,0],[-5302,0],[-9551,-5],[-6697,0],[-11337,0],[-5309,5],[-9428,0],[-6485,0],[-5302,0],[-10611,0],[-9544,0],[-5887,0],[-11202,5],[-5200,0],[-10611,-5],[-8490,0],[-7429,0],[-10611,0],[-10618,0],[-10611,0],[-5623,0],[-10303,0],[-10791,0],[-10437,0],[-6022,0],[-10733,0],[-9776,0],[-5308,0],[-6697,0],[-10187,0],[-10714,0],[-8689,-5],[-6286,5],[-10495,0],[-5591,0],[-9519,0],[-9299,0],[-8426,5],[-11260,5],[-5791,-5],[-7121,0],[-6427,-5],[-6427,5],[-6427,-5],[-6427,5],[-6427,-5],[-6427,5],[-6337,0],[-5302,0],[-7642,-5],[-6427,5],[-6427,-5],[-7018,5],[-5836,0],[-8104,-5],[-11177,5],[-5726,-5],[-7173,0],[0,8834],[0,5092],[7,9104],[0,19404],[6,7273],[7,6548],[0,10339],[0,4212],[0,5092],[0,6553],[0,2912],[0,5827],[-7,3642],[0,9459],[-6,7623]]],"transform":{"scale":[0.00001555941555941557,0.0000199912],"translate":[137.9946,-29.179200000000005]},"objects":{"qld_qps_regions_gda94_simp200m":{"type":"GeometryCollection","geometries":[{"arcs":[[0,1,2,3]],"type":"Polygon","properties":{"QPS Region":"Brisbane","Layer Id":"qld_qps_regions_gda94_simp200m","Layer Group":"official","Layer Kind":"qps_regions","Source":"QPS Regions, Queensland Police Service","Source URL":"https://www.data.qld.gov.au/dataset/qps-regions","Licence":"CC BY 3.0 AU","Licence URL":"https://creativecommons.org/licenses/by/3.0/au/","Dataset Date":"09/03/2022","Simplification Tolerance M":200,"Coordinate Precision Decimals":4,"CRS":"GDA94 (EPSG:4283)","Modified":"Simplified and repackaged from the source dataset; see Source URL"},"id":"Brisbane"},{"arcs":[[4,5,6,7,8]],"type":"Polygon","properties":{"QPS Region":"Central","Layer Id":"qld_qps_regions_gda94_simp200m","Layer Group":"official","Layer Kind":"qps_regions","Source":"QPS Regions, Queensland Police Service","Source URL":"https://www.data.qld.gov.au/dataset/qps-regions","Licence":"CC BY 3.0 AU","Licence URL":"https://creativecommons.org/licenses/by/3.0/au/","Dataset Date":"09/03/2022","Simplification Tolerance M":200,"Coordinate Precision Decimals":4,"CRS":"GDA94 (EPSG:4283)","Modified":"Simplified and repackaged from the source dataset; see Source URL"},"id":"Central"},{"arcs":[[9,10]],"type":"Polygon","properties":{"QPS Region":"Far Northern","Layer Id":"qld_qps_regions_gda94_simp200m","Layer Group":"official","Layer Kind":"qps_regions","Source":"QPS Regions, Queensland Police Service","Source URL":"https://www.data.qld.gov.au/dataset/qps-regions","Licence":"CC BY 3.0 AU","Licence URL":"https://creativecommons.org/licenses/by/3.0/au/","Dataset Date":"09/03/2022","Simplification Tolerance M":200,"Coordinate Precision Decimals":4,"CRS":"GDA94 (EPSG:4283)","Modified":"Simplified and repackaged from the source dataset; see Source URL"},"id":"Far Northern"},{"arcs":[[-3,11,-5,12]],"type":"Polygon","properties":{"QPS Region":"North Coast","Layer Id":"qld_qps_regions_gda94_simp200m","Layer Group":"official","Layer Kind":"qps_regions","Source":"QPS Regions, Queensland Police Service","Source URL":"https://www.data.qld.gov.au/dataset/qps-regions","Licence":"CC BY 3.0 AU","Licence URL":"https://creativecommons.org/licenses/by/3.0/au/","Dataset Date":"09/03/2022","Simplification Tolerance M":200,"Coordinate Precision Decimals":4,"CRS":"GDA94 (EPSG:4283)","Modified":"Simplified and repackaged from the source dataset; see Source URL"},"id":"North Coast"},{"arcs":[[[-8,13,-10,14]],[[15]],[[16]],[[17]],[[18]]],"type":"MultiPolygon","properties":{"QPS Region":"Northern","Layer Id":"qld_qps_regions_gda94_simp200m","Layer Group":"official","Layer Kind":"qps_regions","Source":"QPS Regions, Queensland Police Service","Source URL":"https://www.data.qld.gov.au/dataset/qps-regions","Licence":"CC BY 3.0 AU","Licence URL":"https://creativecommons.org/licenses/by/3.0/au/","Dataset Date":"09/03/2022","Simplification Tolerance M":200,"Coordinate Precision Decimals":4,"CRS":"GDA94 (EPSG:4283)","Modified":"Simplified and repackaged from the source dataset; see Source URL"},"id":"Northern"},{"arcs":[[-1,19,20]],"type":"Polygon","properties":{"QPS Region":"South Eastern","Layer Id":"qld_qps_regions_gda94_simp200m","Layer Group":"official","Layer Kind":"qps_regions","Source":"QPS Regions, Queensland Police Service","Source URL":"https://www.data.qld.gov.au/dataset/qps-regions","Licence":"CC BY 3.0 AU","Licence URL":"https://creativecommons.org/licenses/by/3.0/au/","Dataset Date":"09/03/2022","Simplification Tolerance M":200,"Coordinate Precision Decimals":4,"CRS":"GDA94 (EPSG:4283)","Modified":"Simplified and repackaged from the source dataset; see Source URL"},"id":"South Eastern"},{"arcs":[[-2,-21,21,-6,-12]],"type":"Polygon","properties":{"QPS Region":"Southern","Layer Id":"qld_qps_regions_gda94_simp200m","Layer Group":"official","Layer Kind":"qps_regions","Source":"QPS Regions, Queensland Police Service","Source URL":"https://www.data.qld.gov.au/dataset/qps-regions","Licence":"CC BY 3.0 AU","Licence URL":"https://creativecommons.org/licenses/by/3.0/au/","Dataset Date":"09/03/2022","Simplification Tolerance M":200,"Coordinate Precision Decimals":4,"CRS":"GDA94 (EPSG:4283)","Modified":"Simplified and repackaged from the source dataset; see Source URL"},"id":"Southern"}]}}}