{"type":"Topology","arcs":[[[383622,580352],[-18900,1829],[-1016,-11430],[-1140,-12168],[2506,-228],[-874,-10357],[-666,-7927],[-583,-6880],[-575,-6671],[-932,-10812],[3730,-337],[-825,-9601],[259,-19],[-1016,-11722],[-1199,-273],[-225,28],[-175,-1320],[-108,-1329],[316,-27],[-483,-5916],[-366,46],[-2065,-4514],[4455,-474],[-708,-6962],[-1990,209],[-841,-8382],[-1582,182],[-524,-6225],[-308,-3849],[-7394,673],[-333,-2120],[3222,-301],[-449,-5115],[-67,19],[-766,-8856],[2739,-209],[-449,-6052],[-7677,136],[-8326,1657],[-866,-710],[7527,-9028],[-6136,-5133],[2306,-246],[-949,-9620],[-3497,-2894],[2947,-291],[-141,-1584]],[[339478,405549],[-92,-2047],[-125,-3777],[-391,36],[-17,-373],[391,-182],[-141,-3923],[-117,-4022],[-724,-5197],[-758,-5551],[-9083,782],[-16553,1438],[-124,-1438],[-13297,1174],[283,3295],[-6203,555],[-2065,-17765],[-14454,682],[-1615,-3485],[-158,-537],[-317,-446],[-33,-1930],[550,-1265],[-184,-218],[234,-555],[-100,-1156],[291,-810],[50,-719],[-7968,610],[-1324,-17674],[3813,-4414],[2099,-2157],[-666,-1256],[-7694,-6571],[-6128,-5279],[4230,-5078],[5695,-6926],[-4438,-3258],[-974,1092],[-2906,273],[-674,9],[-108,-910],[191,-819],[250,-428],[658,-4386],[100,-155],[1107,-992],[466,-4232],[-208,-273],[-491,-2030],[649,-2730],[-10257,-8546],[-766,-145],[-159,-1111],[100,-91],[2789,-919],[1974,-2211],[-5595,-4751],[-4546,-4059],[1298,-1420],[567,-710],[-10391,-8528],[599,-791],[9550,-11003],[2581,-3095],[2232,-2530],[2456,-2812],[200,-27],[1115,828],[8984,7663],[7186,-8610],[1656,-1720],[2948,-3394],[300,-519],[474,-373],[5912,-6935],[599,109],[700,-319],[-367,-318],[5629,-6498],[6261,-7700],[6061,-737],[6295,-728],[83,1329],[12356,-82],[13246,-1320],[109,1265],[1382,-136],[11590,-628],[-175,-1556],[-650,-6462],[-1140,-10985],[-800,-7736],[-940,-9156],[-3980,-3476],[-2407,-3122],[-8700,10039],[-9450,-8865],[3388,-3658],[7069,-7600],[2773,-2939],[-3547,-2958],[658,-846],[-5529,-4596],[8901,-10630],[-283,-264],[-200,-483],[-725,-546],[-632,-209],[-1008,-182],[-483,82],[-541,-382],[-699,-310],[-608,-391],[-575,-601],[-699,-191],[-1191,-173],[-466,-364],[-441,-828],[-608,-546],[-191,-564],[-317,-264],[-949,-556],[-283,-373],[-841,-482],[-583,-774],[-916,-637],[-1215,-164],[-217,-182],[-474,101],[-1274,-283],[-275,-418],[-575,-328],[-1415,200],[-966,-227],[-283,-291],[-1898,518],[-15420,4314],[17,392],[-442,154],[-7318,8564],[-4546,55],[-1199,-13306],[-10175,-8737],[300,3559],[-13155,1074],[-10233,63],[-10232,419],[-167,-2339],[3863,-327],[-907,-13361],[-5096,392],[-491,-9775],[-225,-3467],[6378,-583],[-741,-8591],[-1082,-12660],[-11848,1120],[-1133,346],[-1232,-15336],[-708,-8018],[8085,-700],[4188,-4605],[749,1474],[383,956],[-141,309],[616,610],[1274,437],[632,664],[608,255],[59,255],[457,264],[2540,-5197],[-1216,-14043],[2157,-146],[-158,-3103],[1398,-127],[-1015,-11104],[-1324,-14416],[-12606,0],[-13388,-9],[-13388,0],[-13389,0],[-13388,0],[-6694,0],[-13388,0],[-6695,0],[-13379,-9],[-6695,0],[-6702,-9],[-6686,9],[-6694,0],[-8543,0],[-11531,-9],[-13380,0],[-13380,0],[-13380,-9],[-13380,0],[-13371,0],[-13380,0],[-8893,0],[-8,6607],[0,13224],[-8,13224],[0,6607],[0,13215],[0,13224],[0,13214],[0,13224],[0,13215],[0,6607],[0,13224],[-9,6607],[0,13224],[0,6607],[0,13224],[0,13223],[0,13215],[-8,13078],[0,6762],[-8,13224],[-9,6607],[0,13224],[-8,13224],[-8,9256],[0,5815],[-17,11376],[-8,7936],[0,11886],[0,6608],[-9,11904],[0,6607],[-8,8227],[-8,12933],[-9,13224],[0,8418],[-8,12751],[-8,11904],[-17,13223],[0,13233],[-8,6617],[-9,13223],[0,13233],[-8,13233],[-8,7517],[0,12323],[-8,13233],[-9,13233],[-8,13233],[-8,13233],[-9,13232],[0,13242],[-8,6617],[-8,13233],[-9,13242],[0,13232],[0,7536],[17,8783],[-8,10147],[-9,13224],[-8,13233],[-8,3695],[-9,12168],[0,7945],[-8,17210],[0,11904],[-8,13233],[-9,13224],[-8,11785],[-25,18703],[0,21578],[0,7481],[-8,13233],[-9,13233],[-8,13242],[0,14243],[791,-801],[1091,-691],[899,-820],[100,-491],[816,-319],[416,-282],[533,-646],[791,-1583],[1582,-1120],[191,-246],[-16,-436],[374,9],[833,-920],[1116,-1055],[499,-583],[1099,-673],[1241,-856],[816,-382],[349,-328],[-83,-637],[500,146],[641,-510],[808,-518],[1323,-719],[850,-392],[1607,-609],[1207,-365],[2356,-573],[475,-182],[1224,-1174],[749,-446],[1449,-464],[416,-346],[874,264],[42,373],[2581,-64],[441,-127],[1690,-810],[1191,-682],[974,-838],[1008,-573],[449,0],[458,173],[824,54],[633,-72],[441,-483],[458,-27],[1058,-473],[616,-64],[175,328],[374,91],[1616,-201],[1532,-27],[691,-209],[266,391],[2814,219],[658,-137],[133,118],[1424,310],[708,63],[1407,246],[241,200],[392,-273],[324,-18],[1091,-346],[350,-300],[774,-1056],[483,-391],[1707,-874],[1815,-691],[1299,-401],[266,-318],[442,-55],[1357,-610],[466,-482],[1291,-655],[1074,-410],[1748,-491],[1024,-246],[425,-182],[366,-546],[575,-410],[882,-427],[2040,-492],[858,-246],[591,-91],[1723,128],[1066,-328],[558,-237],[1632,-291],[1165,-145],[1574,-128],[158,-236],[766,-219],[500,-573],[366,428],[491,-164],[1316,-938],[466,-245],[608,-164],[58,-555],[-291,-228],[-317,-601],[184,-182],[66,-655],[367,-928],[566,-765],[2015,-1501],[766,-1657],[1107,-1447],[300,18],[866,-436],[766,-483],[2073,-655],[608,-118],[724,-428],[-308,-1110],[-525,-947],[-216,-710],[-292,-1474],[-41,-1029],[75,-600],[408,-1511],[58,-537],[183,-446],[25,-564],[200,-528],[200,-1256],[200,-2102],[324,-765],[17,-446],[541,-1146],[58,-574],[167,-100],[400,-1101],[716,-1447],[449,-1283],[683,-1265],[441,-1074],[208,-1193],[292,-291],[766,-1438],[358,-273],[1365,-1420],[367,-200],[1057,-764],[2348,-1493],[183,-300],[317,-27],[682,-346],[958,-647],[916,-200],[1215,-500],[392,-346],[940,45],[925,-45],[1065,36],[1174,155],[1616,0],[716,-155],[524,-346],[1624,-891],[649,-574],[1174,-282],[1124,-537],[1549,-1174],[949,-1065],[741,-437],[1307,-646],[666,-673],[825,-947],[141,-382],[-591,-18],[-341,-173],[1065,-664],[875,-237],[224,-319],[317,82],[424,-318],[442,109],[416,-182],[525,-419],[349,-1037],[250,-510],[408,-382],[-42,-364],[442,82],[233,-483],[574,-582],[1282,-592],[408,-473],[642,-528],[699,-73],[1382,-491],[575,18],[1507,-346],[133,-118],[799,18],[33,-418],[517,-37],[483,246],[932,-410],[300,-491],[308,-118],[383,-455],[408,-55],[366,227],[158,-391],[-166,-546],[1698,328],[1049,-119],[542,-427],[366,63],[450,610],[691,-127],[766,391],[624,-364],[133,-410],[916,-910],[17,-382],[-425,-409],[-25,-792],[966,18],[-308,337],[166,518],[317,-36],[2847,-1347],[1774,-601],[358,-45],[1132,-400],[1199,-656],[575,-491],[183,-528],[-783,-428],[300,-218],[-42,-1001],[175,-519],[375,-701],[1082,-1329],[1257,-1155],[808,-592],[841,-519],[1182,-391],[1974,-464],[1190,-91],[3755,-82],[2823,391],[1523,437],[1074,191],[392,-155],[175,192],[990,273],[783,36],[508,209],[1282,255],[458,-36],[550,-383],[1007,437],[1674,437],[566,73],[591,-109],[474,209],[750,100],[491,-45],[408,145],[1490,328],[408,146],[1557,81],[1740,219],[1316,500],[1823,446],[1657,829],[1507,819],[675,655],[982,346],[458,355],[408,-64],[358,-273],[2207,309],[1598,537],[1565,592],[1599,992],[1257,1219],[525,274],[516,45],[933,355],[516,-9],[699,546],[425,118],[424,364],[891,546],[1840,1375],[1382,1428],[558,710],[1099,965],[192,428],[424,182],[633,500],[708,155],[441,273],[375,492],[200,36],[849,-400],[475,18],[341,-246],[325,136],[258,374],[324,791],[1266,1284],[891,528],[0,354],[1673,465],[1599,728],[400,27],[1099,601],[591,892],[974,1028],[450,1256],[849,1229],[125,309],[782,1138],[184,100],[724,983],[42,637],[358,628],[91,700],[333,983],[17,583],[483,1765],[-25,865],[108,874],[375,1192],[8,1056],[217,163],[191,1675],[33,837],[283,1648],[284,664],[532,892],[167,473],[-167,209],[50,592],[625,1001],[649,328],[-8,1101],[649,1720],[250,346],[-108,637],[533,3631],[8,392],[-200,300],[250,628],[-191,1447],[-300,1065],[116,1101],[-291,200],[-150,574],[275,1510],[266,1020],[516,1447],[450,664],[824,1647],[833,910],[1390,1211],[758,801],[824,965],[1874,2502],[857,1338],[1307,2294],[442,1064],[250,865],[108,2020],[358,1147],[208,100],[549,-264],[442,91],[41,483],[-549,-28],[-42,355],[533,-109],[383,118],[799,446],[775,628],[1940,1857],[891,1010],[1615,1975],[641,846],[1049,1657],[550,992],[324,300],[1149,2312],[442,1329],[316,2448],[341,1547],[283,919],[100,1019],[225,592],[450,464],[0,264],[516,1201],[291,364],[525,228],[499,-64],[333,-628],[367,683],[25,864],[674,1420],[575,1311],[291,792],[941,1847],[216,983],[67,764],[-175,1457],[-466,1083],[-749,892],[-259,527],[17,1220],[200,673],[741,674],[117,937],[449,783],[550,1247],[458,764],[224,619],[475,1620],[-17,328],[833,2830],[17,355],[474,1247],[308,1684],[192,1283],[-217,655],[183,874],[500,1156],[2306,3804],[733,1329],[833,1246],[749,1475],[1174,2493],[574,1484],[200,974],[-200,992],[-932,1629],[-267,810],[-466,965],[-591,2357],[-774,2657],[-67,473],[-474,1702],[-642,1793],[-66,555],[424,383],[525,282],[341,773],[0,228],[542,1074],[607,1638],[342,1474],[283,2185],[325,3476],[33,883],[258,3986],[158,1802],[100,719],[333,1520],[416,2439],[59,655],[416,1475],[883,3959],[366,1765],[999,4087],[408,1410],[541,1493],[433,555],[558,209],[125,801],[558,237],[233,-537],[399,-73],[-657,-883],[-600,-555],[34,-664],[291,-100],[0,573],[524,409],[225,-154],[158,-646],[-358,-164],[34,-264],[558,-264],[191,218],[550,-282],[258,-373],[533,0],[-9,437],[-491,73],[-42,764],[850,-73],[-75,446],[374,164],[250,-355],[383,-145],[525,145],[208,-155],[-8,-473],[666,73],[-242,-582],[-58,-692],[574,-346],[192,382],[733,401],[433,0],[183,619],[458,-219],[483,91],[433,-409],[58,-364],[449,-565],[1091,-91],[741,-364],[158,-309],[908,246],[13338,-1238],[14438,-1311],[1890,10521],[-300,537],[-650,491],[-116,383],[-941,1028],[-183,428],[-375,282],[-599,182],[-109,537],[-416,464],[-499,109],[-400,647],[8,637],[308,409],[1041,537],[550,1338],[433,901],[616,-200],[699,-419],[974,-209],[450,-310],[924,-446],[549,-591],[467,64],[5711,17164],[8293,-14325],[3947,-6871],[24562,-2457],[9574,-947],[134,1593],[1307,11977],[14304,-1120],[11090,-855],[-1065,-13306],[-4705,419],[-1057,-13188],[-9209,592],[-807,-12678],[-5312,428],[-875,-13542],[-5436,-5279],[-708,-5679],[741,-337],[466,-664],[391,-919],[633,-1101],[958,-974],[957,-519],[691,-273],[691,-82],[850,0],[624,-328],[408,-491],[958,-883],[1007,-1219],[641,-637],[-8,-228],[-3597,-5570],[-5146,3713],[-3422,-5305],[-1382,-11231],[-2731,-22170],[-1965,-23089],[-1257,-14626],[-7210,-10493],[508,-446],[100,-337],[599,-437],[358,-36],[416,-346],[508,-73],[383,-227],[242,-710],[291,-191],[-50,-373],[416,-355],[50,-255],[575,-683],[974,-528],[92,-318],[549,-282],[974,-1056],[250,-145],[391,-756],[550,-118],[200,-319],[1091,-145],[466,118],[-3297,-4660],[-8285,-11704],[-5079,6289],[-13788,-13305],[775,-501],[749,-237],[1058,-163],[932,45],[683,-346],[349,-555],[750,-519],[508,-45],[558,-446],[91,-273],[541,-492],[333,-855],[408,-610],[-16,-409],[-7435,-6772],[-10042,12005],[-3788,-3359],[-9542,12787],[-566,-519],[-8792,-7826],[4279,-5470],[-9250,1183],[258,3331],[-12680,1138],[-308,-3459],[-12523,1329],[-716,-8282],[-591,-6835],[-2031,173],[-333,-6243],[5004,-291],[-442,-6326],[-924,-582],[-708,-537],[-774,-155],[-458,583],[-433,337],[-874,163],[-708,-63],[-1024,-310],[-233,100],[25,719],[-183,219],[-783,82],[-766,-119],[-874,1029],[-949,-319],[-1041,-14762],[13638,-1046],[-175,-2603],[-6078,382],[-83,-1192],[-317,-5342],[567,236],[424,0],[-416,-4832],[-9450,946],[175,2139],[-6986,710],[-649,-8910],[-3772,264],[-524,-210],[-350,-873],[-183,-273],[150,-610],[-84,-519],[333,-664],[42,-410],[316,-691],[67,-701],[-58,-428],[-450,-928],[-75,-838],[625,-609],[233,245],[849,-282],[433,-782],[325,82],[283,-310],[841,-437],[75,-355],[491,-810],[-25,-482],[258,-209],[75,-565],[-100,-719],[358,-655],[649,73],[267,-237],[25,-382],[366,-291],[167,-683],[-50,-409],[191,-419],[-191,-291],[141,-528],[616,-610],[-133,-628],[142,-701],[-208,-436],[266,-182],[217,-738],[-34,-354],[1291,-756],[291,-874],[658,-373],[8,-291],[383,-937],[608,-119],[358,-318],[108,-819],[167,-392],[449,-600],[558,-228],[192,-637],[-108,-637],[116,-400],[-275,-583],[733,-500],[250,-328],[691,-127],[158,-273],[-108,-729],[291,-937],[-333,-228],[17,-491],[-408,-255],[33,-446],[-225,-382],[400,-719],[-475,-409],[0,-465],[533,-710],[-133,-609],[-608,-55],[-466,-473],[67,-865],[-159,-346],[209,-382],[-59,-646],[225,-1019],[-8,-474],[349,-200],[533,-719],[134,-619],[-300,-236],[-416,-64],[158,-783],[-125,-245],[208,-665],[441,-318],[192,-592],[-50,-637],[100,-300],[-300,-392],[1315,-964],[4580,-464],[-500,-5088],[16161,-1765],[5354,-619],[5795,-546],[-883,-10257],[-1099,-13051],[-2664,237],[-1341,-13424],[-932,109],[91,-710],[267,-273],[-167,-528],[133,-710],[325,-54],[-116,-392],[507,-291],[192,-419],[400,-9],[616,-464],[308,91],[358,-227],[1199,9],[891,-182],[807,327],[616,-154],[358,100],[508,-319],[641,-1010],[400,-182],[541,-583],[1124,10],[458,-455],[383,-101],[450,-600],[724,-137],[750,128],[741,10338],[13321,-1037],[866,10120],[15420,-1365],[200,2175],[3955,-236],[-1432,-15463],[6302,-683],[109,1229],[9650,-1047],[124,2267],[3905,-355],[-1465,-16828],[-724,-8100],[1740,-173],[116,1265],[13688,-1074],[3639,-273],[-1058,-13051],[1457,-109],[-616,-6571]],[[304400,994548],[50,-1147],[999,-1293],[616,-719],[267,-582],[899,36],[166,519],[300,355],[500,128],[816,-647],[341,-391],[291,246],[400,-37],[192,-227],[-117,-492],[-574,110],[-200,-346],[399,-237],[400,373],[458,-282],[-291,-646],[208,-1110],[349,18],[308,-255],[858,264],[991,-182],[150,446],[574,-82],[225,-355],[441,100],[317,-127],[366,154],[400,-109],[191,-373],[1549,419],[-17,291],[1166,455],[383,-346],[699,401],[425,109],[533,418],[533,-136],[241,109],[475,-9],[674,137],[400,-119],[149,246],[542,309],[374,-109],[658,446],[458,155],[541,-164],[716,109],[158,355],[408,82],[533,-91],[333,-300],[358,54],[1066,1393],[683,291],[275,246],[391,-73],[499,146],[442,309],[874,-36],[674,391],[234,-246],[666,-73],[1215,865],[392,46],[674,455],[516,200],[500,-273],[316,273],[1033,255],[8,491],[1832,1092],[424,464],[-16,182],[524,701],[33,391],[941,1138],[533,892],[208,-100],[-108,-573],[158,-328],[-1215,-1238],[-34,-555],[-1024,-701],[-641,-983],[-358,0],[-333,-209],[-541,-764],[-566,-210],[-383,-573],[-375,54],[-741,-163],[-333,54],[-383,-282],[-491,-55],[-533,-491],[-317,-64],[-183,-318],[-966,-237],[-441,137],[-474,564],[-533,-282],[-491,-428],[-558,-200],[-350,-291],[-458,-164],[-416,-328],[-866,-164],[-408,19],[-541,-683],[-508,-73],[-242,319],[-424,72],[-533,-154],[-83,-319],[-1099,-63],[-217,127],[-425,-118],[-682,-465],[-292,128],[-458,-209],[-266,-355],[-441,145],[-500,-245],[-708,100],[-291,-110],[-383,64],[-575,-355],[-1115,-537],[-383,355],[-591,-173],[-550,-300],[33,-282],[-849,-319],[-724,-145],[-317,482],[-424,64],[-217,-191],[-158,145],[-391,-200],[-342,200],[-491,73],[-408,-473],[-624,245],[50,-609],[-450,-91],[-250,391],[-591,36],[-41,273],[-617,228],[-233,865],[-250,291],[275,227],[-100,282],[-466,-72],[-325,154],[-16,738],[-283,418],[-408,-145],[-67,491],[-316,319],[-333,-19],[-375,-318],[-200,-555],[-982,-137],[-633,865],[-974,937],[-467,182],[-399,574],[-92,446],[158,764],[450,137]],[[154282,849378],[407,254],[650,-9],[358,109],[391,401],[-116,646],[558,310],[174,-374],[766,-318],[-674,-464],[-458,-546],[-416,36],[-591,-391],[-134,-401],[-266,-154],[-458,782],[-191,119]],[[153840,845419],[42,63],[41,-27],[-49,-73],[-34,37]],[[153732,845227],[58,55],[-16,-73],[-42,18]],[[152441,845792],[675,537],[491,-264],[-624,-264],[-542,-9]],[[150568,865386],[533,-273],[-200,-309],[-333,582]],[[150976,864076],[67,100],[66,-109],[-133,9]],[[142084,866578],[583,246],[316,528],[58,764],[425,656],[758,-119],[308,-382],[-133,-509],[108,-956],[408,-537],[-167,-582],[67,-765],[-117,-728],[-491,491],[-33,237],[-383,218],[-550,-118],[-374,64],[-558,828],[-225,664]],[[97065,854310],[658,619],[558,382],[491,546],[841,701],[757,510],[816,755],[542,992],[41,383],[-333,500],[650,983],[-117,428],[899,528],[575,464],[349,464],[167,919],[-175,337],[591,282],[591,446],[683,237],[1266,855],[965,582],[642,938],[324,328],[625,336],[516,9],[808,-364],[641,-82],[1207,319],[699,409],[325,-536],[866,-428],[158,373],[-982,355],[-117,127],[342,565],[1382,100],[591,-46],[1140,391],[1841,164],[624,-200],[1241,-55],[940,64],[908,246],[616,328],[17,273],[657,309],[250,455],[1074,537],[1616,610],[757,355],[675,418],[241,455],[-91,510],[449,127],[600,528],[566,-391],[1074,-300],[1682,-173],[1224,-282],[990,-1557],[725,-482],[716,-637],[816,-1101],[707,-455],[808,-119],[933,64],[483,-200],[233,-455],[-208,-592],[166,-473],[483,200],[341,-64],[225,-782],[408,-182],[300,-929],[-250,-718],[58,-1284],[-141,-355],[266,-273],[683,-336],[166,-1011],[-482,-163],[-433,45],[-1024,-91],[-125,846],[-400,556],[-924,136],[-1108,-118],[-408,-510],[-757,-155],[-333,-464],[-458,55],[-508,-191],[-358,-373],[-666,-292],[-1699,-1265],[-233,328],[58,473],[-399,392],[25,873],[-750,364],[-83,637],[-200,401],[375,819],[-208,409],[-491,392],[-783,282],[-283,291],[-117,537],[350,255],[-142,309],[-1498,-655],[-133,-619],[-325,-655],[-441,-319],[-192,-318],[275,-310],[-183,-455],[-958,128],[-508,-82],[-324,373],[-392,18],[-391,-255],[-558,-746],[-982,-73],[-17,292],[-375,63],[-499,-528],[-50,-473],[241,-73],[616,-710],[283,-509],[625,-155],[624,91],[467,191],[707,-18],[134,-155],[108,-928],[-108,-464],[-633,-637],[-9,-728],[-482,45],[-109,410],[-324,355],[-59,437],[-516,382],[-741,-82],[-683,-310],[-1157,-882],[-250,-765],[816,-127],[475,-273],[108,-401],[-400,-1492],[450,-665],[8,-373],[-549,-1028],[-408,-91],[-417,164],[-657,-19],[-850,-227],[-83,-391],[275,-82],[150,-501],[424,-364],[284,-564],[-109,-464],[-8,-947],[-699,-237],[-167,-218],[-383,146],[-1632,82],[183,628],[-582,800],[8,264],[-491,910],[-333,346],[-483,128],[-766,1083],[-542,236],[725,692],[-483,146],[-600,600],[-566,219],[-250,-100],[59,-428],[799,-674],[33,-327],[-449,-46],[233,-682],[8,-1375],[75,-391],[700,-783],[-267,-618],[-749,-719],[-283,-619],[191,-583],[-216,-218],[-683,783],[-833,218],[-83,-264],[441,-473],[-58,-546],[-474,-519],[-825,-664],[-574,-647],[-275,-54],[-666,-1183],[-250,-628],[-208,-37],[-550,546],[-308,-82],[-641,-436],[-433,-428],[-599,200],[-566,-100],[-508,182],[-325,546],[-1107,91],[-633,-136],[-883,-510],[-283,-64],[-233,455],[-8,392],[-250,764],[-450,464],[-707,173],[116,737],[558,592],[-108,255],[-724,-501],[-217,-1001],[-500,-36],[-308,1246],[184,692],[-50,646],[-325,892],[-258,210],[-791,-137],[-591,173],[-566,-127],[-334,172],[-308,710],[-33,856],[-350,901],[-349,409],[283,455],[499,546],[200,574],[-108,673]],[[133275,808614],[866,64],[774,537],[50,564],[-166,573],[466,510],[183,583],[300,218],[66,482],[-166,574],[191,446],[666,-364],[392,-647],[91,-354],[-458,-401],[-75,-409],[-341,-401],[-799,-1593],[-500,-901],[-125,-400],[150,-510],[92,-973],[-791,27],[-600,792],[-125,1410],[-141,173]],[[116498,811290],[916,-164],[716,64],[857,418],[883,1165],[1024,556],[575,555],[216,955],[-92,337],[300,865],[508,27],[758,-164],[183,300],[624,192],[575,582],[333,528],[-58,419],[158,673],[-208,528],[141,482],[-299,910],[299,64],[225,-264],[616,-318],[108,-510],[259,-437],[1099,-1256],[741,-610],[591,-646],[408,-610],[433,-318],[674,45],[-150,-473],[-408,-601],[142,-928],[491,-1201],[233,-401],[874,-773],[292,-847],[-600,-45],[-624,-228],[-633,-427],[-200,82],[-1074,-82],[-1424,-474],[-408,-628],[-391,-400],[-166,-382],[-458,291],[-625,182],[-1066,-100],[-482,282],[-125,528],[191,637],[-283,400],[-1066,46],[-1940,-555],[-391,73],[-425,-246],[-158,-719],[-333,-555],[-75,-383],[350,-382],[-974,64],[-242,264],[-75,792],[-757,691],[-25,637],[-342,574],[-216,919]],[[129711,808350],[550,-427],[-408,-456],[42,-546],[-392,64],[0,428],[300,500],[-92,437]],[[120653,847712],[358,173],[383,501],[866,345],[216,228],[475,-109],[333,-574],[50,-382],[-333,-237],[-500,-946],[-108,-601],[-550,-327],[-366,-355],[-833,91],[-283,200],[50,537],[-216,127],[458,1329]],[[123125,854228],[67,0],[-8,-36],[-50,9],[-9,27]],[[121827,848913],[108,64],[-17,-64],[-91,0]],[[121419,849359],[283,-72],[-183,-219],[-100,291]],[[114083,812491],[725,73],[1065,-446],[-474,-173],[-1266,319],[-50,227]],[[115124,815986],[267,109],[75,228],[-9,182],[108,-55],[-108,-300],[-108,-118],[-225,-46]],[[115207,851553],[209,382],[191,-492],[-400,110]],[[114566,818625],[383,-391],[-75,-146],[-208,219],[-100,318]],[[113759,822985],[249,-137],[-74,-173],[-167,82],[-8,228]],[[107714,842097],[599,-519],[-183,-273],[-158,319],[-258,145],[0,328]],[[106973,885836],[50,37],[67,-46],[-59,-64],[-58,73]],[[105399,819663],[683,127],[350,-246],[66,-455],[-216,-182],[-799,19],[91,345],[-175,392]],[[106299,885381],[516,-109],[-283,-492],[-233,601]],[[100853,818207],[525,36],[491,-710],[541,-327],[350,-528],[1057,-710],[283,-637],[633,-765],[974,-737],[-1115,-127],[16,464],[-449,455],[-808,-182],[-424,282],[-275,391],[-300,783],[-425,36],[-308,-209],[-224,1065],[-400,537],[-208,482],[66,401]],[[104675,888885],[142,-18],[-50,-228],[-109,164],[17,82]],[[99937,819435],[400,37],[8,-182],[-408,145]],[[95783,846611],[524,710],[1616,1347],[516,-64],[541,-209],[333,-401],[-216,-1238],[-300,-491],[-25,-300],[333,-1020],[91,-582],[-666,-819],[-557,-27],[-492,-365],[-399,-500],[-75,-346],[158,-664],[-749,73],[-517,-137],[-541,-419],[-50,337],[233,510],[350,1292],[-283,1065],[-233,282],[-34,601],[359,728],[83,637]],[[97157,842415],[74,18],[150,-491],[-108,118],[-125,246],[9,109]],[[96441,839257],[41,55],[117,36],[-42,-63],[-116,-28]],[[96274,838593],[8,0],[0,-55],[-25,-54],[9,63],[8,19],[0,27]],[[91470,835608],[2747,1165],[375,309],[308,-237],[292,-846],[674,-446],[266,-428],[-432,-582],[-425,146],[-466,-10],[-367,155],[-566,-300],[-233,155],[-358,-510],[-183,45],[-741,-336],[-750,-847],[-266,774],[-83,728],[324,692],[-116,373]],[[95991,834670],[8,0],[9,-9],[-9,0],[-8,9]],[[95358,840804],[258,137],[242,-564],[-483,18],[-17,409]],[[95167,837965],[25,-9],[66,-18],[9,-19],[-50,10],[-17,0],[-33,36]],[[94775,837801],[17,18],[0,-9],[-8,-9],[-9,0]],[[93693,831540],[25,-19],[25,-118],[-17,9],[0,27],[-33,101]],[[88048,828955],[458,300],[175,-318],[732,-446],[275,-783],[-241,-164],[-367,510],[-391,45],[-483,510],[-158,346]],[[88464,830620],[500,501],[166,-73],[75,-619],[-583,-355],[-158,546]],[[383622,580352],[-125,-1410],[16061,-1484],[15062,-1374],[4621,-392],[13955,-1301],[4337,-400],[583,737],[408,-64],[333,-373],[375,-692],[408,-200],[866,628],[258,482],[91,1320],[733,1220],[616,1528],[408,574],[541,428],[1316,673],[308,401],[433,1010],[350,173],[441,-55],[1357,-764],[425,-110],[857,119],[933,1438],[33,955],[-58,883],[333,127],[408,455],[857,528],[317,-245],[1074,355],[350,-192],[807,-63],[292,655],[533,264],[366,837],[316,164],[367,446],[1965,828],[957,592],[666,764],[317,974],[-175,1247],[-283,701],[507,355],[791,364],[1016,382],[1174,-437],[1307,-819],[1208,-1029],[283,-427],[608,-510],[832,-1329],[408,-773],[991,-2439],[141,-255],[2307,-2175],[616,-337],[1948,-874],[400,9],[2739,1065],[1582,-418],[1482,-583],[1973,-855],[1774,-1074],[2289,-1174],[2273,-601],[3681,282],[2422,282],[1075,319],[790,482],[683,219],[966,-82],[766,-219],[974,100],[1008,-27],[299,73],[858,582],[1224,1557],[1324,1292],[791,1192],[524,-27],[949,-346],[1408,-328],[1223,-136],[758,328],[375,400],[574,-18],[1266,573],[641,-9],[824,-173],[1274,-801],[208,-1092],[442,-546],[582,-273],[833,-218],[791,-355],[483,-574],[1174,-792],[424,255],[617,674],[757,1301],[591,792],[567,237],[940,637],[525,-9],[1091,637],[258,236],[308,3258],[266,3022],[3522,-373],[566,7062],[1491,-564],[1490,-55],[5270,-955],[1641,-610],[574,7008],[9442,-1202],[583,5925],[1632,-173],[133,1356],[291,792],[600,810],[10024,9793],[1749,-2175],[5020,4086],[-632,273],[-1108,91],[-508,-127],[-832,-455],[-1665,1292],[-4921,11940],[-1299,1065],[-142,828],[791,5470],[1158,1338],[5736,4569],[-3738,4823],[5245,4405],[-66,464],[-250,255],[183,400],[-75,455],[-358,128],[75,591],[-874,1020],[-433,-73],[-774,-610],[-417,373],[-591,738],[-616,0],[-200,300],[-383,9],[-483,300],[-108,847],[250,455],[-433,437],[3780,3767],[-1915,2085],[-9367,1073],[700,5279],[1348,13215],[125,10229],[5279,-582],[433,-847],[83,-346],[1091,-2357],[899,-100],[242,-118],[499,82],[1640,-118],[1449,-1138],[433,237],[1016,27],[741,-273],[508,200],[466,9],[-300,-2776],[-583,-728],[-591,-2912],[325,-1129],[-391,-3704],[3638,-382],[-183,-1875],[3822,-446],[-292,364],[-33,546],[183,710],[-58,337],[2456,-264],[-358,592],[375,764],[149,655],[-149,437],[291,182],[108,-600],[367,-383],[324,419],[-125,755],[442,328],[266,-246],[183,-1001],[242,-801],[383,-136],[83,-446],[-100,-774],[5470,-564],[367,-382],[-50,-1020],[175,-172],[-67,-510],[275,-328],[-142,-828],[841,-519],[425,82],[616,-91],[316,-546],[500,73],[391,-573],[883,-55],[533,264],[699,582],[333,146],[649,-155],[475,-619],[8,-436],[-224,-355],[383,-155],[441,182],[-25,646],[683,1147],[674,682],[58,656],[183,318],[1016,1274],[67,364],[399,501],[425,64],[142,1438],[-866,91],[-142,491],[500,810],[633,-64],[-309,701],[25,2121],[-191,236],[266,1393],[-474,564],[-450,164],[-658,755],[-208,774],[-41,746],[208,237],[-200,446],[-1049,-255],[-450,264],[-391,45],[-350,455],[-116,646],[183,192],[-233,409],[166,865],[267,-46],[208,419],[683,-601],[624,0],[258,1110],[641,510],[2315,-255],[66,164],[6054,-664],[-667,-6580],[2207,-246],[-600,-865],[1874,-1428],[-408,-801],[5037,-6526],[2181,-3140],[542,474],[8700,-1038],[558,10421],[10208,-1374],[7701,-1038],[-166,746],[-516,847],[574,227],[1091,228],[358,382],[-266,746],[574,-346],[291,665],[383,-46],[234,455],[666,637],[-42,674],[275,155],[191,500],[-416,874],[58,573],[1116,-127],[-799,564],[-175,674],[399,172],[558,-509],[558,54],[566,428],[442,-746],[383,-91],[249,200],[-141,337],[16,682],[1083,364],[-167,483],[159,236],[374,-18],[666,-782],[-91,-756],[-183,-246],[233,-473],[566,-355],[599,446],[500,-373],[741,137],[749,-91],[741,309],[442,-18],[216,227],[341,-291],[167,-382],[574,255],[383,427],[583,283],[874,810],[9,236],[649,665],[208,-19],[858,774],[341,-73],[1158,564],[1207,-2739],[1024,-137],[525,46],[266,-155],[699,301],[750,18],[657,227],[142,201],[824,-55],[500,-209],[849,336],[808,-782],[233,373],[283,-228],[1798,-755],[900,236],[632,-982],[641,-328],[-191,-519],[33,-500],[267,-574],[-675,-673],[-175,-701],[200,-319],[608,-9],[267,-191],[249,-883],[566,-846],[9,-500],[358,-182],[291,-410],[-441,-446],[-108,-528],[141,-555],[383,-601],[1366,-418],[766,-419],[716,-155],[757,128],[825,-355],[391,-310],[75,-464],[241,-227],[625,364],[-17,427],[392,228],[333,-64],[624,483],[291,755],[1149,1283],[475,419],[966,-255],[799,-9],[2157,-464],[1681,-91],[8351,-9],[7277,-9],[12456,-9],[8518,0],[22005,36],[0,-7590],[23330,-19],[26485,19],[533,-1338],[483,-574],[291,-591],[8077,-3595],[1049,-528],[10765,-3149],[1324,-519],[4904,-4268],[874,-346],[883,-564],[400,-1201],[2439,-2712],[3905,-1748],[2956,-2148],[4254,228],[3855,-1447],[15095,-7017],[2723,-1929],[308,-337],[3056,-1748],[674,-109],[591,-673],[10866,-4032],[141,-209],[11265,-4014],[17901,-3194],[617,-774],[3313,-5861],[275,-309],[4388,-865],[524,-273],[433,-473],[5579,-1220],[18983,-7681],[7935,-3213],[18450,-11294],[800,-346],[17434,-13315],[425,-664],[391,-118],[667,-637],[5903,-2248],[2772,-3313],[1807,-1183],[-83602,-73],[-20906,9],[-20816,0],[-20815,0],[-20815,0],[-13430,-9],[-10066,9],[-3871,-8582],[-658,-1666],[-4629,983],[-483,73],[-2124,-309],[-799,-574],[-1607,-200],[-191,-227],[-375,63],[-383,-291],[-158,-610],[158,-154],[100,-765],[-666,-255],[-267,-337],[-391,-136],[-499,-537],[-600,-346],[225,-655],[-100,-1411],[-1532,182],[-491,-4741],[108,-665],[-200,-182],[-458,-4441],[84,-9],[-1066,-10384],[-6286,700],[-467,82],[467,938],[-84,555],[-358,237],[-582,136],[-1008,537],[-866,173],[-758,-219],[-832,346],[-799,173],[-575,246],[-316,437],[-417,874],[-824,509],[-250,419],[-16,491],[374,610],[-283,137],[-1174,-510],[-607,-519],[-467,-218],[991,-1602],[716,-1702],[67,-391],[-167,-592],[-691,-1228],[-291,-783],[-475,-1556],[-33,-1011],[350,-819],[1074,-1884],[349,-955],[375,-1502],[108,-919],[475,-1729],[133,-920],[175,-3676],[-58,-1102],[-192,-1083],[-674,-1738],[-100,-828],[133,-673],[450,-1065],[374,-1502],[325,-946],[533,-1020],[899,-955],[624,-355],[675,-719],[33,-619],[-216,-1156],[-217,-792],[-300,-446],[-666,-355],[-907,-236],[-941,-446],[-674,-537],[-225,-291],[-275,-829],[-333,-1474],[100,-673],[766,-1557],[8,-600],[-141,-383],[-900,-892],[-308,-618],[-141,-1065],[-267,-701],[-33,-764],[-416,-437],[-625,-64],[-241,-173],[-508,-655],[-558,-537],[-824,-1047],[-566,37],[-550,236],[-458,446],[-657,-18],[-417,-947],[-1115,-609],[-200,-483],[-641,-437],[-167,155],[-450,-382],[-58,-1110],[-583,-510],[-532,-1001],[-125,-710],[-300,-564],[-283,-228],[-625,-9],[-1290,974],[-741,309],[-1033,164],[-508,-82],[-582,-364],[-242,-273],[-782,-764],[-492,-100],[-599,400],[-683,1684],[-583,427],[-508,-127],[-316,-300],[-458,-46],[-533,146],[-458,273],[-533,500],[-166,374],[-100,655],[-391,264],[-383,54],[-808,-300],[-2181,-946],[-275,-355],[-50,-519],[91,-492],[525,-1328],[525,-829],[-25,-591],[-234,-401],[-574,-391],[-916,-218],[-291,-765],[-34,-391],[300,-1238],[92,-1101],[-59,-628],[-216,-719],[-17,-837],[-166,-310],[-1341,-928],[-408,-182],[-974,-109],[-583,-201],[-283,-373],[-125,-1201],[-150,-555],[-316,-537],[-724,-328],[-1083,-91],[-999,-901],[-408,-45],[-449,437],[-358,36],[-450,-637],[-366,-856],[83,-564],[433,-1056],[25,-537],[375,-973],[-150,-1156],[-400,-701],[17,-309],[799,-1356],[-316,-829],[75,-646],[-742,-901],[-58,-646],[242,-683],[599,-1083],[200,-719],[75,-791],[533,-1302],[258,-773],[-33,-555],[158,-610],[483,-619],[-117,-746],[-1099,-1366],[-441,-400],[-283,-546],[-42,-883],[258,-637],[-158,-1010],[8,-473],[-624,-756],[150,-455],[-50,-637],[-233,-919],[-275,-573],[366,-656],[525,-619],[183,-364],[8,-1319],[67,-401],[783,-1192],[174,-965],[708,-801],[-33,-273],[-1183,-919],[-174,-428],[91,-527],[575,-883],[982,-1283],[433,-374],[475,-191],[866,-27],[666,-237],[966,-491],[449,-564],[1474,-110],[616,-664],[283,-473],[-67,-956],[492,-1110],[41,-355],[-233,-1456],[-558,-665],[-824,-227],[-1041,-983],[-466,-582],[-899,-337],[-575,-847],[-133,-555],[-300,-400],[-91,-464],[-775,-628],[-1040,-446],[-333,-801],[283,-219],[-550,-837],[-25,-965],[575,-1638],[749,-964],[391,-283],[209,-901],[549,-145],[400,-437],[166,-1156],[-233,-500],[-133,-610],[-508,-410],[-408,-528],[-1024,-1046],[-583,-719],[-408,-819],[-466,-528],[-25,-300],[233,-501],[108,-628],[-333,-428],[-433,-209],[-391,-692],[-608,-673],[17,-510],[-183,-646],[-983,-1156],[-25,-528],[292,-482],[-483,-1857],[191,-828],[-83,-346],[208,-446],[-158,-828],[191,-373],[-216,-592],[-167,-45],[-6569,664],[-8401,2858],[-125,683],[-316,109],[766,1192],[-13688,1420],[-175,-1802],[225,-182],[-217,-2849],[-149,-2475],[-92,-255],[-283,-2776],[-3106,1138],[-4088,437],[-4704,8473],[483,4741],[-16336,1647],[-1515,-1274],[-3239,373],[-683,-8045],[-66,-1074],[-658,-9465],[-608,-8609],[4796,-419],[-1349,-7363],[1291,-36],[1898,-191],[5304,-364],[-159,-1293],[-699,-7826],[-67,-610],[-6519,582],[-4254,346],[-433,-2657],[-2282,300],[-724,-7363],[-2015,301],[-10524,1465],[17,409],[-3214,428],[-6037,837],[42,1721],[-12689,964],[833,10239],[8118,-1256],[849,1001],[-4097,1038],[908,3667],[957,-91],[1699,5434],[-6902,1756],[1448,7144],[883,-27],[166,2239],[225,2412],[-12122,910],[-300,-3968],[-7843,892],[-1382,-14025],[-3997,510],[-9017,1092],[-641,3167],[-7352,801],[-167,-1729],[1716,-1484],[-342,-2803],[958,-1838],[8,-556],[-500,-773],[-66,-428],[-250,-109],[125,-528],[-92,-300],[242,-273],[-2764,300],[16,164],[-6477,682],[-84,-755],[858,-974],[-175,-2949],[-10482,1120],[-483,-5488],[-625,-6234],[-11831,1247],[-375,-4824],[-3613,373],[-59,-45],[-499,-4851],[50,-27],[-591,-5761],[-1357,873],[-525,-154],[-4346,537],[-2298,218],[-6936,510],[-1498,154],[-2965,237],[109,1866],[-8659,737],[416,3977],[874,1383],[325,3313],[-12381,1256],[133,1393],[-558,3203],[-6918,719],[249,3149],[225,3750],[-141,36],[-6070,637],[25,410],[-1599,264],[-1998,91],[-924,-37],[-1541,328],[475,5861],[-9192,746],[-391,191],[-12273,810],[-25,-273],[-6061,783],[-6511,737],[966,8391],[574,5825],[-3264,318],[-6644,683],[-6686,664],[-141,-154],[-7519,782],[-24,164],[-2315,246],[-58,255],[216,2894],[666,6416],[833,8528],[807,8254],[-10232,983],[-9,-164],[-4038,401],[-8567,-7272],[-4063,-3449],[-2390,-2011],[-50,-465],[-416,-345],[-300,154],[-3763,-3458],[-891,1083],[-6694,-5752],[-2107,2548],[-1773,2221],[-5004,-4305],[-5112,-4359],[2039,-2467],[-5570,-4805],[417,5215],[-7619,701],[-166,-73],[-5620,501],[-367,-4205],[-9375,519],[-3830,200],[100,1474],[133,1183],[-8925,983],[308,4132],[-5703,701],[-7610,227]]],"transform":{"scale":[0.000012010512010512017,0.000010987810987810988],"translate":[137.9947,-25.9968]},"objects":{"qld_northern_ddmg_boundaries_gda2020_simp200m":{"type":"GeometryCollection","geometries":[{"arcs":[[[0,1]],[[2]],[[3]],[[4]],[[5]],[[6]],[[7]],[[8]],[[9]],[[10]],[[11]],[[12]],[[13]],[[14]],[[15]],[[16]],[[17]],[[18]],[[19]],[[20]],[[21]],[[22]],[[23]],[[24]],[[25]],[[26]],[[27]],[[28]],[[29]],[[30]],[[31]],[[32]],[[33]],[[34]],[[35]],[[36]],[[37]],[[38]],[[39]],[[40]],[[41]]],"type":"MultiPolygon","properties":{"District Name":"Mount Isa","DDMG Name":"Mount Isa","Area Sq Km":394919.64,"Police Region Name":"Northern Region","Police Region Code":"NR","Police Region Short Name":"Northern","Region Slug":"northern","Layer Id":"qld_northern_ddmg_boundaries_gda2020_simp200m","Layer Group":"per-region","Layer Kind":"ddmg","Source":"QPS Disaster Districts, Queensland Police Service, via the Queensland Government Open Data Portal","Source URL":"https://www.data.qld.gov.au/dataset/qps-disaster-districts","Licence":"CC BY 4.0","Licence URL":"https://creativecommons.org/licenses/by/4.0/","Dataset Date":"19/05/2025","Simplification Tolerance M":200,"Coordinate Precision Decimals":4,"CRS":"GDA2020 (EPSG:7844)","Modified":"Simplified and repackaged from the source dataset; see Source URL"},"id":"Mount Isa"},{"arcs":[[-1,42]],"type":"Polygon","properties":{"District Name":"Townsville","DDMG Name":"Townsville","Area Sq Km":175353.69,"Police Region Name":"Northern Region","Police Region Code":"NR","Police Region Short Name":"Northern","Region Slug":"northern","Layer Id":"qld_northern_ddmg_boundaries_gda2020_simp200m","Layer Group":"per-region","Layer Kind":"ddmg","Source":"QPS Disaster Districts, Queensland Police Service, via the Queensland Government Open Data Portal","Source URL":"https://www.data.qld.gov.au/dataset/qps-disaster-districts","Licence":"CC BY 4.0","Licence URL":"https://creativecommons.org/licenses/by/4.0/","Dataset Date":"19/05/2025","Simplification Tolerance M":200,"Coordinate Precision Decimals":4,"CRS":"GDA2020 (EPSG:7844)","Modified":"Simplified and repackaged from the source dataset; see Source URL"},"id":"Townsville"}]}}}