{"type":"Topology","arcs":[[[713184,142949],[-257,8113],[-6083,9144],[-2056,10560],[857,5924],[-2999,8242],[-171,7727],[-3598,5924],[-1799,8242],[3512,8758],[686,6310],[-7882,-1674],[2913,16484],[2913,1288],[1542,7727],[4797,13264],[-3427,6955],[2399,13135],[4455,38764],[2998,1030],[6939,-1416],[1371,11333],[4797,-3349],[1285,10689],[6083,3735],[-2056,3606],[1799,9787],[2398,5538],[-2484,3220],[-13792,3219],[2398,18803],[2399,5666],[5226,129],[3169,7856],[1714,13908],[-600,6053],[2142,17901],[3170,-387],[2227,19060],[-18247,3864],[2827,10946],[-343,6826],[-8395,1803],[428,4121],[-2827,5151],[-5397,4121],[1628,5409],[18504,-4121],[685,5666],[-4883,1288],[4283,25886],[-5225,6310],[-10709,2576],[1371,10431],[2056,-515],[2656,20090],[1713,5023],[-2656,5280],[2399,19575],[-2827,3348],[-26900,6439],[2228,4894],[2570,13007],[-771,9659],[2998,23953],[-6682,1546],[771,6954],[-1970,10560],[-3427,1159],[-2399,6439]],[[683628,681905],[2399,6439],[6511,12106],[-4712,7341],[-1371,7598],[-5825,6181],[600,5409],[10537,6311],[1542,7212],[7538,12234],[-4454,2962],[3769,4507],[942,6697],[4027,5538],[771,6568],[-1371,6439],[171,9530],[3256,8499],[6939,387],[7624,3606],[1285,2833],[-3084,9401],[3684,901],[8652,6568],[-7710,3864],[-5225,515],[-1628,5023],[11479,-1417],[5397,5409],[-599,7469],[2998,1674],[-2313,10432],[1028,2575],[7368,-4378],[8909,1545],[-257,5795],[11822,-1030],[4626,-5537],[8910,2318],[3169,2189]],[[781032,863618],[5055,1674],[428,-7469],[6854,-14038],[6767,-2318],[7025,3606],[3084,3349],[6082,11976],[9338,-1416],[13536,7727],[4026,-387],[2399,-11976],[-172,-9402],[4284,-6052],[3084,4636],[3427,901],[5225,-3863],[6083,4894],[3769,-773],[942,-9144],[7111,-8371],[2741,-8886],[429,-6825],[2741,-9015],[6254,-3863],[12079,3348],[8224,7083],[6339,644],[-942,-4765],[2998,-6310],[-4197,-22409],[-6768,-55247],[-3084,-32325],[-1713,-12492],[-2913,-40695],[-1457,-14553],[-685,-19961],[343,-16742],[3084,-19189],[1371,-17772],[-257,-31036],[-771,-10174],[1199,-31166],[1285,-18931],[3941,-33612],[2741,-18287],[4369,-25370],[5740,-21765],[6853,-4893],[6854,-25499],[8481,-19704],[4026,-2576],[3341,1159],[7710,-18673],[7882,-14682],[5911,-7984],[11822,-9916],[8310,1159],[6339,-1932],[-6425,-13394],[-2998,3091],[-38808,23439],[-3769,-1546],[-3855,1675],[-3855,-6182],[-3427,-902],[-8567,-16226],[-1199,-7083],[-3855,-644],[-14392,-7985],[-9852,-13651],[-5569,-3477],[-2484,-8886],[-7881,-4636],[-6939,-10174],[-5740,-11590],[-1028,-8886],[-6168,-3349],[-3084,-3734],[-5740,-3091],[-6425,-5924],[-6340,-2576],[-9766,1159],[-5825,-2704],[-6168,5666],[-1799,11848],[-3513,1288],[-7538,-3348],[-1971,1674],[-8395,-3220],[-3769,2190],[-3599,5409],[-8224,-2061],[-8052,1545],[-2570,-4893],[-4369,-773],[-4370,-6310],[-7881,-2319],[-4369,-2833],[-4969,258],[-7110,-11977],[-2399,-10947],[-11993,2190],[-9766,13522]],[[683628,681905],[-3598,-5795],[600,-3348],[-7196,-2447],[-1885,-3992],[-6511,-5409],[4969,-4379],[771,-5924],[-4540,0],[-4112,3606],[-8396,4507],[-4883,-3863],[2056,-7856],[-9423,-2060],[-1200,-3735],[-5397,6568],[-5311,-3349],[-4883,-6310],[2913,-2189],[-4798,-9788],[1799,-4507],[-771,-5538],[-4455,-12749],[343,-7212],[3684,-2189],[-1200,-4894],[4370,-6311],[-3941,-3863],[-1028,-4765],[-5569,-129],[1028,-7598],[-4026,-2060],[-1542,-6053],[-3341,-3864],[-3512,1031],[-4626,-2190],[-4712,-5537],[-19104,3734],[942,15197],[-7453,1416],[-2399,6568],[-5225,2576],[942,15067],[-1799,2576],[-11137,2061],[-1542,-773],[-1627,-10818],[-600,-14424],[-6511,1417],[-4797,4121],[-7196,1417],[-5140,4121],[-2142,-15583],[-19018,4121],[-857,10432],[-2913,1287],[-7281,19060],[3769,6826],[-1456,12620],[-3427,5924],[-1628,8886],[514,5924],[-1627,5667],[7453,4121],[-5740,10818],[-171,6696],[-5483,5023],[-6254,1030],[-5483,-2833],[-5397,-8242],[-15591,-5924],[-3770,-4894],[-2655,8242],[-10195,2061],[-1799,-3735],[-5140,1803],[-1028,-5151],[-10451,-4250],[-6168,-11075],[-4284,-2319],[-6425,1031],[-2998,-2190],[-9338,6568],[-3855,-2318],[-857,8629],[-4026,1674],[428,7469],[-2656,5796],[-9166,3605],[-857,1932],[0,14939],[2999,8628]],[[367686,694268],[8567,-1802],[1970,16226],[8567,-1803],[85,9659],[-1799,17643],[-5225,11462],[-5912,-2447],[-6939,1545],[4027,34772],[2912,4765],[9338,-1932],[600,5666],[4455,-901],[942,7598],[4540,-1030],[-599,-6568],[1799,-3864],[6425,516],[11394,-2576],[942,7984],[13193,-2962],[1199,9144],[6939,-1288],[6768,56278],[27928,-5924],[6939,53832],[-5826,11075],[9938,16613],[2056,6310],[1970,14553],[5997,-4379],[7282,-3220],[10280,-1931],[4112,-3864],[3170,-7340],[11051,-8758],[7024,-3734],[11994,-3349],[3684,258],[17904,-4250],[2399,7985],[16105,-3606],[7625,7340],[8909,-1030],[14821,8886],[-686,16999],[2485,11462],[-3256,2705],[857,4636],[5483,-902],[4026,31810],[3341,-516],[686,-257],[9766,-1932],[1028,10174],[28527,-5666],[2913,-5152],[13621,-13908],[6939,-7727],[-1799,-15068],[-5054,1030],[-1714,-13779],[7282,128],[771,-5408],[3769,-3091],[5397,1545],[11223,-2189],[1456,-5023],[25786,-5280],[86,2447],[13707,-2962],[-343,-4121],[6853,-1545],[343,-2705],[14564,-2962],[2398,-20348],[-1456,-11590],[1114,-4894],[5397,129],[-1714,-8242]],[[713184,142949],[-6768,-4636],[-9681,11590],[-9851,-2704],[-4455,-12363],[86,-5667],[2570,-6310],[514,-7341],[-11994,-7083],[4540,-6954],[-1199,-3348],[3512,-6955],[-4112,-6181],[-7881,2318],[-1970,-7470],[-8224,-3477],[0,-9787],[-6426,129],[-2398,-6955],[-6168,258],[-857,-8500],[4626,-8242],[-2913,-7598],[-5397,-7470],[-3255,644],[-1028,-7984],[-3769,-11204],[-2913,-2705],[-11908,3864],[-16791,4250],[-2998,5666],[-4626,4636],[-13878,2833],[-3598,3864],[-5826,-5667],[-6511,4765],[-7110,2190],[-10366,-4250],[-5911,2060],[-6082,-386],[-5397,4379],[-5312,-1932],[-4626,5795],[-4283,2318],[-12165,-2189],[-7025,-129],[-4883,-2704],[-5054,1288],[-4198,-3735],[-9338,7727],[-5054,773],[-9681,6696],[-5140,387],[-9509,13007],[-9423,4765],[-10537,-2447],[-5312,2704],[-4197,-1674],[-4541,2061],[-4883,-10689],[-4198,-3349],[-6339,3091],[-6596,-11848],[-514,-8500],[-3855,644],[-7968,-9143],[-171,-10947],[-4112,-3863],[-9338,-515],[-10023,9401],[-3684,901],[-15077,-8242],[-1371,-3477],[3170,-4121],[-4540,-6826],[-4798,-386],[-3855,4121],[-5311,1932],[-2827,5280],[-5226,3606],[-6682,10560],[-2484,-1545],[-5997,4893],[-4198,-3606],[-8310,11076],[-5311,-1417],[-3427,2576],[-1713,7340],[-5911,-1931],[-4712,5537],[-343,10689],[-5225,8114],[-7196,2318],[-9081,-4508],[-7453,1546],[-3770,6439],[-5996,4765],[-3684,6697],[-1628,6567],[1114,5538],[-2227,6311],[-2913,1802],[-1200,13909],[-10965,-9530],[-3170,-5795],[-1970,-9788],[1628,-11461],[2227,-9144],[-4283,-7984],[-6511,-16098],[-3427,-3091],[-4883,-13909],[-4198,6568],[-1970,9530],[-7110,4121],[-8653,-1159],[943,6955],[-5055,-2962],[-4283,3090],[-4455,9788],[-4540,772],[-6597,6053],[-257,5409],[3170,5023],[-343,14552],[3341,9015],[86,9401],[3084,8242],[-6511,5409],[-6168,1288],[-5054,11462],[-5569,3348],[-7110,-4121],[-7025,-2189],[-4369,901],[686,9144],[3341,3348],[-3770,11590],[-4797,6697],[-5226,1674],[-771,-6825],[-5140,1932],[428,3992],[-9337,2962],[-686,7212],[6340,5537],[6510,15969],[-1970,4894],[0,7083],[-12936,-772],[-7282,11590],[-4454,13651],[3940,12363],[-7110,7985],[-2484,5022],[-514,11333],[-2399,6310],[1713,14939],[-6853,2447],[-3941,6053],[-2142,7341],[-4369,3090],[-2141,4765],[257,8886],[-2742,7212],[771,5538],[7796,9401],[-3170,12363],[1285,11848],[-4883,1288],[-7024,4379],[-2570,3348],[-8053,4636],[4283,13007],[-599,6697],[-4969,9659],[1542,6954],[-6425,8371],[-6768,15583],[2656,16870],[0,11204],[4797,8757],[-685,6311],[5397,6053],[4712,-4379],[6168,7856],[428,15969],[2313,5924],[9338,12621],[-4626,13393],[85,9659],[-4283,9787],[-1285,17257],[5654,5795],[771,23052],[-4712,7985],[-685,7598],[-2998,6053],[514,3606],[14477,-2318],[1371,11462],[3941,-773],[2570,21507],[6682,-1417],[6082,-4121],[6682,55119],[9510,-644],[1370,11204],[2827,5924],[172,7856],[11822,-2576],[599,4508],[10795,-2318],[3855,32324],[17390,-3735],[3770,32067],[-600,11977],[1285,6439],[4283,5667],[10794,-902],[16877,-3477],[171,5795],[16020,-3348],[-771,-5795],[15763,-3349],[6511,1546],[-1028,-8114],[3512,-386],[-942,-7083],[26214,-5795],[771,6568],[14478,-2318],[-514,-3993],[11308,-2446],[-942,-8629],[14392,-3220],[1799,7341],[15420,-3606],[2741,-11204],[25615,-6697],[257,-1159],[17305,-3863],[4026,-7083],[-1713,-15969],[18333,-3735],[3855,-3477],[-857,-6826],[14478,-2833],[-2313,-20734],[4969,-3219],[-1285,-10046]]],"transform":{"scale":[0.0000011673011673011788,7.765007765007786e-7],"translate":[152.3749,-28.3639]},"objects":{"qld_south_east_ldmg_boundaries_gda2020_simp200m":{"type":"GeometryCollection","geometries":[{"arcs":[[0,1,2]],"type":"Polygon","properties":{"LGA Code":"3430","Abbreviated Name":"Gold Coast","LGA Name":"Gold Coast City","Area Sq Km":1376.73,"LDMG Name":"Gold Coast","Source Area Sq Km":1376.56555,"Police Region Name":"South Eastern Region","Police Region Code":"SER","Police Region Short Name":"South East","Region Slug":"south_east","Layer Id":"qld_south_east_ldmg_boundaries_gda2020_simp200m","Layer Group":"per-region","Layer Kind":"ldmg","Source":"Local government area boundaries - Queensland, Department of Natural Resources and Mines, Manufacturing and Regional and Rural Development; ASGS Edition 3 (2021) Local Government Areas, Australian Bureau of Statistics","Source URL":"https://www.data.qld.gov.au/dataset/local-government-area-boundaries-queensland","Licence":"CC BY 4.0","Licence URL":"https://creativecommons.org/licenses/by/4.0/","Dataset Date":"extract of 11/05/2026","Simplification Tolerance M":200,"Coordinate Precision Decimals":4,"CRS":"GDA2020 (EPSG:7844)","Modified":"Simplified and repackaged from the source dataset; see Source URL"},"id":"3430"},{"arcs":[[-2,3,4]],"type":"Polygon","properties":{"LGA Code":"4590","Abbreviated Name":"Logan","LGA Name":"Logan City","Area Sq Km":957.69,"LDMG Name":"Logan","Source Area Sq Km":957.87316,"Police Region Name":"South Eastern Region","Police Region Code":"SER","Police Region Short Name":"South East","Region Slug":"south_east","Layer Id":"qld_south_east_ldmg_boundaries_gda2020_simp200m","Layer Group":"per-region","Layer Kind":"ldmg","Source":"Local government area boundaries - Queensland, Department of Natural Resources and Mines, Manufacturing and Regional and Rural Development; ASGS Edition 3 (2021) Local Government Areas, Australian Bureau of Statistics","Source URL":"https://www.data.qld.gov.au/dataset/local-government-area-boundaries-queensland","Licence":"CC BY 4.0","Licence URL":"https://creativecommons.org/licenses/by/4.0/","Dataset Date":"extract of 11/05/2026","Simplification Tolerance M":200,"Coordinate Precision Decimals":4,"CRS":"GDA2020 (EPSG:7844)","Modified":"Simplified and repackaged from the source dataset; see Source URL"},"id":"4590"},{"arcs":[[-1,5,-4]],"type":"Polygon","properties":{"LGA Code":"6510","Abbreviated Name":"Scenic Rim","LGA Name":"Scenic Rim Regional","Area Sq Km":4243.51,"LDMG Name":"Scenic Rim","Source Area Sq Km":4242.95511,"Police Region Name":"South Eastern Region","Police Region Code":"SER","Police Region Short Name":"South East","Region Slug":"south_east","Layer Id":"qld_south_east_ldmg_boundaries_gda2020_simp200m","Layer Group":"per-region","Layer Kind":"ldmg","Source":"Local government area boundaries - Queensland, Department of Natural Resources and Mines, Manufacturing and Regional and Rural Development; ASGS Edition 3 (2021) Local Government Areas, Australian Bureau of Statistics","Source URL":"https://www.data.qld.gov.au/dataset/local-government-area-boundaries-queensland","Licence":"CC BY 4.0","Licence URL":"https://creativecommons.org/licenses/by/4.0/","Dataset Date":"extract of 11/05/2026","Simplification Tolerance M":200,"Coordinate Precision Decimals":4,"CRS":"GDA2020 (EPSG:7844)","Modified":"Simplified and repackaged from the source dataset; see Source URL"},"id":"6510"}]}}}