{"type":"Topology","arcs":[[[259759,340959],[-742,509],[-1135,339],[-1545,0],[-1257,85],[-1257,283],[-1741,537],[-1742,1009],[-1150,1141],[-712,952],[-848,688],[-1348,349],[1287,5882],[9889,5467],[1590,14027],[9661,-443],[1469,13131],[16747,-613],[1924,13660],[8555,-434],[1939,13782],[-20171,886],[-26015,1159],[-2377,-12405],[-243,-1650],[-17414,981],[-44671,2545],[-7178,7117],[-15082,14837],[-10388,-17778],[-848,-66],[-999,612],[-1681,462],[-818,321],[-1772,217],[-1272,433],[-1120,208],[-788,-934],[-999,-1385],[-1893,-556],[-560,-425],[-15,-660],[727,-669],[908,-113],[757,-481],[197,-556],[1090,-188],[682,-293],[333,-443],[1711,-1065],[212,-396],[1181,-509],[545,-556],[-3437,-10897],[-26258,1357],[-24258,1282],[-1651,-254],[-288,320],[-1347,377],[-1984,95],[-818,584],[-106,377],[-787,424],[-878,-94],[-833,226],[-333,-641],[-788,0],[-1332,-414],[-349,-396],[-1045,358],[106,716],[440,604],[-1212,-76],[15,490],[-378,161],[-954,-151],[-697,151],[-454,367],[-682,-169],[137,-462],[-1545,75],[76,-792],[893,-75],[15,-453],[-969,0],[-469,387],[-1000,292],[-348,-226],[-1014,273],[-61,274],[651,169],[-288,670],[-408,160],[-954,-424],[0,-594],[-530,103],[-61,689],[1090,575],[1197,914],[-727,75],[-424,557],[-1015,-246],[-227,-829],[-1015,-217],[167,585],[1075,857],[697,717],[2347,4044],[1075,1508],[2302,3620],[121,443],[802,1084],[985,763],[-76,519],[257,320],[-30,547],[-833,208],[1197,1187],[1332,1131],[969,1019],[803,1847],[394,1169],[620,2366],[243,1358],[166,2234],[394,282],[1514,547],[697,896],[1696,1018],[1499,801],[1075,773],[1333,1103],[272,443],[515,1489],[-121,613],[-697,1084],[-469,245],[15,377],[924,443],[212,264],[-424,670],[1257,1847],[-288,-792],[167,-462],[726,-593],[848,-189],[1772,-971],[1151,-895],[1787,141],[363,575],[682,330],[605,19],[576,-330],[121,-509],[742,151],[515,-434],[30,-764],[591,-160],[848,76],[181,-293],[-499,-235],[454,-302],[424,-895],[1120,-236],[76,-283],[1075,-38],[455,-405],[817,94],[-91,632],[1136,-255],[742,491],[894,-76],[620,-207],[712,207],[288,-151],[394,198],[772,-66],[575,-499],[1318,151],[1544,329],[-60,293],[999,311],[1075,179],[697,-368],[2029,556],[1045,368],[696,-66],[530,113],[1287,-104],[909,255],[803,-151],[484,368],[833,217],[530,-132],[1242,480],[772,123],[394,-132],[1999,66],[151,330],[969,160],[772,-75],[440,-330],[923,75],[985,707],[742,-19],[1574,170],[758,339],[832,170],[636,302],[1015,207],[893,443],[970,292],[863,-584],[802,-141],[1757,245],[333,330],[575,66],[970,509],[893,56],[696,292],[606,-56],[1348,169],[681,-56],[697,594],[1030,217],[984,791],[606,217],[651,0],[1166,1018],[1862,726],[61,575],[2211,1282],[-288,340],[197,593],[-379,104],[-969,-924],[-1711,-1178],[-61,-405],[-954,-726],[31,-189],[-773,-480],[-3331,-1132],[-15,-509],[-1878,-264],[-575,-282],[-909,282],[-939,-207],[-1226,-471],[-712,-47],[-2211,-896],[-1211,75],[-424,255],[-1227,-405],[-1590,37],[-802,-320],[-909,-151],[-712,75],[-499,-254],[-1242,-302],[-1938,-1442],[-651,-57],[-606,311],[-969,95],[-742,-85],[-288,-368],[-1302,-113],[-985,170],[-832,-160],[-1197,-462],[-681,113],[-984,-321],[-273,-254],[-727,122],[-1226,-141],[-864,9],[-439,-113],[-969,142],[-969,-434],[-772,-113],[-1272,-415],[-697,358],[-2120,-471],[31,-302],[-2817,-433],[-348,386],[-727,113],[-666,-160],[-576,132],[-802,-104],[-409,368],[-1045,85],[-273,-462],[-1802,188],[-1559,-273],[-561,264],[-636,-19],[-378,1150],[530,669],[-833,293],[-727,-387],[-727,245],[364,359],[1044,-114],[212,509],[-348,236],[-727,38],[-530,-255],[-621,406],[-1484,669],[-908,-132],[-545,-368],[-303,-537],[-1636,-38],[-484,604],[-1121,744],[-1817,1339],[-91,1188],[424,622],[697,66],[893,2290],[636,396],[-212,208],[152,1866],[-197,839],[-666,1452],[-879,990],[-2362,1659],[-1014,980],[106,415],[-500,471],[-394,-283],[-666,868],[-424,848],[0,594],[-621,141],[-1499,1829],[-1969,2856],[-605,1103],[136,528],[-303,141],[-212,1367],[-515,2084],[-1438,3337],[-334,848],[-3255,179],[-83346,-66],[-424,134432],[-409,130144],[560,61763],[273,28722],[227,58784],[38493,14480],[36994,13942],[23093,9313],[52621,19749],[8843,942],[49214,5345],[17626,594],[51243,1706],[24501,839],[12630,11001],[24849,0],[-1227,1046],[-545,830],[-333,1235],[76,886],[242,697],[545,821],[606,603],[1166,782],[2090,820],[2301,500],[1848,151],[1983,-85],[1106,-198],[1287,-377],[1575,-764],[1196,-989],[803,-1311],[166,-707],[-45,-876],[-182,-698],[-454,-829],[-1045,-1047],[-167,-490],[25243,14140],[45429,3139],[26999,-4987],[41143,-7588],[561,-32805],[-1409,-791],[-1877,28],[-1606,-471],[-530,-519],[-2150,-377],[-60,-424],[-2393,-340],[-591,-207],[-1635,-1386],[182,-744],[-606,-302],[-1863,-5760],[-318,-395],[-1832,-161],[-590,-471],[-8238,-4892],[-424,-462],[-2408,-2998],[-6541,-4798],[378,-547],[-772,-1461],[-46,-490],[-469,-1037],[-848,-1056],[45,-254],[-787,-604],[-242,-414],[-1000,-802],[273,-584],[-227,-217],[-3211,-952],[440,-424],[-1151,-1320],[91,-632],[-909,-716],[303,-754],[-273,-94],[591,-1094],[-121,-358],[-939,-905],[-318,-462],[-454,123],[-500,-528],[500,-330],[-424,-481],[-440,-2140],[91,-631],[-817,-547],[636,-1028],[-76,-725],[-364,-227],[1000,-858],[-1408,-706],[75,-1839],[606,-424],[-651,-697],[272,-1103],[-469,-85],[76,-500],[378,-66],[303,-1046],[-409,-377],[439,-443],[122,-999],[-546,-415],[-1468,-123],[-1136,-292],[333,-613],[818,-678],[-364,-481],[-1484,-132],[-363,-735],[212,-472],[560,-56],[30,-745],[-1196,-481],[136,-499],[954,-443],[349,-849],[-46,-650],[-469,-406],[-530,-113],[76,-1329],[1060,113],[-106,-848],[-228,-679],[727,-424],[61,-1603],[348,-433],[-136,-349],[863,-688],[61,-490],[-424,-179],[45,-415],[1090,-481],[137,-575],[363,-434],[697,-339],[575,-575],[-151,-452],[227,-434],[802,-764],[-91,-490],[440,-528],[257,-631],[681,-302],[970,-1084],[302,-698],[91,-838],[349,-142],[227,-631],[-121,-528],[514,-104],[803,-1339],[136,-480],[1151,-1650],[61,-1254],[-76,-1621],[485,-405],[-31,-359],[500,-330],[273,-631],[923,-453],[212,-575],[-106,-509],[273,-792],[742,-641],[-46,-999],[-514,-1008],[-364,-293],[424,-763],[1848,-2922],[348,-868],[-379,-1301],[530,-641],[439,-1018],[-499,-584],[-31,-782],[243,-1301],[-31,-783],[546,-641],[-31,-858],[470,-857],[-303,-349],[-1272,-104],[-863,123],[-2120,-208],[-318,-94],[166,-811],[2787,-933],[1696,-1584],[726,-1527],[212,-801],[0,-669],[409,-575],[515,-245],[364,-952],[530,-387],[45,-1159],[2741,-1923],[242,-764],[-515,-500],[-1332,-763],[-394,-566],[-45,-480],[-682,-679],[106,-537],[576,-877],[-152,-613],[545,-2243],[439,-227],[470,-1159],[166,-1273],[-302,-594],[-61,-1036],[-348,-1028],[-409,-575],[-878,-773],[-303,-858],[-727,-481],[-530,-75],[-909,415],[-1605,537],[-5436,-490],[-182,-47],[-4194,-2668],[-197,-490],[-606,-490],[-136,-1697],[287,-1885],[-151,-236],[7753,-2602],[606,47],[1529,-1206],[470,-528],[2498,-1320],[1287,-462],[1106,-584],[288,38],[1786,-689],[303,-348],[-272,-293],[257,-565],[30,-651],[788,-1791],[60,-1583],[-181,-613],[-485,-481],[-848,-264],[-1802,-19],[-2317,-6759],[924,-452],[-363,-386],[-424,0],[-4952,-5977],[787,-650],[1000,-1348],[-394,-830],[1105,-679],[2348,-443],[1529,245],[1090,-179],[969,29],[1757,-604],[1287,-103],[424,-189],[364,-537],[0,-2800],[-530,339],[-1439,264],[-1590,-113],[-1408,85],[-1060,-782],[-46,-330],[227,-1367],[1787,-971],[152,-405],[1317,-868],[-106,-1376],[1651,-1197],[-379,-754],[-878,-406],[-757,-113],[-1681,-37],[-1620,-132],[-606,-217],[-2060,-28],[-742,-330],[-1181,84],[-2635,-9558],[1182,-726],[15,-434],[-1106,-697],[-1120,-537],[-667,-85],[-2483,-5986],[121,-424],[-908,-198],[-652,-490],[515,-1150],[606,-368],[-242,-990],[-1621,-330],[-499,-264],[121,-481],[681,-801],[606,-415],[-833,-414],[-3331,-10313],[651,-302],[-500,-480],[-1514,-142],[-848,-735],[-182,-867],[-439,-604],[530,-1131],[1302,-367],[-212,-528],[-1347,-792],[-1242,-537],[-2135,-1169],[-288,-858],[-439,-85],[-818,188],[-1499,-94],[-151,-499],[1014,-745],[-106,-471],[-1332,75],[-1348,-396],[-121,-424],[197,-603],[893,-924],[-257,-424],[-788,-425],[-923,217],[-258,547],[-1862,556],[-303,387],[-818,-142],[-1454,-75],[-121,-783],[-1105,-254],[-682,-396],[-1832,-377],[-2514,-914],[-681,-783],[-636,-302],[182,-1112],[272,-94],[-182,-924],[-2937,-1159],[-197,-491],[-772,19],[-1515,-622],[0,-528],[682,-810],[999,-1480],[591,-434],[1120,-1461],[-333,-321],[46,-462],[772,-754],[984,-754],[1045,-650],[787,-1282],[530,-490],[-60,-1226],[-333,-1235],[-61,-641],[152,-528],[-318,-1442],[651,-198],[1166,-1112],[833,-406],[1484,-971],[136,-961],[1090,-811],[606,-207],[1741,-952],[-348,-924],[333,-999],[500,-387],[106,-1140],[651,-660],[969,-669],[15,-434],[-1241,-905],[-546,-189],[-1241,95],[-2575,-19],[-1014,-424],[-530,-425],[197,-1018],[-364,-688],[712,-358],[288,-377],[954,-547],[1029,-415],[-166,-461],[-666,-227],[-1681,-254],[-258,-170],[212,-829],[-636,-1584],[-303,-481],[636,-660],[939,-207],[1197,-632],[1060,-452],[560,-453],[878,-311],[863,-509],[606,-1565],[15,-1093],[-1499,-1018],[-1529,-330],[-636,0],[-364,-292],[167,-707],[-288,-1009],[-681,-1103],[287,-603],[1000,-1555],[-137,-689],[515,-857],[-424,-858],[152,-830],[1075,-763],[-560,-990],[1529,-537],[288,-302],[2074,-1329],[-121,-707],[288,-858],[484,-773],[1621,-867],[227,-340],[197,-886],[257,-207],[3135,-1885],[575,-198],[5603,-132],[681,320],[591,896],[515,405],[863,217],[878,-406],[91,-1498],[-621,-952],[152,-557],[1817,-810],[530,-132],[499,-868],[-45,-725],[-1136,-1084],[-1681,-1311],[-1499,-1055],[-469,-623],[76,-612],[1166,-1075],[575,-1414],[1015,-895],[-379,-971],[500,-1018],[1166,-877],[545,-264],[0,-387],[-682,-1103],[-1181,-339],[-1484,-556],[-711,-94],[-318,-547],[530,-679],[-46,-367],[-515,-679],[894,-500],[1438,-377],[757,-19],[1091,-594],[863,-895],[30,-858],[454,-462],[742,-245],[303,-518],[-151,-321],[-1499,-330],[-863,-660],[-424,-697],[-1121,-528],[-167,-453],[546,-386],[166,-990],[1757,-1376],[30,-415],[1181,-1367],[182,-396],[-258,-603],[-575,-122],[-485,-585],[318,-707],[-151,-688],[2196,-1697],[636,-66],[1847,-1197],[2302,-179],[2589,735],[682,321],[560,735],[1363,38],[560,358],[470,-85],[106,-848],[-288,-509],[-1166,-707],[-485,-651],[651,-1018],[742,-377],[697,-575],[3150,-236],[0,-565],[-651,-698],[15,-1140],[787,-1113],[576,-188],[1272,-29],[878,236],[348,-254],[-106,-905],[-1211,-1348],[348,-1169],[-575,-1857],[423,-1292],[500,-433],[6875,-2234],[621,-302],[439,-1772],[1227,-811],[1484,-622],[757,-858],[121,-311],[954,-198],[2620,-1405],[1862,-499],[1287,-707],[1075,-189],[2469,-1225],[621,-849],[-106,-669],[530,-1103],[1711,-1527],[-46,-688],[1696,-1084],[1348,-321],[1166,-970],[696,-1528],[2499,-1300],[2332,-1584],[2529,-2083],[954,-1933],[-30,-575],[439,-292],[121,-924],[3271,-1291],[1135,320],[833,47],[985,-169],[2286,-1188],[772,-217],[303,-415],[2893,-1018],[1378,-37],[1287,-585],[1347,-471],[4134,377],[288,207],[1317,-66],[2681,170],[1696,-217],[4543,980],[636,349],[2120,2347],[75,302],[1212,292],[575,293],[136,678],[470,189],[1575,-500],[5481,-104],[2772,-2309],[560,-132],[166,-764],[576,-754],[1726,-782],[651,-754],[0,-905],[424,-179],[3256,9],[227,104],[1863,-236],[1408,-650],[651,-104],[1105,-556],[758,-132],[1605,-38],[1681,-367],[1120,-726],[-15,-651],[-1211,-1065],[-152,-584],[242,-208],[-590,-537],[348,-1018],[454,-396],[576,-1141],[182,-923],[1014,-830],[1212,-830],[454,-744],[166,-613],[848,-434],[2938,-867],[1742,-613],[1211,-801],[803,-961],[984,-443],[787,-1292],[30,-415],[2484,-744],[1014,-95],[1015,95],[1439,-236],[166,-273],[1000,-274],[696,123],[1318,481],[742,-123],[1680,-603],[394,-669],[636,-349],[288,-641],[924,-500],[605,-170],[3574,-414],[560,179],[1560,122],[939,-151],[1257,-28],[378,-217],[1893,-245],[1711,-66],[2423,113],[2226,-933],[848,-669],[606,-302],[939,-179],[1347,-19],[1575,-367],[1121,-368],[499,9],[1409,-754],[681,-235],[227,-330],[1787,-226],[1757,150],[923,-94],[985,-434],[1393,-179],[1544,-367],[243,-189],[1877,-358],[1636,-75],[651,-142],[3740,-462],[1772,-735],[500,-773],[1166,-754],[2059,-999],[1560,94],[711,-745],[424,-103],[1500,0],[1802,-255],[3164,38],[1939,-717],[1211,-235],[2135,-1226],[788,-188],[969,28],[2226,-764],[833,-763],[0,-537],[2498,-2593],[833,-415],[76,-216],[3134,-443],[545,320],[2378,47],[742,-169],[1938,-217],[1090,-519],[1424,-867],[1120,-839],[394,-679],[1636,-961],[908,94],[757,-94],[682,-274],[1726,-1046],[363,-443],[1409,-933],[60,-462],[1984,-1499],[984,-132],[1515,-943],[711,-1008],[636,-104],[1499,-1009],[106,-1036],[1136,-736],[1272,-678],[212,-924],[-333,-311],[424,-1141],[818,-1018],[560,-462],[1469,-198],[711,-877],[288,-1150],[1787,-1216],[348,-1187],[697,-359],[924,-66],[424,-1216],[499,-94],[1621,-801],[590,-651],[182,-1216],[590,-556],[16,-1367],[393,-443],[697,-113],[409,-2074],[439,-820],[151,-810],[939,-2640],[-60,-650],[484,-632],[-76,-763],[758,-1716],[212,-1329],[-61,-1508],[-742,-1537],[-515,-1235],[-1211,-839],[-1863,-3026],[1015,-1527],[742,-264],[363,-1150],[-288,-490],[212,-877],[-287,-1065],[-333,-415],[469,-1828],[575,-528],[1272,-528],[-106,-783],[318,-678],[803,-764],[136,-1122],[-1196,-1338],[-485,-1970],[1197,-2074],[393,-387],[-439,-1235],[258,-575],[954,-537],[106,-707],[-394,-499],[-136,-726],[227,-698],[484,-386],[1454,-472],[-45,-443],[-500,-942],[91,-1207],[-167,-236],[46,-2074],[651,-518],[242,-490],[61,-971],[242,-443],[-76,-679],[712,-1178],[787,-556],[137,-773],[1953,-1923],[545,-1226],[76,-914],[424,-952],[121,-660],[727,-2583],[1620,-1791],[227,-754],[-90,-1131],[-303,-528],[954,-1546],[424,-839],[-106,-1358],[106,-433],[-788,-1848],[-802,-905],[833,-1480],[-197,-924],[-894,-1027],[212,-537],[-923,-1546],[1453,-1791],[258,-1414],[1484,-1971],[302,-282],[-408,-1499],[196,-387],[-302,-528],[-1181,-4270],[181,-1008],[-151,-1009],[-1106,-519],[-378,-395],[-91,-896],[106,-566],[2650,-2064],[409,-528],[923,-3073],[773,-905],[60,-622],[-1711,-2526],[61,-1028],[242,-547],[-151,-669],[938,-3007],[1227,-2357],[-76,-1357],[-469,-716],[-30,-962],[1120,-575],[621,-575],[136,-877],[1030,-1791],[939,-509],[1196,-792],[485,-556],[651,-1244],[166,-830],[-636,-1055],[-393,-123],[-137,-1998],[1182,-1000],[-303,-1159],[-530,-537],[3528,-5590],[1741,-472],[1106,-452],[651,-990],[-30,-1414],[-121,-565],[-1439,-2169],[-1514,-612],[1726,-3205],[1772,-3516],[681,-217],[515,-575],[61,-896],[19155,-5741],[288,19],[545,-792],[4028,-1894],[394,-462],[2619,-5355],[2120,-1809],[2030,-1829],[711,-264],[-75,-255],[4724,-7088],[409,-434],[12902,-7089],[726,-245],[394,-556],[91,-547],[1666,-2856],[1105,-179],[515,-415],[-121,-283],[91,-3846],[484,-320],[10812,-1952],[651,-1036],[-545,-1575],[-166,-1612],[287,-631],[7223,-1169],[6724,-5449],[454,-122],[682,-990],[454,-1122],[4331,-1753],[5239,-1970],[818,-104],[106,-255],[-727,-226],[-8298,-3412],[272,-783],[-287,-754],[6799,-4770],[4876,-7456],[681,-669],[288,-1047],[-500,-895],[-742,-660],[-666,-4185],[681,-179],[712,-962],[76,-556],[-227,-471],[1302,-2225],[-2317,-1339],[-1105,-452],[1105,-2149],[121,-500],[2453,-2102],[697,-396],[-409,-1075],[-76,-1367]],[[842635,216330],[-61964,-150],[-9979,18],[-1999,-47],[-1590,95],[167,-519],[-1272,-754],[-1454,-292],[394,-311],[-182,-1009],[-1136,273],[-500,-396],[848,-339],[-620,-1093],[-758,-236],[-1423,75],[61,359],[-4377,254],[-30,-179],[-2317,132],[-1832,19],[-76,-443],[-954,122],[-575,274],[-288,-1084],[-590,37],[-334,-2130],[16,-735],[424,-415],[-1530,-292],[-575,9],[-985,-829],[-1256,273],[-530,434],[-697,1018],[-1136,452],[-348,358],[-1393,-471],[-303,-820],[-939,-160],[-621,113],[-560,-726],[-575,-292],[-1257,-330],[-1287,-66],[-334,301],[-832,208],[-1333,56],[-969,198]],[[732835,207290],[727,4073],[-863,386],[-364,415],[46,763],[-879,915],[-409,650],[106,820],[-424,745],[-484,481],[454,509],[-530,490],[-908,471],[-1560,1273],[-1454,500],[-1620,1093],[212,490],[-273,264],[894,1141],[151,1093],[-318,311],[773,528],[999,57],[-363,792],[772,179],[76,499],[-1212,858],[-197,556],[-893,179],[60,905],[-469,632],[-485,38],[-15,697],[-651,321],[-348,452],[227,613],[-500,434],[-1438,-227],[-773,-933],[-5406,1574],[-1135,1735],[-1363,85],[60,3572],[-5209,264],[773,962],[-712,311],[-136,367],[-1424,48],[-908,1395],[257,358],[-197,848],[-303,170],[-1575,198],[-439,452],[-424,802],[424,301],[-318,255],[-848,151],[-166,254],[-1000,198],[-45,1056],[590,179],[833,584],[-106,472],[-1469,452],[-802,-141],[-136,565],[484,340],[-696,999],[984,434],[2120,1178],[621,971],[-742,311],[-424,500],[-243,791],[409,123],[91,443],[530,236],[394,980],[1772,782],[454,557],[-485,188],[-197,1197],[288,632],[-288,452],[1151,1414],[606,151],[303,792],[-394,321],[1090,688],[833,1461],[-651,424],[-908,811],[-1878,94],[666,556],[1636,490],[0,255],[-1106,264],[-515,415],[-954,150],[-257,575],[1893,481],[363,-179],[1075,264],[-1438,669],[621,377],[212,443],[90,915],[-863,254],[-91,443],[-726,556],[-152,312],[288,1187],[-576,651],[-45,1008],[-469,396],[75,670],[-605,725],[-485,283],[863,820],[-1257,500],[-878,85],[-409,471],[76,613],[-1242,339],[-1105,556],[-1530,48],[-393,329],[-2514,491],[-621,414],[-1045,29],[-560,358],[-969,349],[-1242,141],[-863,-28],[-1151,518],[-772,849],[-1484,311],[-379,311],[-621,-10],[-681,-330],[-636,971],[1151,1047],[-197,452],[575,226],[-408,1169],[1332,1000],[-1090,28],[-848,-669],[-364,47],[-1105,-509],[-848,-519],[-999,-132],[-682,-283],[-500,311],[-1468,-131],[-1227,-255],[15,-302],[-1650,19],[-591,415],[-1166,85],[318,3101],[-833,47],[-1105,641],[1832,-113],[76,481],[-1106,75],[394,462],[-318,1405],[394,415],[-848,443],[-1121,84],[197,1584],[-2680,2112],[-1181,688],[454,217],[-999,725],[-2832,180],[-167,-924],[-1620,103],[-227,-1300],[-697,-349],[-45,-292],[-636,-330],[-288,-604],[-969,-641],[-485,453],[-893,386],[-1393,85],[-954,-471],[-651,-19],[75,943],[-984,94],[46,254],[-1030,180],[-333,395],[-606,76],[-666,-594],[-682,-57],[-484,368],[333,292],[-1060,123],[-545,650],[-1121,453],[-91,367],[-711,151],[-288,783],[0,461],[-1090,-56],[-61,632],[772,301],[-1665,519],[151,528],[954,669],[288,575],[-1257,-226],[-1075,367],[-1424,0],[212,641],[-590,1122],[-682,-28],[-1105,358],[-288,283],[-166,754],[-591,188],[-394,472],[-1559,386],[-46,292],[682,246],[393,367],[-242,990],[-1181,302],[-1030,-132],[-605,320],[-758,66],[-1892,1084],[-894,962],[424,254],[-878,952],[-394,57],[-242,198],[-863,622],[-1075,104],[-1076,-161],[-696,406],[272,330],[31,603],[-258,396],[-590,292],[-61,924],[242,971],[-1075,386],[121,990],[334,349],[-31,434],[-2014,575],[-575,56],[-1090,368],[-334,660],[-651,-48],[-984,453],[-1439,141],[-1120,-480],[-909,282],[-1347,274],[-530,-179],[-879,452],[530,783],[455,179],[-1166,565],[60,208],[-3149,961],[-1333,-66],[-591,462],[803,189],[-787,329],[-1424,-377],[-1014,-1027],[-712,-509],[30,-453],[-484,-452],[-712,-207],[91,-377],[772,-170],[-500,-462],[-1257,-236],[-1226,-820],[-409,-443],[394,-537],[742,-104],[197,-782],[499,-594],[697,-245],[182,-1075],[-440,-207],[-1544,-349],[-818,-490],[-651,-85],[106,-471],[-999,-217],[-485,-368],[-1121,198],[-1529,-358],[-848,-566],[-1681,472],[-1120,688],[-924,94],[-500,-179],[-772,660],[-454,-123],[-152,-754],[-1242,-405],[-378,-443],[-500,-66],[-515,396],[-651,1564],[-575,547],[-939,-424],[-242,-368],[-1242,-311],[-379,-754],[-530,-462],[228,-245],[-530,-490],[-1045,-19],[-863,245],[-470,-518],[0,-717],[-1045,368],[-605,-9],[-364,669],[-484,339],[136,387],[-576,546],[-1287,66],[-151,387],[-954,1084],[-2484,1857],[-2044,820],[288,962],[-364,773],[-908,348],[-30,443],[-455,434],[-1771,104],[-2787,85],[-2180,867],[-742,-151],[0,-688],[-273,-575],[-802,-123],[-1151,179],[-394,-396],[45,-838],[-726,-1217],[-91,-575],[409,-490],[121,-697],[-561,-1282],[-878,-340],[-772,-480],[-969,141],[-2635,537],[-303,236],[-1242,283],[-318,264],[-1256,-123],[-1030,-301],[-1106,254],[-726,575],[-1454,453],[-818,66],[-469,235],[-833,76],[-1514,499],[-712,839],[-954,-9],[-1878,-387],[-136,-546],[-1106,-104],[-681,-217],[-999,481],[-1484,-10],[-1242,-471],[-1000,-547],[-75,-490],[-667,-236],[258,-452],[999,-151],[470,-999],[605,-302],[0,-320],[-938,-877],[-591,38],[-1242,-500],[-469,132],[-545,-207],[-667,311],[-242,339],[-848,104],[-939,-104],[-1166,472],[-560,641],[-712,-142],[-1347,236],[-985,396],[-1287,-745],[-636,-264],[-893,151],[-1121,-613],[-1453,-264],[-1242,208],[-106,791],[-1075,839],[-879,198],[-530,349],[-530,924],[-590,415],[-651,0],[-2287,942],[-727,594],[-833,453],[-1256,330],[-682,-415],[-727,-10],[-1060,-791],[-696,-1424],[-561,-292],[-969,-1028],[-1060,-150],[-772,-773],[-1302,-10],[-803,302],[-1681,1056],[-1287,-519],[-75,-528],[-667,-198],[-530,113],[-1060,-622],[-802,-179],[-364,179],[-15,613],[-378,500],[-667,66],[-651,301],[-333,622],[-863,283],[-136,387],[484,320],[-318,1782],[-848,-28],[-363,348],[742,453],[-1560,961],[-136,415],[-742,321],[-1121,0],[-394,169],[-1484,-348],[-1635,329],[30,670],[-1226,113],[-591,433],[-575,161],[121,311],[-258,961],[-318,434],[-954,462],[-802,820],[-606,1122],[-575,396],[-197,1225],[-969,302],[-1166,-57],[-258,151],[-333,1716],[-363,1442],[227,697],[-1545,-122],[-1075,368],[-363,527],[-788,-94],[-984,547],[-575,-179],[-1181,-76],[-712,95],[-348,-481],[-894,-292],[-757,-453],[-954,179],[-363,-518],[-1091,9],[-1408,490],[-712,10],[-666,245],[-999,47],[-864,669],[-620,302],[-1439,377],[-833,28],[-2074,509],[-606,246],[-1106,-312],[-90,302],[-894,424],[-1454,302],[-181,-349],[-1257,-207],[-939,-556],[-91,-594],[-712,-311],[-1241,-255],[-909,-358],[-621,405],[-181,387],[-1030,66],[-15,481],[-500,131],[-182,406],[-757,-179],[-409,235],[-1529,472],[-76,433],[-893,19],[-409,-188],[-303,-802],[-742,-537],[-727,-151],[-939,-537],[91,-575],[-409,-132],[-1135,38],[-1833,405],[-1453,-481],[-561,-631],[-726,-151],[-727,-792],[-909,-320],[-530,131],[-1999,-216],[-1075,160],[-500,-141],[-318,-575],[-1060,150],[-302,189],[-985,-424],[-893,188],[-136,349],[-727,226],[-682,-56],[-1363,358],[-1105,0],[-1242,877],[-772,1065],[-1317,-85],[-1272,424],[-500,-85],[-1423,585],[-394,-179],[-1136,282],[-394,491],[-590,169],[-924,-311],[-787,575],[-333,651],[-1121,348],[-439,717],[-485,245],[697,688],[-227,613],[-561,235],[-984,95],[-924,-198],[-620,28],[-606,443],[-530,-132],[-273,-386],[-1726,273],[-939,-368],[-908,-47],[-682,226],[-1711,-367],[-1408,207],[-1333,-198],[-1181,-462],[-227,-264],[-893,29],[-970,-217],[-484,-321],[-1393,293],[-500,207],[-2468,198],[-1015,575],[-848,-28],[-712,160],[-575,452],[-863,321],[-1424,226],[0,500],[742,462],[-726,339],[-1318,-123],[-1590,123],[-984,396],[-394,434],[-954,122],[-545,-631],[-954,-302],[-1348,-104],[-1529,971],[-1787,274],[-2105,-57],[-1590,-132],[-1514,-321],[-2271,-688],[-2787,-1074],[-2892,-905],[-697,-660],[-1272,-66],[-2241,-792],[-1166,-151],[-923,57],[-1076,-94],[-908,-613],[-1772,-396],[-2090,-236],[-1590,151],[-2922,377],[-1363,519],[-2377,-481],[-3074,-264],[-1166,132],[-2817,-179],[-1348,-29],[-1332,283],[-4710,-565],[-1877,-161],[-985,-339],[-1756,38],[-3332,1989],[-787,-123],[-621,-320],[-1120,151],[-2741,1102],[-4573,632],[-2287,66],[-2408,-94],[-3043,-736],[-1181,48],[-3392,-217],[-2832,151],[-2817,452],[-2589,85],[-2559,-9],[-1651,-151],[-1045,330],[-1983,264],[-3014,-340],[-1029,-9],[-379,-387],[-591,-85],[-1287,-584],[-1605,679],[-1363,273]],[[491732,964508],[-2105,113],[-1363,236],[-2196,254],[-802,161],[-1712,575],[-1620,942],[-651,556],[-1560,1971],[-1605,-264],[-1136,-85],[-1438,37],[-2468,349],[-1015,226],[-2180,698],[-1772,999],[-924,820],[-818,1282],[-227,1018],[91,858],[242,679],[515,811],[879,923],[1438,887],[1227,480],[1908,406],[1150,84],[1651,-18],[2332,-359],[2302,-641],[1817,-744],[924,-585],[1014,-914],[1832,518],[1696,198],[2211,0],[1575,-160],[2393,-603],[939,-387],[3089,-1781],[666,-575],[863,-1056],[697,-1659],[197,-1292],[-106,-697],[-712,-1320],[-576,-594],[-1287,-942],[-1847,-821],[-2120,-480],[-1408,-104]],[[429873,987264],[-1999,160],[-1105,236],[-1257,433],[-1696,981],[-636,593],[-757,1169],[-242,1066],[166,1065],[318,697],[788,952],[1120,821],[1393,650],[1045,311],[1666,283],[545,707],[984,820],[788,462],[2150,848],[1878,358],[1469,123],[2089,-94],[2060,-358],[1681,-594],[848,-443],[938,-651],[1015,-1027],[681,-1292],[106,-1027],[-393,-1395],[-712,-971],[-591,-604],[-1166,-791],[-1150,-528],[-1227,-425],[-1060,-245],[-1393,-169],[-1969,28],[-1332,-952],[-1166,-528],[-1863,-490],[-2014,-179]],[[232608,962415],[-1120,47],[-2166,387],[-1438,537],[-1393,830],[-636,556],[-773,1093],[-696,1641],[-727,1517],[-91,1065],[409,1217],[454,659],[1348,1150],[1408,660],[4528,424],[5012,-1178],[5088,1782],[15733,1668],[5452,132],[11160,1311],[1938,-349],[1257,-443],[1681,-971],[803,-726],[711,-1065],[394,-915],[151,-1489],[-121,-688],[-590,-1009],[-833,-1093],[-697,-754],[-1347,-896],[-334,-1027],[-545,-802],[-954,-867],[-1241,-716],[-2484,-990],[-2544,-537],[-1332,-104],[-2484,113],[-1832,320],[-1454,330],[-1999,-216],[-1862,28],[-4286,254],[-1953,-188],[-1090,0],[-2135,207],[-1045,208],[-2045,207],[-2634,556],[-2529,669],[-1938,-773],[-879,-518],[-1590,-688],[-1802,-424],[-1908,-142]],[[200763,948935],[-818,29],[-3331,377],[-2181,405],[-1817,160],[-3271,594],[-2665,716],[-1575,641],[-1272,312],[-938,348],[-1560,-358],[-1090,-113],[-1545,-19],[-1151,104],[-1635,349],[-1000,330],[-1302,650],[-1348,1103],[-772,1291],[-151,670],[15,848],[181,679],[440,839],[696,782],[1832,1339],[864,433],[2014,622],[3422,528],[1650,38],[1363,-132],[1787,-443],[1363,-528],[1893,349],[1908,85],[817,-47],[4331,-566],[2090,-320],[3589,-736],[2332,-377],[1575,-396],[1166,-490],[1893,-990],[787,-518],[1060,-1056],[591,-1188],[121,-688],[-258,-1376],[-363,-660],[-924,-1027],[-1151,-858],[-1287,-688],[-1650,-575],[-1545,-302],[-1681,-151],[-1499,-19]],[[193888,975537],[-2271,170],[-985,151],[-2316,0],[-3226,311],[-2377,-179],[-2423,75],[-909,113],[-2014,0],[-1393,198],[-999,236],[-2438,301],[-3528,934],[-697,245],[-1408,235],[-1045,302],[-1832,877],[-1182,1018],[-560,792],[-348,1008],[-379,472],[-454,961],[7359,4525],[5376,1546],[4422,-179],[6557,942],[3119,-320],[5800,-3639],[10721,-3422],[-439,-2535],[-636,-1330],[-561,-603],[-863,-679],[-848,-462],[-2680,-1282],[-1529,-471],[-1378,-226],[-1636,-85]],[[85254,945183],[-1696,132],[-2120,519],[-1757,839],[-1332,1103],[-561,782],[-424,1329],[16,839],[499,1320],[757,924],[-1544,669],[-1121,745],[-1332,1140],[-727,971],[-333,877],[-31,1065],[455,1216],[802,962],[1287,1131],[864,641],[1060,575],[2014,641],[1090,830],[969,622],[1908,782],[1075,255],[1984,188],[1378,-38],[1862,-301],[1696,160],[1151,-28],[1393,-189],[1076,-264],[1877,-801],[1106,-811],[802,-923],[530,-1132],[182,-1140],[0,-981],[-303,-1131],[-394,-763],[-681,-943],[-1181,-1141],[-1166,-773],[-1393,-659],[-773,-283],[818,-877],[379,-641],[287,-867],[31,-707],[-152,-877],[-575,-1169],[-954,-1084],[-863,-688],[-1045,-594],[-954,-377],[-2060,-660],[-1892,-330],[-1984,-85]],[[63706,925237],[-2484,198],[-1347,320],[-1878,820],[-1439,1103],[-696,971],[-303,858],[-15,1065],[454,1386],[878,1112],[1484,1037],[818,415],[1363,509],[1529,358],[1605,217],[1681,113],[1711,28],[1136,-75],[1363,-254],[1968,-698],[1378,-886],[1076,-1244],[439,-1028],[30,-1244],[-303,-867],[-560,-830],[-621,-594],[-1151,-782],[-1953,-868],[-2135,-659],[-1817,-349],[-2211,-132]],[[842635,216330],[-166,-452],[-712,-782],[-121,-510],[833,-1027],[121,-707],[15203,-10822],[3634,-2620],[3650,-5769],[1529,-2244],[424,-490],[-227,-613],[-5270,-7598],[440,-1781],[-46,-377],[7238,-6505],[500,-160],[863,-1197],[349,-1226],[7041,-4091],[651,29],[863,-1433],[-166,-424],[136,-1414],[-288,-689],[5028,-2356],[1953,-274],[303,-179],[121,-707],[-333,-773],[2135,-980],[2241,226],[258,-528],[-1030,-462],[348,-480],[818,-330],[621,-424],[151,-613],[485,-311],[1393,-160],[863,-453],[-91,-782],[10100,-5402],[1000,-141],[636,-396],[8737,-5043],[939,-425],[17702,-2318],[17868,-2414],[15855,-2121],[1893,189],[-91,-509],[409,-330],[9858,-13169],[10312,-2847],[3271,-2451],[499,-1272],[212,-924],[6421,-9200],[-48169,-19],[-42430,19],[0,7861],[-40023,-37],[-15491,0],[-22653,9],[-13235,9],[-15188,10],[-3059,94],[-3922,481],[-1454,9],[-1756,264],[-864,-433],[-2089,-1329],[-530,-783],[-1136,-499],[-606,65],[-711,-235],[30,-443],[-1136,-377],[-439,235],[-136,481],[-712,321],[-1499,367],[-1378,-132],[-1302,161],[-1393,433],[-2484,434],[-696,622],[-258,575],[197,547],[803,462],[-530,424],[-652,188],[-15,519],[-1029,876],[-455,915],[-484,198],[-1106,9],[-363,330],[318,726],[1226,698],[-484,593],[-61,519],[349,537],[-1166,340],[-1151,1018],[-1636,-245],[-3271,782],[-514,236],[-424,-387],[-1469,811],[-1545,-349],[-908,217],[-1500,56],[-257,-207],[-1196,-236],[-1363,-18],[-1272,-312],[-485,161],[-954,-47],[-1862,141],[-2196,2837],[-2105,-584],[-621,75],[-1559,-801],[-379,19],[-1181,-688],[-15,-245],[-1590,-839],[-1060,-292],[-697,-444],[-1045,-263],[-302,395],[-621,302],[-394,-236],[-803,19],[-1347,-320],[-1363,94],[-1348,-141],[-908,386],[-1091,-462],[-1029,368],[-424,490],[333,255],[166,782],[-1211,811],[-681,18],[-288,-245],[303,-499],[-1969,-377],[-30,-707],[257,-349],[-454,-207],[-697,94],[-802,773],[-1030,-443],[-1014,-57],[-1015,528],[-727,-179]],[[721084,122602],[-1681,123],[0,641],[227,386],[-151,603],[-500,415],[-1272,321],[-1196,414],[-803,132],[-590,632],[10373,4968],[1347,-415],[1060,273],[1075,104],[-212,481],[1106,575],[-46,726],[-530,396],[-424,612],[-893,387],[-378,650],[636,575],[-106,594],[469,434],[-409,603],[-363,160],[-1454,1028],[76,1008],[-879,208],[-590,810],[-454,302],[-61,377],[379,481],[711,226],[31,528],[-424,500],[-1454,480],[-1075,472],[-909,537],[-606,66],[-938,745],[-1182,-321],[-1332,292],[-1272,-1027],[-1696,19],[-1408,-858],[-31,-217],[-1453,358],[-455,377],[-1211,255],[-288,339],[46,585],[757,358],[272,339],[1227,76],[818,1112],[-122,575],[-363,349],[545,151],[-76,641],[576,942],[-91,274],[-878,679],[-682,113],[-1075,659],[-651,-103],[-939,-839],[-545,-85],[-651,292],[-530,-283],[-894,896],[-363,-94],[-1772,754],[-878,471],[409,1508],[409,349],[-91,330],[924,245],[-440,717],[-60,1348],[681,207],[-651,368],[-2074,-38],[-712,471],[-1227,179],[0,1160],[349,792],[802,292],[1121,198],[-91,1244],[484,226],[758,707],[605,-160],[606,537],[-560,500],[272,519],[742,-10],[485,848],[802,227],[561,-208],[757,38],[1196,735],[-333,585],[666,349],[273,452],[-848,575],[91,1141],[590,443],[-151,575],[-560,462],[-91,433],[-697,490],[-469,1075],[-576,170],[-424,396],[-1469,28],[-136,1197],[-288,424],[61,604],[-197,339],[212,895],[606,57],[136,622],[-394,396],[-1393,688],[-636,566],[-1181,-340],[-333,406],[-742,113],[-787,292],[-636,-56],[-591,-302],[-545,452],[-1166,246],[-1757,-151],[-999,471],[-727,-66],[15,716],[-1075,66],[666,3969],[11282,1310],[-636,481],[45,377],[-999,1009],[378,509],[1409,254],[1120,915],[-530,217],[682,810],[-1924,943],[-393,28],[-788,1065],[2120,-122],[-60,-424],[848,-425],[1241,132],[788,-320],[106,-594],[1014,-75],[16,452],[-334,405],[1136,472],[878,-142],[561,274],[-212,414],[469,406],[1514,8946],[470,-123],[848,396],[954,-283],[1257,-94],[1408,688],[15,773],[-1332,405],[-31,453],[-954,311],[-454,811],[318,754],[-560,349],[515,311],[-1121,914],[17838,-1093],[182,1055]],[[721084,122602],[318,-698],[1454,-584],[-2029,132],[-106,-594],[757,-905],[-348,-518],[-500,-161],[76,-697],[-1212,-660],[-424,-471],[-696,47],[-530,-688],[-1045,358],[484,-773],[-651,-396],[-1984,-236],[-1044,-235],[938,-877],[303,-773],[-14007,1075],[-18565,1423],[-1014,-10793],[-15825,1074],[-984,-490],[-3967,3252],[-9162,6759],[742,830],[-3407,1480],[1090,895],[-4012,255],[1211,6815],[-11009,688],[-121,-170],[-4210,264],[-1166,-527],[-469,-1150],[-1136,0],[-1241,622],[-379,-434],[-485,47],[-302,-895],[424,-425],[-334,-198],[212,-669],[636,-471],[712,-47],[818,-274],[1908,264],[363,-462],[-378,-245],[75,-773],[379,-801],[1196,-782],[818,-170],[863,-584],[-484,-1443],[348,-245],[-46,-2196],[561,-726],[-1151,66],[-909,-839],[258,-509],[1575,-94],[-258,-1490],[-772,-66],[-727,-518],[-121,-377],[-1848,-1320],[-333,-330],[-106,-679],[-1226,-707],[-1242,-1187],[45,-670],[-802,-188],[-697,160],[409,368],[-15,452],[-863,641],[-1181,160],[-606,-150],[-1272,-604],[-969,-273],[-1605,57],[-712,593],[-909,-75],[-575,566],[-1121,94],[-772,-85],[-1529,537],[257,858],[-499,340],[121,527],[-318,180],[91,1055],[-667,396],[-9949,585],[182,801],[-151,462],[-697,141],[-439,830],[-333,1037],[-485,254],[-802,-339],[227,-783],[-591,-433],[-666,396],[-197,622],[-530,-189],[273,-452],[-273,-679],[-681,-792],[651,-612],[-4467,273],[106,-349],[-333,-735],[60,-566],[530,-377],[-6950,462],[333,1942],[-6618,396],[712,3837],[-590,1168],[1075,3017],[1060,754],[545,2875],[-848,-9],[-924,-208],[-1348,283],[-1847,-28],[-787,-245],[-2635,1178],[-2983,123],[-909,-85],[-439,122],[-1636,104],[-1983,2442],[-152,358],[-787,876],[-9601,604],[-227,-10596],[-2453,-13687],[-1272,-5468],[17036,-1112],[3483,-2159],[-6875,-3902],[787,-453],[-454,-471],[197,-877],[878,-311],[697,-9],[363,-311],[1121,0],[1075,-764],[757,-386],[1408,631],[788,76],[1590,-1056],[-137,-613],[651,-132],[137,-471],[-333,-415],[454,-264],[121,-481],[-9540,-4562],[6799,-4996],[-10433,-4732],[-2105,-1386],[-1439,-5665],[258,-858],[2362,-1103],[8949,-12368],[3029,-1338],[1514,471],[924,132],[2014,-94],[1151,-283],[-9131,-4233],[-3180,2253],[-18232,-10143],[-1090,-839],[-530,-820],[-243,-1404],[-2968,179],[-1060,-6137],[-17172,1244],[-1044,-7258],[-2984,632],[-9585,989],[-2711,57],[-2710,584],[-1030,-7315],[-6405,387],[-485,-3130],[-560,-3374],[-469,-246],[-1984,-659],[-954,9],[-1711,-660],[-1030,-245],[-1075,-820],[-1378,-1348],[-1121,-698],[-772,-264],[-2135,821],[-878,593],[-1439,368],[-1514,226],[-1060,283],[-803,566],[-378,1131],[-2317,829],[-1499,180],[-1166,9],[-2302,-594],[-1045,19],[-681,-415],[-1378,-339],[-2226,141],[-2559,340],[-1727,358],[-954,28],[-1438,-1235],[-2408,-1338],[-2226,-1612],[-1560,-604],[-545,-75],[-1832,28],[-1772,-103],[-1393,226],[-1757,85],[-1241,-227],[-1439,-499],[-1953,-330],[-4407,-292],[-6693,-293],[-4134,623],[-4164,1216],[-3226,1112],[-3588,886],[-2696,603],[-2877,434],[-4982,-1103],[-727,-9],[-3543,905],[-1121,348],[-4194,2253],[-258,264],[-1802,2527],[-742,801],[-1514,1376],[-1105,528],[-515,443],[-2196,1065],[-2377,849],[-2135,452],[-1848,-396],[-1438,-377],[-924,-368],[515,-725],[318,-1292],[-576,-1008],[-1211,-792],[-1742,-613],[-3573,-858],[-667,-462],[-575,-169],[-666,-868],[-969,-273],[-530,-679],[-1469,66],[-636,198],[-1954,-367],[-575,254],[-1560,-547],[-742,-471],[-606,-132],[106,-914],[-60,-990],[-1696,-1490],[-1560,-122],[-772,113],[-2468,792],[-803,56],[-636,-179],[-787,-1046],[-561,-415],[-2392,-697],[-984,-443],[-742,-594],[-1121,-1584],[-1333,-1263],[-166,-1367],[-470,-500],[-1574,-650],[-742,207],[-682,717],[-606,386],[-742,66],[-1060,-763],[-7889,414],[-25379,1348],[-8404,406],[-27394,1423],[-29210,1537],[227,1461],[1120,6806],[-2649,113],[1923,13518],[-6618,283],[-24894,1112],[-212,-1310],[-3165,179],[1317,8389],[2665,17430],[-7102,368],[-227,-2348],[-17550,1085],[-197,-1273],[-11463,707],[2604,16016],[-7193,245],[-363,-2253],[-28044,1414],[-1575,-10483],[-24229,1075],[-1347,-10709],[-1363,-131],[-1318,141],[-817,622],[-697,104],[-833,471],[-2044,-9],[-984,603],[-727,188],[-1166,1047],[-924,330],[-651,-104],[-1121,160],[-1469,-339],[-1620,189],[-2180,-10],[-651,236],[-561,-95],[-1120,481],[-727,10],[-348,433],[-924,302],[212,405],[-591,57],[-242,735],[303,547],[-485,283],[-166,735],[1696,-113],[2438,13904],[4845,-245],[1999,13518],[1605,10623],[-10539,566],[-9737,641],[-29392,1829],[909,5269],[-8329,481],[-2393,999],[546,405],[-182,312],[91,659],[-349,613],[-802,330],[-379,688],[227,255],[-287,810],[757,66],[545,245],[-242,641],[-969,745],[-636,208],[15,490],[-409,1056],[106,669],[-379,396],[288,358],[-121,895],[848,491],[1105,56],[243,632],[-970,735],[0,481],[864,424],[-727,745],[409,396],[-61,462],[742,263],[-30,510],[605,235],[-530,971],[197,754],[-287,283],[-1257,132],[-455,339],[-1332,519],[500,603],[-212,415],[196,660],[-348,660],[-1014,235],[-818,622],[-303,406],[-197,848],[-651,330],[-1105,123],[-697,971],[-15,301],[-1196,387],[-530,905],[-2347,782],[60,368],[-394,763],[-484,189],[378,452],[-257,726],[242,651],[-1120,631],[-258,547],[349,302],[-349,433],[91,424],[-303,707],[-666,302],[-45,396],[-485,245],[-1181,-75],[-651,678],[181,745],[-136,584],[-469,217],[45,500],[-893,839],[-137,367],[-1529,453],[-515,320],[-590,-84],[-788,810],[-1544,293],[-424,-255],[-1136,632],[136,867],[818,961],[106,443],[-121,726],[-576,717],[-75,424],[-606,688],[151,537],[-272,632],[333,283],[636,905],[954,216],[6860,-273],[1181,9229],[12704,-736],[-318,-2215],[17188,-980],[757,5005],[-773,0],[-1029,-245],[575,5534],[152,1234],[11054,-395],[318,2696],[-24804,1084],[1893,15290],[1726,329],[1590,-1065],[1393,123],[1424,-85],[333,-226],[-46,-745],[424,-104],[1863,321],[1287,66],[1590,-170],[787,-349],[833,-603],[1409,160],[1287,556],[1681,604],[802,6551],[-9101,302],[606,6467],[3695,-180],[1075,7080],[1302,8578],[22775,-1376],[560,3582],[23063,-1179],[-470,-3450],[16824,-1225],[-7783,5665],[15990,8107],[1030,537],[17354,-13244],[6890,3478],[18262,-12433],[13522,7013],[31,424],[-742,632],[-606,886],[-984,509],[-167,283],[-1015,462],[-923,47],[-1363,537],[-636,575],[-1242,358],[-1696,-47],[-1923,170],[-1363,245],[-1408,519],[25076,13781],[9238,-6514],[15067,12123],[5996,4826],[-848,-122],[-1984,151],[-363,330],[-999,122],[-712,783],[-454,150],[-1772,1094],[-1000,292],[-166,330],[-1772,547],[-1045,707],[-91,264],[-757,367],[91,387],[-530,198],[-439,735],[-697,236],[-923,75],[-757,358],[-652,38],[-1090,453],[-182,348],[-923,462],[13113,10869],[2287,15149],[3574,23915],[4967,22963],[2513,11632],[6224,5496],[9358,-3846],[6542,5769],[15,236],[-1166,660],[-1832,1263],[-1742,914]]],"transform":{"scale":[0.0000066038066038066105,0.000010608310608310608],"translate":[140.9956,-19.6964]},"objects":{"qld_far_north_ddmg_boundaries_gda2020_simp200m":{"type":"GeometryCollection","geometries":[{"arcs":[[[0,1,2]],[[3]],[[4]],[[5]],[[6]],[[7]],[[8]],[[9]]],"type":"MultiPolygon","properties":{"District Name":"Cairns","DDMG Name":"Cairns","Area Sq Km":268659.12,"Police Region Name":"Far Northern Region","Police Region Code":"FNR","Police Region Short Name":"Far North","Region Slug":"far_north","Layer Id":"qld_far_north_ddmg_boundaries_gda2020_simp200m","Layer Group":"per-region","Layer Kind":"ddmg","Source":"QPS Disaster Districts, Queensland Police Service, via the Queensland Government Open Data Portal","Source URL":"https://www.data.qld.gov.au/dataset/qps-disaster-districts","Licence":"CC BY 4.0","Licence URL":"https://creativecommons.org/licenses/by/4.0/","Dataset Date":"19/05/2025","Simplification Tolerance M":200,"Coordinate Precision Decimals":4,"CRS":"GDA2020 (EPSG:7844)","Modified":"Simplified and repackaged from the source dataset; see Source URL"},"id":"Cairns"},{"arcs":[[-2,10,11]],"type":"Polygon","properties":{"District Name":"Innisfail","DDMG Name":"Innisfail","Area Sq Km":15768.83,"Police Region Name":"Far Northern Region","Police Region Code":"FNR","Police Region Short Name":"Far North","Region Slug":"far_north","Layer Id":"qld_far_north_ddmg_boundaries_gda2020_simp200m","Layer Group":"per-region","Layer Kind":"ddmg","Source":"QPS Disaster Districts, Queensland Police Service, via the Queensland Government Open Data Portal","Source URL":"https://www.data.qld.gov.au/dataset/qps-disaster-districts","Licence":"CC BY 4.0","Licence URL":"https://creativecommons.org/licenses/by/4.0/","Dataset Date":"19/05/2025","Simplification Tolerance M":200,"Coordinate Precision Decimals":4,"CRS":"GDA2020 (EPSG:7844)","Modified":"Simplified and repackaged from the source dataset; see Source URL"},"id":"Innisfail"},{"arcs":[[-3,-12,12]],"type":"Polygon","properties":{"District Name":"Mareeba","DDMG Name":"Mareeba","Area Sq Km":133479.58,"Police Region Name":"Far Northern Region","Police Region Code":"FNR","Police Region Short Name":"Far North","Region Slug":"far_north","Layer Id":"qld_far_north_ddmg_boundaries_gda2020_simp200m","Layer Group":"per-region","Layer Kind":"ddmg","Source":"QPS Disaster Districts, Queensland Police Service, via the Queensland Government Open Data Portal","Source URL":"https://www.data.qld.gov.au/dataset/qps-disaster-districts","Licence":"CC BY 4.0","Licence URL":"https://creativecommons.org/licenses/by/4.0/","Dataset Date":"19/05/2025","Simplification Tolerance M":200,"Coordinate Precision Decimals":4,"CRS":"GDA2020 (EPSG:7844)","Modified":"Simplified and repackaged from the source dataset; see Source URL"},"id":"Mareeba"}]}}}