{"type":"Topology","arcs":[[[637233,599182],[-468,4898],[-2309,2083],[-1071,386],[-2643,3895],[-5086,1157],[-1606,-386],[-3480,2430],[-1740,2469],[-1338,-1042],[-1673,0],[-2309,-1851],[-1104,154],[-3513,4590],[-1740,502],[-2443,3471],[-1505,1118],[-502,1543],[1138,2083],[-937,4243],[502,887],[-536,2353],[-1204,1735],[-5220,-424],[-3948,347],[-2309,810],[-2911,2738],[-6123,-308],[-2844,2198],[-2309,3510],[-1806,-540],[-168,-1427],[-2844,-848],[-803,2237],[-1974,115],[-2710,2623],[-1405,4436],[-1439,347],[-736,2854],[-3647,1350],[-469,1928],[-2007,1736],[-1740,579],[-4350,-348],[234,-3934],[-1104,-2005],[-2141,-1312],[-2242,772],[-4484,3394],[-3312,1080],[-2509,-386],[-2175,-2391],[-2711,-2006],[-2409,-3471],[-2208,-6094],[-703,-2700],[-3948,-7560],[-1439,-1735],[-1204,-2585],[-2008,-578],[-2844,1234],[-1940,-540],[-1974,-1967],[-2744,-694],[-970,1620],[769,5515],[-970,1003],[-1807,77],[-1338,-1350],[-670,1427],[-1907,849],[0,2546],[1104,-193],[904,1504],[468,2507],[-903,1466],[-1071,6364],[3446,-695],[-669,2893],[1673,1119],[2108,-1235],[1673,425],[602,3432],[-1907,1582],[-836,1851],[-2710,1119],[535,1697],[1740,1080],[1204,5207],[-535,3394],[903,1350],[2711,2314],[1037,0],[2810,2083],[-635,1658],[836,1543],[201,2545],[-2409,1350],[2476,4783],[1907,-1157],[1673,887],[-33,1157],[-2744,1774],[970,2585],[1740,1697],[3246,347],[468,1658],[1606,-115],[-2409,6132],[-1238,-77],[-1706,2044],[468,1813],[-3614,1157],[-1371,1929],[-3681,-270],[-1271,-1235],[-536,-1697],[-2476,-1080],[-2710,733],[-368,1196],[-2944,1967],[-1305,-772],[-2008,-4049],[-502,-1967],[1138,-3510],[-535,-2122],[736,-810],[-1372,-2661],[-1774,-231],[-1539,617],[-3747,-39],[-1339,-1581],[-1405,1466],[-2275,3895],[-2777,-964],[-1138,4165],[-2108,849],[-33,1234],[-2878,1003],[603,2661],[-904,1736],[-33,4011],[-937,1582],[970,2969],[-468,2970],[-1205,502],[-736,2005],[-1472,-578],[-10172,14078],[-1706,-656],[-201,-2314],[-2610,810],[-937,-1736],[-2643,386],[-2141,-1659],[535,-1195],[-4483,-1042],[-1673,1080],[-101,1350],[-1137,1350],[-3012,-2700],[-1706,887],[-1071,1505],[-1004,-1389],[-2777,-424],[-167,-2237],[-1807,77],[-1372,1003],[-1204,-9373],[-9235,1312],[-1472,-887],[-2945,115],[402,3587],[-703,810],[-2777,1042],[-268,-810],[-2944,1504],[-1874,-579],[-1907,463],[-2643,-1311],[-3078,1234],[-804,-1427],[-1405,1581],[-3480,1080],[-1505,1504],[1405,2315],[1807,1311],[1037,3973],[736,1003],[2945,6209],[267,1543],[-2777,887],[335,1196],[-435,2700],[1104,5014],[0,2353],[-1439,1542],[335,1736],[-4651,6480],[-2175,308],[-1138,1389],[-535,2738],[1171,3124],[-3379,3973],[937,2469],[-435,1619],[1673,2700],[1271,-308],[1807,-1504],[870,1774],[1572,1465],[3480,270],[3246,1350],[234,1697],[1506,579],[-1038,2584],[435,3394],[1540,1774],[-67,3896],[-670,1620],[1171,1890],[-100,3394],[-1840,617],[-1673,2314],[1004,2083],[-1841,3741],[-2174,502],[100,2854],[-2543,3664],[301,2700],[-1506,1157],[-1739,-154],[-1473,-1003],[-2609,1041],[-1038,-2044],[-2141,-1080],[-1740,-154],[-2777,-1311],[-1238,-1158],[-3714,-964],[-1506,964],[-502,2083],[-1572,502],[-2610,-3780],[-3848,771],[-1137,-578],[-2075,1658],[-1706,2623],[-1071,-116],[-2978,1543],[100,3201],[-2308,2700],[-368,2237],[1438,2893],[101,1543],[-1774,925],[-903,2777],[870,1505],[-2141,3471],[602,1118],[2543,-1041],[2242,579],[2007,-193],[1673,655],[1673,-617],[770,1466],[-3949,13692],[-234,4204],[-1874,3973],[-1739,2623],[301,1890],[-603,1735],[-1438,1659],[-1305,-309],[-2978,1543],[-3513,-1427],[-1506,-1543],[-3781,-1658],[-1506,-116],[-2911,-1890],[-2007,579],[468,-3240],[-3613,-4474],[-1439,38],[-2409,1813],[-803,1890],[1874,2700],[-1573,2545],[268,2777],[2509,6403],[2142,1196],[-1205,3047],[-2008,1890],[-669,3471],[-1773,3625]],[[325459,900797],[3212,5362],[2141,1851],[235,2083],[936,656],[1908,4358],[2342,926],[669,-1196],[1807,270],[1070,1504],[2108,-2468],[2376,-926],[2944,656],[1004,3201],[301,4050],[1673,617],[2945,-309],[2911,1620],[3045,5670],[-2242,2237],[-703,2931],[1773,193],[4685,-2854],[1405,-77],[502,1813],[1740,2275],[1606,6441],[-602,1505],[1305,1080],[2308,231],[3078,-1967],[803,-2661],[-1338,-1620],[1071,-2006],[669,-3278],[2643,-2044],[-368,-1428],[2644,-1272],[1070,-1350],[335,-1775],[-1472,-2815],[2308,-1736],[4049,-694],[3312,-2893],[1105,-2584],[1773,-1273],[-669,-2584],[602,-1620],[-1272,-4821],[1105,-1851],[-1038,-926],[-2041,-4783],[-1572,-308],[-1104,-1775],[-2008,540],[-1271,-2082],[1706,-2353],[301,-2083],[1171,-1234],[368,-1543],[2008,-2970],[602,193],[3547,-1890],[3045,887],[3011,-2237],[1205,-2468],[1304,115],[2343,3163],[1338,-887],[4383,1697],[2677,-733],[3379,-2700],[1941,-771],[3145,-4358],[2643,-1157],[1506,-2045],[2008,425],[2509,2391],[-67,2083],[-2476,1234],[3011,2854],[2309,-77],[2543,1659],[1071,1928],[1840,1003],[1807,-2353],[636,-2391],[1104,-1119],[3680,-1157],[1205,-2160],[2375,-2700],[870,-1620],[2911,-2237],[469,-3432],[2074,-3973],[5019,-3973],[602,-1581],[1908,13114],[12380,-1813],[3580,-1582],[1806,-2044],[737,-2275],[1806,-1312],[937,-2661],[3714,-964],[2008,-1813],[2375,-1273],[1138,-2044],[-736,-3163],[2141,-270],[1038,1659],[3948,-39],[1405,1003],[569,2430],[2844,578],[2944,2893],[1339,3973],[1907,1774],[-1205,3009],[770,1349],[1472,-694],[3480,694],[1706,810],[3580,656],[-1371,2353],[100,1620],[1271,3664],[1573,2738],[1338,1466],[3514,154],[3714,2160],[2543,-501],[468,887],[-903,4513],[267,4937],[5789,-849],[4316,-849],[1171,9411],[-2643,386],[368,2777],[2643,-386],[234,1968],[-2777,270],[-1338,-425],[-4149,1504],[-2945,-462],[-1171,655],[469,3587],[1338,-771],[435,3163],[-1506,3124],[-401,3163],[8566,-1119],[1003,7714],[-9837,1427],[1305,771],[1874,2122],[435,2083],[-335,2314],[1707,2005],[870,2507],[2442,1312],[1004,1658],[669,3472],[-836,1542],[2911,-38],[435,694],[-2041,2816],[903,2121],[1840,2391],[4015,733],[2041,-848],[2744,-4012],[2208,-1427],[5120,1350],[3346,1967],[1739,2083],[7495,0],[267642,270],[114163,-270],[12447,-63447],[669,-7637]],[[968882,881127],[-2543,926],[-2041,115],[-5186,-2622],[-6759,-3935],[-2510,-1812],[-8632,-7483],[-2911,-3124],[-2643,-3548],[-2777,-4822],[-1707,-2237],[-7729,-8524],[-1706,-2584],[-2142,-4551],[1941,-771],[2777,1002],[1807,-193],[3580,-1311],[2710,-1581],[3045,-2430],[2877,-2854],[3213,-3973],[4583,-7483],[5220,-10028],[4417,-7444],[1606,-3625],[903,-3317],[335,-3973],[-536,-5708],[-1940,-8601],[-234,-3163],[-1305,-4281],[-4383,-8910],[-2911,-5245],[-7596,-11263],[-3078,-4975],[-2844,-3819],[-4584,-4821],[-234,-231],[-5521,-6171],[-5454,-4513],[-2342,-2353],[-3848,-3240],[-4082,-3857],[-6424,-5014],[-3714,-2160],[-6826,-3317],[-2041,-1967],[-8231,116],[-40117,0],[-26801,0],[-59090,116],[-3312,732],[-1539,1736],[-2409,1003],[-5320,-232],[-2844,1698],[-3012,77],[-2308,-1312],[-1473,-1581],[-1204,-2237],[-3279,-2507],[-736,-2160],[1940,-2661],[-200,-2353],[-4584,-2276],[-2677,733],[-301,-1581],[-2543,-2469],[-2141,1813],[-101,309],[636,1118],[-703,1427],[-2074,116],[-937,-733],[-2376,424],[-3546,-2777],[-3212,39],[-1673,656],[-3179,-3356],[-2911,-1736],[-535,-1967],[-2677,-5862],[-8499,-16084],[-2041,-8640],[-1104,-8408],[-7194,-8369],[-4115,1234],[201,-3857],[-2878,-193],[-1807,-1157],[-1505,154],[-2510,-3471],[-4149,-2854],[703,-1312],[-870,-1350],[535,-1079],[-2911,-3626],[-1004,0],[-1338,-2276],[-4015,425],[-2978,-656],[-167,-810],[-8365,-8138]],[[535249,256836],[-602,2700],[-26601,3626],[134,1697],[3514,2198],[803,5091],[1706,1119],[2777,-1774],[870,463],[-33,3047],[-870,1658],[2609,4127],[1071,-2083],[2242,-964],[1740,1119],[1104,2121],[2309,-2314],[-2309,-2469],[335,-1465],[1639,-695],[2075,348],[736,1272],[-368,2777],[1940,-1735],[2610,38],[1138,-733],[-569,-2699],[-1640,-425],[-1806,-4050],[368,-1349],[2509,-1389],[1773,2276],[1640,-1196],[-2376,-5284],[1506,-579],[-703,-1735],[1038,-1620],[-2309,-1119]],[[968882,881127],[769,-1929],[-67,-3664],[-702,-7868],[-970,-13692],[-569,-12381],[-168,-6210],[435,-11532],[870,-6943],[937,-5438],[1774,-6403],[568,-733],[2008,-5824],[1773,-4319],[1606,-3202],[3179,-4281],[3915,-3780],[3580,-2854],[4416,-1388],[2443,-116],[2509,656],[402,-1466],[-201,-4783],[335,-4088],[602,-3626],[1405,-2198],[268,-1774],[-1238,-4937],[-2074,-5053],[-2644,-5477],[-5788,-13384],[-2911,-7636],[-1606,-3587],[-13652,-34520],[-2375,-5092],[-3179,-8022],[-6725,-15775],[-904,-2430],[-5654,-12921],[-2911,-7753],[-2945,-6942],[-5253,-13422],[-3881,-10491],[-2509,-6326],[-6592,-17395],[-1338,-4011],[-3547,-9604],[-6826,-20403],[-3680,-12651],[-2844,-11687],[-1339,-6981],[-1204,-7791],[-301,-7598],[468,-6904],[636,-5130],[1305,-6788],[1104,-4127],[234,-4397],[-2342,-9720],[-1773,-3163],[-235,-3047]],[[905476,456126],[-4048,617],[-6324,-38],[-1539,-2623],[-1037,-3124],[-703,-3510],[167,-3317],[1205,-5014],[-669,-3703],[-3447,-1620],[-2409,-2584],[-4651,-3587],[-3412,-1003],[-1272,-1195],[-50356,8871],[-4417,848],[-30883,5477],[268,-1928],[-2376,1234],[-3613,1041],[-1740,39],[-234,-1620],[2442,39],[1338,-695],[-1606,-2082],[3514,-5824],[1438,231],[302,-2160],[3379,-694],[2007,-1119],[502,-3548],[-2609,-579],[-268,-1812],[-1640,-3472],[67,-2661],[-1171,-1196],[-2041,-424],[-3011,231],[-4149,-1697],[-1238,-2468],[0,-1697],[-3179,-2044],[0,-1196],[-2074,-1659],[-5354,849],[-836,-5708],[1874,-309],[-502,-3355],[-2041,308],[-937,-6788],[-2644,-347],[-702,-2314],[-11343,1812],[268,2584],[-3614,540],[1004,6326],[-4383,694],[435,2199],[-569,694],[-11309,1736],[401,3625],[-1439,2044],[1473,2469],[-2844,347],[-569,-4397],[-3078,926],[635,3239],[-1740,3395],[-13216,1967],[-1840,771],[-1171,-964],[-7361,1118],[-737,2507],[-2643,116],[-435,1890],[-4885,810],[-970,1967],[-8465,1350],[635,4281],[-3914,579],[234,1735],[-7294,1080],[-1038,-3664],[-1940,-887],[-1138,386],[-836,2661],[-9837,1427],[-1606,-11686],[-2476,578],[-904,-5940],[-22518,3742],[-10640,1581],[-100,-386],[-8566,1273],[-12112,1543],[-34,2121],[-3279,1234],[-2342,-2044],[-2141,116],[-971,1273],[-2007,1195],[-1305,1466],[-1071,-1620],[-33,-3085],[-2376,-78],[-368,1543],[-1706,2044],[-703,2777],[837,2816],[-1305,1890],[-2309,-1967],[-1472,38],[-603,-2159],[-3379,-1929],[-1706,540],[-1439,-1388],[-2610,-926],[-636,-2391],[-4015,-1080],[-502,1350],[-3379,1697],[-1405,1311],[1338,2816],[1171,4667],[-502,1504],[-3613,193],[-1740,-348],[-1506,810],[234,1890],[971,772],[-235,2430],[-903,2892],[1004,2932],[-870,887],[-67,3587],[2309,2468],[-235,3317],[1238,1929],[-3279,1234],[-2442,-849],[-1138,1080],[-3446,1543],[-1673,2276],[-502,1658],[-1338,463]],[[544919,468160],[-402,7791],[402,1582],[-803,3702],[-5053,1427],[736,1697],[-100,5285],[2074,231],[2811,1234],[2108,-2430],[2275,1582],[1439,1928],[770,7290],[-369,1465],[770,2238],[-2208,2391],[502,3433],[2074,3008],[2811,2661],[937,3163],[2810,-154],[1071,8871],[1472,2545],[2275,-1118],[1071,-4474],[2944,2314],[3848,-1504],[2209,-2816],[2643,-1427],[669,1543],[3881,1311],[1506,1157],[1104,-308],[1104,1427],[168,2970],[-1238,1697],[-737,2893],[502,1967],[4250,964],[267,1427],[1707,463],[-167,1311],[3412,232],[2041,1041],[2811,463],[3446,3394],[-502,5631],[904,4783],[1037,2083],[2275,2391],[1238,2545],[0,2353],[4751,1504],[2543,-231],[1941,424],[1004,-925],[1907,347],[-234,2738],[4115,-578],[1004,-1852],[970,1659],[2041,-77],[4350,-2353],[3748,-116],[1840,-424],[100,2816],[937,1041],[201,2468],[-1372,1080],[703,5284],[1238,810],[-335,1775],[-1639,540],[-2175,2005],[535,2353],[-1138,3278],[603,1119],[3513,10337],[368,347]],[[905476,456126],[-1572,-3124],[937,-4397],[368,-6325],[1305,-10028],[1438,-6249],[1473,-4551],[1238,-2661],[1371,-1659],[3079,-5322],[1673,-2392],[3078,-3548],[4651,-3780],[4283,-2044],[2944,-772],[3580,-231],[2041,347],[1539,1427],[2242,5747],[1539,1466],[1673,-2199],[-33,-1350],[-1774,-771],[-3312,-7290],[-5019,-11725],[-5086,-12844],[-4249,-11648],[-3681,-11686],[-4283,-12998],[-4349,-15390]],[[912570,320129],[-41055,6827],[-435,-3124],[736,-771],[-937,-6789],[-1840,-3317],[-435,-2622],[-1271,-425],[-168,-1427],[-1405,-1928],[-3781,-810],[-301,-1697],[-1439,-733],[-2074,694],[-3781,-810],[100,-4204],[-6223,964],[-234,-1620],[-1974,309],[-469,-3356],[-1238,1003],[-2610,3626],[-2810,2314],[-7830,1080],[-970,-7714],[-6424,887],[-201,-1697],[-1706,-1196],[836,-5901],[-1673,-463],[904,-3124],[-5789,-19748],[-569,-3548],[-2308,-3741],[-770,-2546],[-1539,-10221],[-3179,540],[-3680,1659],[-1539,-6557],[-770,154],[33,-3896],[1774,-115],[-736,-4937],[200,-3240],[3380,-540],[-402,-2739],[1205,-809],[2610,385],[1372,-1311],[1003,-4706],[-970,463],[-770,-5361],[1372,-309],[-2041,-14193]],[[809749,198789],[-201,-1389],[-10372,1774],[34,-2699],[2576,-155],[67,-2391],[-1339,-656],[-3078,-2970],[-1037,-2468],[-1506,-579],[-368,-3432],[6157,-926],[-803,-5554],[2576,-887],[703,-1504],[-770,-2353],[-1271,-540],[-1640,887],[-100,-2893],[-1840,-2275],[-971,1002],[-1572,-925],[-2476,3625],[-1439,-1080],[-1640,2315],[-4617,-3587],[-770,38],[-602,-4011],[-3279,-3317],[-1974,-1042],[34,-2969],[-3012,-540],[-1673,-2662],[636,-2082],[-803,-3240],[-3513,617],[-3246,-386],[-2242,1659],[-334,1002],[-2978,1543],[-2643,424],[-3413,1196],[-2309,-887],[-2175,501],[-1974,-501],[-134,1774],[-1137,694],[-2342,-2391],[-1105,-116],[-1438,1813],[-2878,-463],[-1372,-1195]],[[738146,154588],[-1907,578],[-1506,-463],[-1539,733],[-2108,3587],[-14253,1929],[1238,-3934],[2409,-3395],[-837,-771],[-21046,2931],[502,3819],[-3178,463],[602,4397],[-3513,501],[3111,10144],[-2041,1196],[-301,-2160],[-1305,-695],[-1171,2507],[101,1852],[1405,2507],[-234,2314],[1974,2546],[1104,7984],[-870,-1003],[-2108,308],[1405,9951],[-2241,116],[-536,-1196],[-3379,-540],[-1272,-1157],[-2911,1157],[-1639,-2661],[-1506,-1080],[-1271,1196],[-3012,-1967],[-1204,1427],[-3246,0],[-1338,1543],[-770,2237],[-2141,-270],[-1271,-1235],[-1506,425],[-2008,-1582],[-2041,540],[-1572,-1427],[-2978,-1427],[-3614,-656],[-1372,-1465],[-1371,3240],[-2309,1388],[268,772],[-2677,1774],[-1037,1350],[-1707,810],[-1572,1620],[-3547,-425],[-268,-4165],[-1673,-1774],[-1940,0],[-837,-965],[-134,-1967],[-1037,-771],[-970,-2276],[-2577,-463],[-568,-887],[-2945,-347],[-1941,-1504],[937,-964],[168,-3433],[-1038,-1504],[-2643,1620],[-870,-540],[-1238,-2700],[-2911,424],[-669,1581],[-2376,2623],[-903,1774],[-2409,2122],[-1004,1504],[-3480,1736],[-2275,2352]],[[601699,196397],[2075,14310],[-569,694],[-301,3471],[-1272,1582],[-33,2738],[-2510,309],[-836,1851],[-1339,694],[-435,1505],[-1639,925],[-1573,-1620],[-803,2237],[-1840,1543],[-2643,309],[-1740,1272],[736,3240],[-1271,270],[267,2392],[-2810,38],[-4082,1620],[-1205,-193],[-2710,3009],[-1405,964],[-3815,1620],[-1238,-9103],[-870,579],[-17131,2430],[-1874,1041],[-1974,-463],[134,2700],[-1104,1659],[3848,2623],[502,1118],[-1606,1466],[14053,-1890],[2375,3510],[1539,347],[1841,4628],[702,116],[1004,3664],[1037,8023],[1305,2507],[-234,3047],[-1773,1928],[-1038,1967],[-1472,656],[-468,4050],[-1238,5168],[-34,3163],[-3145,2237],[-4015,-3124],[-2710,3741],[-837,-309],[-3045,4243],[-3814,-1196],[-1338,5014],[970,1389],[1037,2816],[-134,2237],[-3245,1967],[368,2121],[-3814,4821],[-4819,772],[937,6981],[-1070,1350],[301,1272],[-402,5940],[-3546,772],[-2677,1002],[-1372,4552],[2576,887],[2276,-347],[2409,2622],[1405,193],[1974,3664],[-16462,2623],[1706,11610],[-1673,1350],[0,1504],[2610,1003],[1506,3471],[-1305,1697],[-1706,3394],[167,3741],[-9034,1427],[33,-887],[-21112,3202],[-5120,694],[-702,-5593],[-6960,926],[134,1350],[1372,1118],[769,2777],[-3814,502],[2543,19092],[-16563,2430],[-2944,1581],[-903,3240]],[[463044,403980],[2007,-386],[1272,772],[401,1851],[1974,964],[2443,2469],[301,2970],[-602,925],[0,3009],[1003,1697],[402,2391],[-1640,2160],[-501,1581],[535,2430],[-34,2662],[-936,3587],[-1138,848],[-703,2546],[937,1465],[-100,2353],[-1138,1466],[134,2584],[-703,2198],[737,1505],[1606,655],[1003,2777],[-568,965],[-2677,540],[-168,1388],[-2275,733],[34,1388],[1539,810],[1740,4552],[2743,-887],[1673,115],[0,1273],[-1806,2623],[1371,2237],[3079,540],[769,1967],[-368,3278],[3480,617],[1840,-925],[1573,-1582],[-736,-1272],[1003,-1620],[770,-3549],[-201,-1890],[1774,-732],[2710,1542],[769,-732],[101,-3742],[3781,-1465],[1840,-2160],[5621,-1119],[3982,-3201],[-736,-2006],[1338,-2815],[268,-2122],[1137,-617],[536,-2815],[2308,-116],[1138,-2546],[-468,-1195],[334,-2662],[1238,-2430],[2510,-1967],[3178,-848],[2878,1774],[2375,154],[670,1774],[1405,78],[1037,2584],[2208,2005],[1305,39],[870,2044],[1472,1119],[1372,3664],[1205,-347],[2442,1350],[-502,2892],[1105,2507],[401,2199],[1874,-1080],[2442,4783],[-468,2854],[268,1890],[1171,2160],[-837,1812],[1272,1852],[1572,0],[904,1041]],[[912570,320129],[-1774,-6634],[-4015,-16778],[-1773,-8369],[-3011,-17241],[-870,-7135],[-301,-9759],[669,-7443],[1974,-7174],[2108,-4397],[1606,-2430],[1606,-1080],[2710,-849],[2576,2662],[1540,-116],[870,964],[2676,-1350],[-435,-2430],[703,-2160],[-970,-2700],[-1807,-9218],[-2677,-14772],[-602,-6248],[-1037,-7946]],[[912336,187526],[-4584,1157],[-335,695],[636,4319],[-4618,1003],[2108,2739],[1004,2468],[301,3587],[-2074,-540],[-4183,964],[-2141,1698],[167,1889],[1640,2739],[1372,231],[-1004,2507],[-3580,618],[-636,-4359],[-1740,309],[-2576,-579],[-2075,39],[-7361,1157],[-468,1774],[-2978,733],[-3446,-617],[-6759,1080],[-435,-3124],[-6257,1195],[-435,-2854],[-3045,579],[-100,-733],[-4584,771],[-1506,-2391],[-1673,-579],[-3011,-77],[-1171,-1196],[-2510,-385],[-2375,-2777],[33,-2932],[-1941,1196],[-2910,463],[-536,-3356],[-5353,-2815],[-2443,-2006],[-736,1042],[-2677,-2045],[-2576,-1311],[-368,-2584],[-4216,463],[-669,1427],[334,2198],[-1606,2661],[-1773,1736],[335,2276],[-5053,810]],[[463044,403980],[-1372,1196],[-1707,270],[-2476,-2006],[-3613,1967],[-3346,501],[-4316,2546],[-3748,3047],[-8833,2044],[-2677,155],[1506,5862],[-1372,1466],[736,1658],[-3245,2816],[1070,3317],[-2844,77],[-1137,1389],[-2108,-772],[-1071,1003],[-1305,2970],[-2777,501],[-2309,1813],[-2877,-193],[-1238,-1967],[-3815,-1813],[-1539,270],[-1372,1736],[-6892,1157],[-2008,-810],[-2509,1697],[-2476,-694],[-904,887],[-2643,-848],[-1305,501],[-2342,-849],[-2978,-20287],[-3045,-193],[-1639,1890],[134,1928],[-1205,2160],[-1338,232],[-1539,-2199],[-168,-1234],[2711,-1736],[301,-2044],[-1372,-2044],[803,-849],[2409,887],[2476,-1080],[335,-1619],[-1975,-6827],[971,-3394],[-2008,-3279],[-2777,-2314],[535,-3201],[-1873,-849],[-301,-4165],[-1138,-1119],[-1974,424],[-301,-1118],[267,-3664],[-1639,-656],[-28909,-2391],[-9067,1388],[-2209,-2353],[-2810,116],[-5354,-5361],[301,-1620],[1907,-2121],[-368,-2430],[-1037,-733],[-4584,-5824],[-1439,-2816],[-3279,-2892],[-3680,1928],[-2878,-424],[-1639,1003],[-8733,1427],[-32389,4821],[-3178,231],[-2510,1273],[-8097,1581],[34,-2082],[-670,-5516],[-2409,-3124],[-334,-1774],[2208,-1582],[2710,810],[201,-2121],[-803,-2353],[535,-771],[-11911,-2276]],[[237461,342538],[-1673,579],[-2141,3857],[-2744,-1157],[-3614,-193],[-2777,424],[-2543,964],[-5554,3086],[-1840,2314],[-636,4436],[-2175,3857],[335,2430],[-3045,4667],[-1573,6171],[-1940,1427],[200,1427],[-7294,-2353],[-4149,1504],[-5788,-1195],[-1907,501],[-2142,2623],[-2108,347],[-2710,-1620],[134,-1697],[-837,-2584],[-18168,-14271],[-19942,2893],[-3044,7868],[1505,2353],[201,1465],[-937,1157],[-2476,1312],[569,1388],[-1305,3973],[-2208,2777],[-1138,3664],[-2242,347],[-5989,-154],[-3078,347],[-1405,-308],[-1975,-1620],[-1773,154],[-4115,4204],[-3815,579],[-2978,848],[-3011,232],[569,2468],[-469,2314],[-1271,3086],[-134,2507],[3547,5477],[368,2314],[1472,3317],[33,3355],[-1773,2778],[-468,3471],[535,2430],[2409,1427],[1974,2661],[569,2931],[1271,3009],[-1171,2507],[-5453,7637],[-2343,1311],[-468,2507],[-4249,2623],[-2844,4011],[2576,887],[-4283,5709],[803,2854],[1238,1774],[3212,347],[2242,3703],[-937,2352],[-267,4899],[468,4705],[-4919,2507],[-2141,4089],[1104,4011],[1774,2507],[1505,502],[67,2005],[2376,3047],[67,1196],[-1673,964],[-1071,2584],[-468,4706],[-14120,2121],[-6960,617],[-1974,3549],[-5019,2044],[-3045,-463],[-2743,-849],[-2409,463],[-2677,-501],[-4551,-1427],[-2342,1813],[-4483,1812],[-2777,2932],[-3848,8562],[-669,309],[-12012,2507],[-1707,-1003],[-1305,-1890],[-3546,1389],[-3781,578],[-335,1620],[-2409,270],[-1673,-849],[-334,1929],[936,3818],[1406,1350],[1505,4860],[-769,2391],[-2309,3703],[-234,3973],[569,1658],[-4082,2199],[736,1813],[-837,2622],[3647,4744],[-334,1659],[-1339,1080],[-2844,-964],[-1305,385],[837,2816],[-803,2623],[-2911,-926],[-703,386],[469,2545],[-1974,810],[-335,1736],[1874,1697],[301,4050],[7428,5400],[2342,6132],[-1740,1312],[-2911,3548],[937,1003],[2744,848],[-937,4320],[1807,2006],[-3012,2777],[3815,4590],[1639,655],[736,1813],[1305,849],[-3547,1812],[-267,1235],[3011,2159],[1305,2585],[-502,1041],[201,4243],[-669,2005],[3379,2623],[3647,-540],[1707,1851],[-268,1543],[2242,5246],[-803,1774],[100,2314],[-1405,1504],[468,2546],[3580,347],[1439,1157],[-2141,5554],[702,2353],[2476,270],[1138,3356],[-134,2429],[2275,2932],[1038,540],[602,4320],[-1439,7328],[-669,1465],[703,1158],[-268,2044],[2141,-116],[2878,-1620],[5320,926],[-1405,2314],[3379,5014],[3446,1196],[4183,2198],[6825,39],[2041,1195],[34,2160],[1472,1543],[0,2469],[-1004,1427],[-803,3124],[1339,2623],[1572,1195],[1606,3317],[2911,1119],[-4283,4320],[-2308,1542],[-870,1196],[535,4166],[-769,1465],[-536,2662],[-1874,4898],[-100,3278],[469,2546],[-168,9218],[-502,4204],[1874,9180],[-2342,3394],[-2242,6441],[937,694],[5287,13654],[-536,3394],[669,5824],[7462,20134],[3647,810],[970,2700],[1171,1002],[1774,13346],[836,1002],[-1405,3433],[-5119,22409],[167,386],[8164,7290],[3580,925],[4952,-77],[469,3548],[1171,1659],[4650,1041],[2476,-3702],[1238,-347],[4317,1812],[3245,-1311],[3380,116],[3212,-617],[5219,809],[2142,1428],[1940,-155],[3313,-1581],[4316,-540],[2409,-1389],[3078,-3085],[1874,-77],[2978,1427],[12748,-2353],[8666,-2237],[1272,501],[2275,-732],[2610,1002],[1137,2237],[870,5902],[-1372,1697],[1038,2777],[1204,424],[903,4088],[2008,579],[1305,2738],[2610,2777],[1873,3202],[1172,1118],[-3447,3124],[-870,2083],[-200,2469],[-2644,-502],[-2308,2546],[-5086,-2237],[-3380,2083],[-635,1079],[-2175,1119],[-3480,694],[-5253,5169],[-1405,462],[2442,18514],[1272,-1736],[2643,772],[2309,-1543],[1204,1967],[268,2198],[1204,-154],[1004,-2584],[3915,-617],[1271,1658],[2644,-385],[568,1774],[17198,-5863],[3949,-964],[5353,-2237],[3012,-1196],[1271,887],[-1004,2546],[-234,3317],[234,3394],[1640,1312],[2241,-116],[-2910,4783],[-1607,1311],[-635,4937],[-736,2314],[0,2353],[1740,1735],[568,3125],[1205,192],[1740,1543],[0,3240],[1137,1659],[67,2661],[837,771],[234,2507],[803,2739],[-201,3587],[1707,1620],[334,7135],[-769,2970],[401,2661],[2142,1389],[401,2738],[1439,1697],[3948,-964],[1673,1234],[2175,-115],[435,771],[4952,-849],[1137,-2892],[-903,-1157],[67,-3125],[2376,-2815],[836,0],[837,-2854],[1204,578],[2911,-2507],[770,-2044],[5989,-1196],[2744,-3587],[568,-3124],[2108,-1581],[301,-2970],[2644,-1697],[1070,2893],[1473,-463],[3881,1735],[1271,3163],[1908,-1350],[3279,-578],[267,-1852],[5019,-5245],[-100,-2121],[-1539,-888],[-904,-2507],[-67,-2160],[-2007,-3355],[-435,-1967],[602,-3471],[-1205,-2006],[670,-2006],[-469,-2160],[1305,-1388],[234,-2199],[1539,-1272],[2309,231],[1506,1659],[3413,1272],[5286,887],[870,3279],[2376,-540],[4048,1196],[2242,-1196],[134,-1736],[-1338,-10414],[502,-1080],[-770,-1812],[-1706,-1466],[736,-1543],[-670,-2545],[3848,-16123],[-2241,78],[-2510,1234],[-2777,-39],[-1104,-1273],[-2041,-732],[-1539,-1967],[334,-2932],[1506,-540],[2409,1389],[201,1003],[4383,1465],[1405,-1813],[1974,-154],[34,-1543],[2375,-3972],[3380,-1235],[2041,-3664],[702,1350],[2844,1003],[904,2353],[1740,-926],[903,926],[2911,-502],[2777,-925],[1841,-3934],[1672,-232],[1406,694],[134,3317],[1137,540],[-334,1582],[2007,2005],[803,-347],[1707,1505],[1405,-502],[3045,39],[1907,-1505]],[[601699,196397],[-1606,309],[-803,-1157],[-1874,810],[-267,-1813],[-1439,-964],[-1740,1234],[-2911,-193],[-1071,-2931],[1305,-2353],[-836,-2507],[-2710,-2391],[669,-1697],[-101,-2932],[1439,-1272],[-535,-2006],[-1272,-1736],[1406,-2082],[-736,-579],[568,-3857],[670,-617],[234,-2623],[803,-1466],[234,-2198],[-1640,-3317],[302,-1543],[1840,-1465],[468,-2585],[1339,-848],[-1640,-1890],[-2476,-1504],[1840,-5323],[-2542,-4937],[568,-1774],[-1070,-2430],[-2409,231],[-201,-2005],[-3915,-1967],[-703,-1234],[-2174,-1080],[-2878,-78],[-3011,-1581],[-2041,-2083],[-536,-1928],[803,-3896],[67,-2815],[2309,-1350],[67,-1813],[1974,-2237],[4015,-1350],[-569,-1003],[1673,-1388],[2711,1272],[2275,-3085],[1539,-1196],[1439,-2160],[502,-1851],[1505,-1080],[-1472,-1427],[1071,-2700],[3379,1041],[770,1890],[-1339,849],[469,1581],[3312,-270],[-602,-4821],[4383,-617],[-569,-1581],[-1740,-1698],[-435,-1388],[34,-5631],[2744,-2623],[1438,1041],[937,-1581],[1840,-1080],[-803,-1890],[134,-2815],[-1305,-1736],[1907,-4821],[-769,-4783],[5353,-848],[-803,-5516],[-1706,270],[-535,-3587],[836,-2661],[268,-6789],[1472,-2468],[-5354,848],[-1070,1196],[334,1774],[-3680,-2430],[-1707,0],[-2476,-2082],[-1873,-3317],[-1138,-4744],[-703,-2315],[-2174,1543],[-2711,810],[-2275,-1350],[-2175,155],[-1907,-3086],[-3279,-1041],[-1305,-1968],[-5855,-3162],[-2242,154],[-2208,2469],[-2276,385],[670,3317],[1438,347],[402,1620],[1506,849],[1639,2121],[-234,6210],[-1405,2044],[1204,1041],[602,1775],[2577,3240],[-6792,964],[-1038,1350],[-2007,-579],[-1640,540],[-1271,-926],[-1305,1273],[468,2083],[1740,-231],[669,2121],[2075,-540],[3045,2083],[1472,2314],[-1037,2083],[1505,3085],[2811,-38],[401,2237],[-1037,2083],[-1137,38],[-1071,2391],[-134,3973],[736,1851],[-535,3587],[-4082,540],[468,3935],[-1807,-1080],[-1003,-1389],[-1640,-308],[-1840,-1659],[-703,-1658],[-4015,617],[-1506,771],[-2676,3741],[-3313,-2507],[-401,-2777],[-3346,309],[-2443,-1620],[-602,-4474],[-937,-116],[-402,-2893],[-12848,1813],[-569,-38],[-2543,-3549],[-67,-1890],[-1204,-2468],[-2041,-2122],[-3145,-1774],[-1539,-2005],[67,-1736],[-1339,-1774],[-368,-1890],[535,-1620],[-602,-4204],[-1472,-810],[-1706,-2122],[-268,-2159],[-14488,-7059],[-134,-2005],[-1606,-1505],[-1372,-2314],[-2978,-2584],[-1873,-3355],[-2510,-1466],[-1104,424],[-2275,-1658],[-2978,1774],[-2677,-3086],[-4550,-2121],[-4216,-1273],[-2476,-38],[-1907,771],[-2610,-579],[-2342,887],[-2443,-1272],[-3312,1388],[-2878,2276],[-1639,-39],[-1774,2392],[-970,270],[-803,1967],[-2643,1851],[-1138,-116],[-2744,2083],[-1271,2353],[-2208,-1312],[-2543,-424],[-1406,772],[-1773,2237],[-1171,154],[-2944,3085],[-2677,-732],[-3413,3239],[-1372,-231],[-2509,1774],[-435,1119],[-3279,0],[-736,1543],[-1640,848],[-1472,-347],[-1874,4050],[-334,3471],[-1238,1350],[167,1504],[-1840,656],[-1339,2121],[-903,2469],[-2142,1581],[-301,2353],[-3011,3780],[-1171,-270],[-1707,887],[-869,2468],[-1439,386],[-1673,3818],[-837,695],[1707,2198],[-1406,2006],[-301,2121],[569,1080],[-134,2854],[670,2276],[-1673,347],[-2811,-424],[-669,1427],[-3815,193],[-1438,2391],[-2041,771],[-2209,-1041],[-736,-1273],[-3111,-578],[-4752,1504],[-3279,501],[-2041,1697],[-3613,2353],[-937,77],[-602,2122],[-268,4435],[-1640,1427],[1305,3086],[-1104,2623],[1372,3047],[-335,1735],[-3914,1119],[-2577,1465],[-1104,2430],[-803,309],[5119,3972],[669,5130],[-401,1543],[-4450,5863],[-3313,1890],[-2074,2661],[-2175,-964],[-1138,3047],[-1773,231],[-1874,1890],[-1974,579],[-937,3664],[-2375,270],[-3078,2430],[301,925],[-1104,2006],[-1540,386],[-1003,2429],[-1539,-1774],[-1473,-231],[-635,1697],[-2343,2661],[-1171,3549],[-2175,1542],[-2409,3549],[-301,1350],[234,3433],[-2743,462],[-2577,-2005],[-1873,-386],[-2610,810],[-2108,2044],[-1606,2237],[234,3394],[-1572,78],[-1740,1928],[-2744,-1697],[-2610,2237],[-1071,1466],[-2174,1388],[-2677,5014],[1305,2469],[-1573,2160],[67,1234],[1606,1928],[-234,733],[-8633,1312],[-34998,4975],[-33,116],[12714,31820],[2041,13306],[4283,28156],[769,3549],[-23388,3201],[-16662,-578],[-1138,24761],[1640,-193],[1505,-1118],[16897,8794],[1071,4165],[5521,965],[2308,-386],[-368,4011],[5755,3471],[1573,-809],[1706,-3240],[4551,-3009],[2576,502],[1037,-656],[2911,1967],[1071,1928],[-435,2893],[-1138,1389],[-267,1813],[1004,4975],[-2610,3741],[-603,2199],[-2342,540],[-1840,-1427],[-1004,925],[-2710,-3548],[-1907,-1234],[-1740,-386],[-1405,2314],[-3012,887],[-1472,-115],[-1606,1697],[-1639,424],[-1138,1967],[-1974,1311]],[[912336,187526],[-536,-3162],[-502,-6750],[0,-2970],[1004,-2430],[2309,-3201],[-669,-2893],[-971,-10182],[-33,-5902],[267,-3162],[1205,-4783],[-268,-2893],[101,-6364],[635,-2931],[603,-5207],[1137,-3355],[1406,-926],[3044,-3279],[2677,-1041],[2543,656],[-669,-9141],[-335,-9334],[134,-3510],[803,-7753],[-401,-1851],[903,-6865],[803,-2623],[2443,-1041],[0,-2238],[736,-1928],[-2911,-501],[-2443,-2662],[-1807,-10336],[-234,-2237],[502,-6210],[100,-4706],[636,-4782],[2443,-10723],[2476,-9989],[-20076,-5632],[-67,-1079],[-2509,-2315],[201,-3471],[-804,-2546],[-3747,-2854],[-2342,1466],[-1405,-193],[-603,1774],[-1238,309],[-2275,2160],[-8131,1195],[-535,-4937],[-1773,39],[-2878,-2237],[-4885,656],[-1104,-617],[-2342,1735],[-1037,2237],[-2811,-1697],[-1773,2430],[-2644,1581],[-602,926],[-6357,1042],[-3045,1234],[-1271,1774],[-2142,578],[-3212,39],[-1773,-1581],[-2409,-1042],[-1907,1852],[-3848,-926],[-5320,810],[1104,7675],[2309,1042],[1405,1311],[1004,6441],[-5354,849],[569,3317],[-1974,308],[-335,2816],[402,2777],[3781,-579],[903,6172],[-4015,655],[268,1967],[-2209,347],[502,3472],[-1740,-733],[-3145,1196],[-2074,-425],[-1138,2276],[-1506,308],[-2141,3549],[100,1041],[-2342,3510],[-2175,1620],[-1305,-810],[-2977,-308],[-1807,1851],[635,3587],[-3780,1388],[736,4744],[-2844,463],[-1372,1003],[-1941,347],[-636,-4088],[-2041,2198],[-1204,-7328],[-3446,3201],[-2075,-2661],[-1305,-656],[-836,1967],[-1874,1158],[-3982,-1003],[-4216,771],[770,2353],[-6558,1196],[-67,1234],[-2208,925],[-1171,1775],[-536,6441],[-1940,1504],[-2777,154],[-2510,-1890],[-1506,2353],[-702,2199],[-2209,-1003],[-1873,771],[-2476,154],[-770,965],[-4918,617],[-803,2353],[-1339,1427],[-1773,347],[-2510,2623],[-334,1774],[1071,1003],[-1673,4011],[502,1003],[-870,1542],[-2175,1852],[-2610,1620],[-970,-309],[-3112,772],[-602,1118],[200,2353],[2008,2160],[-703,1543],[34,2661],[-1171,-116],[6725,8331],[-268,463],[3915,4860],[1539,12111],[-803,771],[-1137,2970],[-168,1774],[870,1157],[-3379,463],[702,1697],[-301,2739]],[[918024,142978],[368,193],[836,-501],[-468,-270],[-736,578]],[[829089,37528],[1238,309],[435,-2044],[-1941,77],[268,1658]]],"transform":{"scale":[0.0000029887029887029832,0.0000025927025927025933],"translate":[150.3691,-26.9848]},"objects":{"qld_north_coast_ldmg_boundaries_gda2020_simp200m":{"type":"GeometryCollection","geometries":[{"arcs":[[0,1,2]],"type":"Polygon","properties":{"LGA Code":"1820","Abbreviated Name":"Bundaberg","LGA Name":"Bundaberg Regional","Area Sq Km":12403.96,"LDMG Name":"Bundaberg","Source Area Sq Km":12403.99881,"Police Region Name":"North Coast Region","Police Region Code":"NCR","Police Region Short Name":"North Coast","Region Slug":"north_coast","Layer Id":"qld_north_coast_ldmg_boundaries_gda2020_simp200m","Layer Group":"per-region","Layer Kind":"ldmg","Source":"Local government area boundaries - Queensland, Department of Natural Resources and Mines, Manufacturing and Regional and Rural Development; ASGS Edition 3 (2021) Local Government Areas, Australian Bureau of Statistics","Source URL":"https://www.data.qld.gov.au/dataset/local-government-area-boundaries-queensland","Licence":"CC BY 4.0","Licence URL":"https://creativecommons.org/licenses/by/4.0/","Dataset Date":"extract of 11/05/2026","Simplification Tolerance M":200,"Coordinate Precision Decimals":4,"CRS":"GDA2020 (EPSG:7844)","Modified":"Simplified and repackaged from the source dataset; see Source URL"},"id":"1820"},{"arcs":[[3]],"type":"Polygon","properties":{"LGA Code":"2330","Abbreviated Name":"Cherbourg Aboriginal","LGA Name":"Cherbourg Aboriginal Shire","Area Sq Km":31.58,"LDMG Name":"Cherbourg","Source Area Sq Km":31.7648,"Police Region Name":"North Coast Region","Police Region Code":"NCR","Police Region Short Name":"North Coast","Region Slug":"north_coast","Layer Id":"qld_north_coast_ldmg_boundaries_gda2020_simp200m","Layer Group":"per-region","Layer Kind":"ldmg","Source":"Local government area boundaries - Queensland, Department of Natural Resources and Mines, Manufacturing and Regional and Rural Development; ASGS Edition 3 (2021) Local Government Areas, Australian Bureau of Statistics","Source URL":"https://www.data.qld.gov.au/dataset/local-government-area-boundaries-queensland","Licence":"CC BY 4.0","Licence URL":"https://creativecommons.org/licenses/by/4.0/","Dataset Date":"extract of 11/05/2026","Simplification Tolerance M":200,"Coordinate Precision Decimals":4,"CRS":"GDA2020 (EPSG:7844)","Modified":"Simplified and repackaged from the source dataset; see Source URL"},"id":"2330"},{"arcs":[[-3,4,5,6]],"type":"Polygon","properties":{"LGA Code":"3220","Abbreviated Name":"Fraser Coast","LGA Name":"Fraser Coast Regional","Area Sq Km":7996.2,"LDMG Name":"Fraser Coast","Source Area Sq Km":7995.76593,"Police Region Name":"North Coast Region","Police Region Code":"NCR","Police Region Short Name":"North Coast","Region Slug":"north_coast","Layer Id":"qld_north_coast_ldmg_boundaries_gda2020_simp200m","Layer Group":"per-region","Layer Kind":"ldmg","Source":"Local government area boundaries - Queensland, Department of Natural Resources and Mines, Manufacturing and Regional and Rural Development; ASGS Edition 3 (2021) Local Government Areas, Australian Bureau of Statistics","Source URL":"https://www.data.qld.gov.au/dataset/local-government-area-boundaries-queensland","Licence":"CC BY 4.0","Licence URL":"https://creativecommons.org/licenses/by/4.0/","Dataset Date":"extract of 11/05/2026","Simplification Tolerance M":200,"Coordinate Precision Decimals":4,"CRS":"GDA2020 (EPSG:7844)","Modified":"Simplified and repackaged from the source dataset; see Source URL"},"id":"3220"},{"arcs":[[-6,7,8,9,10,11,12]],"type":"Polygon","properties":{"LGA Code":"3620","Abbreviated Name":"Gympie","LGA Name":"Gympie Regional","Area Sq Km":6936.31,"LDMG Name":"Gympie","Source Area Sq Km":6936.26533,"Police Region Name":"North Coast Region","Police Region Code":"NCR","Police Region Short Name":"North Coast","Region Slug":"north_coast","Layer Id":"qld_north_coast_ldmg_boundaries_gda2020_simp200m","Layer Group":"per-region","Layer Kind":"ldmg","Source":"Local government area boundaries - Queensland, Department of Natural Resources and Mines, Manufacturing and Regional and Rural Development; ASGS Edition 3 (2021) Local Government Areas, Australian Bureau of Statistics","Source URL":"https://www.data.qld.gov.au/dataset/local-government-area-boundaries-queensland","Licence":"CC BY 4.0","Licence URL":"https://creativecommons.org/licenses/by/4.0/","Dataset Date":"extract of 11/05/2026","Simplification Tolerance M":200,"Coordinate Precision Decimals":4,"CRS":"GDA2020 (EPSG:7844)","Modified":"Simplified and repackaged from the source dataset; see Source URL"},"id":"3620"},{"arcs":[[-9,13,14]],"type":"Polygon","properties":{"LGA Code":"5740","Abbreviated Name":"Noosa","LGA Name":"Noosa Shire","Area Sq Km":869.6,"LDMG Name":"Noosa","Source Area Sq Km":870.10279,"Police Region Name":"North Coast Region","Police Region Code":"NCR","Police Region Short Name":"North Coast","Region Slug":"north_coast","Layer Id":"qld_north_coast_ldmg_boundaries_gda2020_simp200m","Layer Group":"per-region","Layer Kind":"ldmg","Source":"Local government area boundaries - Queensland, Department of Natural Resources and Mines, Manufacturing and Regional and Rural Development; ASGS Edition 3 (2021) Local Government Areas, Australian Bureau of Statistics","Source URL":"https://www.data.qld.gov.au/dataset/local-government-area-boundaries-queensland","Licence":"CC BY 4.0","Licence URL":"https://creativecommons.org/licenses/by/4.0/","Dataset Date":"extract of 11/05/2026","Simplification Tolerance M":200,"Coordinate Precision Decimals":4,"CRS":"GDA2020 (EPSG:7844)","Modified":"Simplified and repackaged from the source dataset; see Source URL"},"id":"5740"},{"arcs":[[-1,-7,-13,15,16]],"type":"Polygon","properties":{"LGA Code":"5760","Abbreviated Name":"North Burnett","LGA Name":"North Burnett Regional","Area Sq Km":19670.43,"LDMG Name":"North Burnett","Source Area Sq Km":19670.52276,"Police Region Name":"North Coast Region","Police Region Code":"NCR","Police Region Short Name":"North Coast","Region Slug":"north_coast","Layer Id":"qld_north_coast_ldmg_boundaries_gda2020_simp200m","Layer Group":"per-region","Layer Kind":"ldmg","Source":"Local government area boundaries - Queensland, Department of Natural Resources and Mines, Manufacturing and Regional and Rural Development; ASGS Edition 3 (2021) Local Government Areas, Australian Bureau of Statistics","Source URL":"https://www.data.qld.gov.au/dataset/local-government-area-boundaries-queensland","Licence":"CC BY 4.0","Licence URL":"https://creativecommons.org/licenses/by/4.0/","Dataset Date":"extract of 11/05/2026","Simplification Tolerance M":200,"Coordinate Precision Decimals":4,"CRS":"GDA2020 (EPSG:7844)","Modified":"Simplified and repackaged from the source dataset; see Source URL"},"id":"5760"},{"arcs":[[-12,17,-16],[-4]],"type":"Polygon","properties":{"LGA Code":"6630","Abbreviated Name":"South Burnett","LGA Name":"South Burnett Regional","Area Sq Km":8379.78,"LDMG Name":"South Burnett","Source Area Sq Km":8378.58755,"Police Region Name":"North Coast Region","Police Region Code":"NCR","Police Region Short Name":"North Coast","Region Slug":"north_coast","Layer Id":"qld_north_coast_ldmg_boundaries_gda2020_simp200m","Layer Group":"per-region","Layer Kind":"ldmg","Source":"Local government area boundaries - Queensland, Department of Natural Resources and Mines, Manufacturing and Regional and Rural Development; ASGS Edition 3 (2021) Local Government Areas, Australian Bureau of Statistics","Source URL":"https://www.data.qld.gov.au/dataset/local-government-area-boundaries-queensland","Licence":"CC BY 4.0","Licence URL":"https://creativecommons.org/licenses/by/4.0/","Dataset Date":"extract of 11/05/2026","Simplification Tolerance M":200,"Coordinate Precision Decimals":4,"CRS":"GDA2020 (EPSG:7844)","Modified":"Simplified and repackaged from the source dataset; see Source URL"},"id":"6630"},{"arcs":[[[-10,-15,18]],[[19]],[[20]]],"type":"MultiPolygon","properties":{"LGA Code":"6720","Abbreviated Name":"Sunshine Coast","LGA Name":"Sunshine Coast Regional","Area Sq Km":2287.12,"LDMG Name":"Sunshine Coast","Source Area Sq Km":2286.58942,"Police Region Name":"North Coast Region","Police Region Code":"NCR","Police Region Short Name":"North Coast","Region Slug":"north_coast","Layer Id":"qld_north_coast_ldmg_boundaries_gda2020_simp200m","Layer Group":"per-region","Layer Kind":"ldmg","Source":"Local government area boundaries - Queensland, Department of Natural Resources and Mines, Manufacturing and Regional and Rural Development; ASGS Edition 3 (2021) Local Government Areas, Australian Bureau of Statistics","Source URL":"https://www.data.qld.gov.au/dataset/local-government-area-boundaries-queensland","Licence":"CC BY 4.0","Licence URL":"https://creativecommons.org/licenses/by/4.0/","Dataset Date":"extract of 11/05/2026","Simplification Tolerance M":200,"Coordinate Precision Decimals":4,"CRS":"GDA2020 (EPSG:7844)","Modified":"Simplified and repackaged from the source dataset; see Source URL"},"id":"6720"}]}}}