{"type":"Topology","arcs":[[[108093,446815],[2236,-1787],[-1789,-12508],[6483,-841],[5366,2943],[5589,-5465],[3465,525],[4807,-8619],[112,-7042],[-5925,-1577],[-4248,-3363],[-1564,-7568],[894,-10406],[8160,-7567],[6819,-10826],[-1007,-4100],[895,-9039],[25821,-3574],[4472,5466],[12854,-2312],[1342,-3364],[6148,-5676],[5365,-1681],[6148,-4835],[6260,-1997],[6707,1261],[7266,-4520],[4136,1367],[9166,-1892],[4024,4835],[10843,6727],[2683,-3049],[22691,-3153],[2348,14400],[17661,-2207],[2124,12087],[12184,105],[18668,-12508],[8942,105],[7043,3259],[335,2838],[7489,3468],[12296,-4099],[1342,6412],[-3130,2732],[9613,7673],[-2683,4415],[-1676,10301],[3465,2732],[-2683,4205],[1118,5781],[6818,-946],[-447,5045],[-5365,1576],[-3689,3574],[335,3994],[3913,6202],[12296,6516],[670,5571],[6148,5991],[2683,6622],[-2459,4730],[-4136,3048],[335,7042],[11402,1367],[5813,5360],[2459,7988],[18220,-10405],[5142,1366],[1230,4415],[-1677,6516],[2683,5151],[3689,2417],[9837,841],[19226,-2943]],[[463894,485915],[2236,-6412],[335,-8408],[1900,-12298],[6707,-10616],[11402,-6622],[2571,-6832],[23698,-14610],[2459,-2522],[17326,-7043],[16208,1892],[9502,-5360],[4247,-6937],[21127,-3994],[16656,22598],[14978,-7883],[-15537,-20917],[2794,-1261],[7266,-12718],[-5254,-3994],[4248,-8829],[-112,-7148],[2795,-7673],[-2124,-3994],[-4136,1262],[-3130,7673],[-7266,7988],[-18108,6516],[1006,-5675],[8383,840],[7937,-2417],[5813,-7883],[223,-5045],[5589,-9986],[-9837,-3468],[-3465,-7358],[-5589,-946],[5477,-8934],[5366,-2733],[8495,105],[-3130,-7042],[-4583,-2312],[-111,-3784],[7042,-315],[-783,5780],[8160,-5150],[-1341,-3573],[7489,-5887],[12520,-2312],[1230,20811],[145204,35422],[80036,19550],[27945,7147],[6931,-630],[3800,1892],[11402,-8409],[5924,-7988],[8272,-8199],[8272,-4624],[15649,-5361],[11849,-1051],[6595,1261],[11402,-5675],[9054,315],[2013,2522],[9948,-1576],[-782,-6096],[3912,-3364],[-5701,-3889],[-14084,-21337],[-5813,-11772],[-13637,-31322],[-12073,-29010],[-14979,-37839],[-6595,-18079],[-9278,-28064],[-4583,-17027],[-10284,-45722],[-4024,-20917],[-2235,-16607],[-559,-20180],[-2683,-6622],[-3801,-1892],[-1117,-6307],[-8272,-525],[-10731,-5781],[-15761,-2733],[-8161,3153],[-3577,7358],[-558,5571],[-3577,7252],[-9278,6832],[-1230,7463],[-4918,630],[-7937,-3994],[-6819,3154],[-4471,-736],[-4024,-3784],[-5589,4940],[224,7673],[-3130,9775],[-5254,315],[-17662,-6306],[-12184,1156],[-7936,-9775],[-4024,-2733],[-9167,-2943],[-8830,1892],[-8943,11457],[-559,6096],[-6595,-1366],[2236,6727],[-7042,-106],[-1454,3995],[1901,9459],[-3130,16607],[-19003,2418],[-447,2207],[-8943,1261],[447,3364],[-17885,2417],[-111,-1997],[-33647,4310],[-1900,4099],[-14643,1787],[-7043,-1261],[-4918,2522],[-1006,4415],[-9502,-105],[2236,11246],[6595,-841],[2348,12298],[-3354,3679],[-8383,3258],[-2124,2838],[-12967,7883],[-3801,4204],[-37223,4625],[-1341,-8303],[-17774,2312],[-5477,-26067],[-7154,736],[-1118,-3784],[4248,-2207],[-3242,-9355],[895,-13874],[-19339,-7253],[-11625,841],[-9949,-5991],[-21014,2943],[-3130,-6517],[-23363,3469],[-4806,-210],[-16432,2943],[-9502,3258],[-13302,6727],[-4136,5991],[-5365,3153],[-13414,1577],[-9501,2628],[-7825,3573],[-224,5571],[-7154,9775],[-6595,3048],[-7377,5256],[-7043,1261],[-3688,-1577],[-9390,946],[-3354,3364],[-6930,3048],[-3354,6727],[-16879,13874],[-7377,-1156],[-7154,-15346],[-7937,-420],[-782,14189],[-2571,8514],[-4919,10301],[559,10300],[2683,5361],[894,7358],[-6148,10405],[-6148,1997],[-11401,-2312],[-1118,-3889],[10396,-3153],[1117,-5676],[-9277,-1787],[-10061,-3679],[-3800,-5781],[-16656,-1682],[-2124,1682],[-15649,1472],[-3130,4309],[-4248,-1261],[2907,-4835],[-6148,-3679],[-8049,210],[-5812,3679],[-15203,-12928],[-5253,3153],[-6596,-1892],[-3241,3048],[0,5571],[5812,26067],[4807,9670],[6595,1576],[7378,-630],[-112,5360],[-3465,1787],[-8384,-420],[-8495,3889],[-4807,9039],[-10284,8514],[8384,2733],[1900,12613],[3242,2943],[-2236,4309],[-3130,11667],[559,5571],[6484,-841],[3465,17973],[-1342,6517],[-3688,420],[1676,9040],[3689,4730],[671,8198],[-2571,315],[1565,8514],[-6484,946],[-1117,6307],[3353,5781],[-6930,1892],[-4695,-3259],[4359,23860],[-5254,630],[1118,6412],[-12519,1577],[2124,11667],[-17997,2312],[-1006,-5466],[-7378,946],[-894,-5150],[-8048,1051],[-2012,-10616],[-4584,-3258],[-7489,946],[5030,24700],[7378,5466],[5477,841],[16209,10826],[7936,1997],[2571,7568],[5924,1261],[15985,-1156],[6372,4519],[4024,316]],[[795327,715787],[1676,2943],[9614,7462],[2347,4205],[6707,3678],[23921,9040],[19115,2627],[11849,-105],[12743,3574],[11849,6622],[5142,315],[5701,-3994],[6595,-420],[-1118,-5151],[-5142,-9354],[-5813,-14085],[-12743,-36262],[-13078,-42254],[-6595,-24490],[-5142,-22388],[-4248,-25541],[-3242,-29641],[224,-33424],[3018,-21968],[5365,-21652],[8608,-18919],[5924,-10511],[1118,-8514],[-4248,-4940],[-5142,-10406],[-894,-10721],[-10507,5676],[-1901,3258],[6148,14505],[-2235,8724],[-19003,32899],[559,5045],[-7602,20601],[-16655,26488],[-6930,14400],[-895,9985],[-2906,10826],[-9054,15030],[-1006,3784],[2123,7148],[5813,11982],[1118,5781],[-3465,15136],[-4248,13348],[-4136,9460],[-335,6096],[7377,20917],[1453,11351],[-447,14190],[-3353,16502],[-4024,11142]],[[652805,429997],[6483,7043],[8049,4519],[6930,-5675],[11067,-4520],[-5254,-12298],[-4471,-4625],[-11961,-210],[-8943,5361],[-1900,10405]],[[638944,371662],[5142,2733],[-223,6622],[6371,7463],[7937,-4520],[2682,-11562],[-447,-4835],[-4024,-6411],[-3577,-1157],[-12743,8094],[-1118,3573]],[[640397,341391],[15985,1156],[3018,-2522],[-894,-17869],[-2683,-630],[-6148,5360],[-1453,5361],[-7825,9144]],[[108093,446815],[671,5781],[7713,3573],[894,9565],[-5142,5571],[-7378,2102],[-7042,-315],[-4695,-3469],[-19562,4520],[-5030,3258],[-6595,-2733],[-3801,1892],[2013,4520],[-1118,9565],[-15761,2733],[-4025,-526],[-3688,3469],[-2236,8198],[224,10301],[6259,5255],[5925,9039],[-2012,4730],[10395,5991],[2236,4100],[-1900,6832],[4136,11562],[-2795,4730],[2012,5360],[9837,11036],[4471,2208],[2571,4099],[4919,2312],[6706,7673],[4919,2733],[-4807,7147],[11402,13559],[-5030,9670],[-4807,16607],[-2683,4205],[2236,3678],[224,10196],[3577,1366],[1117,5361],[-9277,-946],[-9055,1051],[-11290,6201],[-13637,1472],[-6707,2207],[-7266,-2417],[-4471,315],[-3577,6096],[12072,5991],[-1453,11878],[-2347,6727],[-6484,9144],[19339,-2207],[447,2943],[-5254,3678],[-1677,4625],[3466,1682],[6483,7568],[-671,6306],[5589,2838],[-2571,8514],[671,4625],[-3912,2417],[-224,6832],[-6707,5256],[-4471,7988],[-4248,5045],[3577,7778],[336,5361],[-7713,1261],[335,6727],[4807,3573],[-4248,4625],[-7378,-2102],[-2906,1051],[-6260,-3994],[2012,10406],[-17773,5570],[1677,5046],[6260,-841],[4694,1681],[2571,5676],[5142,5991],[-335,8199],[9613,11457],[4471,3468],[5701,1577],[-28169,3679],[5813,6306],[112,8304],[12407,-1682],[336,2312],[10843,-1366],[782,8409],[-2235,2627],[-783,9250],[-7154,8619],[-4807,3468],[1901,2628],[-8496,9250],[895,10300],[-4472,4940],[671,4415],[5924,1787],[6484,4309],[-7266,11982],[7825,2628],[2571,6832],[-2795,1156],[447,9355],[21909,-3258],[-2571,-6412],[14085,-2102],[13302,2733],[6260,-3154],[2794,-5360],[4360,1787],[6930,7252],[11514,-8724],[4024,19971],[6819,-5991],[2123,11141],[6484,-946],[4583,-2733],[9501,-1261],[-2459,-12928],[12631,-3784],[-2123,-9775],[6036,-5046],[9948,841],[4360,2208],[7266,-4415],[7824,-9565],[-335,-2838],[7154,-9670],[5030,-841],[3801,-6201],[6930,1156],[10508,-3258],[5812,1997],[-1676,-9460],[7377,-946],[-894,-5360],[13414,-1787],[-3018,-16817],[-12632,1576],[-1341,-7568],[1118,-7672],[6595,-841],[-1900,-9040],[17885,-2312],[-3354,-17553],[-4695,-3574],[-7713,-2838],[-3688,-20916],[17773,-2207],[12855,2522],[6371,-5045],[8049,2838],[5924,4309],[10731,-105],[7154,-1576],[4248,-4835],[10172,-3364],[21239,-2838],[2012,-2522],[8830,-4310],[5925,-6622],[9389,4625],[3466,-6096],[7824,-4730],[3689,1682],[16320,-1787],[9614,6096],[5924,-105],[1788,13454],[27163,-3258],[7602,-5886],[4135,-841],[2013,-4835],[4694,525],[7825,-3994],[12520,7778],[2682,6937],[-670,9460],[8383,6306],[224,2943],[67069,15346],[11849,-38785],[4136,-11772],[8719,-20496],[11960,-23124],[12296,-19445],[8831,-11246],[6372,-11457],[3353,-12928],[-894,-4310],[-6484,-5255],[-2794,-5571],[-7489,-4730],[-11179,0],[-5812,-2102],[-10731,315],[-37783,14716],[-3353,-1052],[-10843,1998],[-15761,-3574],[-8495,-4835],[-35323,-17974],[-11849,-17237],[-8831,-18604],[-7825,-10091],[-1118,-5150],[-5700,-4099],[0,-4835],[-5478,-6938],[-1118,-6726],[2795,-9565],[5701,-7358],[3577,-946],[10731,3048],[8384,-3363],[19226,-5045],[8495,-1262],[5925,-2627],[10731,3048],[6819,3468],[10507,9775],[4583,-8198],[-447,-10826],[3130,-3889],[-3018,-4520],[-1342,-10931],[2236,-3258],[-6595,-16292],[-3801,-16817],[-16991,5570],[-5812,-3153],[-3018,1051],[-20121,-24385]],[[218198,900041],[-894,-4520],[6483,-210],[-1453,5571],[-4136,-841]]],"transform":{"scale":[8.946008946008917e-7,9.514009514009511e-7],"translate":[152.6518,-27.7438]},"objects":{"qld_brisbane_ddmg_boundaries_gda2020_simp200m":{"type":"GeometryCollection","geometries":[{"arcs":[[[0,1]],[[2]],[[3]],[[4]],[[5]]],"type":"MultiPolygon","properties":{"District Name":"Brisbane","DDMG Name":"Brisbane","Area Sq Km":2285.5,"Police Region Name":"Brisbane Region","Police Region Code":"BR","Police Region Short Name":"Brisbane","Region Slug":"brisbane","Layer Id":"qld_brisbane_ddmg_boundaries_gda2020_simp200m","Layer Group":"per-region","Layer Kind":"ddmg","Source":"QPS Disaster Districts, Queensland Police Service, via the Queensland Government Open Data Portal","Source URL":"https://www.data.qld.gov.au/dataset/qps-disaster-districts","Licence":"CC BY 4.0","Licence URL":"https://creativecommons.org/licenses/by/4.0/","Dataset Date":"19/05/2025","Simplification Tolerance M":200,"Coordinate Precision Decimals":4,"CRS":"GDA2020 (EPSG:7844)","Modified":"Simplified and repackaged from the source dataset; see Source URL"},"id":"Brisbane"},{"arcs":[[-1,6],[7]],"type":"Polygon","properties":{"District Name":"Moreton","DDMG Name":"Moreton","Area Sq Km":2071.1,"Police Region Name":"Brisbane Region","Police Region Code":"BR","Police Region Short Name":"Brisbane","Region Slug":"brisbane","Layer Id":"qld_brisbane_ddmg_boundaries_gda2020_simp200m","Layer Group":"per-region","Layer Kind":"ddmg","Source":"QPS Disaster Districts, Queensland Police Service, via the Queensland Government Open Data Portal","Source URL":"https://www.data.qld.gov.au/dataset/qps-disaster-districts","Licence":"CC BY 4.0","Licence URL":"https://creativecommons.org/licenses/by/4.0/","Dataset Date":"19/05/2025","Simplification Tolerance M":200,"Coordinate Precision Decimals":4,"CRS":"GDA2020 (EPSG:7844)","Modified":"Simplified and repackaged from the source dataset; see Source URL"},"id":"Moreton"}]}}}