{"type":"Topology","arcs":[[[236018,257249],[-5811,-4815],[-3347,3140],[-4355,2749],[-400,63],[-1090,-1037],[-2307,-2093],[-1965,-1684],[-2098,-1893],[-9375,-7372],[-3905,-3076],[-2398,-2676],[-3580,-3831],[175,-1247],[974,-8300],[-16694,1556],[-9608,919],[-8734,929],[-591,-5971],[816,-82],[-200,-2411],[-3863,-3350],[-2157,-1301],[225,-482],[-66,-565],[-209,-409],[733,-646],[183,-783],[-66,-774],[225,-309],[807,-319],[416,-973],[25,-610],[142,-219],[-7119,319],[-13971,1220],[-158,-64],[-11515,655],[-2847,137],[1007,13697],[-15020,983],[3630,3285],[-13663,14917],[-4346,-3832],[-3855,4123],[-14729,-12878],[1798,-2567],[-3913,-3331],[-3547,-2948],[-6536,-4888],[-1373,-1101],[-5654,6589],[-2123,2603],[-4246,4350],[-10633,-8418],[-3139,246],[-35643,2867]],[[325,225341],[-9,12632],[-8,13224],[0,6607],[-8,9256],[0,5815],[-17,11376],[-8,7936],[0,11886],[0,6608],[-9,11904],[0,6607],[-8,8227],[-8,12933],[-9,13224],[0,8418],[-8,12751],[-8,11904],[-17,13223],[0,13233],[-8,13961]],[[200,437066],[13571,-874],[492,6089],[949,12650],[13738,-27],[-2232,-2066],[5296,-5952],[3363,-3895],[-4612,-4314],[10491,-12414],[3322,-173],[2264,2603],[8226,9811],[2398,2876],[4904,2139],[6070,5742],[5970,5643],[7651,7035],[841,756],[-316,373],[4529,4022],[7319,-8709],[22297,-683],[316,2767],[-408,4059],[6603,-601],[4962,-91],[1566,-64]],[[129770,463768],[-34,-1783],[0,-9993],[-957,-11986],[-483,-10357],[-13189,327],[-41,-8473],[-42,-2666],[-11690,-9638],[916,-646],[-782,-838],[-117,-282],[500,-1884],[-833,-8427],[7252,-8282],[-3555,-10175],[-708,-3276],[7052,-7836],[-2914,-2567],[14729,-14407],[-8759,-8118],[8609,-746],[-200,-3595],[908,-36],[10141,-792],[408,6389],[10191,-746],[633,5997],[6977,-773],[3547,-6180],[-25,-337],[14854,-1074],[-175,-2857],[-1591,-3714],[3464,-209],[13713,-837],[958,-64],[66,-792],[-83,-1893],[5553,-382],[3456,-118],[266,7626],[3672,5142],[9766,8965],[2798,-3167],[4513,-3577],[2706,-3240],[-1133,-919],[5737,-7272],[824,628],[575,310],[874,318],[533,446],[374,473],[342,1183],[558,437],[-42,301],[383,91],[300,573],[8,528],[233,282],[133,601],[500,173],[125,364],[-158,391],[283,473],[832,355],[958,1456],[483,519],[249,1065],[433,428],[217,473],[641,546],[-25,391],[525,883],[25,410],[274,555],[317,218],[533,883],[524,64],[1948,-401],[1208,119],[1099,-455],[125,-255],[483,-364],[333,-9],[499,-455],[408,-110],[516,64],[-299,-4842],[11032,-1092],[7793,-655],[2564,-182],[50,610]],[[265434,341051],[3813,-4414],[2099,-2157],[-666,-1256],[-7694,-6571],[-6128,-5279],[4230,-5078],[5695,-6926],[-4438,-3258],[-974,1092],[-2906,273],[-674,9],[-108,-910],[191,-819],[250,-428],[658,-4386],[100,-155],[1107,-992],[466,-4232],[-208,-273],[-491,-2030],[649,-2730],[-10257,-8546],[-766,-145],[-159,-1111],[100,-91],[2789,-919],[1974,-2211],[-5595,-4751],[-4546,-4059],[1298,-1420],[567,-710],[-10391,-8528],[599,-791]],[[778734,509656],[-299,9],[-3264,382],[-7319,819],[-857,792],[-242,-109],[-399,327],[-325,55],[-83,437],[83,555],[549,227],[-682,783],[-67,719],[-133,209],[-749,537],[66,446],[-291,510],[116,282],[-474,974],[-1282,1092],[-125,-45],[-492,1110],[-574,200],[-142,546],[-541,373],[-608,91],[-116,328],[-708,491],[-766,-109],[50,646],[-208,355],[358,237],[42,528],[191,582],[-191,446],[-567,118],[159,547],[-525,664],[366,437],[17,701],[-699,609],[-342,-91],[-541,82],[-258,210],[-500,719],[-399,209],[-600,118],[-141,437],[-308,309],[-483,-91],[-308,201],[-142,491],[-275,100],[-183,-528],[-441,-191],[-591,-710],[-716,19],[-100,373],[-358,127],[-150,-519],[-283,-145],[-150,-428],[-733,-218],[-141,400],[-450,173],[25,227],[608,301],[83,409],[-191,346],[183,619],[-200,273],[433,428],[408,91],[250,264],[166,500],[-141,737],[-50,37],[-475,227],[-341,-81],[-533,218],[-291,637],[-517,-200],[-374,491],[-833,464],[-42,528],[-383,747],[-58,455],[-350,364],[-8,618],[-608,547],[-724,72],[-241,191],[-433,-45],[-442,164],[217,637],[-275,418],[-491,-27],[-392,246],[-174,-219],[-883,82],[-383,337],[-341,0],[58,856],[166,254],[-233,601],[-707,664],[-900,456],[433,755],[-100,455],[275,701],[800,327],[499,-264],[217,55],[599,1292],[525,319],[-184,519],[259,437],[-100,291],[291,337],[275,-28],[349,428],[-108,218],[-441,-18],[-133,564],[-516,328],[-383,637],[-84,373],[109,828],[-467,137],[-266,300],[33,683],[-691,1001],[-683,592],[242,218],[-92,419],[-499,173],[-234,364],[200,427],[2698,-309],[75,719],[266,810],[683,1274],[-483,710],[383,2748],[-58,1802],[108,1202],[183,1146]],[[743973,565508],[775,-145],[732,519],[758,345],[200,665],[707,509],[1532,64],[617,337],[341,1247],[341,782],[533,401],[483,1210],[500,328],[816,8127],[-275,173],[-724,-118],[99,1228],[-849,637],[-100,319],[-399,355],[233,419],[424,263],[117,365],[708,591],[291,728],[508,1657],[158,1492],[-141,1383],[-200,392],[-325,1083],[-524,637],[-517,-173],[-116,701],[158,1529],[1116,-119],[50,483],[824,-91],[-83,528],[100,1019],[341,227],[200,2085],[-358,273],[33,327],[-558,64],[142,1420],[574,-73],[725,-428],[349,-1866],[192,346],[283,-27],[-8,-473],[299,-410],[233,18],[358,-546],[425,319],[-491,264],[466,264],[366,0],[608,-228],[200,-346],[699,237],[200,-646],[500,-73],[408,291],[-283,346],[349,218],[17,583],[383,227],[300,883],[-59,710],[4022,10257],[19649,-36],[1915,0],[47817,36],[110278,0]],[[943415,609621],[7935,-3213],[18450,-11294],[800,-346],[17434,-13315],[425,-664],[391,-118],[667,-637],[5903,-2248],[2772,-3313],[1807,-1183],[-83602,-73],[-20906,9],[-20816,0],[-20815,0],[-20815,0],[-13430,-9],[-10066,9],[-3871,-8582],[-658,-1666],[-4629,983],[-483,73],[-2124,-309],[-799,-574],[-1607,-200],[-191,-227],[-375,63],[-383,-291],[-158,-610],[158,-154],[100,-765],[-666,-255],[-267,-337],[-391,-136],[-499,-537],[-600,-346],[225,-655],[-100,-1411],[-1532,182],[-491,-4741],[108,-665],[-200,-182],[-458,-4441],[84,-9],[-1066,-10384],[-6286,700],[-467,82],[467,938],[-84,555],[-358,237],[-582,136],[-1008,537],[-758,191],[-866,-237],[-832,346],[-799,173],[-575,246],[-316,437],[-417,874],[-824,509],[-250,419],[-16,491],[374,610],[-283,137],[-1174,-510],[-607,-519],[-467,-218],[991,-1602],[716,-1702],[67,-391],[-167,-592],[-691,-1228],[-291,-783],[-475,-1556],[-33,-1011],[350,-819],[1074,-1884],[349,-955],[375,-1502],[108,-919],[475,-1729],[133,-920],[175,-3676],[-58,-1102],[-192,-1083],[-674,-1738],[-100,-828],[133,-673],[450,-1065],[374,-1502],[325,-946],[533,-1020],[899,-955],[624,-355],[675,-719],[41,-273]],[[75,711197],[-8,9629],[0,13233],[-9,13224],[-8,11785],[-8,18566],[-17,21715],[0,7481],[-8,13233],[-9,6617],[0,13233],[-8,13241],[0,7627],[791,-801],[1091,-691],[899,-820],[100,-491],[816,-319],[416,-282],[533,-646],[791,-1583],[1582,-1120],[191,-246],[-16,-436],[374,9],[833,-920],[1116,-1055],[499,-583],[1099,-673],[1241,-856],[816,-382],[349,-328],[-83,-637],[500,146],[641,-510],[808,-518],[1323,-719],[850,-392],[1607,-609],[1207,-365],[2356,-573],[475,-182],[1224,-1174],[749,-446],[1449,-464],[416,-346],[874,264],[42,373],[2581,-64],[441,-127],[1690,-810],[1191,-682],[974,-838],[1008,-573],[449,0],[458,173],[824,54],[633,-72],[441,-483],[458,-27],[1058,-473],[616,-64],[175,328],[374,91],[1616,-201],[1532,-27],[691,-209],[266,391],[2814,219],[658,-137],[133,118],[1424,310],[708,63],[1407,246],[241,200],[392,-273],[324,-18],[1091,-346],[350,-300],[774,-1056],[483,-391],[1707,-874],[1815,-691],[1299,-401],[266,-318],[442,-55],[1357,-610],[466,-482],[1291,-655],[1074,-410],[1748,-491],[1024,-246],[425,-182],[366,-546],[575,-410],[882,-427],[2348,-592]],[[73319,830038],[-400,-5670],[1466,-1165],[15978,-12650],[499,7199],[1873,-146]],[[92735,817606],[567,-337],[2073,-655],[608,-118],[724,-428],[-308,-1110],[-525,-947],[-216,-710],[-292,-1474],[-41,-1029],[75,-600],[408,-1511],[58,-537],[183,-446],[25,-564],[200,-528],[200,-1256],[200,-2102],[324,-765],[17,-446],[541,-1146],[58,-574],[167,-100],[400,-1101],[716,-1447],[449,-1283],[683,-1265],[441,-1074],[208,-1193],[292,-291],[766,-1438],[358,-273],[1365,-1420],[367,-200],[1057,-764],[2348,-1493],[183,-300],[317,-27],[682,-346],[958,-647],[916,-200],[1215,-500],[392,-346],[940,45],[925,-45],[1065,36],[1174,155],[1616,0],[716,-155],[524,-346],[1624,-891],[649,-574],[1174,-282],[1124,-537],[1549,-1174],[949,-1065],[741,-437],[1307,-646],[666,-673],[825,-947],[141,-382],[-591,-18],[-341,-173],[1065,-664],[875,-237],[216,-319],[325,82],[424,-318],[442,109],[416,-182],[525,-419],[349,-1037],[250,-510],[408,-382],[-42,-364],[442,82],[233,-483],[574,-582],[1282,-592],[408,-473],[642,-528],[699,-73],[1382,-491],[575,18],[1507,-346],[133,-118],[799,18],[33,-418],[517,-37],[483,246],[932,-410],[300,-491],[308,-118],[383,-455],[408,-55],[366,227],[158,-391],[-166,-546],[1698,328],[1049,-119],[542,-427],[183,36]],[[149794,766067],[-342,-1392],[34,-428],[383,-464],[766,-328],[682,-446],[433,-619],[167,-764],[-58,-810],[-333,-637],[-617,-137],[-566,483],[-458,-28],[-466,-245],[-574,9],[-492,-137],[-83,-519],[408,-446],[741,-63],[200,-446],[-375,-464],[-50,-501],[483,-446],[983,-109],[882,-492],[225,-591],[-42,-746],[-358,-437],[-699,73],[-716,964],[-641,191],[-433,-100],[-291,-391],[-242,-1201],[75,-483],[416,-236],[566,282],[375,-9],[375,-346],[116,-519],[-216,-309],[-908,-101],[-199,-136],[-550,-774],[-225,-527],[-116,-647],[125,-427],[857,-738],[-91,-655],[-533,-910],[-150,-528],[-367,-400],[-657,-210],[-500,-436],[-441,-647],[25,-300],[741,-473],[191,-519],[-8,-564],[-375,-592],[-732,-346],[-442,-719],[150,-573],[791,-637],[949,-246],[458,-664],[-58,-901],[-391,-619],[-891,-1101],[-342,-819],[-141,-792],[141,-373],[517,-473],[657,136],[525,683],[408,291],[475,27],[832,-364],[608,-400],[450,-619],[482,-355],[433,-510],[-8,-428],[-450,-737],[-399,-145],[-775,-64],[-432,237],[-259,491],[-416,200],[-516,-282],[-325,-937],[300,-255],[724,-100],[1649,-1320],[658,-619],[125,-400],[-209,-792],[34,-400],[349,-838],[117,-901],[-17,-1474],[-150,-947],[-199,-691],[0,-865],[691,-1365],[699,-764],[433,-337],[758,-419],[50,-309],[-100,-1538],[91,-656],[558,-673],[858,-801],[882,-637],[442,-537],[582,-919],[34,-419],[-450,-892],[-67,-391],[417,-774],[633,-682],[74,-501],[-224,-937],[-283,-728],[-300,-282],[-541,-100],[-67,-574],[242,-236],[24,-920],[400,-873],[-150,-692],[-574,-892],[-75,-437],[100,-719],[299,-682],[-374,-992],[233,-910],[-258,-537],[-416,-465],[-217,-455],[58,-919],[616,-418],[117,-264],[-42,-747],[267,-555],[-75,-591],[-300,-601],[-191,-1129],[333,-600],[-142,-1675],[183,-919],[0,-546],[-233,-1238],[25,-1028],[-225,-1220],[-824,-9],[-300,-437],[25,-291],[608,-883],[-25,-573],[92,-1129],[-208,-637],[-975,-1156],[-74,-364],[-400,-455],[258,-282],[42,-373],[-259,-919],[-333,-391],[-108,-1129],[283,-683],[-108,-810],[-425,-1028],[-408,-801],[-1340,-1292],[-1091,-1411],[-108,-409],[133,-674],[-100,-428],[-1015,-728],[-475,-964],[-974,-856],[-50,-719],[-250,-746],[-566,-382],[-208,-301],[133,-600],[1432,-1147],[266,-464],[-108,-765],[-316,-655],[-75,-501],[108,-691],[-266,-410],[-683,-291],[-375,-473],[75,-437],[816,-473],[458,-565],[42,-282],[-250,-964],[50,-911],[400,-746],[766,-337],[41,-464],[-624,-673],[-100,-382],[200,-355],[399,-100],[808,209],[308,-137],[33,-336],[-599,-592],[-42,-410],[367,-309],[691,-209],[791,-901],[266,-674],[58,-728],[-266,-664],[-333,-146],[-675,182],[-349,-227],[125,-801],[849,-1293],[708,-573],[58,-164],[-92,-1046],[192,-528],[291,-155],[841,-127],[483,-282],[483,-501],[549,-1110],[125,-920],[833,-591],[616,-128],[666,783],[408,-64],[75,-1083],[-350,-773],[-449,-674],[233,-427],[691,-474],[549,-500],[425,-537],[541,-482],[134,-346]],[[159594,634376],[25,-792],[249,-182],[392,82],[249,291],[750,100],[250,-309],[233,-592],[349,-1229],[0,-1010],[-266,-846],[291,-992],[-158,-464],[-857,-228],[-425,-582],[-25,-328],[549,-874],[25,-582],[-174,-1229],[133,-691],[258,-592],[499,-610],[217,0],[1249,-682],[250,-401],[66,-455],[-258,-1046],[-83,-956],[166,-601],[550,-1237],[383,-601],[641,-637],[175,-291],[1024,-1029],[358,-555],[208,-837],[317,-392],[832,-573],[258,-428],[-8,-409],[-833,-655],[-224,-528],[199,-1120],[-116,-637],[133,-1101],[-42,-737],[433,-628],[924,-319],[592,-400],[158,-674],[-391,-400],[58,-637],[408,-273],[766,27],[16,-837],[-707,-437],[-200,-455],[208,-310],[425,-245],[75,-519],[-575,-510],[-116,-700],[333,-510],[124,-856],[342,-318],[416,-1038],[-300,-1174],[42,-427],[258,-674],[500,-573],[33,-264],[-416,-956],[433,-701],[466,-54],[258,-264],[316,-828],[358,-637],[42,-310],[425,-919],[-75,-546],[-500,-710],[83,-428],[-283,-1565],[150,-583],[-14912,1193],[-150,-2785],[-8992,573],[658,11067],[-12722,937],[-9842,728]],[[126522,596870],[142,13343],[2115,-164],[783,11558],[-17135,1465],[-11674,1020],[317,5005],[-1732,191],[-891,692],[75,1074],[-932,1338],[-742,673],[3164,5261],[-1007,655],[3330,5533],[-5553,3622],[-9026,-8127],[-5128,5233],[-209,228],[650,200],[508,410],[533,300],[499,473],[775,455],[1024,164],[1307,683],[1682,655],[707,64],[-7493,8873],[-5887,-5524],[-9708,-9092],[-3588,-3368],[-10641,11550],[-1982,2120],[-4829,-4541],[-1607,-1466],[-4354,5297],[-13630,737],[208,3058],[-10349,665],[1124,20259],[192,4869],[333,9701],[183,5898],[2131,11522],[-20132,1765]],[[49157,737454],[599,-137],[783,-382],[1174,209],[1399,64],[424,-146],[658,37],[2365,-455],[83,-228],[1440,-683],[750,-573],[449,-227],[275,-310],[700,-291],[1440,-18],[691,-337],[483,-100],[1191,109],[899,-127],[874,100],[1207,-119],[1457,-728],[991,-336],[317,-273],[1082,-528],[466,-446],[167,-701],[316,-601],[-25,-837],[-433,-764],[-183,-610],[100,-519],[541,-710],[566,-382],[1124,-319],[741,16191],[1316,28313],[-5579,337],[-7077,3158],[-1124,1247],[-1956,9],[-9442,501],[-758,-25711],[-275,-6753],[-149,-4232],[-175,0],[-575,-673],[508,-510],[175,-509]],[[149794,766067],[183,27],[450,610],[691,-127],[766,391],[624,-364],[133,-410],[916,-910],[17,-382],[-425,-409],[-25,-792],[966,18],[-308,337],[166,518],[317,-36],[2847,-1347],[1774,-601],[358,-45],[1132,-400],[1199,-656],[575,-491],[183,-528],[-783,-428],[300,-218],[-42,-1001],[175,-519],[375,-701],[1082,-1329],[1257,-1155],[808,-592],[841,-519],[1182,-391],[1974,-464],[1190,-91],[3755,-82],[2823,391],[1523,437],[1074,191],[392,-155],[175,192],[990,273],[783,36],[508,209],[1282,255],[458,-36],[550,-383],[1007,437],[1674,437],[566,73],[591,-109],[474,209],[750,100],[491,-45],[408,145],[1490,328],[408,146],[1557,81],[1740,219],[1316,500],[1823,446],[1657,829],[1507,819],[675,655],[982,346],[458,355],[408,-64],[358,-273],[2207,309],[1598,537],[1565,592],[1599,992],[1257,1219],[525,274],[516,45],[933,355],[516,-9],[699,546],[425,118],[424,364],[891,546],[1840,1375],[1382,1428],[558,710],[1099,965],[192,428],[424,182],[633,500],[708,155],[441,273],[375,492],[200,36],[849,-400],[475,18],[341,-246],[325,136],[258,374],[324,791],[1266,1284],[891,528],[0,354],[1673,465],[1599,728],[400,27],[1099,601],[591,892],[974,1028],[450,1256],[849,1229],[125,309],[782,1138],[184,100],[724,983],[42,637],[358,628],[91,700],[333,983],[17,583],[483,1765],[-25,865],[108,874],[375,1192],[8,1056],[217,163],[191,1675],[33,837],[283,1648],[284,664],[532,892],[167,473],[-167,209],[50,592],[625,1001],[649,328],[-8,1101],[649,1720],[250,346],[-108,637],[533,3631],[8,392],[-200,300],[250,628],[-191,1447],[-300,1065],[116,1101],[-291,200],[-150,574],[275,1510],[266,1020],[516,1447],[450,664],[824,1647],[833,910],[1390,1211],[758,801],[824,965],[1874,2502],[857,1338],[1307,2294],[442,1064],[250,865],[108,2020],[358,1147],[208,100],[549,-264],[442,91],[41,483],[-549,-28],[-42,355],[533,-109],[383,118],[799,446],[775,628],[1940,1857],[882,1010],[1624,1975],[641,846],[1049,1657],[550,992],[324,300],[1149,2312],[442,1329],[316,2448],[341,1547],[283,919],[100,1019],[225,592],[450,464],[0,264],[516,1201],[291,364],[525,228],[499,-64],[333,-628],[367,683],[25,864],[674,1420],[575,1311],[291,792],[941,1847],[216,983],[67,764],[-175,1457],[-466,1083],[-749,892],[-259,527],[17,1220],[200,673],[741,674],[117,937],[449,783],[550,1247],[458,764],[224,619],[475,1620],[-17,328],[833,2830],[17,355],[474,1247],[308,1684],[192,1283],[-217,655],[183,874],[500,1156],[2306,3804],[733,1329],[833,1246],[749,1475],[1174,2493],[574,1484],[200,974],[-200,992],[-932,1629],[-267,810],[-466,965],[-591,2357],[-774,2657],[-67,473],[-474,1702],[-642,1793],[-66,555],[424,383],[525,282],[341,773],[0,228],[542,1074],[607,1638],[342,1474],[283,2185],[325,3476],[33,883],[258,3986],[158,1802],[100,719],[333,1520],[416,2439],[59,655],[416,1475],[883,3959],[366,1765],[999,4087],[408,1410],[541,1493],[433,555],[558,209],[83,728],[367,346],[233,-36],[233,-537],[399,-73],[-657,-883],[-600,-555],[34,-664],[291,-100],[0,573],[524,409],[225,-154],[158,-646],[-358,-164],[34,-264],[558,-264],[191,218],[550,-282],[258,-373],[533,0],[-9,437],[-491,73],[-42,764],[850,-73],[-75,446],[374,164],[250,-355],[383,-145],[525,145],[208,-191],[-50,-136],[42,-301],[666,73],[-242,-582],[-58,-692],[574,-346],[192,382],[733,401],[433,0],[183,619],[458,-219],[483,91],[433,-409],[58,-364],[449,-565],[1091,-91],[741,-364],[158,-309],[908,246],[13338,-1238],[14438,-1311],[1890,10521],[-300,537],[-650,491],[-116,383],[-941,1028],[-183,428],[-375,282],[-599,182],[-109,537],[-416,464],[-499,109],[-400,647],[8,637],[308,409],[1041,537],[550,1338],[433,901],[616,-200],[699,-419],[974,-209],[450,-310],[924,-446],[549,-591],[467,64],[5711,17164],[8293,-14325],[3947,-6871],[24562,-2457],[9574,-947],[134,1593],[1307,11977],[14304,-1120],[11090,-855],[-1065,-13306],[-4705,419],[-1057,-13188],[-9209,592],[-807,-12678],[-5312,428],[-875,-13542],[-5436,-5279],[-708,-5679],[741,-337],[466,-664],[391,-919],[633,-1101],[958,-974],[957,-519],[691,-273],[691,-82],[850,0],[624,-328],[408,-491],[958,-883],[1007,-1219],[641,-637],[-8,-228],[-3597,-5570],[-5146,3713],[-3422,-5305],[-1382,-11231],[-2731,-22170],[-1965,-23089],[-1257,-14626],[-7210,-10493],[508,-446],[100,-337],[599,-437],[358,-36],[416,-346],[508,-73],[383,-227],[242,-710],[291,-191],[-50,-373],[416,-355],[50,-255],[575,-683],[974,-528],[92,-318],[549,-282],[974,-1056],[250,-145],[391,-756],[550,-118],[200,-319],[1091,-145],[466,118],[-3297,-4660],[-8285,-11704],[-5079,6289],[-13788,-13305],[775,-501],[749,-237],[1058,-163],[932,45],[683,-346],[349,-555],[750,-519],[508,-45],[558,-446],[91,-273],[541,-492],[333,-855],[408,-610],[-16,-409],[-7435,-6772],[-10042,12005],[-3788,-3359],[-9542,12787],[-566,-519],[-8792,-7826],[4279,-5470],[-9250,1183],[258,3331],[-12680,1138],[-308,-3459],[-12523,1329],[-716,-8282],[-591,-6835],[-2031,173],[-333,-6243],[5004,-291],[-442,-6326],[-924,-582],[-708,-537],[-774,-155],[-458,583],[-433,337],[-874,163],[-708,-63],[-1024,-310],[-233,100],[25,719],[-183,219],[-783,82],[-766,-119],[-874,1029],[-949,-319],[-1041,-14762],[13638,-1046],[-175,-2603],[-6078,382],[-83,-1192],[-317,-5342],[567,236],[424,0],[-416,-4832],[-9450,946],[175,2139],[-6986,710],[-649,-8910],[-3772,264],[-524,-210],[-350,-873],[-183,-273],[150,-610],[-84,-519],[333,-664],[42,-410],[316,-691],[-83,-346],[150,-355],[-58,-428],[-450,-928],[-75,-838],[625,-609],[233,245],[849,-282],[433,-782],[325,82],[283,-310],[841,-437],[75,-355],[491,-810],[-25,-482],[258,-209],[75,-565],[-100,-719],[358,-655],[649,73],[267,-237],[25,-382],[366,-291],[167,-683],[-50,-409],[191,-419],[-191,-291],[141,-528],[616,-610],[-133,-628],[142,-701],[-208,-436],[266,-182],[217,-738],[-34,-354],[1291,-756],[291,-874],[533,-263],[50,-19],[466,-1319],[608,-119],[358,-318],[108,-819],[167,-392],[449,-600],[558,-228],[192,-637],[-108,-637],[116,-400],[-275,-583],[733,-500],[250,-328],[691,-127],[158,-273],[-108,-729],[291,-937],[-333,-228],[17,-491],[-408,-255],[33,-446],[-225,-382],[400,-719],[-475,-409],[0,-465],[533,-710],[-133,-609],[-608,-55],[-466,-473],[67,-865],[-159,-346],[209,-382],[-59,-646],[225,-1019],[-8,-474],[349,-200],[533,-719],[134,-619],[-300,-236],[-416,-64],[158,-783],[-125,-245],[208,-665],[441,-318],[192,-592],[-50,-637],[100,-300],[-300,-392],[1315,-964],[4580,-464],[-500,-5088],[16161,-1765],[5354,-619],[5795,-546],[-883,-10257],[-1099,-13051],[-2664,237],[-1341,-13424],[-932,109],[91,-710],[267,-273],[-167,-528],[133,-710],[325,-54],[-116,-392],[507,-291],[192,-419],[400,-9],[616,-464],[308,91],[358,-227],[1199,9],[891,-182],[807,327],[616,-154],[358,100],[508,-319],[641,-1010],[400,-182],[541,-583],[1124,10],[458,-455],[383,-101],[450,-600],[724,-137],[750,128],[741,10338],[13321,-1037],[866,10120],[15420,-1365],[200,2175],[3955,-236],[-1432,-15463],[6302,-683],[109,1229],[9650,-1047],[124,2267],[3905,-355],[-1465,-16828],[-724,-8100]],[[364656,600338],[-17310,1711],[-616,-6680],[-10391,1119],[183,1893],[-10974,1038],[275,3522],[-8126,273],[-4746,5916],[-1565,-1411],[-3547,-3449],[-175,518],[-125,947],[-791,537],[-117,582],[-990,392],[-458,600],[-1149,18],[-533,619],[-83,337],[-2532,-2202],[-2089,191],[-14379,1438],[557,6352],[-4895,328],[-4113,1247],[-9667,1338],[-8118,1064],[233,2239],[541,1183],[117,1320],[-15395,1147]],[[243678,624465],[-141,846],[58,473],[-791,-54],[-358,427],[-1024,-855],[-6403,-5570],[-8834,10994],[-3455,-2894],[-3022,3795],[-9850,746],[-408,-2175],[-58,-2666],[-8168,564],[-17,45],[-9050,674],[266,3850],[-25561,1966],[-58,-820],[-7210,565]],[[342708,999999],[208,-100],[-108,-573],[158,-328],[-1215,-1238],[-34,-555],[-1024,-701],[-641,-983],[-358,0],[-333,-209],[-541,-764],[-566,-210],[-383,-573],[-375,54],[-741,-163],[-333,54],[-383,-282],[-491,-55],[-533,-491],[-317,-64],[-183,-318],[-966,-237],[-441,137],[-474,564],[-533,-282],[-491,-428],[-558,-200],[-350,-291],[-458,-164],[-416,-328],[-866,-164],[-408,19],[-541,-683],[-508,-73],[-242,319],[-424,72],[-533,-154],[-83,-319],[-1099,-63],[-225,127],[-417,-118],[-682,-465],[-292,128],[-458,-209],[-266,-355],[-441,145],[-500,-245],[-708,100],[-291,-110],[-383,64],[-575,-355],[-1115,-537],[-383,355],[-591,-173],[-550,-300],[33,-282],[-849,-319],[-724,-145],[-317,482],[-424,64],[-217,-191],[-158,145],[-391,-200],[-342,200],[-491,73],[-408,-473],[-624,245],[50,-609],[-450,-91],[-250,391],[-591,36],[-41,273],[-617,228],[-233,865],[-250,291],[275,227],[-100,282],[-466,-72],[-325,154],[-16,738],[-283,418],[-408,-145],[-67,491],[-316,319],[-333,-19],[-375,-318],[-200,-555],[-982,-137],[-633,865],[-974,937],[-467,182],[-399,574],[-92,446],[158,764],[450,137],[50,-1147],[999,-1293],[616,-719],[267,-582],[899,36],[166,519],[300,355],[500,128],[816,-647],[341,-391],[291,246],[400,-37],[192,-227],[-117,-492],[-574,110],[-200,-346],[399,-237],[400,373],[458,-282],[-291,-646],[208,-1110],[349,18],[308,-255],[558,91],[300,173],[991,-182],[150,446],[574,-82],[225,-355],[441,100],[317,-127],[366,154],[400,-109],[191,-373],[1549,419],[-17,291],[1166,455],[383,-346],[699,401],[425,109],[533,418],[533,-136],[241,109],[475,-9],[674,137],[400,-119],[149,246],[542,309],[374,-109],[658,446],[458,155],[541,-164],[716,109],[158,355],[408,82],[533,-91],[333,-300],[358,54],[1066,1393],[683,291],[275,246],[391,-73],[499,146],[442,309],[874,-36],[674,391],[234,-246],[666,-73],[1215,865],[392,46],[674,455],[516,200],[500,-273],[316,273],[1033,255],[8,491],[1832,1092],[424,464],[-16,182],[524,701],[33,391],[941,1138],[533,892]],[[244386,812974],[316,409],[258,118],[500,-182],[-233,-173],[-258,128],[-225,-219],[-358,-81]],[[627634,394856],[566,7608],[-7227,765],[990,9537],[-8875,701],[-158,-1247],[-1757,182],[-475,-254],[-474,336],[-5146,546],[1091,1129],[1291,1820],[-67,1620],[-841,1256],[-1440,3968],[8,173],[-433,828],[-641,2266],[524,3131],[-466,346],[-583,-36],[483,3412],[600,5934],[-2931,246],[-283,4560],[-3047,2766],[-675,2685],[3880,-309],[616,7890],[-5362,455],[1016,12487],[766,9501],[-83,319],[533,8609],[-7669,555],[17,747],[-1157,1019],[-475,546],[-1199,1192],[-1265,765],[-483,582],[-550,501],[-599,810],[-217,564],[-458,328],[-874,1228],[-300,592],[-41,655],[266,601],[-433,846],[-17,555],[-199,565],[-700,600],[-266,0],[-475,474],[-866,509],[-16,455],[-192,383],[-749,81],[-342,-364],[-482,273],[-375,37],[-183,391],[-733,419],[-458,45],[-741,-345],[-275,482],[-125,974],[-391,82],[-233,245],[-58,419],[524,1374],[866,774],[533,9],[-75,455],[-2173,191],[275,3158],[-7361,3650],[0,364],[458,1064],[275,1411],[225,519],[33,819],[-158,901],[-833,1320],[34,1510],[333,1138],[1390,1684],[-125,855],[-2223,3295],[-3447,3640],[175,2148],[-150,118],[283,3422],[-9325,747],[275,2721],[-3730,5388],[-142,-2066],[-2389,45],[-983,346],[-1756,3149],[-5604,-46],[-449,-837],[-508,55],[-92,-1129],[-1290,118],[-284,182],[-591,-154],[-133,-273],[-1698,-28],[-358,583],[-50,446],[-633,1283],[-683,401],[-8,427],[-733,228],[-450,418],[467,6062],[358,4286],[1132,13160],[233,2194],[-8,300],[291,3458],[-5870,2603],[-8,-182],[-1973,601],[-933,146],[-949,0],[-1232,-237],[-724,491]],[[523750,584602],[874,628],[308,3258],[266,3022],[3522,-373],[566,7062],[1491,-564],[1490,-55],[5270,-955],[1641,-610],[574,7008],[9442,-1202],[583,5925],[1632,-173],[133,1356],[291,792],[600,810],[10024,9793],[1749,-2175],[5020,4086],[-632,273],[-1108,91],[-508,-127],[-832,-455],[-1665,1292],[-4921,11940],[-1299,1065],[-142,828],[791,5470],[1158,1338],[5736,4569],[-3738,4823],[5245,4405],[-66,464],[-250,255],[183,400],[-75,455],[-358,128],[75,591],[-874,1020],[-433,-73],[-774,-610],[-417,373],[-591,738],[-616,0],[-200,300],[-383,9],[-483,300],[-108,847],[250,455],[-433,437],[3780,3767],[-1915,2085],[-9367,1073],[700,5279],[1348,13215],[125,10229],[5279,-582],[433,-847],[83,-346],[1091,-2357],[899,-100],[242,-118],[499,82],[1640,-118],[1449,-1138],[433,237],[1016,27],[741,-273],[508,200],[466,9],[-300,-2776],[-583,-728],[-591,-2912],[325,-1129],[-391,-3704],[3638,-382],[-183,-1875],[3822,-446],[-292,364],[-33,546],[183,710],[-58,337],[2456,-264],[-358,592],[375,764],[149,655],[-149,437],[291,182],[108,-600],[367,-383],[324,419],[-125,755],[442,328],[266,-246],[183,-1001],[242,-801],[383,-136],[83,-446],[-100,-774],[5470,-564],[367,-382],[-50,-1020],[175,-172],[-67,-510],[275,-328],[-142,-828],[841,-519],[425,82],[616,-91],[316,-546],[500,73],[391,-573],[883,-55],[533,264],[699,582],[333,146],[649,-155],[475,-619],[8,-436],[-224,-355],[383,-155],[441,182],[-25,646],[683,1147],[674,682],[58,656],[183,318],[1016,1274],[67,364],[399,501],[425,64],[142,1438],[-866,91],[-142,491],[500,810],[633,-64],[-309,701],[25,2121],[-191,236],[266,1393],[-474,564],[-450,164],[-658,755],[-208,774],[-41,746],[208,237],[-200,446],[-974,-283],[-525,292],[-391,45],[-350,455],[-116,646],[183,192],[-233,409],[166,865],[267,-46],[208,419],[683,-601],[624,0],[258,1110],[641,510],[2315,-255],[66,164],[6054,-664],[-667,-6580],[2207,-246],[-600,-865],[1874,-1428],[-408,-801],[5037,-6526],[2181,-3140],[542,474],[8700,-1038],[558,10421],[10208,-1374],[7701,-1038],[-166,746],[-516,847],[574,227],[1091,228],[358,382],[-266,746],[574,-346],[142,410]],[[644694,686579],[283,-801],[308,-27],[-42,-428],[2881,-2312],[-1607,-2111],[1016,-810],[1573,2120],[1899,-2730],[100,-455],[-317,-728],[267,-710],[374,-246],[67,-273],[475,-300],[58,-237],[633,-400],[25,-837],[857,-1429],[-974,-564],[-1882,1165],[67,655],[-1249,136],[-283,-2666],[816,-91],[308,-401],[-8,-555],[874,-91],[-1199,-11858],[-491,-155],[0,-355],[-300,-528],[300,-328],[291,-27],[292,-555],[-100,-710],[-733,-36],[-183,-1884],[33,-392],[-658,-245],[-491,18],[-166,-983],[308,-319],[541,10],[483,-465],[241,-409],[292,-109],[-84,-1056],[1541,-128],[383,192],[507,-237],[317,-410],[308,128],[366,-710],[25,-501],[816,-254],[442,-410],[266,309],[791,237],[-92,-1201],[5887,-646],[208,2038],[283,100],[525,-373],[724,-145],[291,-219],[-75,-382],[558,-719],[949,155],[1158,-455],[708,455],[699,-665],[-67,-764],[-141,-546],[-283,-373],[707,-255],[467,-774],[599,-382],[325,227],[133,528],[391,-327],[766,-419],[358,246],[492,-18],[208,491],[524,164],[125,382],[625,-227],[324,-537],[333,-91],[342,-601],[524,-255],[358,219],[159,-264],[699,-565],[666,-218],[233,328],[583,400],[425,136],[1174,19],[199,-292],[600,-63],[341,400],[475,-537],[599,-373],[0,-237]],[[680437,642648],[-774,-54],[-908,-428],[-191,-874],[241,-764],[2265,-4924],[641,-45],[167,346],[316,-119],[433,228],[508,-182],[-17,-355],[1424,36],[33,301],[783,-64],[416,-218],[633,45],[-8,-573],[749,-446],[-549,-528],[241,-428],[-258,-428],[-358,-209],[141,-364],[741,209],[442,-109],[1382,-109],[566,-564],[316,-783],[933,-692],[783,-318],[-125,-328],[641,-792],[200,-591],[299,-446],[67,-674],[-217,-518],[667,-346],[482,-1056],[650,73],[333,564],[258,-45],[241,-428],[375,273],[491,-73],[192,237],[1549,-255],[408,-510],[224,-810],[442,-491],[91,-455],[625,-401],[75,-555],[-333,-73],[-625,-682],[674,-628],[175,-492],[-16,-919],[624,-118],[92,-419],[508,-100],[349,-246],[308,-1128],[358,-219],[-33,-901],[-483,-455],[-566,-346],[-358,-54],[-216,-646],[449,-628],[-358,-437],[-58,-401],[949,-828],[158,-509],[450,-173],[466,-364],[-400,-437],[-924,-319],[-458,-773],[791,-201],[267,428],[374,73],[250,-182],[-66,-400],[108,-547],[957,46],[575,-373],[-9,-610],[175,-237],[392,-36],[366,-410],[383,-118],[-899,-801],[-375,-164],[33,-555],[775,-236],[274,-319],[367,-54],[8,-656],[-216,-500],[491,-319],[8,-400],[400,-965],[874,-73],[358,-327],[358,364],[1099,-410],[208,-828],[641,-118],[283,-310],[84,-892],[408,155],[283,-200],[275,792],[532,-137],[325,-437],[83,-509],[333,-64],[167,-437],[583,-400],[449,482],[-241,218],[-25,446],[624,228],[109,-464],[-167,-310],[333,-528],[-366,-82],[-33,-609],[333,-656],[158,-810],[-491,-464],[158,-455],[1016,-974],[183,-355],[249,-1028],[-83,-2321],[92,-346],[458,-482],[-417,-391],[-582,36],[-617,-819],[-399,-155],[-283,-528],[233,-409],[-292,-510],[-258,-136],[-133,-410],[-250,0],[-533,-464],[-208,-446],[25,-1274],[517,-228],[-184,-500],[-582,-482],[432,-838],[-199,-264],[208,-437],[408,-163],[591,-1111],[50,-309],[-208,-692],[258,-646],[-258,-1265],[108,-455],[350,-146],[-292,-828],[-308,-473],[-16,-355],[457,-674],[-158,-291],[-807,-154],[-508,-328],[7360,-974],[7851,-1028],[6187,-665],[3830,-473],[-308,-828],[-417,-1402],[-66,-1146],[424,0],[925,227],[1257,-337],[433,-264],[558,-145],[682,-401],[833,28],[907,-337],[1291,-1038],[774,0]],[[778734,509656],[-224,-1502],[-217,-792],[-300,-446],[-666,-355],[-907,-236],[-941,-446],[-674,-537],[-225,-291],[-275,-829],[-333,-1474],[100,-673],[766,-1557],[8,-600],[-141,-383],[-900,-892],[-308,-618],[-141,-1065],[-267,-701],[-33,-764],[-416,-437],[-625,-64],[-241,-173],[-508,-655],[-558,-537],[-824,-1047],[-566,37],[-550,236],[-458,446],[-657,-18],[-417,-947],[-1115,-609],[-200,-483],[-641,-437],[-167,155],[-450,-382],[-58,-1110],[-583,-510],[-532,-1001],[-125,-710],[-300,-564],[-283,-228],[-625,-9],[-1290,974],[-741,309],[-1033,164],[-508,-82],[-707,-482],[-899,-919],[-492,-100],[-599,400],[-591,1511],[-333,473],[-342,127],[-508,-127],[-316,-300],[-458,-46],[-533,146],[-458,273],[-533,500],[-166,374],[-100,655],[-391,264],[-383,54],[-808,-300],[-2181,-946],[-275,-355],[-50,-519],[91,-492],[525,-1328],[525,-829],[-25,-591],[-234,-401],[-574,-391],[-916,-218],[-291,-765],[-34,-391],[300,-1238],[92,-1101],[-59,-628],[-216,-719],[-17,-837],[-166,-310],[-1341,-928],[-408,-182],[-974,-109],[-583,-201],[-283,-373],[-125,-1201],[-150,-555],[-316,-537],[-724,-328],[-1083,-91],[-999,-901],[-408,-45],[-449,437],[-358,36],[-450,-637],[-333,-710],[108,-874],[375,-892],[25,-537],[375,-973],[-150,-1156],[-400,-701],[17,-309],[799,-1356],[-316,-829],[75,-646],[-742,-901],[-58,-646],[242,-683],[599,-1083],[200,-719],[75,-791],[533,-1302],[258,-773],[0,-792],[241,-564],[367,-428],[-117,-746],[-1099,-1366],[-441,-400],[-283,-546],[-42,-883],[258,-637],[-158,-1010],[8,-473],[-624,-756],[150,-455],[-50,-637],[-233,-919],[-275,-573],[366,-656],[525,-619],[183,-364],[8,-1319],[67,-401],[783,-1192],[174,-965],[708,-801],[-33,-273],[-1183,-919],[-174,-428],[91,-527],[575,-883],[982,-1283],[433,-374],[475,-191],[866,-27],[666,-237],[966,-491],[449,-564],[1474,-110],[616,-664],[283,-473],[-67,-956],[492,-1110],[41,-355],[-233,-1456],[-558,-665],[-824,-227],[-1041,-983],[-466,-582],[-899,-337],[-575,-847],[-133,-555],[-300,-400],[-91,-464],[-775,-628],[-1040,-446],[-333,-801],[283,-219],[-550,-837],[-25,-965],[575,-1638],[749,-964],[391,-283],[209,-901],[549,-145],[400,-437],[166,-1156],[-233,-500],[-133,-610],[-291,-291],[-1649,-1693],[-583,-719],[-408,-819],[-466,-528],[-25,-300],[233,-501],[108,-628],[-333,-428],[-433,-209],[-391,-692],[-608,-673],[17,-510],[-183,-646],[-983,-1156],[-25,-528],[292,-482],[-483,-1857],[191,-828],[-83,-346],[208,-446],[-158,-828],[191,-373],[-216,-592],[-167,-45],[-6569,664],[-8401,2858],[-125,683],[-316,109],[766,1192],[-13688,1420],[-175,-1802],[225,-182],[-217,-2849],[-149,-2475],[-92,-255],[-283,-2776],[-3106,1138],[-4088,437],[-4704,8473],[483,4741],[-16336,1647],[-1515,-1274],[-3239,373],[-683,-8045],[-66,-1074],[-658,-9465],[-608,-8609],[4796,-419],[-1349,-7363],[1291,-36],[1898,-191],[5304,-364],[-159,-1293],[-699,-7826],[-67,-610],[-6519,582],[-4254,346],[-433,-2657],[-2282,300],[-724,-7363],[-2015,301],[-10524,1465],[17,409],[-3214,428],[-6037,828],[42,1730],[-12689,964],[833,10239],[8118,-1256],[849,1001],[-4097,1038],[908,3667],[957,-91],[1699,5434],[-6902,1756],[1448,7144],[883,-27],[166,2239],[225,2412],[-12122,910]],[[129770,463768],[14162,-436],[608,11512],[516,-18],[541,10275],[4596,-355],[150,3531],[5071,-118],[2764,-164],[533,483],[108,318],[408,9],[167,255],[50,701],[-117,382],[250,628],[-317,992],[117,255],[-516,719],[-416,36],[-50,510],[-350,173],[-383,473],[42,310],[-450,291],[350,1638],[-275,655],[-408,601],[-808,582],[-125,455],[67,1083],[-183,665],[-292,191],[458,491],[-66,601],[533,155],[607,1383],[-91,419],[-25,1501],[91,219],[-224,473],[-42,446],[774,-209],[1224,-109],[325,-974],[241,-492],[308,28],[525,-237],[216,-355],[983,-73],[275,191],[424,-127],[300,-373],[425,-155],[0,-528],[374,-236],[716,-1102],[592,-1101],[791,-701],[724,-482],[175,-355],[591,-637],[308,-164],[50,-364],[766,-318],[1224,-419],[549,264],[-150,428],[-549,609],[-483,1347],[-175,146],[200,1866],[58,1811],[142,1383],[25,883],[116,519],[-841,1401],[-3222,1475],[-2131,282],[-433,555],[0,473],[333,492],[533,309],[-108,774],[-816,1028],[258,937],[-300,474],[325,382],[-134,1556],[267,774],[-325,837],[67,755],[250,-36],[199,573],[267,-82],[391,974],[375,-164],[616,128],[-117,582],[525,146],[166,519],[408,446],[-408,728],[-75,464],[225,628],[-125,491],[483,301],[67,300],[-899,919],[-183,910],[-1041,301],[-741,54],[-941,-300],[-966,82],[-3414,-1329],[-1648,-155],[-633,-409],[-791,337],[-1099,-28],[-2273,228],[-691,127],[-5395,-1137],[-167,637],[-8,1438],[733,1055],[-67,619],[-858,710],[109,328],[4038,-328],[399,6216],[242,4032],[225,4104],[41,210],[200,5005],[874,-27],[117,8054],[50,7035],[-874,91],[75,956],[-5645,273],[-225,-4951],[-5171,637],[-12464,1602],[1540,8983],[-5220,482],[325,6170],[641,12296],[383,7262],[2339,-173]],[[243678,624465],[816,-373],[749,-710],[250,-364],[50,-692],[-374,-482],[-9,-792],[325,-37],[50,-509],[250,-182],[474,9],[267,-574],[-208,-391],[316,-701],[849,-482],[-66,-601],[649,-318],[167,-1001],[607,-683],[233,-537],[259,-273],[108,-491],[-83,-455],[641,-556],[-84,-327],[-724,-109],[-699,-246],[-250,-255],[-108,-564],[-308,-610],[108,-582],[466,-528],[-8,-510],[433,-628],[66,-364],[-125,-655],[-299,-355],[125,-382],[-417,-255],[267,-473],[16,-456],[450,119],[67,-319],[-259,-473],[-49,-373],[549,-1074],[133,-956],[433,-864],[192,18],[416,-755],[308,-237],[-416,-537],[33,-956],[600,-609],[158,-674],[649,-391],[108,-674],[517,282],[316,-27],[42,-437],[-592,-509],[-208,-310],[217,-500],[-42,-364],[183,-455],[-341,-192],[150,-591],[549,-719],[109,-783],[557,-428],[250,-418],[-2672,-2912],[399,-1639],[-41,-755],[299,-391],[-5720,-2285],[-349,-5278],[-6503,464],[-441,-473],[-9167,1083],[300,-601],[-600,-200],[308,-747],[-125,-373],[217,-673],[-275,-528],[-425,9],[-216,-382],[6844,-3823],[-292,-4423],[25,-173],[5662,-409],[-400,-6189],[-566,-8773],[1974,-137],[66,-200],[-9641,-8327],[6827,-9056],[991,528],[1099,391],[774,164],[108,-145],[7977,-10084],[-6744,-5743],[-558,-519],[-67,-628],[2714,-118],[7111,-846],[483,163],[4071,-528],[-1407,-1838],[-441,-1065],[-200,-1037],[208,-182],[-16,-819],[-375,-100],[-308,-310],[-783,-273],[-158,-164],[-824,-200],[-816,-428],[-158,-227],[-350,-3895],[882,-4933],[1149,-2621],[175,-2803],[3489,-4260],[-367,-4996],[-9241,1265],[-542,-328],[-83,-828],[-283,-300],[341,-947],[-341,-846],[-208,-883],[233,-591],[8,-465],[-424,-810],[200,-1155],[-184,-1047],[142,-637],[-42,-665],[-233,-664],[-449,-591],[-350,-182],[-841,-182],[-375,-446],[-83,-701],[-791,-1420],[-175,-910],[-733,-1256],[-158,-646],[-449,-528],[-616,-100],[-317,-501],[-891,28],[-757,-546],[-292,-628],[-982,-774],[50,-664],[-741,-719],[-425,-738],[-466,-400],[-9,-601],[192,-291],[17,-773],[124,-446],[342,-465],[-75,-455],[-716,-546],[433,-1374],[799,-1411],[391,-446],[-50,-891],[-591,-401],[-449,-127],[-150,-1193],[-242,-154],[-199,-919],[3730,-255],[-675,-9747],[-2572,182],[-84,-1320],[-2339,-7590],[258,-2339],[6119,-437],[-541,-8892],[-1399,100],[-241,-3385],[-4063,418],[-616,-5924],[2056,-656],[625,101],[849,-110],[591,-973],[808,-1921],[466,-1929],[716,-1347],[658,-956],[957,-1884],[958,-719],[166,-309],[616,-674],[683,-628],[325,-427],[566,-1101],[699,-1120],[467,-1110],[424,-756],[100,-855],[508,-1302],[-716,46],[-2373,-6680],[-100,-1384],[467,-1665],[-259,-3813],[-2780,-3513],[-2065,182],[-383,-5406],[1723,-128],[-8,-164],[-2057,-3767],[-133,-1893],[4813,-346],[-267,-2730],[-2215,-7309],[2240,201],[308,-100],[2265,-201],[574,82],[217,-136],[2564,-237],[708,9975],[366,4496],[5812,-774],[-58,-2393],[20548,-1002]],[[276008,369236],[-1615,-3485],[-158,-537],[-317,-446],[-33,-1930],[550,-1265],[-184,-218],[234,-555],[-100,-1156],[291,-810],[50,-719],[-7968,610],[-1324,-17674]],[[236018,257249],[9550,-11003],[2581,-3095],[2232,-2530],[2456,-2812],[200,-27],[1115,828],[8984,7663],[7186,-8610],[1656,-1720],[2948,-3394],[300,-519],[474,-373],[5912,-6935],[599,109],[700,-319],[-367,-318],[5629,-6498],[6261,-7700],[6061,-737],[6295,-728],[83,1329],[12356,-82],[13246,-1320],[109,1265],[1382,-136],[11590,-628],[-175,-1556],[-650,-6462],[-1140,-10985],[-800,-7736],[-940,-9156],[-3980,-3476],[-2407,-3122],[-8700,10039],[-9450,-8865],[3388,-3658],[7069,-7600],[2773,-2939],[-3547,-2958],[658,-846],[-5529,-4596],[8901,-10630],[-283,-264],[-200,-483],[-725,-546],[-632,-209],[-1008,-182],[-483,82],[-541,-382],[-699,-310],[-608,-391],[-575,-601],[-699,-191],[-1191,-173],[-466,-364],[-441,-828],[-608,-546],[-191,-564],[-317,-264],[-949,-556],[-283,-373],[-841,-482],[-583,-774],[-916,-637],[-1215,-164],[-217,-182],[-474,101],[-1274,-283],[-275,-418],[-575,-328],[-1415,200],[-966,-227],[-283,-291],[-1898,518],[-15420,4314],[17,392],[-442,154],[-7318,8564],[-4546,55],[-1199,-13306],[-10175,-8737],[300,3559],[-13155,1074],[-10233,63],[-10232,419],[-167,-2339],[3863,-327],[-907,-13361],[-5096,392],[-491,-9775],[-225,-3467],[6378,-583],[-741,-8591],[-1082,-12660],[-11848,1120],[-1133,346],[-1232,-15336],[-708,-8018],[8085,-700],[4188,-4605],[749,1474],[383,956],[-141,309],[616,610],[1274,437],[632,664],[608,255],[59,255],[457,264],[2540,-5197],[-1216,-14043],[2157,-146],[-158,-3103],[1398,-127],[-1015,-11104],[-1324,-14416],[-12606,0],[-6694,0],[-13388,-9],[-6694,0],[-13647,0],[-13130,0],[-13388,0],[-6694,0],[-13389,-9],[-13380,0],[-6702,-9],[-6686,9],[-6694,0],[-8543,0],[-11531,-9],[-13380,0],[-13380,0],[-13380,-9],[-13380,0],[-13371,0],[-13380,0],[-8893,0],[-8,13215],[-8,13223],[0,13224],[0,6607],[0,13224],[0,13215],[0,6607],[0,13224],[0,13215],[0,13223],[-9,13215],[0,13224],[0,13214],[0,13224],[0,13224],[0,6607],[-8,13078],[-8,13370],[0,7208]],[[73319,830038],[1141,-237],[1723,128],[1066,-328],[558,-237],[1632,-291],[1165,-145],[1574,-128],[158,-236],[766,-219],[500,-573],[366,428],[491,-164],[1316,-938],[466,-245],[608,-164],[58,-555],[-291,-228],[-317,-601],[184,-182],[66,-655],[367,-928],[566,-765],[2015,-1501],[766,-1657],[1107,-1447],[300,18],[1065,-582]],[[627634,394856],[-300,-3968],[-7843,892],[-1382,-14025],[-3997,510],[-9017,1092],[-641,3167],[-7352,801],[-167,-1729],[1716,-1484],[-342,-2803],[958,-1838],[8,-556],[-500,-773],[-66,-428],[-250,-109],[125,-528],[-92,-300],[242,-273],[-2764,300],[16,164],[-6477,682],[-84,-755],[858,-974],[-175,-2949],[-10482,1120],[-483,-5488],[-625,-6234],[-11831,1247],[-375,-4824],[-3613,373],[-59,-45],[-499,-4851],[50,-27],[-591,-5761],[-1357,873],[-525,-154],[-4346,537],[-2298,218],[-6936,510],[-1498,154],[-2965,237],[109,1866],[-8659,737],[416,3977],[874,1383],[325,3313],[-12381,1256],[133,1393],[-558,3203],[-6918,719],[249,3149],[225,3750],[-141,36],[-6070,637],[25,410],[-1599,264],[-1998,91],[-924,-37],[-1541,328],[475,5861],[-9192,746],[-391,191],[-12273,810],[-25,-273],[-6061,783],[-6511,737],[966,8391],[574,5825],[-3264,318],[-6644,683],[-6686,664],[-141,-154],[-7519,782],[-24,164],[-2315,246],[-58,255],[216,2894],[666,6416],[833,8528],[807,8254],[-10232,983]],[[436443,426436],[1124,11404],[524,-46],[375,3868],[3106,-300],[24,155],[1166,10657],[1049,9538],[1099,9392],[8027,-737],[99,1319],[600,1930],[283,500],[100,883],[4263,-446],[2473,4259],[574,5743],[408,5024],[-599,601],[-4680,418],[234,328],[133,1046],[283,492],[966,737],[441,592],[-158,582],[341,692],[516,428],[350,828],[808,628],[508,173],[1249,901],[716,136],[524,328],[1033,964],[749,874],[591,282],[408,-54],[525,-264],[632,91],[566,327],[234,556],[641,536],[966,310],[782,164],[441,-55],[275,-327],[866,-246],[758,418],[541,55],[1782,-264],[383,155],[258,373],[416,209],[441,474],[733,518],[883,1011],[932,291],[483,573],[-17,674],[209,400],[774,-64],[316,100],[208,446],[-224,492],[283,318],[516,-273],[433,292],[-8,382],[-242,500],[-6095,7472],[6686,5616],[-4171,5196],[-2423,-2102],[-7094,7399],[-2389,228],[1049,10903],[2639,-273],[1016,12213],[466,5579],[1932,21487]],[[473552,582445],[2739,1065],[1582,-418],[1482,-583],[1973,-855],[1774,-1074],[2289,-1174],[2273,-601],[3681,282],[2422,282],[1075,319],[790,482],[683,219],[966,-82],[766,-219],[974,100],[1008,-27],[299,73],[858,582],[1224,1557],[1324,1292],[791,1192],[524,-27],[949,-346],[1408,-328],[1223,-136],[758,328],[375,400],[574,-18],[1266,573],[641,-9],[824,-173],[1274,-801],[208,-1092],[442,-546],[582,-273],[833,-218],[791,-355],[483,-574],[1174,-792],[424,255],[617,674],[757,1301],[591,792],[567,237],[940,637],[525,-9],[475,245]],[[873452,636924],[-90155,-9],[-32413,0],[-25986,9],[0,7581],[-11639,-9],[-18892,9],[-891,-1219],[-292,-73],[-433,218],[-499,18],[-208,-200],[33,-446],[-783,-327],[-349,282],[-283,-173],[100,-710],[-242,-364],[-50,-410],[-541,310],[-375,-301],[-949,201],[-250,-146],[-366,646],[-924,219],[-2082,1046],[-899,737],[-125,283],[-691,-337],[-275,-382],[233,-328],[-308,-355],[-66,-601],[-325,-154],[-425,300],[-749,200],[-466,-82],[-450,291]],[[644694,686579],[149,255],[383,-46],[234,455],[666,637],[-42,674],[275,155],[191,500],[-416,874],[58,573],[1116,-127],[-799,564],[-175,674],[399,172],[558,-509],[558,54],[566,428],[442,-746],[383,-91],[249,200],[-141,337],[16,682],[1083,364],[-167,483],[159,236],[374,-18],[666,-782],[-91,-756],[-183,-246],[233,-473],[566,-355],[599,446],[500,-373],[741,137],[749,-91],[741,309],[442,-18],[216,227],[341,-291],[167,-382],[574,255],[383,427],[583,283],[874,810],[9,236],[649,665],[208,-19],[858,774],[341,-73],[1158,564],[1207,-2739],[1024,-137],[525,46],[266,-155],[699,301],[750,18],[657,227],[142,201],[824,-55],[500,-209],[849,336],[808,-782],[233,373],[283,-228],[1798,-755],[900,236],[632,-982],[641,-328],[-191,-519],[33,-500],[267,-574],[-675,-673],[-175,-701],[200,-319],[608,-9],[267,-191],[249,-883],[566,-846],[9,-500],[358,-182],[291,-410],[-441,-446],[-108,-528],[141,-555],[383,-601],[1366,-418],[766,-419],[716,-155],[757,128],[825,-355],[391,-310],[75,-464],[241,-227],[625,364],[-17,427],[392,228],[333,-64],[624,483],[291,755],[1149,1283],[475,419],[966,-255],[799,-9],[2157,-464],[1681,-91],[8351,-9],[7277,-9],[12456,-9],[8518,0],[22005,36],[0,-7590],[23330,-19],[26485,19],[533,-1338],[483,-574],[291,-591],[8077,-3595],[1049,-528],[10765,-3149],[1324,-519],[4904,-4268],[874,-346],[883,-564],[400,-1201],[2439,-2712],[3905,-1748],[2956,-2148],[4254,228],[3855,-1447],[15095,-7017],[2723,-1929],[308,-337],[3056,-1748],[674,-109],[591,-673],[4322,-1602]],[[720677,657192],[8,0],[950,419],[624,627],[425,201],[308,-346],[441,209],[58,392],[575,491],[-325,118],[150,364],[50,610],[-433,382],[-650,-218],[-308,-319],[-549,-282],[-808,-127],[-899,-264],[-341,91],[-591,919],[58,510],[8,9],[-42,528],[-333,446],[-8,9],[-283,473],[-8,9],[-483,501],[-425,746],[-491,82],[-8,0],[-517,328],[-549,154],[-408,756],[283,418],[-208,337],[-342,-282],[-507,-46],[-883,747],[-42,-519],[600,-655],[50,-647],[774,-1374],[-183,-346],[-391,-345],[-350,-565],[-33,-555],[-250,-846],[216,-701],[-333,-346],[-533,246],[267,-710],[-183,-391],[749,-556],[391,537],[425,364],[574,110],[925,-364],[483,300],[482,-619],[159,300],[383,82],[816,-164],[982,-1274],[483,46]],[[722067,657128],[-99,-54],[58,-64],[75,54],[-34,64]],[[713816,666821],[0,9],[-266,64],[-666,919],[-783,600],[-383,-127],[-374,-482],[499,-100],[433,-901],[283,-392],[-75,-692],[558,-455],[266,1011],[508,546]],[[712193,657802],[225,-255],[241,54],[-466,201]],[[710827,651749],[492,-555],[507,-236],[442,-401],[150,428],[-225,519],[-367,27],[-557,510],[-442,-292]],[[711085,656910],[558,-865],[467,64],[-500,437],[-150,300],[-375,64]],[[710561,658175],[191,-401],[267,110],[-458,291]],[[710411,652559],[-92,-81],[125,-101],[25,73],[-58,109]],[[710086,663253],[0,9],[109,583],[-9,1228],[-125,201],[292,464],[-142,391],[183,446],[-191,619],[-475,519],[-999,-164],[17,-9],[524,-383],[-58,-719],[500,-864],[-633,-1183],[-125,-565],[308,-473],[683,-582],[141,482]],[[709437,657920],[333,-528],[233,191],[-142,401],[-424,-64]],[[364656,600338],[1740,-173],[116,1265],[13688,-1074],[3639,-273],[-1058,-13051],[1457,-109],[-616,-6571]],[[383622,580352],[-18900,1829],[-1016,-11430],[-1140,-12168],[2506,-228],[-874,-10357],[-666,-7927],[-583,-6880],[-575,-6671],[-932,-10812],[3730,-337],[-825,-9601],[259,-19],[-1016,-11722],[-1199,-273],[-225,28],[-175,-1320],[-108,-1329],[316,-27],[-483,-5916],[-366,46],[-2065,-4514],[4455,-474],[-708,-6962],[-1990,209],[-841,-8382],[-1582,182],[-524,-6225],[-308,-3849],[-7394,673],[-333,-2120],[3222,-301],[-449,-5115],[-67,19],[-766,-8856],[2739,-209],[-449,-6052],[-7677,136],[-8326,1657],[-866,-710],[7527,-9028],[-6136,-5133],[2306,-246],[-949,-9620],[-3497,-2894],[2947,-291],[-141,-1584]],[[339478,405549],[-92,-2047],[-125,-3777],[-391,36],[-17,-373],[391,-182],[-141,-3923],[-117,-4022],[-724,-5197],[-758,-5551],[-9083,782],[-16553,1438],[-124,-1438],[-13297,1174],[283,3295],[-6203,555],[-2065,-17765],[-14454,682]],[[154898,848149],[33,328],[-458,782],[216,373],[650,-9],[358,109],[391,401],[-116,646],[558,310],[174,-374],[766,-318],[-674,-464],[-458,-546],[-416,36],[-591,-391],[-433,-883]],[[153857,845373],[-17,46],[42,63],[41,-27],[-66,-82]],[[153749,845200],[-9,46],[67,27],[-33,-64],[-25,-9]],[[152616,845737],[242,501],[258,91],[491,-264],[-991,-328]],[[150884,864522],[17,282],[-375,409],[134,219],[441,-319],[-217,-591]],[[151034,864057],[-58,19],[67,100],[66,-109],[-75,-10]],[[144523,864148],[-349,774],[-383,218],[-550,-118],[-374,64],[-558,828],[-225,664],[583,246],[316,528],[58,764],[425,656],[758,-119],[308,-382],[-133,-509],[108,-956],[408,-537],[-167,-582],[67,-765],[-117,-728],[-175,-46]],[[107639,842889],[-541,227],[-566,-100],[-508,182],[-325,546],[-1107,91],[-633,-136],[-883,-510],[-283,-64],[-233,455],[-8,392],[-250,764],[-450,464],[-707,173],[116,737],[558,592],[-108,255],[-724,-501],[-217,-1001],[-500,-36],[-308,1246],[184,692],[-50,646],[-325,892],[-258,210],[-791,-137],[-591,173],[-566,-127],[-334,172],[-308,710],[-33,856],[-350,901],[-349,409],[283,455],[499,546],[200,574],[-108,673],[658,619],[558,382],[491,546],[841,701],[757,510],[816,755],[542,992],[41,383],[-333,500],[650,983],[-117,428],[899,528],[575,464],[349,464],[167,919],[-175,337],[591,282],[591,446],[683,237],[1266,855],[965,582],[642,938],[324,328],[625,336],[516,9],[808,-364],[641,-82],[1207,319],[699,409],[325,-536],[866,-428],[158,373],[-982,355],[-117,127],[342,565],[1382,100],[591,-46],[1140,391],[1841,164],[624,-200],[1241,-55],[940,64],[908,246],[616,328],[17,273],[657,309],[250,455],[1074,537],[1616,610],[757,355],[675,418],[241,455],[-91,510],[449,127],[600,528],[566,-391],[1074,-300],[1682,-173],[1224,-282],[990,-1557],[725,-482],[716,-637],[816,-1101],[707,-455],[808,-119],[933,64],[483,-200],[233,-455],[-208,-592],[166,-473],[483,200],[341,-64],[225,-782],[408,-182],[300,-929],[-250,-718],[58,-1284],[-141,-355],[266,-273],[683,-336],[166,-1011],[-482,-163],[-433,45],[-1024,-91],[-125,846],[-400,556],[-924,136],[-1108,-118],[-408,-510],[-757,-155],[-333,-464],[-458,55],[-508,-191],[-358,-373],[-666,-292],[-1699,-1265],[-233,328],[58,473],[-399,392],[25,873],[-750,364],[-83,637],[-200,401],[375,819],[-208,409],[-491,392],[-783,282],[-283,291],[-117,537],[350,255],[-142,309],[-1498,-655],[-133,-619],[-325,-655],[-441,-319],[-192,-318],[275,-310],[-183,-455],[-958,128],[-508,-82],[-324,373],[-392,18],[-391,-255],[-558,-746],[-982,-73],[-17,292],[-375,63],[-499,-528],[-50,-473],[241,-73],[616,-710],[283,-509],[625,-155],[624,91],[467,191],[707,-18],[134,-155],[108,-928],[-108,-464],[-633,-637],[-9,-728],[-482,45],[-109,410],[-324,355],[-59,437],[-516,382],[-741,-82],[-683,-310],[-1157,-882],[-250,-765],[816,-127],[475,-273],[108,-401],[-400,-1492],[450,-665],[8,-373],[-549,-1028],[-408,-91],[-417,164],[-657,-19],[-850,-227],[-83,-391],[275,-82],[150,-501],[424,-364],[284,-564],[-109,-464],[-8,-947],[-699,-237],[-167,-218],[-383,146],[-1632,82],[183,628],[-582,800],[8,264],[-491,910],[-333,346],[-483,128],[-766,1083],[-542,236],[725,692],[-483,146],[-600,600],[-566,219],[-250,-100],[59,-428],[799,-674],[33,-327],[-449,-46],[233,-682],[8,-1375],[75,-391],[700,-783],[-267,-618],[-749,-719],[-283,-619],[191,-583],[-216,-218],[-683,783],[-833,218],[-83,-264],[441,-473],[-58,-546],[-474,-519],[-825,-664],[-574,-647],[-275,-54],[-666,-1183],[-250,-628],[-208,-37],[-550,546],[-308,-82],[-641,-436],[-491,-455]],[[134857,806084],[-391,228],[-325,-73],[-600,792],[-125,1410],[725,237],[774,537],[50,564],[-166,573],[466,510],[183,583],[300,218],[66,482],[-166,574],[191,446],[666,-364],[392,-647],[91,-354],[-458,-401],[-75,-409],[-341,-401],[-799,-1593],[-500,-901],[-125,-400],[150,-510],[17,-1101]],[[118888,807340],[-733,73],[-242,264],[-75,792],[-757,691],[-25,637],[-342,574],[-191,946],[891,-191],[716,64],[857,418],[883,1165],[1024,556],[575,555],[216,955],[-92,337],[300,865],[508,27],[758,-164],[183,300],[624,192],[575,582],[333,528],[-58,419],[158,673],[-208,528],[141,482],[-299,910],[299,64],[217,-264],[624,-318],[108,-510],[259,-437],[1099,-1256],[741,-610],[591,-646],[408,-610],[433,-318],[674,45],[-150,-473],[-408,-601],[142,-928],[491,-1201],[233,-401],[874,-773],[292,-847],[-600,-45],[-624,-228],[-633,-427],[-200,82],[-1074,-82],[-1299,-410],[-424,-373],[-109,-319],[-391,-400],[-166,-382],[-458,291],[-625,182],[-1066,-100],[-482,282],[-125,528],[191,637],[-283,400],[-1066,46],[-1948,-555],[-383,73],[-425,-246],[-158,-719],[-333,-555],[34,-774]],[[129845,806867],[-342,118],[0,428],[475,819],[283,-309],[-408,-456],[-8,-600]],[[121335,845382],[-691,137],[-283,200],[50,537],[-216,127],[458,1329],[358,173],[383,501],[866,345],[216,228],[475,-109],[333,-574],[50,-382],[-333,-237],[-500,-946],[-108,-601],[-1058,-728]],[[123159,854183],[-34,36],[67,9],[-33,-45]],[[121918,848913],[-66,37],[83,27],[-17,-64]],[[121718,848977],[-199,91],[-100,291],[283,-72],[16,-310]],[[115682,811927],[-1549,337],[-8,273],[683,27],[1065,-446],[-191,-191]],[[115157,815950],[234,145],[75,228],[-9,182],[108,-55],[-108,-300],[-108,-118],[-192,-82]],[[115241,850825],[-34,691],[400,-73],[-366,-618]],[[114941,818088],[-275,219],[83,82],[242,-201],[-50,-100]],[[113934,822675],[-167,82],[-8,228],[249,-137],[-74,-173]],[[108214,841278],[-84,27],[-233,564],[416,-291],[-99,-300]],[[107031,885763],[-58,73],[50,37],[67,-46],[-59,-64]],[[106207,818680],[-158,273],[-566,-27],[66,882],[533,-18],[350,-246],[66,-455],[-291,-409]],[[106465,884689],[-166,692],[516,-109],[-350,-583]],[[105757,813420],[-299,18],[-167,309],[-699,-45],[16,464],[-449,455],[-808,-182],[-424,282],[-275,391],[-300,783],[-425,36],[-308,-209],[-224,1065],[-400,537],[-208,482],[66,401],[525,36],[491,-710],[541,-327],[350,-528],[1057,-710],[283,-637],[633,-765],[924,-655],[100,-491]],[[104767,888639],[-109,164],[159,64],[-50,-228]],[[100504,819190],[-159,100],[-408,145],[317,37],[125,-55],[125,-227]],[[95333,841087],[-25,409],[233,510],[342,1292],[-275,1065],[-233,282],[-34,601],[359,728],[83,637],[524,710],[1616,1347],[516,-64],[541,-209],[333,-401],[-216,-1238],[-300,-491],[-25,-300],[333,-1020],[91,-582],[-666,-819],[-557,-27],[-492,-365],[-399,-500],[-75,-346],[158,-664],[-749,73],[-517,-137],[-566,-491]],[[97548,841760],[-92,164],[-183,136],[-125,246],[83,127],[109,-354],[200,-237],[8,-82]],[[96457,839257],[25,55],[117,36],[-42,-63],[-67,-10],[-33,-18]],[[96232,838475],[17,9],[17,63],[16,-9],[-25,-54],[-25,-9]],[[91903,832805],[-292,236],[-266,774],[-83,728],[324,692],[50,582],[342,27],[2239,929],[375,309],[308,-237],[292,-846],[674,-446],[266,-428],[-432,-582],[-425,146],[-466,-10],[-367,155],[-566,-300],[-233,155],[-358,-510],[-183,45],[-741,-336],[-466,-565],[8,-518]],[[95999,834661],[-8,9],[8,0],[0,-9]],[[95691,840322],[-366,373],[291,246],[258,-319],[-183,-300]],[[95267,837919],[-50,10],[-17,0],[-8,27],[66,-18],[9,-19]],[[94784,837801],[8,18],[0,18],[8,0],[0,-9],[-8,-18],[-8,-9]],[[93735,831394],[-34,118],[17,0],[25,-109],[-8,-9]],[[89513,827535],[-433,519],[-391,45],[-633,838],[450,318],[175,-318],[732,-446],[275,-783],[-175,-173]],[[88622,830074],[-158,546],[500,501],[166,-73],[75,-619],[-583,-355]],[[200,437066],[-9,12496],[-8,13233],[-8,14133],[0,12323],[-8,13233],[-9,13233],[-8,13233],[-8,13233],[-9,13232],[0,13242],[-8,13233],[-8,13242],[-9,13233],[0,6616],[0,7536],[17,8783],[-8,10147],[-9,13224],[-8,13233],[-8,3695],[-9,12168],[0,7945],[-8,19485]],[[383622,580352],[-125,-1410],[16061,-1484],[15062,-1374],[4621,-392],[13955,-1301],[4337,-400],[583,737],[408,-64],[333,-373],[375,-692],[408,-200],[866,628],[258,482],[91,1320],[733,1210],[616,1538],[408,574],[541,428],[1316,673],[308,401],[433,1010],[350,173],[441,-55],[1357,-764],[425,-110],[857,119],[933,1438],[33,955],[-58,883],[333,127],[408,455],[857,528],[317,-245],[1074,355],[350,-192],[807,-63],[292,655],[533,264],[366,837],[316,164],[367,446],[1965,828],[957,592],[666,764],[317,974],[-175,1247],[-283,701],[507,355],[791,364],[1016,382],[1174,-437],[1307,-819],[1208,-1029],[283,-427],[608,-510],[832,-1329],[408,-773],[991,-2439],[141,-255],[2307,-2175],[616,-337],[1948,-874],[400,9]],[[436443,426436],[-9,-164],[-4038,401],[-8567,-7272],[-4063,-3449],[-2390,-2011],[-50,-465],[-416,-345],[-300,154],[-3763,-3458],[-891,1083],[-6694,-5752],[-2107,2548],[-1773,2221],[-5004,-4305],[-5112,-4359],[2039,-2467],[-5570,-4805],[417,5215],[-7619,701],[-166,-73],[-5620,501],[-367,-4205],[-9375,519],[-3830,200],[100,1474],[133,1183],[-8925,983],[308,4132],[-5703,701],[-7610,227]],[[873452,636924],[6544,-2430],[141,-209],[11265,-4014],[17901,-3194],[617,-774],[3313,-5861],[275,-309],[4388,-865],[524,-273],[433,-473],[5579,-1220],[18983,-7681]]],"transform":{"scale":[0.000012010512010512017,0.000010987810987810988],"translate":[137.9947,-25.9968]},"objects":{"qld_northern_ldmg_boundaries_gda2020_simp200m":{"type":"GeometryCollection","geometries":[{"arcs":[[0,1,2,3,4]],"type":"Polygon","properties":{"LGA Code":"900","Abbreviated Name":"Boulia","LGA Name":"Boulia Shire","Area Sq Km":60946.78,"LDMG Name":"Boulia","Source Area Sq Km":60946.43985,"Police Region Name":"Northern Region","Police Region Code":"NR","Police Region Short Name":"Northern","Region Slug":"northern","Layer Id":"qld_northern_ldmg_boundaries_gda2020_simp200m","Layer Group":"per-region","Layer Kind":"ldmg","Source":"Local government area boundaries - Queensland, Department of Natural Resources and Mines, Manufacturing and Regional and Rural Development; ASGS Edition 3 (2021) Local Government Areas, Australian Bureau of Statistics","Source URL":"https://www.data.qld.gov.au/dataset/local-government-area-boundaries-queensland","Licence":"CC BY 4.0","Licence URL":"https://creativecommons.org/licenses/by/4.0/","Dataset Date":"extract of 11/05/2026","Simplification Tolerance M":200,"Coordinate Precision Decimals":4,"CRS":"GDA2020 (EPSG:7844)","Modified":"Simplified and repackaged from the source dataset; see Source URL"},"id":"900"},{"arcs":[[5,6,7]],"type":"Polygon","properties":{"LGA Code":"1900","Abbreviated Name":"Burdekin","LGA Name":"Burdekin Shire","Area Sq Km":15647.17,"LDMG Name":"Burdekin","Source Area Sq Km":15646.50249,"Police Region Name":"Northern Region","Police Region Code":"NR","Police Region Short Name":"Northern","Region Slug":"northern","Layer Id":"qld_northern_ldmg_boundaries_gda2020_simp200m","Layer Group":"per-region","Layer Kind":"ldmg","Source":"Local government area boundaries - Queensland, Department of Natural Resources and Mines, Manufacturing and Regional and Rural Development; ASGS Edition 3 (2021) Local Government Areas, Australian Bureau of Statistics","Source URL":"https://www.data.qld.gov.au/dataset/local-government-area-boundaries-queensland","Licence":"CC BY 4.0","Licence URL":"https://creativecommons.org/licenses/by/4.0/","Dataset Date":"extract of 11/05/2026","Simplification Tolerance M":200,"Coordinate Precision Decimals":4,"CRS":"GDA2020 (EPSG:7844)","Modified":"Simplified and repackaged from the source dataset; see Source URL"},"id":"1900"},{"arcs":[[8,9,10,11,12,13],[14]],"type":"Polygon","properties":{"LGA Code":"1950","Abbreviated Name":"Burke","LGA Name":"Burke Shire","Area Sq Km":40166.92,"LDMG Name":"Burke","Source Area Sq Km":40167.14113,"Police Region Name":"Northern Region","Police Region Code":"NR","Police Region Short Name":"Northern","Region Slug":"northern","Layer Id":"qld_northern_ldmg_boundaries_gda2020_simp200m","Layer Group":"per-region","Layer Kind":"ldmg","Source":"Local government area boundaries - Queensland, Department of Natural Resources and Mines, Manufacturing and Regional and Rural Development; ASGS Edition 3 (2021) Local Government Areas, Australian Bureau of Statistics","Source URL":"https://www.data.qld.gov.au/dataset/local-government-area-boundaries-queensland","Licence":"CC BY 4.0","Licence URL":"https://creativecommons.org/licenses/by/4.0/","Dataset Date":"extract of 11/05/2026","Simplification Tolerance M":200,"Coordinate Precision Decimals":4,"CRS":"GDA2020 (EPSG:7844)","Modified":"Simplified and repackaged from the source dataset; see Source URL"},"id":"1950"},{"arcs":[[[-12,15,16,17]],[[18]],[[19]]],"type":"MultiPolygon","properties":{"LGA Code":"2250","Abbreviated Name":"Carpentaria","LGA Name":"Carpentaria Shire","Area Sq Km":64182.67,"LDMG Name":"Carpentaria","Source Area Sq Km":64182.80075,"Police Region Name":"Northern Region","Police Region Code":"NR","Police Region Short Name":"Northern","Region Slug":"northern","Layer Id":"qld_northern_ldmg_boundaries_gda2020_simp200m","Layer Group":"per-region","Layer Kind":"ldmg","Source":"Local government area boundaries - Queensland, Department of Natural Resources and Mines, Manufacturing and Regional and Rural Development; ASGS Edition 3 (2021) Local Government Areas, Australian Bureau of Statistics","Source URL":"https://www.data.qld.gov.au/dataset/local-government-area-boundaries-queensland","Licence":"CC BY 4.0","Licence URL":"https://creativecommons.org/licenses/by/4.0/","Dataset Date":"extract of 11/05/2026","Simplification Tolerance M":200,"Coordinate Precision Decimals":4,"CRS":"GDA2020 (EPSG:7844)","Modified":"Simplified and repackaged from the source dataset; see Source URL"},"id":"2250"},{"arcs":[[20,21,22,23,-6,24]],"type":"Polygon","properties":{"LGA Code":"2310","Abbreviated Name":"Charters Towers","LGA Name":"Charters Towers Regional","Area Sq Km":68329.23,"LDMG Name":"Charters Towers","Source Area Sq Km":68329.4967,"Police Region Name":"Northern Region","Police Region Code":"NR","Police Region Short Name":"Northern","Region Slug":"northern","Layer Id":"qld_northern_ldmg_boundaries_gda2020_simp200m","Layer Group":"per-region","Layer Kind":"ldmg","Source":"Local government area boundaries - Queensland, Department of Natural Resources and Mines, Manufacturing and Regional and Rural Development; ASGS Edition 3 (2021) Local Government Areas, Australian Bureau of Statistics","Source URL":"https://www.data.qld.gov.au/dataset/local-government-area-boundaries-queensland","Licence":"CC BY 4.0","Licence URL":"https://creativecommons.org/licenses/by/4.0/","Dataset Date":"extract of 11/05/2026","Simplification Tolerance M":200,"Coordinate Precision Decimals":4,"CRS":"GDA2020 (EPSG:7844)","Modified":"Simplified and repackaged from the source dataset; see Source URL"},"id":"2310"},{"arcs":[[-4,25,-13,-18,26,27]],"type":"Polygon","properties":{"LGA Code":"2450","Abbreviated Name":"Cloncurry","LGA Name":"Cloncurry Shire","Area Sq Km":48000.27,"LDMG Name":"Cloncurry","Source Area Sq Km":48000.46473,"Police Region Name":"Northern Region","Police Region Code":"NR","Police Region Short Name":"Northern","Region Slug":"northern","Layer Id":"qld_northern_ldmg_boundaries_gda2020_simp200m","Layer Group":"per-region","Layer Kind":"ldmg","Source":"Local government area boundaries - Queensland, Department of Natural Resources and Mines, Manufacturing and Regional and Rural Development; ASGS Edition 3 (2021) Local Government Areas, Australian Bureau of Statistics","Source URL":"https://www.data.qld.gov.au/dataset/local-government-area-boundaries-queensland","Licence":"CC BY 4.0","Licence URL":"https://creativecommons.org/licenses/by/4.0/","Dataset Date":"extract of 11/05/2026","Simplification Tolerance M":200,"Coordinate Precision Decimals":4,"CRS":"GDA2020 (EPSG:7844)","Modified":"Simplified and repackaged from the source dataset; see Source URL"},"id":"2450"},{"arcs":[[-1,28]],"type":"Polygon","properties":{"LGA Code":"2750","Abbreviated Name":"Diamantina","LGA Name":"Diamantina Shire","Area Sq Km":94665.38,"LDMG Name":"Diamantina","Source Area Sq Km":94665.36485,"Police Region Name":"Northern Region","Police Region Code":"NR","Police Region Short Name":"Northern","Region Slug":"northern","Layer Id":"qld_northern_ldmg_boundaries_gda2020_simp200m","Layer Group":"per-region","Layer Kind":"ldmg","Source":"Local government area boundaries - Queensland, Department of Natural Resources and Mines, Manufacturing and Regional and Rural Development; ASGS Edition 3 (2021) Local Government Areas, Australian Bureau of Statistics","Source URL":"https://www.data.qld.gov.au/dataset/local-government-area-boundaries-queensland","Licence":"CC BY 4.0","Licence URL":"https://creativecommons.org/licenses/by/4.0/","Dataset Date":"extract of 11/05/2026","Simplification Tolerance M":200,"Coordinate Precision Decimals":4,"CRS":"GDA2020 (EPSG:7844)","Modified":"Simplified and repackaged from the source dataset; see Source URL"},"id":"2750"},{"arcs":[[[-10,29]],[[-15]]],"type":"MultiPolygon","properties":{"LGA Code":"2770","Abbreviated Name":"Doomadgee Aboriginal","LGA Name":"Doomadgee Aboriginal Shire","Area Sq Km":1803.3,"LDMG Name":"Doomadgee","Source Area Sq Km":1803.36842,"Police Region Name":"Northern Region","Police Region Code":"NR","Police Region Short Name":"Northern","Region Slug":"northern","Layer Id":"qld_northern_ldmg_boundaries_gda2020_simp200m","Layer Group":"per-region","Layer Kind":"ldmg","Source":"Local government area boundaries - Queensland, Department of Natural Resources and Mines, Manufacturing and Regional and Rural Development; ASGS Edition 3 (2021) Local Government Areas, Australian Bureau of Statistics","Source URL":"https://www.data.qld.gov.au/dataset/local-government-area-boundaries-queensland","Licence":"CC BY 4.0","Licence URL":"https://creativecommons.org/licenses/by/4.0/","Dataset Date":"extract of 11/05/2026","Simplification Tolerance M":200,"Coordinate Precision Decimals":4,"CRS":"GDA2020 (EPSG:7844)","Modified":"Simplified and repackaged from the source dataset; see Source URL"},"id":"2770"},{"arcs":[[30,31,32,-21]],"type":"Polygon","properties":{"LGA Code":"3200","Abbreviated Name":"Flinders","LGA Name":"Flinders Shire","Area Sq Km":41227.25,"LDMG Name":"Flinders","Source Area Sq Km":41226.82747,"Police Region Name":"Northern Region","Police Region Code":"NR","Police Region Short Name":"Northern","Region Slug":"northern","Layer Id":"qld_northern_ldmg_boundaries_gda2020_simp200m","Layer Group":"per-region","Layer Kind":"ldmg","Source":"Local government area boundaries - Queensland, Department of Natural Resources and Mines, Manufacturing and Regional and Rural Development; ASGS Edition 3 (2021) Local Government Areas, Australian Bureau of Statistics","Source URL":"https://www.data.qld.gov.au/dataset/local-government-area-boundaries-queensland","Licence":"CC BY 4.0","Licence URL":"https://creativecommons.org/licenses/by/4.0/","Dataset Date":"extract of 11/05/2026","Simplification Tolerance M":200,"Coordinate Precision Decimals":4,"CRS":"GDA2020 (EPSG:7844)","Modified":"Simplified and repackaged from the source dataset; see Source URL"},"id":"3200"},{"arcs":[[33,-23,34],[35],[36],[37],[38],[39],[40],[41],[42],[43],[44]],"type":"Polygon","properties":{"LGA Code":"3800","Abbreviated Name":"Hinchinbrook","LGA Name":"Hinchinbrook Shire","Area Sq Km":11388.06,"LDMG Name":"Hinchinbrook","Source Area Sq Km":11385.08266,"Police Region Name":"Northern Region","Police Region Code":"NR","Police Region Short Name":"Northern","Region Slug":"northern","Layer Id":"qld_northern_ldmg_boundaries_gda2020_simp200m","Layer Group":"per-region","Layer Kind":"ldmg","Source":"Local government area boundaries - Queensland, Department of Natural Resources and Mines, Manufacturing and Regional and Rural Development; ASGS Edition 3 (2021) Local Government Areas, Australian Bureau of Statistics","Source URL":"https://www.data.qld.gov.au/dataset/local-government-area-boundaries-queensland","Licence":"CC BY 4.0","Licence URL":"https://creativecommons.org/licenses/by/4.0/","Dataset Date":"extract of 11/05/2026","Simplification Tolerance M":200,"Coordinate Precision Decimals":4,"CRS":"GDA2020 (EPSG:7844)","Modified":"Simplified and repackaged from the source dataset; see Source URL"},"id":"3800"},{"arcs":[[-17,45,46,47,-27]],"type":"Polygon","properties":{"LGA Code":"4800","Abbreviated Name":"McKinlay","LGA Name":"McKinlay Shire","Area Sq Km":40733.21,"LDMG Name":"McKinlay","Source Area Sq Km":40732.91399,"Police Region Name":"Northern Region","Police Region Code":"NR","Police Region Short Name":"Northern","Region Slug":"northern","Layer Id":"qld_northern_ldmg_boundaries_gda2020_simp200m","Layer Group":"per-region","Layer Kind":"ldmg","Source":"Local government area boundaries - Queensland, Department of Natural Resources and Mines, Manufacturing and Regional and Rural Development; ASGS Edition 3 (2021) Local Government Areas, Australian Bureau of Statistics","Source URL":"https://www.data.qld.gov.au/dataset/local-government-area-boundaries-queensland","Licence":"CC BY 4.0","Licence URL":"https://creativecommons.org/licenses/by/4.0/","Dataset Date":"extract of 11/05/2026","Simplification Tolerance M":200,"Coordinate Precision Decimals":4,"CRS":"GDA2020 (EPSG:7844)","Modified":"Simplified and repackaged from the source dataset; see Source URL"},"id":"4800"},{"arcs":[[[48]],[[49]],[[50]],[[51]],[[52]],[[53]],[[54]],[[55]],[[56]],[[57]],[[58]],[[59]],[[60]],[[61]],[[62]],[[63]],[[64]],[[65]],[[66]],[[67]],[[68]],[[69]],[[70]],[[71]],[[72]],[[73]],[[74]],[[75]],[[76]],[[77]],[[78]],[[79]],[[80]],[[81]],[[82]],[[83]],[[84]],[[85]],[[86]]],"type":"MultiPolygon","properties":{"LGA Code":"5250","Abbreviated Name":"Mornington","LGA Name":"Mornington Shire","Area Sq Km":1211.73,"LDMG Name":"Mornington","Source Area Sq Km":1212.20294,"Police Region Name":"Northern Region","Police Region Code":"NR","Police Region Short Name":"Northern","Region Slug":"northern","Layer Id":"qld_northern_ldmg_boundaries_gda2020_simp200m","Layer Group":"per-region","Layer Kind":"ldmg","Source":"Local government area boundaries - Queensland, Department of Natural Resources and Mines, Manufacturing and Regional and Rural Development; ASGS Edition 3 (2021) Local Government Areas, Australian Bureau of Statistics","Source URL":"https://www.data.qld.gov.au/dataset/local-government-area-boundaries-queensland","Licence":"CC BY 4.0","Licence URL":"https://creativecommons.org/licenses/by/4.0/","Dataset Date":"extract of 11/05/2026","Simplification Tolerance M":200,"Coordinate Precision Decimals":4,"CRS":"GDA2020 (EPSG:7844)","Modified":"Simplified and repackaged from the source dataset; see Source URL"},"id":"5250"},{"arcs":[[-3,87,-14,-26]],"type":"Polygon","properties":{"LGA Code":"5300","Abbreviated Name":"Mount Isa","LGA Name":"Mount Isa City","Area Sq Km":43209.55,"LDMG Name":"Mount Isa","Source Area Sq Km":43209.77211,"Police Region Name":"Northern Region","Police Region Code":"NR","Police Region Short Name":"Northern","Region Slug":"northern","Layer Id":"qld_northern_ldmg_boundaries_gda2020_simp200m","Layer Group":"per-region","Layer Kind":"ldmg","Source":"Local government area boundaries - Queensland, Department of Natural Resources and Mines, Manufacturing and Regional and Rural Development; ASGS Edition 3 (2021) Local Government Areas, Australian Bureau of Statistics","Source URL":"https://www.data.qld.gov.au/dataset/local-government-area-boundaries-queensland","Licence":"CC BY 4.0","Licence URL":"https://creativecommons.org/licenses/by/4.0/","Dataset Date":"extract of 11/05/2026","Simplification Tolerance M":200,"Coordinate Precision Decimals":4,"CRS":"GDA2020 (EPSG:7844)","Modified":"Simplified and repackaged from the source dataset; see Source URL"},"id":"5300"},{"arcs":[[[-36]],[[-37]],[[-38]],[[-39]],[[-40]],[[-41]],[[-42]],[[-43]],[[-44]],[[-45]]],"type":"MultiPolygon","properties":{"LGA Code":"5790","Abbreviated Name":"Palm Island Aboriginal","LGA Name":"Palm Island Aboriginal Shire","Area Sq Km":67.74,"LDMG Name":"Palm Island","Source Area Sq Km":69.29859,"Police Region Name":"Northern Region","Police Region Code":"NR","Police Region Short Name":"Northern","Region Slug":"northern","Layer Id":"qld_northern_ldmg_boundaries_gda2020_simp200m","Layer Group":"per-region","Layer Kind":"ldmg","Source":"Local government area boundaries - Queensland, Department of Natural Resources and Mines, Manufacturing and Regional and Rural Development; ASGS Edition 3 (2021) Local Government Areas, Australian Bureau of Statistics","Source URL":"https://www.data.qld.gov.au/dataset/local-government-area-boundaries-queensland","Licence":"CC BY 4.0","Licence URL":"https://creativecommons.org/licenses/by/4.0/","Dataset Date":"extract of 11/05/2026","Simplification Tolerance M":200,"Coordinate Precision Decimals":4,"CRS":"GDA2020 (EPSG:7844)","Modified":"Simplified and repackaged from the source dataset; see Source URL"},"id":"5790"},{"arcs":[[88,-32,89,-47]],"type":"Polygon","properties":{"LGA Code":"6300","Abbreviated Name":"Richmond","LGA Name":"Richmond Shire","Area Sq Km":26584.2,"LDMG Name":"Richmond","Source Area Sq Km":26584.37452,"Police Region Name":"Northern Region","Police Region Code":"NR","Police Region Short Name":"Northern","Region Slug":"northern","Layer Id":"qld_northern_ldmg_boundaries_gda2020_simp200m","Layer Group":"per-region","Layer Kind":"ldmg","Source":"Local government area boundaries - Queensland, Department of Natural Resources and Mines, Manufacturing and Regional and Rural Development; ASGS Edition 3 (2021) Local Government Areas, Australian Bureau of Statistics","Source URL":"https://www.data.qld.gov.au/dataset/local-government-area-boundaries-queensland","Licence":"CC BY 4.0","Licence URL":"https://creativecommons.org/licenses/by/4.0/","Dataset Date":"extract of 11/05/2026","Simplification Tolerance M":200,"Coordinate Precision Decimals":4,"CRS":"GDA2020 (EPSG:7844)","Modified":"Simplified and repackaged from the source dataset; see Source URL"},"id":"6300"},{"arcs":[[-24,-34,90,-7]],"type":"Polygon","properties":{"LGA Code":"7010","Abbreviated Name":"Townsville","LGA Name":"Townsville City","Area Sq Km":12110.11,"LDMG Name":"Townsville","Source Area Sq Km":12107.9537,"Police Region Name":"Northern Region","Police Region Code":"NR","Police Region Short Name":"Northern","Region Slug":"northern","Layer Id":"qld_northern_ldmg_boundaries_gda2020_simp200m","Layer Group":"per-region","Layer Kind":"ldmg","Source":"Local government area boundaries - Queensland, Department of Natural Resources and Mines, Manufacturing and Regional and Rural Development; ASGS Edition 3 (2021) Local Government Areas, Australian Bureau of Statistics","Source URL":"https://www.data.qld.gov.au/dataset/local-government-area-boundaries-queensland","Licence":"CC BY 4.0","Licence URL":"https://creativecommons.org/licenses/by/4.0/","Dataset Date":"extract of 11/05/2026","Simplification Tolerance M":200,"Coordinate Precision Decimals":4,"CRS":"GDA2020 (EPSG:7844)","Modified":"Simplified and repackaged from the source dataset; see Source URL"},"id":"7010"}]}}}