{"type":"Topology","arcs":[[[582116,948832],[318,-1214],[-528,-1986],[-1063,-1457],[-595,-1656],[-502,-2472],[-318,243],[-821,-331],[-385,596],[-754,-44],[-326,-861],[-9,-795],[302,-1788],[284,-794],[-293,-442],[-586,729],[-703,-861],[-721,-1236],[84,-1744],[-904,-133],[-561,-861],[-76,-1015],[-318,-508],[-653,133],[-595,-1214],[-820,-795],[-184,464],[-453,-464],[-268,817],[-510,-1589],[-302,-2097],[-402,-1678],[-511,-618],[-192,-2185],[-880,-2627],[17,-1678],[-661,177],[-587,-1788],[-284,441],[-913,0],[-369,-375],[-669,199],[-419,-1170],[-695,1104],[-553,2229],[-946,1015],[-678,1413],[-1374,949],[-2035,640],[-871,-15937],[2228,-772],[-1692,-33243],[-8449,2582],[-1097,-20418],[-4639,1435],[-10602,3179],[151,-2097],[151,-4194],[-59,-707],[2336,-4591],[260,-2428],[-720,-4702],[-980,265],[-1415,-27989],[-4271,1258],[-1625,-32029],[-2068,596],[-6825,1899],[-980,-20264],[-619,-13244],[8240,-2428],[-210,-1170],[335,-2009],[628,-1920],[369,-2075],[318,-2494],[42,-5011],[-92,-3951],[360,-618],[-126,-1060],[528,-2671],[159,-1655],[-469,-2097],[159,-419],[1424,-1060],[318,-486],[611,-88],[218,-1104],[1063,-242],[629,-795],[494,-44],[1021,817],[394,-1987],[293,-508],[419,44],[519,-551],[2244,-5894],[787,-1038],[360,618],[1114,-88],[302,-750],[644,-442],[427,66],[829,-419],[310,-486],[-109,-2494],[-937,-4084],[-34,-706],[536,-883],[-50,-2362],[184,-2980],[-17,-2229],[-670,-1656],[-50,-1236],[243,-331],[368,-2781],[252,-552],[-603,-11655],[-846,-1324],[-1574,485],[-662,-1214],[-561,1082],[-1491,1082],[-536,-972],[-477,-331],[-477,-816],[-478,-2715],[84,-1855],[-75,-2008],[887,-1744],[-259,-2561],[58,-397],[-686,-4613],[-302,-5188],[1951,-574],[-75,-2052],[-410,-7991],[-2462,883],[-1122,-19491],[-51,22],[-686,-12626],[-50,-1678],[-285,177],[-1064,-20396],[-6180,1832],[-1256,-2097],[-527,-9955],[2738,-817],[310,-795],[234,-3112],[-393,-1501],[-503,-9558],[-67,-11942],[-1356,-9624],[-9,-9690],[-125,-19358],[-469,-7770],[-704,-12715],[-6021,1303],[9,-133],[-5829,1258],[-569,-9756],[-704,-2340],[-502,-8388],[-402,-7637],[-586,198],[-101,-2075],[5519,-1545],[50,-110],[-804,-15739],[-460,133],[-1466,-16401],[-862,-16533],[-553,-10110],[-285,-9028],[503,-154],[-570,-10132],[-251,-4922],[1063,-177],[109,-2009],[628,-13089],[252,-2804],[-101,-1964],[6666,-1943],[-1834,-30572],[17,-110],[-377,-9138],[42,-1347],[-762,-12449],[117,-1546],[712,-7196],[-695,-8476],[1214,-485],[-385,-6667],[-930,-9933],[-293,-4768],[-3048,861],[-2948,177],[-3617,44],[-1767,-31455],[-34,-110],[-1641,-28718],[-1424,508],[-485,-4746],[-888,-15871],[4371,-1346],[-661,-11633],[427,-287],[-394,-5496],[25,-2561],[226,-12229],[-477,-6688],[-1658,-5099],[-837,-15518],[879,-265],[-871,-15738],[-234,-4812],[-2747,596],[-637,-10154],[-293,-3134],[-778,-7263],[-545,-5827],[-184,-2958],[7043,-1435],[443,-132],[-284,-6379],[-360,-6358],[-486,-9160],[-293,-6755],[779,-1743]],[[497898,39755],[-8693,0],[-7670,0],[-14596,22],[-6775,0],[-13826,-22],[-11062,0],[-9680,0],[-13826,0],[-13825,0],[-13834,0],[-7328,0],[-13423,0],[-14060,0],[-13600,0],[-7846,0],[-13985,0],[-12737,0],[-6917,0],[-8726,0],[-13273,0],[-13959,0],[-11322,-23],[-8190,23],[-13675,0],[-7285,22],[-12402,-22],[-12118,0],[-10970,22],[-14679,22],[-7545,-22],[-9279,0],[-8374,0],[-8374,0],[-8374,-22],[-8374,22],[-8374,-22],[-8374,22],[-8257,0],[-6909,0],[-9957,-22],[-8374,22],[-8374,-22],[-9136,44],[-7612,-22],[-10551,-22],[-14571,22],[-7462,-22],[-9345,0],[0,38981],[0,22471],[8,40174],[9,85624],[0,32095],[8,28894],[0,45626],[0,18586],[0,22471],[0,28916],[0,12847],[0,25716],[-8,16069],[0,43022],[9136,-2384],[6641,-1700],[2428,54500],[3115,507],[50,3179],[11841,177],[12344,-3113],[3383,-9999],[5929,-1567],[670,640],[820,-1016],[821,-529],[821,-265],[427,198],[485,-640],[561,331],[1349,177],[2562,-684],[1373,-994],[4439,-1302],[-151,773],[159,883],[410,-45],[285,596],[-226,685],[318,1037],[-243,1567],[369,111],[184,772],[-201,883],[-419,486],[587,2119],[-201,1788],[-419,-287],[-318,287],[-369,-486],[-226,2075],[-285,662],[-351,1523],[184,1546],[-293,1456],[-536,994],[377,2362],[-42,1147],[218,332],[125,2251],[-142,971],[-285,44],[-318,1237],[-402,463],[-385,2384],[-360,839],[0,1015],[-411,155],[-159,2141],[-552,1722],[-17,1125],[-452,685],[-193,1854],[-536,1236],[-276,1302],[167,927],[-217,574],[-503,-44],[-846,3046],[126,972],[-394,883],[260,2163],[-235,353],[118,949],[-268,1302],[-293,685],[159,662],[-469,1192],[-243,1479],[-528,552],[-276,3730],[-251,243],[-318,3487],[276,-88],[126,1258],[-386,2142],[-444,1147],[9,1016],[435,750],[-142,2031],[-268,2053],[67,927],[-293,2560],[192,1766],[486,2693],[411,1656],[133,1876],[6574,-1545],[67,1611],[7805,-1766],[-17,-1832],[14001,-3267],[67,1435],[1298,-2317],[369,3664],[142,1986],[34,3841],[285,751],[611,2339],[352,2627],[-17,883],[276,1170],[578,927],[402,1126],[-84,1059],[302,1192],[-51,1722],[813,2428],[309,1280],[-184,994],[159,1501],[888,5916],[209,88],[335,1810],[285,287],[837,2097],[84,905],[344,1192],[-1508,22691],[1441,32316],[1046,20175],[1742,-485],[377,6224],[1340,-66],[1189,1854],[3952,8786],[922,0],[1323,1214],[971,1567],[360,1082],[1575,1589],[1683,706],[485,-331],[1290,1104],[218,2472],[1876,1324],[309,663],[788,176],[971,905],[628,22],[636,1435],[1114,1876],[2069,2826],[50,485],[1423,2252],[1131,1501],[50,1589],[1013,2296],[5511,11346],[12435,-2561],[-234,-1081],[-34,-1325],[-276,-2207],[-662,-508],[-494,-44],[771,-1832],[8139,-2097],[6423,-1634],[-586,-13619],[-854,-18321],[1515,-442],[5745,-1478],[997,23133],[5208,-1259],[12779,-3068],[611,15959],[377,8874],[10016,-2428],[2847,-640],[368,-707],[603,155],[1072,-1302],[402,-773],[168,684],[4438,-971],[502,11986],[-3056,684],[862,20882],[176,949],[-377,2009],[369,1302],[502,13200],[-92,22],[369,7527],[-268,729],[100,2075],[360,1214],[2747,-574],[5987,11831],[3944,7770],[1265,-3730],[561,-1170],[243,-1325],[259,-485],[553,309],[896,1435],[570,-442],[435,-1082],[988,-1015],[494,-1280],[762,-508],[243,-949],[1725,-3223],[101,-1214],[343,-772],[804,-817],[1591,-1280],[1499,-3775],[-42,-795],[1256,-4017],[1834,-11213],[-661,-464],[-185,-1766],[-996,-1832],[-1641,331],[-160,-132],[-309,-1568],[-42,-1721],[544,-1281],[75,1766],[6206,-1236],[25,596],[8332,-2097],[4321,-12758],[2261,-6887],[42,265],[2788,110],[386,486],[485,1192],[2161,3487],[117,3576],[1022,1678],[527,132],[486,2406],[837,1810],[-83,927],[594,1479],[143,861],[-227,4614],[721,1015],[402,2119],[-42,971],[-293,1567],[-76,1148],[126,1060],[2420,2141],[971,4680],[561,3929],[-594,4194],[-503,971],[168,2825],[1239,5254],[2077,8631],[1591,6798],[729,1965],[2319,10109],[10820,21434],[1482,-4150],[5192,22228],[1691,-10485],[12210,24436],[552,19226],[1474,48098],[2806,3002],[-294,-6622],[2915,-773],[-293,-5805],[-1231,-26952],[8843,-2119],[-670,-16025],[5409,-1347],[-636,-1699],[452,-2252],[-75,-2185],[-327,-2826],[-326,-2163],[-67,-1214],[-327,-2075],[151,-1280],[1298,-2119],[1030,-4349],[845,-88],[344,-861],[84,-1148],[736,-2052],[478,154],[695,1192],[1122,-375],[611,287],[720,-287],[1499,463],[469,1281],[863,1103],[728,1501],[545,640],[-369,-10816],[-393,-8498],[-871,-18542],[-838,-552],[-226,-684],[-1055,-662],[-620,-1258],[168,-2693],[-821,-861],[-5141,-9867],[896,-132],[184,595],[578,-618],[519,-154],[2989,-375],[2747,-486],[812,-1523],[821,353],[1315,-331],[485,199],[729,-508],[1549,-88],[84,-309],[2361,-574],[0,-1832],[-226,-861],[-946,-1391],[896,-1545],[168,-596],[-59,-2097],[-310,-1655],[25,-883],[-293,-1810],[3006,-861],[687,-420],[854,177],[486,508],[812,-883],[6808,-2031],[67,-221],[6616,-1898],[59,176],[-1039,-20837],[-1541,397],[-293,-6202],[3182,-928],[704,3908],[1716,1236],[796,2913],[1993,-706],[3844,-4900],[913,-5188],[1498,1082],[327,-309],[1038,-133],[536,-1611],[520,-154],[502,-773],[226,44],[7327,-1324],[-41,-1590],[-176,-397],[-293,-6997],[-453,-11743],[-870,-4503],[-1667,331],[-444,1059],[-50,-11191],[-796,-17217],[7663,-1855],[578,2495],[452,419],[201,596],[-17,1479],[477,1656],[59,1788],[670,1214],[628,2030],[92,1435],[235,905],[787,839],[-9,1214],[302,1280],[-92,685],[167,2957],[586,1016],[185,1126],[787,419],[326,1413],[277,2759],[192,375],[-201,1280],[126,1236],[569,795],[151,839],[352,-44],[5954,-1545],[-645,-12847],[293,-1700],[75,-2229],[779,-199],[4120,-1346],[1709,-618],[3508,-1148],[4455,-1590],[838,-1081],[1281,-398],[1549,2186],[436,2163],[-59,6821],[-352,7041],[327,596],[-2780,15562],[385,6953],[-42,1369],[276,6158],[-142,1854],[-159,751],[3174,-22],[-210,-5320],[-83,-3399],[25,-5055],[-176,-4172],[5577,-1589],[8,-111],[5000,-1412],[3065,-486],[125,-110],[3073,-530],[863,18277],[804,-243],[67,1832],[1223,18410],[33,2406],[209,2781],[-837,243],[569,11014],[319,6689],[393,7858],[3693,-1060],[2722,-684],[896,-464],[3994,-1236],[101,177],[1465,-442],[-326,-6136],[12067,-3554],[-737,5430],[-444,1457],[5083,-1457],[151,662],[619,-220],[369,6754],[318,6666],[-494,1766],[628,14436],[913,1082],[5217,-1479],[9178,-2671],[-427,-9558],[-519,-10661],[-704,-15032],[92,-1501],[293,243],[4497,8542],[3936,7902],[42,1016],[427,1611],[595,1435],[561,2384],[1365,6401],[1599,2892],[3341,-420],[612,13620],[4639,-1148],[75,2119],[327,5827],[109,1170],[-377,1060],[385,7041],[2001,-507],[1391,2693],[3441,-1038],[369,199],[-2889,16003],[511,1479],[385,22],[561,-507],[402,-1192],[485,-751],[846,-265],[997,1501],[268,1126],[-151,1677],[126,950],[402,1081],[234,1303],[636,860],[369,905],[335,221],[980,-750],[720,-265],[276,-464],[59,-1744],[-352,-1876],[469,-110],[528,-1567],[1172,-817],[2077,353],[1231,2406],[502,22],[511,-1501],[410,177],[1374,2406],[711,1832],[185,1324],[477,883],[636,44],[386,1568],[-453,2097],[-100,3311],[268,1346],[343,44],[888,3642],[184,1479],[101,795],[536,552],[117,1037],[913,177],[276,397],[-92,2163],[301,464],[293,-552],[1340,375],[687,-927],[946,67],[184,-420],[545,88],[226,1082],[712,221],[762,-640],[259,-1082],[260,508],[804,-376],[611,-551],[544,-199],[1223,110],[1842,486],[1683,110],[796,530],[218,486],[268,1743],[402,4128],[410,508],[260,1391],[376,772],[-192,1302],[-9,1281],[1014,-1545],[444,264],[854,1237],[502,88],[184,1214],[662,-795],[670,420],[75,-3069],[963,-596],[653,-44],[344,927],[33,928],[771,2074],[1323,1457],[326,883],[453,596],[1138,243],[252,508],[938,287],[293,1125],[75,1413],[-318,309],[-109,2274],[184,839],[410,463],[1215,22],[619,199],[503,-773],[201,111],[419,1854],[561,794],[720,155],[234,1611],[469,-44],[469,684],[318,1612],[377,441],[494,1744],[411,596],[904,353],[486,-419],[418,486],[536,-111],[595,-949],[125,-949],[419,-331],[561,1170],[653,662],[846,-927],[143,331],[711,-817],[478,464],[502,0],[360,-2097],[-84,-1303],[319,-949],[310,88],[896,-1743],[309,-1303],[335,-728],[-134,-993],[654,-1722],[443,-574],[938,-442],[1131,-1920],[410,-1501],[519,-1082],[126,-1214],[527,-154],[964,-2207],[-227,-994],[-259,-2207],[167,-1810],[503,-486],[1063,-2450],[327,-154],[377,-1325],[-76,-574],[469,-618],[-75,-706],[377,-994]],[[891714,500209],[-92,-1435],[678,-1302],[226,-1082],[260,0],[293,-1258],[435,-485],[143,-3245],[293,-1192],[-1030,-4636],[-67,-1059],[251,-1280],[-595,-663],[-871,-573],[-686,-221],[-159,-1567],[-771,264],[-377,-6092],[-1247,442],[-612,-530],[-343,-6070],[-1298,463],[-427,-7019],[193,-89],[-176,-2582],[-586,176],[-143,-2472],[276,-110],[-117,-1678],[-1959,662],[-545,-1412],[-1105,485],[-75,-1324],[-2404,795],[-58,-972],[-1240,442],[151,2428],[-1524,530],[-101,-1634],[201,-839],[361,-3730],[-176,44],[-109,-1810],[-745,265],[-453,-7262],[118,-375],[-327,-4614],[837,-309],[-561,-8653],[243,-88],[-494,-8057],[-9454,15672],[-930,-14767],[-67,-1699],[-678,-10861],[-419,155],[-142,-5254],[-243,-13045],[-3534,1192],[-3751,1236],[-2370,861],[393,3267],[-1633,529],[-1013,-463],[-4447,1457],[-401,-398],[-1692,574],[-770,-12228],[-193,-4261],[42,-2648],[-42,-1877],[84,-2075],[377,-2648],[117,-45],[-486,-7615],[586,-1678],[-268,-3156],[-494,-1104],[-17,-1302],[-276,-706],[394,-1788],[-2412,-2627],[-553,971],[-2579,949],[-268,-463],[-1918,-464],[-921,-552],[-686,640],[-3166,1524],[25,3774],[-16,4591],[-2027,-1147],[-2964,-1479],[-2781,8476],[-778,-662],[-821,-2737],[-829,-3885],[-1055,-2914],[-344,-2428],[-535,-2340],[25,-287],[-1014,-817],[-1164,-4194],[-854,-14237],[59,-22],[-620,-10286],[-176,-6291],[243,-861],[-695,-11390],[-594,243],[-1885,-31146]],[[812570,274750],[-728,309],[-1382,3156],[-276,3355],[-2328,1877],[-134,9822],[-946,5541],[-1031,3201],[-1473,1081],[-947,3576],[-1448,2340],[-4539,1523],[-595,1413],[-2068,-4834],[-2579,6092],[-503,-1457],[-217,44],[-444,1391],[-394,-353],[-50,-1347],[-2420,4790],[-1801,-3068],[-460,-883],[770,-2185],[50,-883],[-502,-1126],[-678,177],[-1482,3885],[-2178,772],[-728,-10441],[-4372,1325],[210,-10794],[-2563,-22],[185,-12362],[-1357,420],[-787,2494],[-5527,-6203],[-1708,2693],[-1039,-7482],[-569,88],[17,-1016],[360,-441],[-394,-2803],[-3969,1103],[-302,-6026],[-2462,795],[-8726,3289],[-2277,-1678],[-670,7483],[-3501,-2185],[151,-905],[821,-1060],[1499,-4436],[-4154,-2870],[-4078,-3046],[-9932,3311],[-3039,949],[-360,-6070],[-8023,2715],[218,3532],[-1105,-596],[-2153,-89],[-134,-1766],[-3023,1016]],[[708296,261881],[185,3399],[1130,19535],[645,10066],[695,11302],[-7051,1920],[1867,8366],[5737,-1832],[845,13509],[185,3267],[-3517,1236],[435,7019],[-2780,839],[335,508],[779,2560],[226,0],[41,1369],[603,2671],[394,-111],[260,618],[125,1391],[352,22],[310,640],[335,5563],[594,10727],[687,13289],[-419,1898],[235,4040],[-1256,4193],[-34,795],[-1130,3399],[-871,3952],[134,2008],[1239,5254],[729,2891],[-168,2164],[528,971],[142,662],[1189,4260],[1491,2605],[217,66],[587,1479],[1917,3466],[1064,2340],[2328,5827],[-3057,6799],[10242,25693],[-452,133],[-193,772],[-938,662],[-762,89],[-377,-221],[-84,-1104],[-293,-353],[-795,1280],[-50,1391],[-478,1523],[729,1391],[184,1302],[-544,265],[-1206,-44],[-59,2075],[134,441],[955,464],[1130,1059],[402,-883],[645,-441],[863,199],[226,1567],[-9,1744],[-418,949],[75,839],[-1524,9226],[-1256,4481],[-1440,10816],[-2044,14591],[2002,2318],[-352,1059],[-494,-243],[-486,1678],[-393,-199],[7762,7638],[-804,3090],[-946,309],[-42,1457],[587,1037],[326,1391],[193,3157],[-84,6423],[-318,6357],[1742,4393],[58,1037],[335,22],[436,7263],[-2906,1037],[251,4039],[2194,-728],[335,5430],[-394,133],[201,3333],[796,-464],[260,4260],[-654,221],[193,3201],[-678,243],[376,2759],[-16,1346],[259,1435],[252,331],[561,2009],[1122,2406],[-3534,1192],[1557,2781],[1508,3488],[527,-133],[285,4525],[1214,-419],[386,6313],[602,221],[1181,-927],[92,-1766],[2672,1677],[1381,3069],[813,13751],[-1457,1832],[217,1369],[-3701,1236],[0,-88],[-4522,1545],[-871,-3090],[117,-309],[-645,-1214],[-268,397],[-586,-265],[-402,773],[-912,265],[-160,-751],[-2101,596],[-444,1413],[-1717,441],[-754,-1037],[59,-1038],[-3793,1082],[-327,-6468],[-268,265],[-511,-397],[-494,110],[-301,1082],[-268,-706],[-360,286],[-670,-993],[-252,133],[-1013,-442],[-929,-110],[-126,618],[553,1368],[176,861],[-369,3201],[-1172,1479],[1482,1567],[50,949],[-3165,905],[125,-2119],[-963,-3421],[-117,265],[-1633,1633],[-787,1126],[-561,1501],[-2253,3201],[-33,-1612],[117,-817],[-2202,221],[-2111,-1059],[-711,242],[-1374,1369],[-2286,375],[-1248,-1258],[-100,-1126],[-343,-331],[-411,-1081],[-4706,-950],[-854,-596],[-1842,-3399],[-335,1876],[-570,618],[-1432,552],[-243,640],[528,1877],[603,2825],[-394,5364],[-636,1920],[410,1060],[285,1633],[-59,1722],[176,4393],[-42,3002],[687,1611],[561,2892],[-318,3112],[745,177],[536,1898],[687,1148],[460,2163],[59,2406],[1348,2693],[-251,5033],[-461,3797],[411,1545],[83,3355],[-6933,2053],[-226,927],[-679,4679],[427,1192],[51,2627],[-570,22],[-109,751],[-452,-89],[-1616,11103]],[[678133,713285],[737,508],[1281,-883],[268,-353],[1105,1104],[2220,-685],[5108,-2008],[2018,-552],[4396,-1258],[2119,9116],[645,1280],[594,-309],[494,1303],[620,1169],[17,663],[619,419],[143,1501],[820,1656],[654,331],[1314,2803],[402,-1457],[6750,-1986],[-544,-9227],[8231,-2406],[746,12780],[41,67],[5377,-1832],[1222,2428],[712,949],[184,662],[637,883],[879,750],[3651,4283],[1566,-7263],[1038,-5010],[427,-331],[972,3421],[-1441,6997],[386,1523],[1398,-1280],[519,1656],[360,507],[453,-44],[326,-750],[528,-265],[787,795],[419,1920],[-520,177],[151,2582],[302,-110],[954,-1899],[963,-22],[2747,1788],[318,1877],[561,-641],[277,1413],[577,-331],[252,397],[720,-1059],[368,-1060],[712,-1147],[377,-1678],[461,-177],[1063,89],[327,-331],[603,-2009],[527,-66],[486,662],[1382,132],[803,-1148],[1148,-1147],[695,-1722],[502,6887],[285,-508],[394,22],[334,817],[310,66],[118,-1545],[335,-309],[234,530],[352,5562],[2462,221],[444,1346],[117,1060],[351,1567],[193,-618],[444,331],[879,-3421],[1173,-1589],[1021,-905],[1022,684],[511,66],[460,905],[754,773],[402,1390],[167,0],[-8,2274],[-503,3267],[2756,-994],[552,67],[804,-530],[1106,-397],[535,-1281],[436,-176],[92,1589],[703,-22],[1290,-1744],[486,-44],[226,3885],[1080,-331],[3484,-2230],[377,-5474],[385,-640],[1273,-154],[820,640],[1541,220],[-167,1899],[510,993],[210,1214],[804,1192],[1097,265],[686,3289],[277,8233],[393,751],[-1038,8785],[84,1589],[-386,2561],[679,2229],[837,795],[519,8829],[-460,3334],[326,1081],[427,574],[3007,-1435],[167,-176],[963,-4901],[695,-1677],[1122,-1038],[587,-1037],[1139,817],[669,287],[603,-265],[687,485],[762,265],[1256,-1170],[494,-2031],[1742,-353],[3534,-1214],[117,-2693],[268,-1479],[419,-551],[-17,-685],[-594,-1744],[-17,-1147],[-377,-287],[-444,-1435],[-276,-2296],[536,-2340],[1231,-1434],[-118,-2693],[67,-2804],[235,-1346],[-561,-2119],[-804,-199],[-310,-1015],[-201,-1634],[1072,-3267],[-645,-507],[712,-2296],[1064,-1501],[117,-1435],[586,-750],[1365,-4371],[301,-1435],[-326,-1721],[-143,-1678],[-494,-1523],[-603,-817],[-134,-1390],[118,-1987],[444,-1589],[-9,-1921],[-368,-1898],[-92,-1324],[-888,-3135],[33,-1435],[319,-1766],[117,-1324],[-142,-1413],[753,-132],[745,-486],[955,-331],[1030,-2406],[444,-88],[494,927],[352,177],[770,-199],[1499,88],[561,-198],[285,-2097],[553,-1590],[326,-2273],[-142,-795],[620,-750],[234,-663],[-50,-839],[-377,-1346],[762,-4503],[4991,-1656],[4547,8168],[209,1479],[-33,971],[678,927],[528,-199],[536,-1501],[477,-287],[1449,685],[1038,-861],[1826,1346],[-51,-816],[486,-817],[394,-3532],[762,-2671],[-84,-1391],[544,-2207],[159,-2538],[461,-1325],[1390,-1766],[637,-551],[695,-243],[904,110],[687,662],[536,-2207],[418,-331],[494,-751],[285,-1125],[410,-243],[402,-971],[369,66],[753,-508],[352,-1324],[436,220],[477,707],[678,2031],[251,-530],[461,816],[586,-309],[151,-1258],[653,-2141],[-251,-2847],[67,-1038],[285,-794],[109,-1656],[-268,-1104],[-729,-1125],[-260,375],[-644,-287],[-1139,1722],[-427,1854],[-394,463],[-1440,-1986],[92,-2296],[-578,221],[-1382,-552],[-268,-2384],[-4229,-5033],[-376,640],[-411,111],[285,-14172],[4170,332],[5854,-1833],[-193,-2030],[-1072,-16114],[-511,-7615],[-3182,-18211],[9,-66],[8759,-2848],[2160,-750],[59,-420],[-402,-1103],[-17,-707],[394,-1236],[-327,-1413],[670,-2869],[545,-795],[268,-839],[653,-1280],[686,971],[436,-1103],[393,-44],[-58,-1943],[402,-1280],[527,-1170],[654,-464],[469,221],[644,1148],[687,-265],[-59,-1964],[76,-773],[603,-2031],[544,-883],[293,-2031],[586,-1523],[159,-971],[369,133],[385,1015],[251,-1391],[385,-220],[277,-1148],[-76,-530],[771,-1391],[594,-154],[235,-2097],[494,-331],[469,-1082],[444,-132],[284,-1744],[545,552],[519,-1523],[829,-1082],[1114,-3355],[100,-883],[-167,-2936],[-1281,-2273],[200,-177],[277,-1391],[645,-838],[979,-641],[84,-993],[-343,-1744],[276,-1501],[-326,-1766],[410,-816],[67,-2539],[151,-1214],[234,-44],[905,-1346],[510,-972],[821,-287],[1189,-860],[779,331],[184,728],[553,596],[511,-441],[360,-1369],[954,-110],[168,-817],[703,243],[419,-199],[-168,-1302],[34,-1634],[-142,-618],[75,-1214],[352,-1148],[-427,-1258],[209,-397],[419,-2185],[360,-221],[217,-1413],[428,-508],[293,155],[753,-2163],[76,-1347],[536,-905],[226,-1413],[335,-1214],[460,-375],[-25,-1059],[293,-574],[84,-1987],[469,-2318],[368,199],[411,-486],[184,-882],[821,0],[108,-641],[629,-1015],[343,132],[854,-1854],[670,420],[737,-1766],[293,-89],[444,-1280]],[[954905,290378],[-76,2318],[-259,2913],[-302,1303],[9,706],[485,1369],[-167,1346],[-561,199],[117,1766],[-712,264],[75,1192],[1784,-529],[143,2075],[-520,176],[9,1302],[-612,1656],[-485,2715],[192,2825],[310,-993],[536,-353],[243,2759],[435,6534],[-276,110],[193,2782],[268,-111],[100,1612],[-1909,684],[117,1722],[276,684],[637,419],[687,795],[150,1876],[235,1280],[276,-309],[293,1060],[-846,508],[59,905],[435,-133],[386,729],[603,-464],[75,1126],[645,309],[301,-861],[452,-419],[210,618],[619,-2031],[134,1898],[285,-110],[218,1545],[-134,861],[452,1104],[276,2317],[679,2384],[117,1038],[469,1236],[33,750],[1382,1656],[-620,2869],[511,596],[394,-198],[125,1898],[268,-419],[201,3267],[210,-89],[109,1766],[-1608,287],[-603,-287],[586,8896],[-2043,794],[17,1214],[217,1391],[-469,2097],[587,1104],[-511,1744],[-704,1324],[-284,-199],[-302,950],[-486,154],[-50,-817],[-553,861],[67,1016],[-795,242],[84,1523],[-159,1259],[58,1147],[-2227,773],[360,397],[58,1016],[-1222,397],[176,2958],[-913,618],[-946,1722],[-503,530],[-728,-23],[-1742,618],[-101,-595],[-2277,750],[-428,-6777],[-536,817],[-812,-375],[-251,5982],[-687,-287],[-360,-1744],[-712,-1015],[-619,-464],[-394,1567],[235,3620],[-2797,994],[-319,-442],[-1256,0],[-586,795],[-753,287],[-168,684],[636,993],[260,3952],[-837,-1347],[226,3907],[150,1612],[277,-89],[17,1876],[167,2362],[-946,376],[251,1280],[-50,728],[293,817],[310,44],[25,949],[243,839],[-17,839],[285,750],[-578,773],[-402,2892],[159,706],[-1030,375],[-109,-684],[-611,-1898],[-427,-994],[-754,177],[84,795],[-327,1324],[-360,331],[-184,1214],[243,508],[284,1699],[570,596],[536,-551],[460,-1038],[143,729],[-528,1479],[804,353],[561,-574],[184,2825],[855,-287],[33,707],[603,993],[821,640],[192,662],[402,199],[628,1435],[260,4150],[-1315,485],[-452,-1677],[-2370,838],[-586,-66],[-486,-1258],[-435,88],[-201,707],[-620,331],[235,3708],[653,464],[318,1147],[301,45],[712,1214],[251,1589],[-3894,5033],[-661,1037],[561,1832],[92,1479],[553,1016],[787,2229],[1382,3134],[226,1391],[444,419],[-93,729],[335,5452],[503,-2406],[1926,-618],[0,1148],[636,728],[461,1236],[-2722,950],[360,6379],[-577,154],[58,905],[2169,-728],[184,861],[-284,883],[-260,-89],[-770,950],[-570,198],[-42,1192],[-971,353],[176,2782],[-1147,419],[-143,574],[561,618],[-276,662],[561,1214],[-368,530],[-821,-795],[17,1943],[-352,-442],[-762,795],[-536,-309],[59,1015],[-980,243],[-612,707],[-125,1390],[-369,221],[201,949],[25,1236],[938,3024],[402,729],[-109,2207],[84,1435],[503,1413],[-226,1214],[-762,-265]],[[932764,503079],[284,2715],[469,1898],[620,1192],[427,0],[921,1391],[-84,-1016],[268,-684],[1340,-486],[-368,1413],[-67,3885],[-210,1523],[134,2053],[427,-154],[201,3156],[-1339,486],[192,2737],[-477,2759],[326,993],[-33,1612],[201,1081],[-461,618],[-234,905],[-360,-596],[-687,1501],[-8,3223],[109,795],[435,971],[142,905],[-1097,353],[151,2759],[-829,155],[-117,-905],[335,-486],[-193,-1081],[-846,-596],[-268,1545],[369,817],[-377,618],[-126,1059],[-360,1236],[-385,685],[-569,1765],[-679,-728],[-418,795],[142,574],[-1005,772],[-494,1280],[-17,1038],[-577,772],[-17,1612],[-201,2229],[134,1104],[511,1192],[753,905],[721,44],[544,618],[176,706],[979,1126],[51,1148],[603,-132],[268,1390],[-143,1016],[637,2825],[-461,3046],[620,861],[410,1082],[-335,485],[-117,1479],[-461,839],[-75,883],[410,1898],[-58,1258],[-201,839],[-59,1501],[-167,353],[-143,2208],[184,331],[-351,1192],[318,993],[134,1148],[-360,728],[25,1678],[-167,971],[678,1369],[209,1435],[-326,1346],[268,1678],[728,110],[436,-706],[360,552],[67,1037],[469,-464],[519,685],[653,-1545],[871,-994],[251,-861],[603,-1214],[226,-1015],[595,-1501],[234,-1037],[662,-111],[310,1545],[217,309],[662,-927],[259,861],[-41,1965],[-235,551],[486,861],[737,199],[142,508],[645,265],[243,1302],[259,441],[34,1126],[209,552],[486,0],[419,1015],[67,2384],[887,243],[394,-927],[427,-463],[259,-773],[670,-1015],[-67,-442],[578,-795],[344,-1854],[343,839],[904,375],[746,817],[393,817],[511,-309],[502,905],[377,-243],[318,706],[536,155],[193,-1280],[335,-883],[812,0],[302,-817],[753,1126],[319,-685],[376,618],[411,1523],[728,-662],[319,662],[845,309],[134,685],[561,-66],[-351,-5695],[527,-177],[218,574],[-276,-4569],[-495,-1457],[59,-1325],[-352,-1434],[-25,-1060],[293,-1435],[327,398],[75,1236],[511,-685],[-779,-5805],[880,-287],[-151,-2516],[795,-265],[-125,-2185],[5267,-1678],[209,441],[-602,1943],[-310,2251],[3567,-1103],[528,-2053],[385,-419],[377,264],[477,-331],[75,-1567],[-175,-971],[845,-265],[-217,-662],[41,-1016],[285,-1699],[201,-442],[-385,-6931],[-980,-2781],[67,-265],[-1683,-4768],[293,66],[-8,-1523],[176,-883],[-503,-1236],[-50,-1346],[151,-640],[778,-442],[243,177],[653,-927],[545,-1060],[217,-883],[-125,-574],[419,-2295],[-268,-574],[83,-1016],[628,-1501],[444,-198],[335,-817],[201,-1347],[1231,-353],[193,-552],[619,-88],[469,-441],[553,574],[176,-1259],[377,-1346],[628,1081],[695,-88],[486,-861],[134,-3686],[293,-1015],[552,-530],[17,-707],[-33,-1964],[209,-243],[-193,-1435],[-586,-551],[544,-2517],[-485,-905],[-444,-375],[-50,-927],[335,-1038],[-67,-2163],[636,-1942],[-142,-552],[360,-729],[536,-1810],[58,-1942],[168,-552],[-59,-1766],[-812,287],[-25,-486],[-930,354],[-8,-1744],[-436,-1325],[2111,-772],[-427,-331],[-335,-729],[-721,-2406],[26,-1721],[-386,-1259],[-192,-1192],[-352,-353],[-469,177],[-125,-1060],[1331,-1170],[-151,-2185],[469,839],[218,-221],[553,442],[318,-972],[-360,-750],[-25,-1413],[577,-265],[-25,-1125],[-268,-1634],[319,-1059],[335,-1678],[502,-1104],[17,-1435],[293,-507],[-50,-971],[192,-1788],[-419,-596],[51,-1325],[-486,-1589],[-260,-353],[126,-972],[394,-772],[-34,-618],[-1449,463],[486,-1920],[176,-1413],[109,-2494],[-905,-1258],[268,-1280],[335,-67],[545,508],[502,-464],[1022,-309],[846,-1302],[678,-221],[695,199],[-84,-1126],[-268,-287],[-17,-2141],[-167,-772],[201,-883],[360,-3488],[377,-2031],[-854,-2847],[360,-1501],[-369,-574],[-502,-1612],[-369,-485],[-192,-861],[-335,-464],[-737,-2317],[-151,-1126],[210,-993],[-310,-2428],[142,-1435],[-167,-861],[-779,-1258],[151,-994],[-444,-1898],[-469,-1104],[-17,-2163],[167,-1722],[277,-728],[301,110],[1181,-574],[84,-2008],[-151,-949],[285,-398],[494,574],[377,-684],[1465,-949],[352,728],[527,66],[553,-441],[385,-1170],[-67,-2009],[-577,-750],[-51,-1214],[-301,-66],[-478,-950],[-1197,243],[-444,-265],[-192,-1589],[-595,-419],[-1214,-2274],[-411,-177],[-552,-1147],[-377,-5188],[561,-198],[343,684],[151,2229],[603,-220],[67,1081],[553,-198],[75,1147],[1348,-485],[-159,-2450],[938,-331],[-84,-1347],[394,-132],[-327,-5011],[352,684],[519,-397],[-251,-1214],[84,-1325],[485,-198],[-117,-1788],[193,-66],[-50,-1722],[-277,-993],[-125,-1899],[276,-88],[100,-1369],[-259,-3774],[-486,176],[-42,-1170],[235,-2450],[167,-905],[-243,-618],[-142,-2649],[-628,-574],[770,-1787],[360,-1899],[637,-817],[628,89],[260,-375],[8,-1126],[-553,132],[-494,-331],[-360,-2031],[-435,-5474],[0,-1170],[242,-640],[495,397],[393,-662],[1139,2715],[435,-772],[603,-45],[461,773],[-218,1015],[318,265],[235,-905],[1172,-309],[159,-353],[1248,353],[285,1214],[753,773],[696,375],[-84,1192],[-779,662],[84,817],[854,486],[460,-420],[461,-2185],[-67,-1545],[-201,-1126],[-42,-2163],[369,-2163],[192,-1788],[59,-2980],[594,88],[536,3223],[553,243],[1265,-2914],[251,-1413],[519,-640],[251,-706],[704,-199],[276,331],[528,-265],[552,-1103],[494,-641],[536,-2052],[17,-1170],[-193,-2495],[-201,-1081],[-971,-2848],[569,-1898],[-678,-9227],[-2730,1016],[-661,-9647],[-679,221],[-117,-1567],[-1281,508],[-101,-1369],[-1113,442],[-628,-89],[-176,662],[58,1126],[-443,177],[-93,-1303],[-435,155],[-59,-971],[-912,331],[-285,-817],[-394,-5960],[679,-265],[577,420],[511,-1965],[176,-3024],[-8,-1655],[-838,309],[-192,-2782],[-838,309],[126,1722],[-486,552],[226,3554],[-1415,485],[84,1170],[-377,596],[-1792,641],[167,2737],[-393,1214],[-1692,662],[-25,199],[-2504,1147],[-268,1921],[-1507,618],[-176,-1258],[-1407,551],[92,1479],[-1105,420],[50,684],[-1415,397],[-75,-1125],[-2554,993],[83,1214],[-343,66],[100,1391],[-636,-287],[-1541,596],[76,993],[-1566,574],[-17,-993],[-1650,596],[-1055,154],[-419,-971],[-125,-1104],[58,-2052],[-368,-5497],[-1700,640],[-377,-5540],[-1055,397],[-59,-772],[-1155,441],[-17,-1346],[-276,-1016],[-134,-1920],[-930,110],[-653,-9447],[-595,706],[-653,243],[-251,-3686],[-385,132],[-134,-1964],[-1415,397]],[[582116,948832],[318,354],[913,-133],[904,243],[745,-2693],[771,-2163],[569,728],[1156,-353],[368,-1258],[620,-684],[260,-707],[552,-287],[653,530],[897,-618],[669,-2693],[-50,-1148],[310,-1170],[821,-1390],[217,-1479],[-343,-1965],[444,-2847],[-310,-552],[0,-1369],[201,-728],[67,-1302],[402,-1877],[-42,-949],[302,-375],[192,-1435],[394,-1015],[887,-817],[361,-927],[385,154],[335,-684],[-185,-927],[84,-773],[385,-750],[34,-1413],[511,-750],[544,375],[913,-4017],[402,0],[913,-5011],[845,-243],[352,177],[494,1081],[561,-397],[913,-132],[594,573],[352,-198],[277,-1391],[996,-1832],[310,-861],[469,-441],[176,-2164],[-34,-860],[980,-2451],[335,-485],[318,-1325],[452,-441],[654,-1788],[678,-1104],[-67,-949],[695,-1280],[561,-508],[293,-1015],[-226,-2031],[201,-618],[-117,-861],[301,-1523],[838,-3311],[-76,-1854],[578,-177],[1156,552],[326,-839],[570,-883],[904,-529],[352,-2009],[477,-397],[260,-773],[686,773],[821,-950],[8,-927],[419,-1192],[779,508],[553,-221],[670,-2273],[25,-905],[502,-354],[578,2296],[427,177],[335,-574],[854,-442],[779,-684],[1708,2583],[980,375],[553,-751],[1264,376],[628,-309],[478,662],[728,-309],[494,110],[1047,-640],[385,-1082],[754,-309],[988,795],[561,-1126],[452,-88],[896,-1369],[427,-1103],[-8,-662],[611,-1082],[570,-110],[192,-398],[1064,-750],[980,110],[535,-1059],[444,-1722],[997,-3245],[477,-817],[268,1060],[293,66],[327,1015],[125,2009],[319,795],[150,1611],[796,-927],[703,221],[494,1280],[645,-684],[444,-1104],[561,-265],[779,552],[-168,1148],[260,309],[586,-331],[611,-3775],[553,-3068],[-553,-464],[-460,-1280],[25,-1214],[-712,-750],[-452,-1347],[-25,-905],[-544,-1059],[-654,-9779],[494,-750],[84,-2318],[946,-1965],[587,-772],[1473,-905],[319,-1523],[779,-1656],[92,-706],[653,-221],[619,-706],[578,-1391],[536,1015],[394,22],[393,-684],[-117,-552],[226,-1346],[804,-375],[745,-1391],[2529,-1060],[762,773],[344,-1898],[1976,-596],[385,243],[176,882],[997,-44],[737,949],[586,-397],[284,1413],[7211,-22184],[-3283,-6114],[218,-596],[-134,-1855],[58,-993],[-125,-2031],[544,-1434],[293,882],[-293,1016],[-151,1435],[168,640],[921,-265],[603,44],[812,-441],[536,-1259],[-218,-551],[-804,684],[-33,-1060],[687,-1015],[351,-110],[536,-1833],[402,-309],[84,-706],[-486,-1501],[184,-861],[511,1258],[59,1126],[276,684],[-42,905],[285,309],[1055,-860],[9,-1215],[-695,-1059],[-319,-1347],[118,-1236],[251,-287],[636,861],[0,-1170],[-536,-2229],[-50,-596],[243,-1214],[-1382,-1302],[-703,662],[-1014,-1943],[-309,-44],[-520,-2516],[-678,-949],[-469,-45],[-1222,-2361],[-268,-67],[-436,-1015],[-293,397],[-167,1678],[-260,993],[-603,1413],[-636,22],[-570,1611],[-360,-529],[142,-1325],[-468,-1236],[-193,88],[-561,-905],[276,-1192],[-293,-1523],[276,-1148],[-134,-905],[-460,-132],[-134,-750],[335,-2583],[-1935,-4327],[746,-242],[109,-1413],[2855,-795],[1558,-4746],[393,663],[721,463],[762,1126],[879,375],[1382,1369],[728,1280],[796,66],[0,-1567],[-486,-4282],[-42,-905],[528,-2031],[1072,-3245],[736,-353],[193,-905],[854,-2163],[235,-839],[636,-265],[771,-2406],[569,-1082],[452,-286],[611,-1281],[327,-1523],[-1164,-14789],[243,-1656]],[[708296,261881],[-1021,-17328],[-1223,331],[-804,-13266],[-1306,-21787],[-6683,2208],[25,331],[-11455,3819],[-42,-861],[-3626,1015],[-184,-243],[-5695,1567],[42,839],[-2864,729],[-3232,-10507],[-3643,-12185],[-720,-14083],[-1499,-29247],[218,-67],[-394,-7703],[-126,22],[-435,-8476],[980,-265],[-679,-13289],[-334,-242],[-344,-7903],[2370,-662],[3299,-795],[-326,-6445],[-695,-14657],[1348,-265],[-796,-13244],[2915,-9249],[2286,-6710],[360,1368],[511,-1545],[159,-1457]],[[674683,61629],[192,-2428],[-284,-198],[-335,-1236],[-260,110],[-67,-1766],[-343,-353],[226,-1347],[-469,-2141],[-293,-287],[-176,-2008],[-276,-972],[-268,596],[-846,-838],[-561,596],[-34,-972],[-377,44],[-267,-1876],[-469,-927],[-377,199],[-1734,-1457],[-100,-1567],[-486,-1281],[-201,-1192],[-402,-573],[-8433,22],[-11824,-22],[-10384,0],[-14160,0],[-9588,0],[-6758,0],[-11724,0],[-7637,0],[-12444,0],[-8726,0],[-14772,0],[-6917,0],[-12285,0],[-8449,0],[-13826,0],[-10651,0]],[[891714,500209],[351,-441],[637,243],[553,750],[318,-1346],[687,-1192],[284,66],[662,-1060],[201,-1125],[243,-155],[443,-1369],[411,23],[720,-1303],[829,-794],[611,728],[586,-508],[654,331],[477,-441],[620,22],[1055,728],[1139,1214],[670,1766],[745,-1015],[569,949],[277,-243],[628,839],[469,1920],[745,1479],[343,1325],[402,861],[34,1148],[3626,4039],[67,1236],[427,1214],[368,464],[151,2406],[-134,927],[92,1081],[335,1016],[-17,993],[386,1148],[787,1015],[511,1214],[301,1413],[17,1082],[636,2030],[143,23],[3215,-1038],[101,1656],[234,66],[151,2560],[611,927],[838,-176],[100,1589],[829,1435],[670,-2141],[377,-442],[1005,-353],[176,949],[460,949],[411,177],[251,795],[452,618],[-117,-2252],[1021,-309],[134,-2053],[-184,-1059],[34,-2274],[268,-1368],[284,-22],[260,-1192],[-101,-1281],[-703,22],[-377,-1765],[260,-1192],[-369,-1325],[-762,-1192],[-519,309],[-167,-1214],[-436,133],[-117,-1192],[326,-729],[319,530],[410,-309],[502,331],[260,-772],[1700,-552],[-645,-1855],[-151,-1015],[-301,-596],[352,-1170],[58,-3554],[-410,-1214],[-377,-485],[-100,-927],[-360,-199],[-168,-1898],[570,-221],[552,-1413],[561,-88],[1466,1810],[326,1126],[821,596],[477,1766],[545,-89],[569,773],[678,-464],[545,-883],[176,1325]],[[954905,290378],[-51,-618],[293,-1038],[67,-1302],[461,-1369],[-75,-3951],[-553,-993],[126,-2958],[418,-1678],[-8,-1655],[452,-2296],[-913,-2163],[-226,-1015],[-42,-2737],[-603,-1347],[-460,751]],[[953791,266009],[-561,1788],[-720,507],[-1399,331],[-812,-662],[-360,971],[-737,-860],[-578,-398],[-461,398],[-468,-221],[-670,640],[-788,1435],[-427,22],[0,-1104],[-619,-397],[-771,-1479],[-678,-88],[-888,-508],[-502,1214],[-921,1391],[-846,684],[-687,0],[-1130,750],[-151,-2339],[-678,88],[-444,618],[-243,-596],[-620,-287],[-1448,-155],[-176,-375],[-863,331],[-561,-66],[-117,817],[-553,1037],[34,994],[268,507],[-25,817],[-327,817],[-2713,971],[-737,-1060],[0,-574],[-1315,-2604],[-653,-530],[-4103,1501],[-126,-1898],[-2445,861],[318,-2605],[-1892,684],[-218,-2759],[-4321,1567],[-243,-3664],[-821,1060],[-150,-1325],[829,-3841],[-67,-794],[-9103,3333],[-134,-1943],[-762,1303],[-327,44],[-678,-2274],[444,-1015],[-1064,-1832],[-494,1699],[-619,2760],[-578,-641],[-360,332],[-402,1169],[-1407,928],[-812,88],[-2312,684],[-67,-176],[-2512,882],[-42,-88],[-3768,1148],[-193,-88],[-3190,1037],[-2847,1038],[-603,-10000],[-2471,795],[-938,-16357],[-1750,552],[-385,-331],[-561,-1214],[-260,-2583],[-653,376],[-569,-111],[-235,-1434],[319,-1126],[-620,-4282],[151,-3488],[-319,-530],[-1164,-375],[-1122,-1611],[-578,132],[-510,-1082],[-436,1590],[-879,596],[-410,750],[-829,-463],[-151,-972],[-436,-1192],[-929,-684],[-285,-485],[-218,-1192],[-393,-464],[-804,-132],[-586,375],[-268,949],[-704,243],[-594,-1744],[-411,-618],[-804,419],[-611,-706],[-620,-1788],[-5635,1965],[92,1346],[-452,-221],[-612,618],[-762,-1810],[-1222,398],[226,3311],[-2496,-530],[-276,-729],[-536,155],[-695,-993],[-2897,485],[75,1501],[-3132,1148],[-645,-1059],[-460,1280],[125,618],[-427,3819],[193,1457],[393,728],[386,1611],[67,1634],[209,243],[385,3311],[-117,1434],[-9446,3113],[-7219,2384],[-402,2053],[-1297,-1170],[-905,2406],[92,3333],[394,1964],[-2194,3378],[-729,2361],[-117,2583],[-2328,1832],[-561,221],[-117,1413],[-695,1545],[-746,-1280],[-536,1015],[-50,4966],[-946,1788],[-1223,442],[-50,971],[-486,-110]],[[953791,266009],[-528,-1038],[67,-1081],[-469,-1501],[0,-1921],[-259,-2891],[536,-1877],[125,-794],[628,-1435],[-150,-1192],[485,-1656],[59,-1147],[-419,-2230],[787,-795],[252,-573],[686,-751],[478,-221],[-134,-1986],[318,-2164],[-762,-1611],[-67,-949],[276,-1656],[-42,-1103],[210,-817],[427,-530],[209,-1258],[385,-1037],[670,-420],[-167,-2560],[234,-1082],[50,-1942],[243,-861],[695,-1369],[-385,-2119],[436,-2340],[711,-1986],[1265,132],[0,-1214],[192,-839],[-636,-2737],[-620,-949],[67,-1236],[913,-508],[-42,-684],[503,-331],[75,1170],[511,-287],[469,-1148],[368,-1987],[-326,-574],[-67,-1567],[-327,-949],[-661,-110],[-243,287],[-796,-508],[-318,-1236],[126,-1082],[-268,-596],[-243,-1324],[-251,-89],[-553,-1456],[-243,-1501],[134,-1104],[-712,-508],[-402,464],[-787,-420],[-402,552],[-293,-1059],[59,-1214],[-268,-729],[-9,-2207],[586,-2472],[-167,-1016],[-452,-1170],[-762,-1236],[-185,-1126],[-452,-1125],[-150,-1126],[-545,-1413],[-569,707],[-302,-287],[-804,176],[-720,1082],[-1231,-1501],[-519,309],[-318,-375],[-444,353],[-519,-44],[-385,728],[-536,177],[-176,-1369],[-1114,-2251],[-293,-839],[-117,-1413],[-218,-662],[-394,-88],[-1264,463],[-528,-2229],[-376,-552],[-578,-1810],[-821,-1413],[-92,-1236],[-595,-1347],[-192,-1633],[-251,-44],[-344,-1678],[-368,-949],[-268,684],[-553,508],[-226,1236],[-804,442],[-410,463],[-327,-1015],[-1809,1324],[-695,-441],[-159,-751],[-686,-287],[-361,-684],[-552,-2163],[-628,-375],[-503,-1501],[-845,-795],[-428,265],[-1314,-1170],[-603,-66],[-335,-420],[-846,464],[-84,-1766],[-159,-486],[25,-1412],[-619,-1259],[-386,45],[-795,-1016],[-151,-905],[-678,-1788],[-1399,-2362],[84,-684],[-276,-883],[-1357,-640],[-728,751],[-252,-199],[-360,1920],[101,1303],[-260,1699],[-787,-375],[-285,-993],[-1206,-2141],[235,-1744],[-343,-1567],[-76,-1259],[260,-662],[-151,-2340],[327,-1147],[-134,-1016],[217,-750],[352,-199],[268,-1104],[779,-198],[821,-1899],[201,-2185],[318,-640],[-251,-1435],[150,-1810],[235,-1082],[-302,-1368],[76,-861],[795,-2583],[159,-883],[-33,-2273],[343,-662],[235,-1236],[443,-1457],[553,419],[905,-486],[628,332],[485,-817],[-33,-1060],[670,-2008],[904,618],[402,-1258],[-285,-1215],[151,-1368],[461,-1788],[335,-751],[-394,-1456],[-770,-729],[-687,-1611],[-971,-1391],[318,-441],[134,-1457],[-570,-1567],[25,-1170],[-402,-861],[126,-3532],[-193,-971],[411,-751],[-226,-1434],[-293,-420],[41,-1037],[260,-839],[-226,-1369],[109,-1567],[-159,-971],[-101,-2870],[-552,-816],[-327,198],[-151,-1258],[-351,-287],[108,-1413],[-276,-1302],[687,-993],[243,-773],[301,707],[670,750],[117,-662],[-293,-839],[168,-1302],[-620,-1236],[109,-883],[-268,-596],[-394,-3135],[-552,-861],[-520,-2649],[-762,-397],[-159,1104],[134,839],[-276,949],[-268,-729],[-963,-1766],[-913,-772],[-327,-1435],[-628,-530],[-402,442],[-376,-530],[-1223,-530],[-796,-706],[-393,-684],[-553,-243],[67,993],[-285,1038],[-510,662],[-1005,817],[-243,-442],[-938,861],[-226,-397],[-829,-89],[-293,972],[-469,551],[-1055,-375],[-620,-971],[-234,-1589],[33,-751],[-184,-1898],[393,-2362],[-326,-1236],[-34,-1854],[-410,-1082],[-419,-508],[-1038,927],[-126,905],[235,1126],[-645,1170],[-1131,-927],[-343,-861],[-544,-110],[-452,-729],[-570,309],[268,1766],[-42,2141],[-879,663],[-377,1125],[-75,927],[-310,663],[-553,331],[-92,1324],[-544,3090],[117,839],[-352,420],[-25,816],[-402,2384],[176,574],[17,1567],[-628,994],[-318,-353],[-268,-1060],[-520,-486],[-184,950],[-385,-111],[-318,-1479],[-42,-816],[-519,-1391],[-796,-132],[-100,-928],[-620,-1545],[-251,-1655],[-737,463],[-628,-1412],[-704,-1259],[-494,89],[-594,-1126],[-25,-1038],[-293,-706],[-612,1435],[-753,-552],[-444,596],[-545,-353],[-134,-530],[-1097,-750],[-460,-1148],[-511,-1744],[-712,-22],[-310,530],[-1557,-2451],[-277,-88],[-67,-1633],[-242,-2053],[-436,-1258],[134,-839],[-452,-1236],[-737,-949],[-184,-1369],[-402,-287],[-561,-1788],[-293,-397],[-277,-1987],[-418,-1126],[16,-1037],[-242,-1037],[184,-2627],[-268,-1148],[-318,-2185],[577,-1214],[436,-596],[33,-972],[-787,-419],[-519,-3488],[-209,-441],[-670,-375],[-1156,-1545],[-427,-4150],[-301,-1612],[-561,-1412],[-1265,-2053],[-243,-1369],[-377,-596],[-711,-44],[-553,-1037],[-369,-1987],[-251,-640],[-33,-1214],[-561,-1325],[-654,486],[-636,-419],[-1800,1037],[-444,-750],[-1214,-773],[-319,971],[-1055,1788],[-561,133],[-310,1081],[34,839],[-226,839],[-25,1545],[192,795],[544,993],[-460,1788],[-695,2053],[-268,1567],[-519,287],[-260,-309],[-360,1214],[-385,728],[-318,1369],[-84,3245],[-293,574],[42,1192],[896,2560],[-9,1612],[210,110],[201,1302],[-377,662],[-92,2782],[-721,-44],[-385,1103],[184,1347],[796,1567],[50,2362],[-75,905],[-377,1302],[-176,2671],[385,1148],[-778,1501],[117,1104],[620,860],[75,3267],[-477,1391],[-101,905],[-594,530],[-352,949],[-469,-22],[-645,1280],[-544,442],[-260,971],[-159,2318],[-335,993],[-435,-883],[-729,441],[-477,552],[-670,1325],[-17,1390],[-603,1722],[-1306,1324],[-469,-485],[-511,88],[-92,574],[-695,1633],[-151,1016],[-795,0],[-712,1148],[-277,-640],[-661,662],[-561,2119],[-821,0],[-569,1722],[-268,-464],[-176,1810],[-620,-353],[-343,552],[-762,265],[-938,-1501],[0,-795],[-1064,-287],[-427,-795],[-58,1082],[-553,-66],[-234,1103],[-369,817],[318,751],[-477,1147],[-17,1766],[402,795],[-75,949],[25,3135],[-276,22],[-394,838],[-678,-22],[92,2119],[-159,1524],[-419,706],[159,706],[653,353],[-242,3157],[-201,618],[-1064,1965],[-100,573],[-645,133],[-1055,927],[-628,110],[-218,663],[-687,176],[-661,-1324],[-227,463],[-695,-220],[-410,640],[-134,1103],[-678,-397],[50,949],[-419,662],[-201,3841],[-561,1567],[-393,-419],[-687,1170],[-293,1435],[-251,331],[-905,-287],[-318,-1457],[-494,66],[25,905],[-452,265],[-410,-1059],[-436,1942],[-452,-574],[-971,1788],[-193,1258],[-536,530],[-310,-110],[-670,1037],[-1021,177],[-260,750],[226,1281],[-368,44],[-863,883],[-879,-221],[-963,2031],[-846,110],[-335,1280],[-1181,-110],[-184,1104],[-670,44],[-1448,-287],[-210,-1148],[-946,-905],[-343,-618],[58,-927],[-686,-707],[-721,332],[-410,-972],[-636,-728],[-612,2406],[-234,-706],[-972,-1170],[-1365,-1281],[-284,-618],[-503,-2008],[-502,860],[-42,795],[-544,-44],[-118,-861],[-678,375],[-829,89],[-42,1368],[-1457,1943],[-754,-530],[-402,110],[-762,-772],[-318,1699],[-502,-419],[-134,-817],[511,-1037],[-243,-1589],[-1131,132],[-318,-287],[-561,640],[-184,618],[653,1038],[511,441],[-645,949],[-578,221],[-318,-331],[-126,-905],[-452,-486],[-821,243],[-393,397],[-603,45],[-494,419],[-201,-1082],[-352,-419],[-536,750],[-628,-1236],[-477,-551],[-218,1015],[-377,-375],[-904,353],[-419,640],[-335,1170],[-444,861],[-586,441],[-544,-397],[-201,927],[318,530],[9,2185],[-587,331],[-561,1479],[-444,-375],[-435,-1104],[-553,397],[168,1259],[-687,-89],[-728,1281],[-134,1699],[75,795],[-419,199],[-58,728],[351,993],[-377,817],[-83,1876],[-712,0],[-394,1347],[67,1766],[-711,-44],[-1005,640],[-545,1214],[-242,2141],[-545,287],[-368,1103],[-704,420],[-670,2428],[-318,88],[-469,-1059],[-569,44],[-352,485],[-410,-198],[-528,-949],[-519,-199],[-519,-1413],[-1147,-596],[343,-618],[-1064,-2406],[-594,442],[-595,-376],[92,-1103],[-938,198],[-360,1126],[-519,155],[-1105,684],[343,971],[-1063,-353],[-92,971],[-285,530],[-1055,-750],[-101,1368],[-360,-441],[-377,-1943],[-360,309],[-201,-750],[-988,485],[-477,-22],[-243,-1059],[-469,-773],[-1013,1369],[-595,-287],[184,-2671],[-519,-751],[-603,-88],[-234,-530],[-444,972],[-662,353],[-477,-331],[-50,-1016],[-503,-375],[-242,-905],[-335,530],[-670,220],[-503,1259],[-310,287],[-284,-729],[-880,-309],[-351,-1611],[-922,-994],[-276,243],[-134,-1412],[-444,-133],[-720,-1545],[-971,-309],[-394,-596],[-695,905],[-929,-1214],[-101,-993],[-419,640],[-33,794],[-544,-66],[-419,640],[-1390,-265],[-293,-1898],[-494,-177],[-804,221],[-235,861],[-737,640],[-284,1148],[-528,-132],[-301,1037],[-335,-949],[-821,221],[-302,-905],[-669,1390],[-721,-44],[-326,-1104],[-737,-1037],[-318,1236],[-913,133],[-469,-619],[-930,-309],[-209,-573],[-360,927],[-343,-685],[-963,-309],[-729,685],[-754,-89],[-234,-1302],[-569,441],[-511,-287],[-419,442],[318,949],[-393,331],[-578,-574],[-318,-1015],[-377,772],[-528,-1302],[327,-839],[-335,-772],[293,-883],[-369,-795],[-460,530],[-1424,-287],[-879,464],[293,882],[-293,1435],[-502,640],[50,1104],[-352,574],[-268,-1015],[-754,441],[-242,1060],[67,728],[-369,1104],[-410,198],[-536,751],[-854,-331],[-720,-1038],[-59,817],[-402,-199],[50,1413],[-276,1192],[-444,-397],[8,2097],[-368,596],[-737,331],[-385,441],[-419,-331],[-201,486],[-971,-817],[-352,-706],[-586,463],[-980,376],[-511,-420],[-234,552],[-327,-1126],[-469,-397],[-645,1148],[-678,-420],[-594,-66],[-528,-1413],[-360,552],[-343,-485],[-143,-1281],[-402,-794],[-1080,110],[-544,-463],[-352,-1943],[-335,-110],[-737,-1523],[-8,-927],[293,-1148],[-595,-1126],[-444,-66],[-83,-1281],[184,-1302],[-176,-552],[-42,-1346],[-192,-618],[-637,-155],[17,-839],[-494,-1832],[-42,-971],[-595,-1920],[-552,132],[-503,-1655],[109,-839],[-209,-1170],[-302,-640],[-577,971],[-461,-596],[-360,1037],[-670,-287],[-101,928],[-343,154],[-452,-1413],[-410,-44],[-176,-1236],[-804,-375],[-410,221],[75,-1148],[-352,-596],[-661,-199],[-310,-1126],[-452,-242],[-804,485],[-628,-287],[-59,-662],[-536,-1633],[101,-773],[-453,-684],[-226,-795],[-753,-574],[175,-1236],[-577,-618],[-335,1678],[-888,-1126],[-419,265],[-569,-2097],[-595,-111],[-360,-1545],[-58,-1258],[-637,-773],[-84,574],[-695,-1037],[-335,176],[-351,-860],[-653,-67],[-511,-1346],[326,-751],[-519,-353],[67,-993],[-234,-706],[217,-1060],[-552,-839],[-829,-1744],[-813,-971],[-787,707],[-536,-155],[-427,309],[0,-1214],[268,-1170],[-17,-1479],[-301,-817],[-687,-375],[-243,-1302],[-552,861],[-268,-353],[-419,728],[-335,-706],[-477,-287],[-478,574],[-871,-1369],[-100,-883],[-511,-331],[0,-3245],[-393,-221],[-252,-1015],[-142,-1722],[-352,-265],[-243,-1258],[-360,-198],[-385,-1501],[762,-243],[-502,-1391],[-134,-1413]]],"transform":{"scale":[0.000011941611941611936,0.000004530304530304531],"translate":[140.9993,-29.1792]},"objects":{"qld_southern_ddmg_boundaries_gda2020_simp200m":{"type":"GeometryCollection","geometries":[{"arcs":[[0,1]],"type":"Polygon","properties":{"District Name":"Charleville","DDMG Name":"Charleville","Area Sq Km":229018.35,"Police Region Name":"Southern Region","Police Region Code":"SR","Police Region Short Name":"Southern","Region Slug":"southern","Layer Id":"qld_southern_ddmg_boundaries_gda2020_simp200m","Layer Group":"per-region","Layer Kind":"ddmg","Source":"QPS Disaster Districts, Queensland Police Service, via the Queensland Government Open Data Portal","Source URL":"https://www.data.qld.gov.au/dataset/qps-disaster-districts","Licence":"CC BY 4.0","Licence URL":"https://creativecommons.org/licenses/by/4.0/","Dataset Date":"19/05/2025","Simplification Tolerance M":200,"Coordinate Precision Decimals":4,"CRS":"GDA2020 (EPSG:7844)","Modified":"Simplified and repackaged from the source dataset; see Source URL"},"id":"Charleville"},{"arcs":[[2,3,4,5]],"type":"Polygon","properties":{"District Name":"Dalby","DDMG Name":"Dalby","Area Sq Km":37942.32,"Police Region Name":"Southern Region","Police Region Code":"SR","Police Region Short Name":"Southern","Region Slug":"southern","Layer Id":"qld_southern_ddmg_boundaries_gda2020_simp200m","Layer Group":"per-region","Layer Kind":"ddmg","Source":"QPS Disaster Districts, Queensland Police Service, via the Queensland Government Open Data Portal","Source URL":"https://www.data.qld.gov.au/dataset/qps-disaster-districts","Licence":"CC BY 4.0","Licence URL":"https://creativecommons.org/licenses/by/4.0/","Dataset Date":"19/05/2025","Simplification Tolerance M":200,"Coordinate Precision Decimals":4,"CRS":"GDA2020 (EPSG:7844)","Modified":"Simplified and repackaged from the source dataset; see Source URL"},"id":"Dalby"},{"arcs":[[6,7]],"type":"Polygon","properties":{"District Name":"Ipswich","DDMG Name":"Ipswich","Area Sq Km":6466.45,"Police Region Name":"Southern Region","Police Region Code":"SR","Police Region Short Name":"Southern","Region Slug":"southern","Layer Id":"qld_southern_ddmg_boundaries_gda2020_simp200m","Layer Group":"per-region","Layer Kind":"ddmg","Source":"QPS Disaster Districts, Queensland Police Service, via the Queensland Government Open Data Portal","Source URL":"https://www.data.qld.gov.au/dataset/qps-disaster-districts","Licence":"CC BY 4.0","Licence URL":"https://creativecommons.org/licenses/by/4.0/","Dataset Date":"19/05/2025","Simplification Tolerance M":200,"Coordinate Precision Decimals":4,"CRS":"GDA2020 (EPSG:7844)","Modified":"Simplified and repackaged from the source dataset; see Source URL"},"id":"Ipswich"},{"arcs":[[-1,8,-5,9,10]],"type":"Polygon","properties":{"District Name":"Roma","DDMG Name":"Roma","Area Sq Km":89788.04,"Police Region Name":"Southern Region","Police Region Code":"SR","Police Region Short Name":"Southern","Region Slug":"southern","Layer Id":"qld_southern_ddmg_boundaries_gda2020_simp200m","Layer Group":"per-region","Layer Kind":"ddmg","Source":"QPS Disaster Districts, Queensland Police Service, via the Queensland Government Open Data Portal","Source URL":"https://www.data.qld.gov.au/dataset/qps-disaster-districts","Licence":"CC BY 4.0","Licence URL":"https://creativecommons.org/licenses/by/4.0/","Dataset Date":"19/05/2025","Simplification Tolerance M":200,"Coordinate Precision Decimals":4,"CRS":"GDA2020 (EPSG:7844)","Modified":"Simplified and repackaged from the source dataset; see Source URL"},"id":"Roma"},{"arcs":[[-3,11,-7,12,13]],"type":"Polygon","properties":{"District Name":"Toowoomba","DDMG Name":"Toowoomba","Area Sq Km":15245.1,"Police Region Name":"Southern Region","Police Region Code":"SR","Police Region Short Name":"Southern","Region Slug":"southern","Layer Id":"qld_southern_ddmg_boundaries_gda2020_simp200m","Layer Group":"per-region","Layer Kind":"ddmg","Source":"QPS Disaster Districts, Queensland Police Service, via the Queensland Government Open Data Portal","Source URL":"https://www.data.qld.gov.au/dataset/qps-disaster-districts","Licence":"CC BY 4.0","Licence URL":"https://creativecommons.org/licenses/by/4.0/","Dataset Date":"19/05/2025","Simplification Tolerance M":200,"Coordinate Precision Decimals":4,"CRS":"GDA2020 (EPSG:7844)","Modified":"Simplified and repackaged from the source dataset; see Source URL"},"id":"Toowoomba"},{"arcs":[[-4,-14,14,-10]],"type":"Polygon","properties":{"District Name":"Warwick","DDMG Name":"Warwick","Area Sq Km":26370.42,"Police Region Name":"Southern Region","Police Region Code":"SR","Police Region Short Name":"Southern","Region Slug":"southern","Layer Id":"qld_southern_ddmg_boundaries_gda2020_simp200m","Layer Group":"per-region","Layer Kind":"ddmg","Source":"QPS Disaster Districts, Queensland Police Service, via the Queensland Government Open Data Portal","Source URL":"https://www.data.qld.gov.au/dataset/qps-disaster-districts","Licence":"CC BY 4.0","Licence URL":"https://creativecommons.org/licenses/by/4.0/","Dataset Date":"19/05/2025","Simplification Tolerance M":200,"Coordinate Precision Decimals":4,"CRS":"GDA2020 (EPSG:7844)","Modified":"Simplified and repackaged from the source dataset; see Source URL"},"id":"Warwick"}]}}}