{"type":"Topology","arcs":[[[705533,315453],[-1633,-7350],[7051,-1920],[-695,-11302],[-645,-10066],[-1130,-19535],[-185,-3399]],[[708296,261881],[-1021,-17328],[-1223,331],[-804,-13266],[-1306,-21787],[-6683,2208],[25,331],[-11455,3819],[-42,-861],[-3626,1015],[-184,-243],[-5695,1567],[42,839],[-2864,729],[-3232,-10507],[-3643,-12185],[-720,-14083],[-1499,-29247],[218,-67],[-394,-7703],[-126,22],[-435,-8476],[980,-265],[-679,-13289],[-334,-242],[-344,-7903],[2370,-662],[3299,-795],[-326,-6445],[-687,-14547],[1340,-375],[-796,-13244],[2915,-9249],[2286,-6710],[360,1368],[511,-1545],[159,-1457]],[[674683,61629],[192,-2428],[-284,-198],[-335,-1236],[-260,110],[-67,-1766],[-343,-353],[226,-1347],[-469,-2141],[-293,-287],[-176,-2008],[-276,-972],[-268,596],[-846,-838],[-561,596],[-34,-972],[-377,44],[-267,-1876],[-528,-993],[-318,265],[-1734,-1457],[-100,-1567],[-486,-1281],[-201,-1192],[-402,-573],[-8433,22],[-11824,-22],[-10384,0],[-14160,0],[-9588,0],[-6758,0],[-11724,0],[-7637,0],[-12444,0],[-8726,0],[-14772,0],[-12444,0],[-8290,0],[-13826,0],[-6917,0],[-10651,0]],[[497898,39755],[-779,1743],[293,6755],[486,9160],[360,6358],[284,6379],[-443,132],[-7043,1435],[184,2958],[545,5827],[778,7263],[293,3134],[637,10154],[2747,-596],[234,4812],[871,15738],[-879,265],[837,15518],[1658,5099],[477,6688],[-226,12229],[-25,2561],[394,5496],[-427,287],[661,11633],[-4371,1346],[888,15871],[485,4746],[1424,-508],[1641,28718],[34,110],[1767,31455],[33,66],[3584,-110],[2948,-177],[3048,-861],[293,4768],[930,9933],[385,6667]],[[512904,282807],[519,220],[6339,-2229],[210,3201],[3182,-1060],[3316,-1170],[419,7638],[6540,-2230],[1030,-309],[3065,-1126],[1675,-529],[519,-45],[-101,3201],[168,4547],[226,4680],[4915,-1678],[4531,-1390],[795,13465],[1047,17173],[544,331],[3978,-1104],[997,18520],[7704,-2472],[536,1876],[653,971],[879,2075],[695,706],[3266,-1059],[2387,-817],[6247,-2008],[-59,5054],[260,4040],[7980,-2318],[335,-331],[-84,-6931],[-477,-2075],[25,-3157],[3769,6909],[3358,-10109],[4220,7748],[360,353],[2605,4701],[402,-794],[3006,-9028],[1951,3598],[3191,-9558],[6397,11346],[628,353],[3434,6247],[485,971],[662,-1722],[896,-927],[293,-508],[1516,-1523],[402,-816],[2060,3664],[2160,-640],[-8,-1678],[6775,-1920],[-587,-11125],[11197,-3356],[1959,-551],[209,728],[-460,1126],[0,1015],[201,1435],[-344,2273],[-33,2384],[670,3356],[-34,1567],[-728,1589],[-410,1854],[33,1192],[-134,1501],[-536,243],[260,4856],[4061,-1192],[729,3157],[4798,-1479],[-84,-2583],[-284,-5739],[6322,-1854],[7654,-2229],[2454,11412],[829,-243],[1247,-1457],[-469,-8256],[11640,-3686],[-410,-7284],[2805,-773],[6775,-1766],[8,-375],[10711,-2914],[284,-706],[-544,-375],[-243,-1413],[553,-441],[-117,-1016],[-461,-331],[9,-596],[703,-2097],[25,-574],[-678,-1633],[-109,-640],[335,-685]],[[69212,536763],[2939,-883],[11422,-3223],[4748,243],[8776,-2406],[7839,-2119],[619,-1324],[2881,574],[3107,-19624],[167,-6158],[5000,-861],[2118,-5541],[9697,-12648],[-234,-7152],[5133,-7659],[838,13575],[3450,9183],[3986,-7859],[276,-993],[6440,-12670],[25,463],[6992,-13751],[2730,-707],[-17,-397],[7261,-1876],[13005,-3157],[-352,-8035],[3442,-971],[-737,-17592],[13733,-3025],[-117,-3002],[5602,-1390],[561,2781],[10326,-2715],[-210,-4658],[6005,-1523],[-511,-12471],[11707,-4106],[-84,6556],[9747,-19248],[6005,-20418],[5099,-17328],[5670,-1236],[4907,-1302],[2470,-641],[5519,-750],[11037,-1567]],[[278229,337152],[-1231,-24083],[-946,-18321],[1741,-485],[-234,-1612],[-117,-2693],[410,-353],[-92,-1589],[-536,-331],[-318,-1192],[176,-1170],[-277,-2075],[151,-640],[-461,-817],[-268,-1368],[-150,-1501],[75,-950],[-394,-1368],[10903,-3002],[-167,-3532],[10241,-2737],[4891,-1324],[-427,-9073],[-394,-7659],[4849,-1325],[-1189,-22934],[12117,-3046],[-402,-8300],[4597,-1258],[-929,-16180],[-7604,2119],[-150,464],[-11624,3267],[-83,-1568],[-1081,287],[-871,-17018],[6792,-1943],[-796,-14855],[-569,-508],[-1357,-16688],[-1323,-14767],[6088,-2914],[-2303,-31432],[-686,264],[-1767,-3929],[3718,-6313],[-1332,-883],[-25,-8012],[-728,-1038],[-712,-1633],[-218,-1258],[-494,-1656],[-494,-618],[-436,-1633],[-58,-773],[-494,-751],[-277,-1501],[-544,-1015],[-226,-2538],[100,-1347],[-284,-2781],[50,-3289],[-109,-508],[-661,-883],[-545,-110],[-703,265],[-1039,-375],[-1365,-994],[-820,-1258],[-436,-110],[-879,-883],[-812,-243],[-385,-375],[-989,-1501],[-711,-751],[-545,-1192],[1449,-11301]],[[291510,39755],[-12419,0],[-13850,0],[-6984,0],[-11322,-23],[-8190,23],[-13675,0],[-7285,22],[-12402,-22],[-12118,0],[-10970,22],[-14679,22],[-7545,-22],[-9279,0],[-8374,0],[-8374,0],[-8374,-22],[-8374,22],[-8374,-22],[-8374,22],[-8257,0],[-6909,0],[-9957,-22],[-8374,22],[-8374,-22],[-9136,44],[-7612,-22],[-10551,-22],[-14571,22],[-7462,-22],[-9345,0],[0,38981],[0,22471],[8,40174],[9,85624],[0,32095],[8,28894],[0,45626],[0,22294],[0,28409],[0,12847],[0,25693],[-8,35362],[0,43022],[9186,-2384],[6591,-1700],[2428,54500],[3115,507],[50,3179],[11841,177],[12344,-3113],[3383,-9999],[5929,-1567],[670,640],[820,-1016],[821,-529],[821,-265],[427,198],[485,-640],[561,331],[1349,177],[2562,-684],[1373,-994],[4439,-1302]],[[708296,261881],[3023,-1016],[134,1766],[2153,89],[1105,596],[-218,-3532],[8023,-2715],[360,6070],[3039,-949],[9932,-3311],[4078,3046],[4154,2870],[-1499,4436],[-821,1060],[-151,905],[3501,2185],[670,-7483],[2277,1678],[8726,-3289],[2462,-795],[302,6026],[3969,-1103],[394,2803],[-360,441],[-17,1016],[569,-88],[1039,7482],[1708,-2693],[5527,6203],[787,-2494],[1357,-420],[-185,12362],[2563,22],[-210,10794],[4372,-1325],[728,10441],[2178,-772],[1482,-3885],[678,-177],[502,1126],[-50,883],[-770,2185],[460,883],[1801,3068],[2420,-4790],[50,1347],[394,353],[444,-1391],[217,-44],[503,1457],[2579,-6092],[2068,4834],[595,-1413],[4539,-1523],[1448,-2340],[947,-3576],[1473,-1081],[1031,-3201],[946,-5541],[134,-9822],[2328,-1877],[276,-3355],[1382,-3156],[728,-309]],[[812570,274750],[486,110],[50,-971],[1223,-442],[946,-1788],[50,-4966],[536,-1015],[746,1280],[695,-1545],[117,-1413],[561,-221],[2328,-1832],[117,-2583],[729,-2361],[2194,-3378],[-394,-1964],[-92,-3333],[905,-2406],[1297,1170],[402,-2053],[7219,-2384],[9446,-3113],[117,-1434],[-385,-3311],[-209,-243],[-67,-1634],[-386,-1611],[-393,-728],[-193,-1457],[427,-3819],[-125,-618],[460,-1280],[645,1059],[3132,-1148],[-75,-1501],[2897,-485],[695,993],[536,-155],[276,729],[2496,530],[-226,-3311],[1222,-398],[762,1810],[612,-618],[452,221],[-92,-1346],[5635,-1965],[620,1788],[611,706],[804,-419],[411,618],[594,1744],[704,-243],[268,-949],[586,-375],[804,132],[393,464],[218,1192],[285,485],[929,684],[436,1192],[151,972],[829,463],[410,-750],[879,-596],[436,-1590],[510,1082],[578,-132],[1122,1611],[1164,375],[319,530]],[[874405,226806],[1926,-6137],[1088,-1368],[494,-1920],[-117,-1788],[-368,-1060],[477,-2803],[486,-1590],[603,-309],[611,-1081],[201,-1170],[-34,-1038],[335,-1147],[-16,-2164],[628,-706],[134,-662],[561,-707],[-51,-1081],[561,-1214],[235,706],[469,-1015],[126,-1060],[401,-706],[310,1059],[712,-88],[812,1148],[989,-309],[745,1192],[427,22],[921,-773],[636,508],[160,-486],[1331,707],[469,-530],[159,-750],[444,-155],[-168,-1258],[620,-1567],[76,-1148],[368,-618],[662,-44],[351,-354],[327,530],[511,-574],[259,508],[419,-1832],[871,-707],[678,-1545],[377,-1412],[-234,-1104],[544,-1479],[-201,-817],[-938,-1280],[-260,-949],[453,-2119],[-17,-2539],[167,-772],[-92,-1325],[226,-2097],[-552,-2273],[41,-640],[-351,-640],[-854,-177],[-260,-4393],[-561,-463],[-276,-1214],[-561,-1678],[-972,243],[-109,-795],[-812,-1479],[193,-1258],[-168,-3863],[151,-1523],[427,-2075],[-251,-3465],[-268,-1678],[-9,-1854],[-1281,-3179],[-737,-1523],[-887,-861],[-863,-485],[134,-994],[410,-507],[-42,-1899],[335,-1854],[-628,-2295],[-552,706],[-771,-817],[-519,-1302],[67,-1126],[-536,-1081],[101,-1413],[-520,-1369],[-117,-861],[-452,-971],[-603,66],[-435,-353],[-84,-772],[109,-2053],[-494,-1236],[-335,-1281],[-352,111],[-42,-1479],[-301,-2428],[-201,-2848],[-754,-2803],[-1373,-3112],[-335,-2075],[-226,44],[-503,-1876],[-1147,-1833],[419,-2185],[-126,-1104],[-821,-1501],[-795,-618],[-369,-750],[-159,-2252],[-477,-1456],[-486,-839],[-410,-1590],[-687,265],[-670,-1810],[-42,-1103],[319,-1877],[-319,-1015],[-41,-839],[-629,-1920],[-695,-1501],[-234,66],[-544,-706],[-243,-1347],[234,-2119],[-92,-861],[-419,-530],[-117,-750],[84,-1192],[-117,-1501],[-201,-596],[150,-2825],[-33,-1259],[117,-1523],[201,-242],[-385,-3665],[-293,-1103],[-92,-1170],[134,-3863],[-34,-3686],[251,-1524],[-351,-1567],[84,-794],[-118,-2737],[-594,-2252],[-662,-44],[-67,-795],[243,-861],[50,-2207],[-854,-530],[-410,-1611],[301,-1523],[293,-707],[252,-1523],[594,354],[662,-861],[-34,-2141],[913,-199],[-75,1059],[1138,309],[402,-507],[193,-773],[561,-110],[553,-817],[544,574],[921,-662],[863,993],[125,1810],[-67,1302],[185,596],[-528,2362],[-33,1479],[276,1722],[737,1567],[-84,1104],[285,1457],[745,110],[695,-1479],[771,839],[736,-552],[185,-772],[812,-574]],[[879764,37393],[-193,-1325],[-418,-1126],[16,-1037],[-242,-1037],[184,-2627],[-268,-1148],[-318,-2185],[577,-1214],[436,-596],[33,-972],[-787,-419],[-519,-3488],[-209,-441],[-670,-375],[-1156,-1545],[-427,-4150],[-301,-1612],[-561,-1412],[-1265,-2053],[-243,-1369],[-385,-596],[-703,-44],[-553,-1037],[-369,-1987],[-251,-640],[-33,-1214],[-561,-1325],[-654,486],[-636,-419],[-1800,1037],[-444,-750],[-1214,-773],[-319,971],[-1055,1788],[-561,133],[-310,1081],[34,839],[-226,839],[-25,1545],[192,795],[544,993],[-1155,3841],[-268,1567],[-519,287],[-260,-309],[-360,1214],[-385,728],[-318,1369],[-84,3245],[-293,574],[42,1192],[896,2560],[-9,1612],[210,110],[201,1302],[-377,662],[-92,2782],[-721,-44],[-385,1103],[184,1347],[796,1567],[50,2362],[-75,905],[-377,1302],[-176,2671],[385,1148],[-778,1501],[117,1104],[620,860],[75,3267],[-477,1391],[-101,905],[-594,530],[-352,949],[-469,-22],[-645,1280],[-544,442],[-260,971],[-159,2318],[-335,993],[-435,-883],[-729,441],[-477,552],[-670,1325],[-17,1390],[-603,1722],[-1306,1324],[-469,-485],[-511,88],[-92,574],[-695,1633],[-151,1016],[-795,0],[-712,1170],[-277,-662],[-661,684],[-561,2097],[-821,0],[-569,1722],[-268,-464],[-176,1810],[-620,-353],[-343,552],[-762,265],[-938,-1501],[0,-795],[-1064,-287],[-427,-795],[-58,1082],[-553,-66],[-234,1103],[-369,817],[318,751],[-477,1147],[-17,1766],[402,795],[-75,949],[25,3135],[-276,22],[-394,838],[-678,-22],[92,2119],[-159,1524],[-419,706],[159,706],[653,353],[-242,3157],[-201,618],[-1064,1965],[-100,573],[-645,133],[-1055,927],[-628,110],[-218,663],[-687,176],[-670,-1324],[-218,463],[-695,-220],[-410,640],[-134,1103],[-678,-397],[50,949],[-419,662],[-201,3841],[-561,1567],[-393,-419],[-687,1170],[-293,1435],[-251,331],[-905,-287],[-318,-1457],[-494,66],[25,905],[-452,265],[-410,-1059],[-436,1942],[-452,-574],[-971,1788],[-193,1258],[-536,530],[-310,-110],[-670,1037],[-1021,177],[-260,750],[226,1281],[-368,44],[-863,883],[-879,-221],[-963,2031],[-846,110],[-335,1280],[-1181,-110],[-184,1104],[-670,44],[-1448,-287],[-210,-1148],[-946,-905],[-343,-574],[58,-971],[-686,-707],[-721,332],[-410,-972],[-636,-728],[-612,2406],[-234,-706],[-972,-1170],[-1365,-1281],[-284,-618],[-503,-2008],[-502,860],[-42,795],[-544,-44],[-118,-861],[-678,375],[-829,89],[-42,1368],[-1457,1943],[-661,-464],[-495,44],[-762,-772],[-318,1699],[-502,-419],[-134,-817],[511,-1037],[-243,-1589],[-1131,132],[-318,-287],[-561,640],[-184,618],[653,1038],[511,441],[-645,949],[-578,221],[-318,-331],[-126,-905],[-452,-486],[-821,243],[-393,397],[-603,45],[-494,419],[-201,-1082],[-352,-419],[-536,750],[-628,-1236],[-477,-551],[-218,1015],[-377,-375],[-904,353],[-419,640],[-335,1170],[-444,861],[-586,441],[-544,-397],[-201,927],[318,530],[9,2185],[-587,331],[-561,1479],[-444,-375],[-435,-1104],[-553,397],[168,1259],[-687,-89],[-728,1281],[-134,1699],[75,795],[-419,199],[-58,728],[351,993],[-377,817],[-83,1876],[-712,0],[-394,1347],[67,1766],[-711,-44],[-1005,640],[-545,1214],[-242,2141],[-545,287],[-368,1103],[-704,420],[-670,2428],[-318,88],[-469,-1059],[-569,44],[-352,485],[-410,-198],[-528,-949],[-519,-199],[-519,-1413],[-1147,-596],[343,-618],[-469,-684],[-595,-1722],[-594,442],[-595,-376],[92,-1103],[-938,198],[-360,1126],[-519,155],[-1105,684],[343,971],[-1063,-353],[-92,971],[-285,530],[-1055,-750],[-101,1368],[-360,-441],[-377,-1943],[-360,309],[-201,-750],[-988,485],[-477,-22],[-243,-1059],[-469,-773],[-1013,1369],[-595,-287],[184,-2671],[-519,-751],[-603,-88],[-234,-530],[-444,972],[-662,353],[-477,-331],[-50,-1016],[-503,-375],[-242,-905],[-335,530],[-670,220],[-503,1259],[-310,287],[-284,-729],[-880,-309],[-351,-1611],[-922,-994],[-276,243],[-134,-1412],[-444,-133],[-720,-1545],[-971,-309],[-394,-596],[-695,905],[-929,-1214],[-101,-993],[-419,640],[-33,794],[-544,-66],[-419,640],[-1390,-265],[-293,-1898],[-494,-177],[-804,221],[-235,861],[-737,640],[-284,1148],[-528,-132],[-301,1037],[-335,-949],[-821,221],[-302,-905],[-669,1390],[-721,-44],[-326,-1104],[-737,-1037],[-318,1236],[-913,133],[-469,-619],[-930,-309],[-209,-573],[-360,927],[-343,-685],[-963,-309],[-729,685],[-754,-89],[-234,-1302],[-569,441],[-511,-287],[-419,442],[318,949],[-393,331],[-578,-574],[-318,-993],[-377,750],[-528,-1302],[327,-839],[-335,-772],[293,-883],[-369,-795],[-460,530],[-1424,-287],[-879,464],[293,882],[-293,1435],[-502,640],[50,1126],[-352,552],[-268,-1015],[-754,441],[-242,1060],[67,728],[-369,1104],[-410,198],[-536,751],[-854,-331],[-720,-1038],[-59,817],[-402,-199],[50,1413],[-276,1192],[-444,-397],[8,2097],[-368,596],[-737,331],[-385,441],[-419,-331],[-201,486],[-971,-817],[-352,-706],[-586,463],[-980,376],[-511,-420],[-234,552],[-327,-1126],[-469,-397],[-971,1236],[-352,-508],[-594,-66],[-528,-1413],[-360,552],[-343,-485],[-143,-1281],[-402,-794],[-1080,110],[-544,-463],[-352,-1943],[-335,-110],[-737,-1523],[-8,-927],[293,-1148],[-595,-1126],[-444,-66],[-83,-1281],[184,-1302],[-176,-552],[-42,-1346],[-192,-618],[-637,-155],[17,-839],[-494,-1832],[-42,-971],[-595,-1920],[-552,132],[-503,-1655],[109,-839],[-209,-1170],[-302,-640],[-577,971],[-461,-596],[-360,1037],[-670,-287],[-101,928],[-343,154],[-452,-1413],[-410,-44],[-176,-1236],[-1399,-596],[-16,-1766],[-737,265],[-310,-1126],[-452,-242],[-804,485],[-628,-287],[-59,-662],[-536,-1633],[101,-773],[-453,-684],[-226,-795],[-753,-574],[175,-1236],[-577,-618],[-335,1678],[-888,-1126],[-419,265],[-569,-2097],[-595,-111],[-360,-1545],[-58,-1258],[-637,-773],[-84,574],[-695,-1037],[-686,-684],[-653,-67],[-511,-1346],[326,-751],[-519,-353],[67,-993],[-234,-706],[217,-1060],[-552,-839],[-829,-1744],[-813,-971],[-787,707],[-536,-155],[-427,309],[0,-1214],[268,-1170],[-17,-1479],[-301,-817],[-687,-375],[-243,-1302],[-552,861],[-268,-353],[-419,728],[-335,-706],[-477,-287],[-478,574],[-871,-1369],[-100,-883],[-511,-331],[0,-3245],[-393,-221],[-252,-1015],[-142,-1722],[-352,-265],[-243,-1258],[-360,-198],[-385,-1501],[762,-243],[-502,-1391],[-134,-1413]],[[982355,371631],[795,-2141],[360,-1899],[637,-817],[628,89],[260,-375],[8,-1126],[-553,132],[-494,-331],[-360,-2031],[-435,-5474],[0,-1170],[242,-640],[495,397],[393,-662],[1139,2715],[435,-772],[603,-45],[461,773],[-218,1015],[318,265],[235,-905],[603,-66],[1038,-596],[938,353],[285,1214],[753,773],[696,375],[-84,1192],[-779,662],[84,817],[854,486],[460,-420],[461,-2185],[-67,-1545],[-201,-1126],[-42,-2163],[369,-2163],[192,-1788],[59,-2980],[360,-442],[234,530],[536,3223],[553,243],[1265,-2914],[251,-1413],[519,-640],[251,-706],[704,-199],[276,331],[528,-265],[552,-1103],[494,-641],[536,-2052],[17,-1170],[-193,-2495],[-201,-1081],[-971,-2848],[569,-1898],[-678,-9227],[-2730,1016],[-661,-9647],[-679,221],[-117,-1567],[-1289,508],[-93,-1369],[-1113,442],[-628,-89],[-176,662],[58,1126],[-443,177],[-93,-1303],[-435,155],[-59,-971],[-912,331],[-285,-817],[-394,-5960],[679,-265],[577,420],[511,-1965],[176,-3024],[-8,-1655],[-838,309],[-192,-2782],[-838,309],[126,1722],[-486,552],[226,3554],[-1415,485],[84,1170],[-377,596],[-1792,641],[167,2737],[-393,1214],[-1692,662],[-25,199],[-2504,1147],[-268,1921],[-1507,618],[-176,-1258],[-1407,551],[92,1479],[-1105,420],[50,684],[-1415,397],[-75,-1125],[-2563,993],[92,1214],[-343,66],[100,1391],[-636,-265],[-1541,574],[76,993],[-1566,574],[-17,-993],[-1650,596],[-1055,154],[-419,-971],[-125,-1104],[58,-2052],[-368,-5497],[-1700,640],[-377,-5540],[-1055,397],[-59,-772],[-1155,441],[-17,-1346],[-276,-1016],[-134,-1920],[-930,110],[-653,-9447],[-595,706],[-653,243],[-251,-3686],[-385,132],[-134,-1964],[-1415,397]],[[954905,290378],[-76,2318],[-259,2913],[-302,1303],[9,706],[485,1369],[-167,1346],[-561,199],[117,1766],[-712,264],[75,1192],[1784,-529],[143,2075],[-520,176],[9,1302],[-612,1656],[-485,2715],[192,2825],[310,-993],[536,-353],[243,2759],[435,6534],[-276,110],[193,2782],[268,-111],[100,1612],[-1909,684],[117,1722],[276,684],[637,419],[687,795],[150,1876],[235,1280],[276,-309],[293,1060],[-846,508],[59,905],[435,-133],[386,729],[603,-464],[75,1126],[645,309],[301,-861],[452,-419],[210,618],[619,-2031],[134,1898],[285,-110],[218,1545],[-134,861],[452,1104],[276,2317],[679,2384],[117,1038],[469,1236],[33,750],[1382,1656],[-620,2869],[511,596],[394,-198],[125,1898],[268,-419],[109,1788]],[[964233,356025],[2647,-927],[745,-45],[536,508],[326,-199],[352,3334],[134,1986],[1583,-706],[-109,-817],[787,-596],[50,640],[545,927],[1063,-419],[50,817],[511,-309],[2027,-795],[276,3951],[276,-552],[386,662],[301,-993],[285,486],[326,-994],[1030,1833],[796,2472],[460,817],[394,-442],[360,662],[-192,663],[125,949],[544,-508],[327,618],[302,-177],[611,420],[-34,1346],[-460,464],[-34,1170],[486,530],[310,-1170]],[[954905,290378],[-51,-618],[293,-1038],[67,-1302],[461,-1369],[-75,-3951],[-553,-993],[126,-2958],[418,-1678],[-8,-1655],[452,-2296],[-913,-2163],[-226,-1015],[-42,-2737],[-603,-1347],[-460,751]],[[953791,266009],[-561,1788],[-720,507],[-1399,331],[-812,-662],[-360,971],[-737,-860],[-578,-398],[-461,398],[-468,-221],[-670,640],[-788,1435],[-427,22],[0,-1104],[-628,-397],[-762,-1479],[-611,199]],[[943809,267179],[-477,993],[-628,772],[-185,1060],[-1649,905],[-377,552],[-637,265],[-83,463],[-570,243],[92,1413],[-578,220],[93,1303],[-561,1081],[-369,-529],[-888,1125],[-309,2583],[-503,728],[-259,1038],[16,3774],[-402,45],[-209,1103],[-377,-198],[-276,949],[-804,596],[92,750],[-193,751],[-234,2119],[293,2251],[84,3356],[-486,816],[-117,1303],[-419,750],[-134,1611],[176,1479],[620,-22],[0,1832],[-503,2208],[-452,287],[276,1788],[-762,265],[109,1501],[-2068,772],[-461,640],[285,4305],[-695,265],[-251,-3665],[-687,265],[117,574],[-192,1634],[-637,220],[109,1545],[444,-154],[50,795],[-745,287],[-92,1434],[-419,508],[-703,1413],[-989,949],[-1406,441],[175,2936],[-1967,706],[-461,-816],[-293,221],[151,2317],[-469,155],[100,1589],[-896,331],[-142,1192],[469,795],[-369,2913],[-393,1369],[176,1214],[-528,265],[-561,640],[-695,-596],[-101,-530],[-561,44],[-435,1744],[-151,1104],[-578,1015],[59,1877],[352,-155],[109,1435],[628,-221],[921,-883],[50,640],[896,-331],[67,1170],[-444,155],[59,1324],[712,-221],[561,486],[125,1987],[352,-133],[184,3002],[1231,464],[344,-111],[58,1016],[-829,309],[-33,706],[-855,-1258],[361,5253],[217,-66],[134,1965],[-946,-44],[109,1655],[-544,1148],[251,1170],[670,463],[-76,596],[-921,508],[-117,486],[-544,154],[-788,596],[-175,-2649],[-335,133],[67,1081],[-503,464],[-301,1788],[929,1346],[134,1148],[-251,221],[100,1059],[-16,2097],[-184,1612],[251,1567],[2093,2870],[1022,-376],[209,3289],[1106,-353],[117,2119],[209,1479],[-628,199],[193,1744],[502,-950],[268,221],[134,2362],[787,1435],[1365,-640],[159,2273],[-385,552],[143,1722],[552,-221],[-142,-2009],[1013,-132],[1055,-419],[34,1059],[854,-287],[-59,-817],[620,-242],[-92,-1303],[661,-662],[938,-353],[-67,-1015],[1600,-574],[-76,-1369],[386,-154],[33,-2406],[369,44],[209,861],[695,-265],[-50,-1590],[418,309],[227,2318],[201,883],[-109,905],[1072,1060],[184,2935],[762,133],[368,-375],[251,573],[118,1347],[-478,2914]],[[937260,395647],[93,353],[753,-287],[586,-795],[1256,0],[319,442],[2797,-994],[-235,-3620],[394,-1567],[619,464],[712,1015],[360,1744],[687,287],[251,-5982],[812,375],[536,-817],[428,6777],[2277,-750],[101,595],[1742,-618],[728,23],[503,-530],[946,-1722],[913,-618],[-176,-2958],[1222,-397],[-58,-1016],[-360,-397],[2219,-773],[-50,-1147],[159,-1259],[-84,-1523],[795,-242],[-67,-1016],[553,-861],[50,817],[486,-154],[302,-950],[284,199],[704,-1324],[511,-1744],[-587,-1104],[469,-2097],[-217,-1391],[-17,-1214],[2043,-794],[-586,-8896],[603,287],[1608,-287],[-109,-1766],[-302,-1390]],[[512904,282807],[-1214,485],[695,8476],[-712,7196],[-117,1546],[762,12449],[-42,1347],[377,9138],[-17,110],[1834,30572],[-6666,1943],[101,1964],[-252,2804],[-83,1743]],[[507570,362580],[-545,11346],[-109,2009],[-1063,177],[251,4922],[570,10132],[-503,154],[285,9028],[385,6931],[1030,19712],[1466,16401],[460,-133],[804,15739],[-50,110],[-5519,1545],[101,2075],[586,-198],[402,7637],[502,8388],[704,2340],[569,9756],[5829,-1258],[-9,133],[6021,-1303],[704,12715],[469,7770],[125,19358],[9,9690],[1356,9624],[67,11942],[503,9558],[393,1501],[-234,3112],[-310,795],[-2738,817],[527,9955],[1256,2097],[6180,-1832],[1064,20396],[285,-177],[50,1678],[686,12626],[51,-22],[1122,19491],[2462,-883],[410,7991],[75,2052],[-1951,574],[302,5188],[686,4613],[-58,397],[259,2561],[-887,1744],[75,2008],[-84,1855],[478,2715],[477,816],[477,331],[536,972],[1491,-1082],[561,-1082],[662,1214],[1574,-485],[846,1324],[603,11655],[-252,552],[-368,2781],[-243,331],[50,1236],[670,1656],[17,2229],[-184,2980],[50,2362],[-536,883],[34,706],[937,4084],[109,2494],[-310,486],[-829,419],[-427,-66],[-644,442],[-302,750],[-1114,88],[-360,-618],[-787,1038],[-2244,5894],[-519,551],[-419,-44],[-293,508],[-394,1987],[-1021,-817],[-494,44],[-629,795],[-1063,242],[-218,1104],[-611,88],[-318,486],[-1424,1060],[-159,419],[469,2097],[-159,1655],[-528,2671],[126,1060],[-360,618],[92,3951],[-42,5011],[-318,2494],[-369,2075],[-628,1920],[-335,2009],[210,1170],[-8240,2428],[619,13244],[980,20264],[6825,-1899],[2068,-596],[1625,32029],[4271,-1258],[1415,27989],[980,-265],[720,4702],[-260,2428],[-2336,4591],[59,707],[-151,4194],[-151,2097],[10602,-3179],[4639,-1435],[1097,20418],[8449,-2582],[1692,33243],[-2228,772],[871,15937],[2035,-640],[1374,-949],[678,-1413],[946,-1015],[553,-2229],[695,-1104],[419,1170],[669,-199],[369,375],[913,0],[284,-441],[587,1788],[661,-177],[-17,1678],[880,2627],[192,2185],[511,618],[402,1678],[302,2097],[510,1589],[268,-817],[453,464],[184,-464],[820,795],[595,1214],[653,-133],[318,508],[76,1015],[561,861],[904,133],[-84,1744],[721,1236],[703,861],[586,-729],[293,442],[-284,794],[-302,1788],[9,795],[326,861],[754,44],[385,-596],[821,331],[318,-243],[502,2472],[595,1656],[1063,1457],[528,1986],[-318,1214]],[[582116,948832],[318,354],[913,-133],[904,243],[745,-2715],[771,-2141],[569,728],[1156,-353],[368,-1258],[620,-684],[260,-707],[552,-287],[653,530],[897,-618],[669,-2693],[-50,-1148],[310,-1170],[821,-1390],[217,-1479],[-343,-1965],[444,-2847],[-310,-552],[0,-1369],[201,-728],[67,-1302],[402,-1877],[-42,-949],[302,-375],[192,-1435],[394,-1015],[887,-817],[361,-927],[385,154],[335,-684],[-185,-927],[84,-773],[385,-750],[34,-1413],[511,-750],[544,375],[913,-4017],[402,0],[913,-5011],[845,-243],[352,177],[494,1081],[561,-397],[913,-132],[594,573],[352,-198],[277,-1391],[996,-1832],[310,-861],[469,-441],[176,-2164],[-34,-860],[980,-2451],[335,-485],[318,-1325],[452,-441],[654,-1788],[678,-1104],[-67,-949],[695,-1280],[569,-508],[285,-1015],[-226,-2031],[201,-618],[-117,-861],[301,-1523],[838,-3311],[-76,-1854],[578,-177],[1156,552],[326,-839],[570,-883],[904,-529],[352,-1987],[477,-419],[260,-773],[686,773],[821,-950],[8,-927],[419,-1192],[779,508],[553,-221],[670,-2273],[25,-905],[502,-354],[578,2296],[427,177],[335,-574],[854,-442],[779,-684],[1708,2583],[980,375],[553,-751],[1264,376],[628,-309],[478,662],[728,-309],[494,110],[1047,-640],[385,-1082],[754,-309],[988,795],[561,-1126],[452,-88],[896,-1369],[427,-1103],[-8,-662],[611,-1082],[570,-110],[192,-398],[1064,-750],[980,110],[535,-1059],[444,-1722],[997,-3245],[477,-817],[268,1082],[293,44],[327,1015],[125,2009],[319,795],[150,1611],[796,-927],[703,221],[494,1280],[645,-684],[444,-1104],[561,-265],[779,552],[-168,1148],[260,309],[586,-331],[611,-3775],[553,-3068],[-553,-464],[-460,-1280],[25,-1214],[-712,-750],[-452,-1347],[-25,-905],[-544,-1059],[-654,-9779],[494,-750],[84,-2318],[946,-1965],[587,-772],[1473,-905],[319,-1523],[779,-1656],[92,-706],[653,-221],[619,-706],[578,-1391],[536,1015],[394,22],[393,-684],[-117,-552],[226,-1346],[804,-375],[745,-1391],[2529,-1060],[762,773],[344,-1898],[1976,-596],[385,243],[176,882],[997,-44],[737,949],[586,-397],[284,1413],[7211,-22184],[-3283,-6114],[218,-596],[-134,-1855],[58,-993],[-125,-2031],[544,-1434],[293,905],[-293,993],[-151,1435],[168,640],[921,-265],[603,44],[812,-441],[536,-1259],[-218,-551],[-804,684],[-33,-1060],[687,-1015],[351,-110],[536,-1833],[402,-309],[84,-706],[-486,-1501],[184,-861],[511,1258],[59,1126],[276,684],[-42,905],[285,309],[1055,-860],[9,-1215],[-695,-1059],[-319,-1347],[118,-1236],[251,-287],[636,861],[0,-1170],[-536,-2229],[-50,-596],[243,-1214],[-1382,-1302],[-703,662],[-1014,-1943],[-309,-44],[-520,-2516],[-678,-949],[-469,-45],[-1222,-2361],[-268,-67],[-436,-1015],[-293,397],[-167,1678],[-260,993],[-603,1413],[-636,22],[-570,1611],[-360,-529],[142,-1325],[-468,-1236],[-193,88],[-561,-905],[276,-1192],[-293,-1523],[276,-1148],[-134,-905],[-460,-132],[-134,-750],[335,-2583],[-1935,-4327],[746,-242],[109,-1413],[2855,-795],[1558,-4746],[393,663],[721,463],[762,1126],[879,375],[1382,1369],[728,1280],[796,66],[0,-1567],[-486,-4282],[-42,-905],[528,-2031],[1072,-3245],[736,-353],[193,-905],[854,-2163],[235,-839],[636,-265],[771,-2406],[569,-1082],[452,-286],[611,-1281],[327,-1523],[-1164,-14789],[243,-1656]],[[678133,713285],[1616,-11103],[452,89],[109,-751],[570,-22],[-51,-2605],[-427,-1214],[679,-4679],[226,-927],[6933,-2053],[-83,-3355],[-411,-1545],[461,-3797],[251,-5033],[-1348,-2693],[-59,-2406],[-460,-2163],[-687,-1148],[-536,-1898],[-745,-177],[318,-3112],[-561,-2892],[-687,-1611],[42,-3002],[-176,-4393],[59,-1722],[-285,-1633],[-410,-1060],[636,-1920],[394,-5364],[-603,-2825],[-528,-1877],[243,-640],[1432,-552],[570,-618],[335,-1876],[1842,3399],[854,596],[4706,950],[411,1081],[343,331],[100,1126],[1248,1258],[2286,-375],[1374,-1369],[711,-242],[2111,1059],[2202,-221],[-117,817],[33,1612],[2253,-3201],[561,-1501],[787,-1126],[1633,-1633],[117,-265],[963,3421],[-125,2119],[3165,-905],[-50,-949],[-1482,-1567],[1172,-1479],[369,-3201],[-176,-861],[-553,-1368],[126,-618],[929,110],[1013,442],[252,-133],[670,993],[360,-286],[268,706],[301,-1082],[494,-110],[511,397],[268,-265],[327,6468],[3793,-1082],[-59,1038],[754,1037],[1717,-441],[444,-1413],[2101,-596],[160,751],[912,-265],[402,-773],[586,265],[268,-397],[645,1214],[-117,309],[871,3090],[4522,-1545],[0,88],[3701,-1236],[-217,-1369],[1457,-1832],[-813,-13751],[-1381,-3069],[-2672,-1677],[-92,1766],[-1181,927],[-602,-221],[-386,-6313],[-1214,419],[-285,-4525],[-527,133],[-1508,-3488],[-1557,-2781],[3534,-1192],[-1122,-2406],[-561,-2009],[-252,-331],[-259,-1435],[16,-1346],[-376,-2759],[678,-243],[-193,-3201],[654,-221],[-260,-4260],[-796,464],[-201,-3333],[394,-133],[-335,-5430],[-2194,728],[-251,-4039],[2906,-1037],[-436,-7263],[-335,-22],[-58,-1037],[-1742,-4393],[318,-6357],[84,-6423],[-193,-3157],[-326,-1391],[-587,-1037],[42,-1457],[946,-309],[804,-3090],[-7762,-7638],[393,199],[486,-1678],[494,243],[352,-1059],[-2002,-2318],[2044,-14591],[1440,-10816],[1256,-4481],[1524,-9226],[-75,-839],[418,-949],[9,-1744],[-226,-1567],[-863,-199],[-645,441],[-402,883],[-1130,-1059],[-955,-464],[-134,-441],[59,-2075],[1206,44],[544,-265],[-184,-1302],[-729,-1391],[478,-1523],[50,-1391],[795,-1280],[293,353],[84,1104],[377,221],[762,-89],[938,-662],[193,-772],[452,-133],[-10242,-25693],[3057,-6799],[-2328,-5827],[-1064,-2340],[-1917,-3466],[-587,-1479],[-217,-66],[-1491,-2605],[-1189,-4260],[-142,-662],[-528,-971],[168,-2164],[-729,-2891],[-1239,-5254],[-134,-2008],[871,-3952],[1130,-3399],[34,-795],[1256,-4193],[-235,-4040],[419,-1898],[-687,-13289],[-594,-10727],[-335,-5563],[-310,-640],[-352,-22],[-125,-1391],[-260,-618],[-394,111],[-603,-2671],[-41,-1369],[-226,0],[-779,-2560],[-335,-508],[2780,-839],[-435,-7019],[3517,-1236],[-185,-3267],[-845,-13509],[-5737,1832],[-234,-1016]],[[373735,811336],[7327,-1324],[-41,-1590],[-176,-397],[-293,-6997],[-453,-11743],[-870,-4503],[-1667,331],[-444,1059],[-50,-11191],[-796,-17217],[7663,-1855],[578,2495],[452,419],[201,596],[-17,1479],[477,1656],[59,1788],[670,1214],[628,2030],[92,1435],[235,905],[787,839],[-9,1214],[302,1280],[-92,685],[167,2957],[586,1016],[185,1126],[787,419],[326,1413],[277,2759],[192,375],[-201,1280],[126,1236],[569,795],[151,839],[352,-44],[5954,-1545],[-645,-12847],[293,-1700],[75,-2229],[4899,-1545],[1709,-618],[3508,-1148],[4455,-1590],[838,-1081],[1281,-398],[1549,2186],[436,2163],[-59,6821],[-352,7041],[327,596],[-2780,15562],[385,6953],[-42,1369],[276,6158],[-142,1854],[-159,751],[3174,-22],[-210,-5320],[-83,-3399],[25,-5055],[-176,-4172],[5577,-1589],[8,-111],[5000,-1412],[3065,-486],[125,-110],[3073,-530],[863,18277],[804,-243],[67,1832],[1223,18410],[33,2406],[209,2781],[-837,243],[569,11014],[319,6689],[393,7858],[3693,-1060],[2722,-684],[896,-464],[3994,-1236],[101,177],[1465,-442],[-326,-6136],[12067,-3554],[-737,5430],[-444,1457],[5083,-1457],[151,662],[619,-220],[369,6754],[318,6666],[-494,1766],[628,14436],[913,1082],[5217,-1479],[9178,-2671],[-427,-9558],[-519,-10661],[-704,-15032],[92,-1501],[293,243],[4497,8542],[3936,7902],[42,1016],[427,1611],[595,1435],[561,2384],[1365,6401],[1599,2892],[3341,-420],[612,13620],[4639,-1148],[75,2119],[327,5827],[109,1170],[-377,1060],[385,7041],[2001,-507],[1391,2693],[3441,-1038],[369,199],[-2889,16003],[511,1479],[385,22],[561,-507],[402,-1192],[485,-751],[846,-265],[997,1501],[268,1126],[-151,1677],[126,950],[402,1081],[234,1303],[636,860],[369,905],[335,221],[980,-750],[720,-265],[276,-464],[59,-1744],[-352,-1876],[469,-110],[528,-1567],[1172,-817],[2077,353],[1231,2406],[502,22],[511,-1501],[410,177],[1374,2406],[711,1832],[185,1324],[477,883],[636,44],[386,1568],[-453,2097],[-100,3311],[268,1346],[343,44],[888,3642],[184,1479],[101,795],[536,552],[117,1037],[913,177],[276,397],[-92,2163],[301,464],[293,-552],[1340,375],[687,-927],[946,67],[184,-420],[545,88],[226,1082],[712,221],[762,-640],[259,-1082],[260,508],[804,-376],[611,-551],[544,-199],[1223,110],[1842,486],[1683,110],[796,530],[218,486],[268,1743],[402,4128],[410,508],[260,1391],[376,772],[-192,1302],[-9,1281],[1014,-1545],[444,264],[854,1237],[502,88],[184,1214],[662,-795],[670,420],[75,-3069],[963,-596],[653,-44],[344,927],[33,928],[771,2074],[1323,1457],[326,883],[453,596],[1138,243],[252,508],[938,287],[293,1125],[75,1413],[-318,309],[-109,2274],[184,839],[410,463],[1215,22],[619,199],[503,-773],[201,111],[419,1854],[561,794],[720,155],[234,1611],[469,-44],[469,684],[318,1612],[377,441],[494,1744],[411,596],[904,353],[486,-419],[418,486],[536,-111],[595,-949],[125,-949],[419,-331],[561,1170],[653,662],[846,-927],[143,331],[711,-817],[478,464],[502,0],[360,-2097],[-84,-1303],[319,-949],[310,88],[896,-1743],[309,-1303],[335,-728],[-134,-993],[654,-1722],[443,-574],[938,-442],[1131,-1920],[410,-1501],[519,-1082],[126,-1214],[527,-154],[964,-2207],[-227,-994],[-259,-2207],[167,-1810],[503,-486],[1063,-2450],[327,-154],[377,-1325],[-76,-574],[469,-618],[-75,-706],[377,-994]],[[507570,362580],[-1265,-1567],[-11941,4636],[-1097,-662],[-3325,1280],[-3182,1545],[-2906,1192],[-3215,1037],[-3350,972],[-4932,1699],[837,17747],[796,-331],[829,16423],[-7085,1920],[503,2870],[577,13575],[553,11810],[59,1699],[-545,155],[-368,883],[-846,220],[84,1590],[-687,198],[-75,-1633],[-6071,1567],[-4229,1104],[695,15385],[-545,309],[-11866,2848],[-7712,1876],[678,15650],[-13281,2494],[-8,-110],[-5527,1038],[-1533,529],[-2596,751],[-12393,3090],[-980,-18895],[-7194,2031],[-41,132],[-2186,464],[-4254,1170],[-720,0],[-210,-4260],[-1674,441],[-151,-3002],[-1935,839],[-1691,508],[-7939,1898],[-1080,22],[-12988,3510],[-3199,949],[360,7306],[-511,133]],[[356208,479615],[159,8255],[-58,2163],[100,265],[143,7417],[142,6070],[0,2737],[109,839],[134,3995],[527,13554],[486,11014],[2161,-441],[318,88],[1465,-486],[151,3400],[17,1677],[159,1281],[251,4988],[167,287],[-653,3973],[-1105,1104],[-1315,4260],[-410,2649],[-50,1700],[-243,949],[377,508],[2286,3840],[1909,1369],[528,10529],[1088,21412],[-4078,1169],[1290,25319],[-34,419],[444,8609],[-1281,-133],[-2688,574],[1423,32691],[4640,-1280],[234,5143],[544,11346],[771,14811],[3274,-1037],[829,13995],[-1197,375],[477,9491],[50,-22],[796,15783],[527,11302],[-619,154],[937,16268],[160,3179],[259,6379],[184,3091],[360,7505],[411,9270],[661,13841],[143,2317],[192,751],[-25,1015]],[[497898,39755],[-8693,0],[-7670,0],[-14454,22],[-6917,0],[-13826,-22],[-11062,0],[-9680,0],[-13826,0],[-13825,0],[-13834,0],[-7328,0],[-13423,0],[-14060,0],[-13600,0],[-7846,0],[-13985,0],[-12737,0],[-9622,0]],[[278229,337152],[628,12251],[7871,-2230],[779,15275],[6105,-1722],[209,155],[980,19447],[9747,-2914],[10853,-3223],[1843,-485],[1004,375],[377,-751],[8039,-2185],[704,14237],[209,2274],[293,4282],[6499,-1743],[711,15650],[486,4790],[904,9491],[6005,-1744],[6222,-1699],[1557,32006],[-1407,398],[503,11191],[971,20926],[2018,-552],[134,-773],[654,-242],[787,574],[2294,-596]],[[69212,536763],[-151,773],[159,883],[410,-45],[285,596],[-226,685],[318,1037],[-243,1567],[369,111],[184,772],[-201,883],[-419,486],[587,2119],[-201,1788],[-419,-287],[-318,287],[-369,-486],[-226,2075],[-285,662],[-351,1523],[184,1546],[-293,1456],[-536,994],[377,2362],[-42,1147],[218,332],[125,2251],[-142,971],[-285,44],[-318,1237],[-402,463],[-385,2384],[-360,839],[0,1015],[-411,155],[-159,2141],[-552,1722],[-17,1125],[-452,685],[-193,1854],[-536,1236],[-276,1302],[167,927],[-217,574],[-503,-44],[-846,3046],[126,972],[-394,883],[260,2163],[-235,353],[118,949],[-268,1302],[-293,685],[159,662],[-469,1192],[-243,1479],[-528,552],[-276,3730],[-251,243],[-318,3487],[276,-88],[126,1258],[-386,2142],[-444,1147],[9,1016],[435,750],[-142,2031],[-268,2053],[67,927],[-293,2560],[192,1766],[486,2693],[411,1656],[133,1876],[6574,-1545],[67,1611],[7805,-1766],[-17,-1832],[14001,-3267],[67,1435],[1298,-2317],[369,3664],[142,1986],[34,3841],[285,751],[611,2339],[352,2627],[-17,883],[276,1170],[578,927],[402,1126],[-84,1059],[302,1192],[-51,1722],[813,2428],[309,1280],[-184,994],[159,1501],[888,5916],[209,88],[335,1810],[285,287],[837,2097],[84,905],[344,1192],[-1508,22691],[1441,32316],[1046,20175],[1742,-485],[377,6224],[1340,-66],[1189,1854],[3952,8786],[922,0],[1323,1214],[971,1567],[360,1082],[1575,1589],[1683,706],[485,-331],[1290,1104],[218,2472],[1876,1324],[309,663],[788,176],[971,905],[628,22],[636,1435],[1114,1876],[2069,2826],[50,485],[1423,2252],[1131,1501],[50,1589],[1013,2296],[5511,11346],[12435,-2561],[-234,-1081],[-34,-1325],[-276,-2207],[-662,-508],[-494,-44],[771,-1832],[8139,-2097],[6423,-1634],[-586,-13619],[-854,-18321],[1515,-442],[5745,-1478],[997,23133],[5208,-1259],[12779,-3068],[611,15959],[377,8874],[10016,-2428],[2847,-640],[368,-707],[603,155],[1072,-1302],[402,-773],[168,684],[4438,-971],[502,11986],[-3056,684],[862,20882],[176,949],[-377,2009],[369,1302],[502,13200],[-92,22],[369,7527],[-268,729],[100,2075],[360,1214],[2747,-574],[5987,11831],[3944,7770],[1265,-3730],[561,-1170],[243,-1325],[259,-485],[553,309],[896,1435],[570,-442],[435,-1082],[988,-1015],[494,-1280],[762,-508],[243,-949],[1725,-3223],[101,-1214],[343,-772],[804,-817],[1591,-1280],[1499,-3775],[-42,-795],[1256,-4017],[1834,-11213],[-661,-464],[-185,-1766],[-996,-1832],[-1641,331],[-160,-132],[-309,-1568],[-42,-1721],[544,-1281],[75,1766],[6206,-1236],[25,596],[8332,-2097],[4321,-12758],[2261,-6887],[42,265],[2788,110],[386,486],[485,1192],[2161,3487],[117,3576],[1022,1678],[527,132],[486,2406],[837,1810],[-83,927],[594,1479],[143,861],[-227,4614],[721,1015],[402,2119],[-42,971],[-293,1567],[-76,1148],[126,1060],[2420,2141],[971,4680],[561,3929],[-594,4194],[-503,971],[168,2825],[1239,5254],[2077,8631],[1591,6798],[729,1965],[2319,10109],[10820,21434],[1482,-4150],[5192,22228],[1691,-10485],[12210,24436],[552,19226],[1474,48098],[2806,3002],[-294,-6622],[2915,-773],[-293,-5805],[-1231,-26952],[8843,-2119],[-670,-16025],[5409,-1347],[-636,-1699],[452,-2252],[-75,-2185],[-327,-2826],[-326,-2163],[-67,-1214],[-327,-2075],[151,-1280],[1298,-2119],[1030,-4349],[845,-88],[344,-861],[84,-1148],[736,-2052],[478,154],[695,1192],[1122,-375],[611,287],[720,-287],[1499,463],[469,1281],[863,1103],[728,1501],[545,640],[-369,-10816],[-393,-8498],[-871,-18542],[-838,-552],[-226,-684],[-1055,-662],[-620,-1258],[168,-2693],[-821,-861],[-5141,-9867],[896,-132],[184,595],[578,-618],[519,-154],[2989,-375],[2747,-486],[812,-1523],[821,353],[1315,-331],[485,199],[729,-508],[1549,-88],[84,-309],[2361,-574],[0,-1832],[-226,-861],[-946,-1391],[896,-1545],[168,-596],[-59,-2097],[-310,-1655],[25,-883],[-293,-1810],[3006,-861],[687,-420],[854,177],[486,508],[812,-883],[6808,-2031],[67,-221],[6616,-1898],[59,176],[-1039,-20837],[-1541,397],[-293,-6202],[3182,-928],[704,3908],[1716,1236],[796,2913],[1993,-706],[3844,-4900],[913,-5188],[1498,1082],[327,-309],[1038,-133],[536,-1611],[520,-154],[502,-773],[226,44]],[[937260,395647],[-75,1037],[636,993],[260,3952],[-837,-1347],[226,3907],[150,1612],[277,-89],[17,1876],[167,2362],[-955,376],[260,1280],[-50,728],[293,817],[310,44],[25,949],[243,839],[-17,839],[285,750],[-578,773],[-402,2892],[159,706],[-1030,375],[-109,-684],[-611,-1898],[-427,-994],[-754,177],[84,795],[-327,1324],[-360,331],[-184,1214],[243,508],[284,1699],[570,596],[536,-551],[460,-1038],[143,729],[-528,1479],[804,353],[561,-574],[184,2825],[855,-287],[33,707],[603,993],[821,640],[192,662],[402,199],[628,1435],[260,4150],[-1315,485],[-452,-1677],[-2370,838],[-586,-66],[-486,-1258],[-435,88],[-201,707],[-620,331],[235,3708],[653,464],[318,1147],[301,45],[712,1214],[251,1589],[-3894,5033],[-661,1037],[561,1832],[92,1479],[553,1016],[427,1258],[301,1501],[427,331],[1014,2273],[226,1391],[444,419],[-93,729],[335,5452],[503,-2406],[1926,-618],[0,1148],[636,728],[461,1236],[-2722,950],[360,6379],[-577,154],[58,905],[2169,-728],[184,861],[-284,883],[-260,-89],[-770,950],[-570,198],[-42,1192],[-971,353],[176,2782],[-1147,419],[-143,574],[561,618],[-276,662],[561,1214],[-368,530],[-821,-795],[17,1943],[-352,-442],[-762,795],[-536,-309],[59,1015],[-980,243],[-612,707],[-125,1390],[-369,221],[201,949],[25,1236],[938,3024],[402,729],[-109,2207],[84,1435],[503,1413],[-226,1214],[-762,-265]],[[932764,503079],[284,2715],[469,1898],[620,1192],[427,0],[921,1391],[-84,-1016],[268,-684],[1340,-486],[-368,1413],[-67,3885],[-210,1523],[134,2053],[427,-154],[201,3156],[-1339,486],[192,2737],[-477,2759],[326,993],[-33,1612],[201,1081],[-461,618],[-234,905],[-360,-596],[-687,1501],[-8,3223],[109,795],[435,971],[142,905],[-1097,353],[151,2759],[-829,155],[-117,-905],[335,-486],[-193,-1081],[-846,-596],[-268,1545],[369,817],[-377,618],[-126,1059],[-360,1236],[-385,685],[-569,1765],[-679,-728],[-418,795],[142,574],[-1005,772],[-494,1280],[-17,1038],[-577,772],[-17,1612],[-201,2229],[134,1104],[511,1192],[753,905],[721,44],[544,618],[176,706],[979,1126],[51,1148],[603,-132],[268,1390],[-143,1016],[637,2825],[-461,3046],[620,861],[410,1082],[-335,485],[-117,1479],[-461,839],[-75,883],[410,1898],[-58,1258],[-201,839],[-59,1501],[-167,353],[-143,2208],[184,331],[-351,1192],[318,993],[134,1148],[-360,728],[25,1678],[-167,971],[678,1369],[209,1435],[-326,1346],[268,1678],[728,110],[436,-706],[360,552],[67,1037],[469,-464],[201,663],[402,-177],[569,-1346],[871,-994],[251,-861],[603,-1214],[226,-1015],[595,-1501],[167,-905],[729,-243],[310,1545],[217,309],[662,-927],[259,861],[-41,1965],[-235,551],[486,861],[737,199],[142,508],[645,265],[243,1302],[259,441],[34,1126],[209,552],[486,0],[419,1015],[67,2384],[887,243],[394,-927],[427,-463],[259,-773],[670,-1015],[-67,-442],[578,-795],[344,-1854],[343,839],[904,375],[746,817],[393,817],[511,-309],[502,905],[377,-243],[318,706],[536,155],[193,-1280],[335,-883],[812,0],[302,-817],[753,1126],[319,-685],[376,618],[411,1523],[728,-662],[319,662],[845,309],[134,685],[561,-66],[-351,-5695],[527,-177],[218,574],[-276,-4569],[-495,-1457],[59,-1325],[-352,-1434],[-25,-1060],[293,-1435],[327,398],[75,1236],[511,-685],[-779,-5805],[880,-287],[-151,-2516],[795,-265],[-125,-2185],[5267,-1678],[209,441],[-602,1943],[-310,2251],[3567,-1103],[528,-2053],[385,-419],[377,264],[477,-331],[75,-1567],[-175,-971],[845,-265],[-217,-662],[41,-1016],[285,-1699],[201,-442],[-385,-6931],[-980,-2781],[67,-265],[-1683,-4768],[293,66],[-8,-1523],[176,-883],[-503,-1236],[-50,-1346],[151,-640],[778,-442],[243,177],[653,-927],[545,-1060],[217,-883],[-125,-574],[419,-2295],[-268,-574],[83,-1016],[628,-1501],[444,-198],[335,-817],[201,-1347],[1231,-353],[193,-552],[619,-88],[469,-441],[553,574],[176,-1259],[377,-1346],[628,1081],[695,-88],[486,-861],[134,-3686],[293,-1015],[552,-530],[17,-707],[-33,-1964],[209,-243],[-193,-1435],[-586,-551],[544,-2517],[-485,-905],[-444,-375],[-50,-927],[335,-1038],[-67,-2163],[636,-1942],[-142,-552],[360,-729],[536,-1810],[58,-1942],[168,-552],[-59,-1766],[-812,287],[-25,-486],[-930,354],[-8,-1744],[-436,-1325],[2111,-772],[-427,-331],[-335,-729],[-168,-1125],[-251,-89],[-302,-1192],[26,-1721],[-386,-1259],[-192,-1192],[-352,-353],[-469,177],[-125,-1060],[1331,-1170],[-151,-2185],[469,839],[218,-221],[553,442],[318,-972],[-360,-750],[-25,-1413],[577,-265],[-25,-1125],[-268,-1634],[319,-1059],[335,-1678],[502,-1104],[17,-1435],[293,-507],[-50,-971],[192,-1788],[-419,-596],[51,-1325],[-486,-1589],[-260,-353],[126,-972],[394,-772],[-34,-618],[-1449,463],[486,-1920],[176,-1413],[109,-2494],[-905,-1258],[268,-1280],[335,-67],[545,508],[502,-464],[1022,-309],[846,-1302],[678,-221],[695,199],[-84,-1126],[-268,-287],[-17,-2141],[-167,-772],[201,-883],[360,-3488],[377,-2031],[-854,-2847],[360,-1501],[-369,-574],[-502,-1612],[-369,-485],[-192,-861],[-335,-464],[-737,-2317],[-151,-1126],[210,-993],[-310,-2428],[142,-1435],[-167,-861],[-779,-1258],[151,-994],[-444,-1898],[-469,-1104],[-17,-2163],[167,-1722],[277,-728],[301,110],[1181,-574],[84,-2008],[-151,-949],[285,-398],[494,574],[377,-684],[1465,-949],[352,728],[527,66],[553,-441],[385,-1170],[-67,-2009],[-577,-750],[-51,-1214],[-301,-66],[-478,-950],[-1197,243],[-444,-265],[-192,-1589],[-595,-419],[-1214,-2274],[-411,-177],[-552,-1147],[-377,-5188],[561,-198],[343,684],[151,2229],[603,-220],[67,1081],[553,-198],[75,1147],[1348,-485],[-159,-2450],[938,-331],[-84,-1347],[394,-132],[-327,-5011],[352,684],[519,-397],[-251,-1214],[84,-1325],[485,-198],[-117,-1788],[193,-66],[-50,-1722],[-277,-993],[-125,-1899],[276,-88],[100,-1369],[-259,-3774],[-486,176],[-42,-1170],[235,-2450],[167,-905],[-243,-618],[-142,-2649],[-653,-220]],[[874405,226806],[-151,3488],[620,4282],[-319,1126],[235,1434],[569,111],[653,-376],[201,2009],[34,221],[125,750],[846,1148],[1750,-552],[938,16357],[2471,-795],[603,10000],[2847,-1038],[3190,-1037],[193,88],[3768,-1148],[42,88],[2512,-882],[67,176],[2312,-684],[812,-88],[1407,-928],[402,-1169],[360,-332],[578,641],[619,-2760],[494,-1699],[1064,1832],[-444,1015],[678,2274],[327,-44],[762,-1303],[134,1943],[9103,-3333],[67,794],[-829,3841],[150,1325],[821,-1060],[243,3664],[4321,-1567],[218,2759],[1892,-684],[-318,2605],[2445,-861],[126,1898],[4103,-1501],[653,530],[1315,2604],[0,574],[737,1060],[2713,-971],[327,-817],[25,-817],[-268,-507],[-34,-994],[553,-1037],[117,-817],[561,66],[863,-331],[176,375],[1448,155],[620,287],[243,596],[444,-618],[678,-88],[151,2339],[1130,-750],[687,0],[846,-684],[921,-1391],[502,-1214],[955,795]],[[953791,266009],[-528,-1038],[67,-1081],[-469,-1501],[0,-1921],[-259,-2891],[661,-2671],[628,-1435],[-150,-1192],[485,-1656],[59,-1147],[-419,-2230],[787,-795],[252,-573],[686,-751],[478,-221],[-126,-2030],[310,-2120],[-762,-1611],[-76,-949],[268,-1236],[-25,-1523],[210,-817],[427,-530],[209,-1258],[385,-1037],[670,-420],[-167,-2560],[234,-1082],[50,-1942],[243,-861],[695,-1369],[-385,-2119],[436,-2340],[711,-1986],[1265,132],[0,-1214],[192,-839],[-636,-2737],[-620,-949],[67,-1236],[913,-508],[-42,-684],[503,-331],[75,1170],[511,-287],[469,-1148],[368,-1987],[-326,-574],[-67,-1567],[-327,-949],[-661,-110],[-243,287],[-796,-508],[-318,-1236],[126,-1082],[-268,-596],[-243,-1324],[-251,-89],[-553,-1456],[-243,-1501],[134,-1104],[-712,-508],[-402,464],[-787,-420],[-402,552],[-293,-1059],[59,-1214],[-268,-729],[-9,-2207],[586,-2472],[-167,-1016],[-452,-1170],[-762,-1236],[-185,-1126],[-452,-1125],[-150,-1126],[-545,-1413],[-569,707],[-302,-287],[-804,176],[-720,1082],[-1231,-1501],[-519,309],[-318,-375],[-444,353],[-519,-44],[-385,728],[-536,177],[-176,-1369],[-1114,-2251],[-293,-839],[-117,-1413],[-218,-662],[-394,-88],[-1264,463],[-528,-2229],[-376,-552],[-578,-1810],[-821,-1413],[-92,-1236],[-595,-1347],[-192,-1633],[-251,-44],[-344,-1678],[-368,-949],[-268,684],[-553,508],[-226,1236],[-804,442],[-410,463],[-327,-1015],[-1809,1324],[-695,-441],[-159,-751],[-686,-287],[-361,-684],[-552,-2163],[-628,-375],[-503,-1501],[-845,-795],[-428,265],[-1314,-1170],[-603,-66],[-335,-420],[-846,464],[-84,-1766],[-159,-486],[25,-1412],[-619,-1259],[-386,45],[-795,-1016],[-151,-905],[-678,-1788],[-1399,-2362],[84,-684],[-276,-883],[-1357,-640],[-728,751],[-252,-199],[-360,1920],[101,1303],[-260,1699],[-787,-375],[-285,-993],[-1206,-2141],[235,-1744],[-343,-1567],[-76,-1259],[260,-662],[-151,-2340],[327,-1147],[-134,-1016],[217,-750],[352,-199],[268,-1104],[779,-198],[821,-1899],[201,-2185],[318,-640],[-251,-1435],[150,-1810],[235,-1082],[-302,-1368],[76,-861],[795,-2583],[159,-883],[-33,-2273],[343,-662],[235,-1236],[443,-1457],[553,419],[905,-486],[628,332],[485,-817],[-33,-1060],[670,-2008],[904,618],[402,-1258],[-285,-1215],[151,-1368],[461,-1788],[335,-751],[-394,-1456],[-770,-729],[-687,-1611],[-971,-1391],[318,-441],[134,-1457],[-570,-1567],[25,-1170],[-402,-861],[126,-3532],[-193,-971],[411,-751],[-226,-1434],[-293,-420],[41,-1037],[260,-839],[-226,-1369],[109,-1567],[-159,-971],[-101,-2870],[-552,-816],[-327,198],[-151,-1258],[-351,-287],[108,-1413],[-276,-1302],[687,-993],[243,-773],[301,707],[670,750],[117,-662],[-293,-839],[168,-1302],[-620,-1236],[109,-883],[-268,-596],[-394,-3135],[-552,-861],[-520,-2649],[-762,-397],[-159,1104],[134,839],[-276,949],[-268,-729],[-963,-1766],[-913,-772],[-327,-1435],[-628,-530],[-402,442],[-376,-530],[-1223,-530],[-796,-706],[-393,-684],[-553,-243],[67,993],[-285,1038],[-510,662],[-1005,817],[-243,-442],[-938,861],[-226,-397],[-829,-89],[-293,972],[-469,551],[-1055,-375],[-620,-971],[-234,-1589],[33,-751],[-184,-1898],[393,-2362],[-326,-1236],[-34,-1854],[-410,-1082],[-419,-508],[-1038,927],[-126,905],[235,1126],[-645,1170],[-1131,-927],[-343,-861],[-544,-110],[-452,-729],[-570,309],[268,1766],[-42,2141],[-879,663],[-377,1125],[-75,927],[-310,663],[-553,331],[-92,1324],[-544,3090],[117,839],[-352,420],[-25,816],[-402,2384],[176,574],[17,1567],[-628,994],[-318,-353],[-268,-1060],[-520,-486],[-184,950],[-385,-111],[-318,-1479],[-42,-816],[-519,-1391],[-796,-132],[-100,-928],[-620,-1545],[-251,-1655],[-737,463],[-628,-1412],[-704,-1259],[-494,89],[-594,-1126],[-25,-1038],[-293,-706],[-612,1435],[-753,-552],[-444,596],[-545,-353],[-134,-530],[-1097,-750],[-460,-1148],[-511,-1744],[-712,-22],[-310,530],[-1557,-2451],[-277,-88],[-67,-1633],[-242,-2053],[-436,-1258],[134,-839],[-452,-1236],[-737,-949],[-184,-1369],[-402,-287],[-938,-2847]],[[812570,274750],[1885,31146],[594,-243],[695,11390],[-243,861],[176,6291],[620,10286],[-59,22],[854,14237],[1164,4194],[1014,817],[-25,287],[535,2340],[344,2428],[1055,2914],[829,3885],[821,2737],[778,662],[2781,-8476],[2964,1479],[2027,1147],[16,-4591],[-25,-3774],[3166,-1524],[686,-640],[921,552],[1918,464],[268,463],[2579,-949],[553,-971],[2412,2627],[-394,1788],[276,706],[17,1302],[494,1104],[268,3156],[-586,1678],[486,7615],[-117,45],[-377,2648],[-84,2075],[42,1877],[-42,2648],[193,4261],[770,12228],[1692,-574],[401,398],[4447,-1457],[1013,463],[1633,-529],[-393,-3267],[2370,-861],[3751,-1236],[3534,-1192],[243,13045],[142,5254],[419,-155],[678,10861],[67,1699],[930,14767],[9454,-15672],[494,8057],[-243,88],[561,8653],[-837,309],[327,4614],[-118,375],[453,7262],[745,-265],[109,1810],[176,-44],[-361,3730],[-201,839],[101,1634],[1524,-530],[-151,-2428],[1240,-442],[58,972],[2404,-795],[75,1324],[1105,-485],[545,1412],[1959,-662],[117,1678],[-276,110],[143,2472],[586,-176],[176,2582],[-193,89],[427,7019],[1298,-463],[343,6070],[612,530],[1247,-442],[377,6092],[771,-264],[159,1567],[686,221],[871,573],[595,663],[-251,1280],[67,1059],[1030,4636],[-293,1192],[-143,3245],[-435,485],[-293,1258],[-260,0],[-226,1082],[-678,1302],[92,1435]],[[891714,500209],[351,-441],[637,243],[553,750],[318,-1346],[687,-1192],[284,66],[662,-1060],[201,-1125],[243,-155],[443,-1369],[411,23],[720,-1303],[829,-794],[611,728],[586,-508],[654,331],[477,-441],[620,22],[1055,728],[1139,1214],[670,1766],[745,-1015],[569,949],[277,-243],[628,839],[469,1920],[745,1479],[343,1325],[402,861],[34,1148],[3626,4039],[67,1236],[427,1214],[368,464],[151,2406],[-134,927],[92,1081],[335,1016],[-17,993],[386,1148],[787,1015],[511,1214],[301,1413],[17,1082],[636,2030],[143,23],[3215,-1038],[101,1656],[234,66],[151,2560],[611,927],[838,-176],[100,1589],[829,1435],[670,-2141],[377,-442],[1005,-353],[176,949],[460,949],[411,177],[251,795],[452,618],[-117,-2252],[1021,-309],[134,-2053],[-184,-1059],[34,-2274],[268,-1368],[284,-22],[260,-1192],[-101,-1281],[-703,22],[-377,-1765],[260,-1192],[-369,-1325],[-762,-1192],[-519,309],[-167,-1214],[-436,133],[-117,-1192],[326,-729],[319,530],[410,-309],[502,331],[260,-772],[1700,-552],[-645,-1855],[-151,-1015],[-301,-596],[352,-1170],[58,-3554],[-410,-1214],[-377,-485],[-100,-927],[-360,-199],[-168,-1898],[570,-221],[552,-1413],[561,-88],[1466,1810],[326,1126],[821,596],[477,1766],[545,-89],[569,773],[678,-464],[545,-883],[176,1325]],[[678133,713285],[737,508],[1281,-883],[268,-353],[1105,1104],[2220,-685],[5108,-2008],[2018,-552],[4396,-1258],[2119,9116],[645,1280],[594,-309],[494,1303],[620,1169],[17,663],[619,419],[143,1501],[820,1656],[654,331],[1314,2803],[402,-1457],[6750,-1986],[-544,-9227],[8231,-2406],[746,12780],[41,67],[5393,-1832],[1206,2428],[712,949],[184,662],[637,883],[879,750],[3651,4283],[1566,-7263],[1038,-5010],[427,-331],[972,3421],[-1441,6997],[386,1523],[1398,-1280],[519,1656],[360,507],[453,-44],[326,-728],[528,-287],[787,795],[419,1920],[-520,177],[151,2582],[302,-110],[954,-1899],[963,-22],[2747,1788],[318,1877],[561,-641],[277,1413],[577,-331],[252,397],[720,-1059],[368,-1060],[712,-1147],[377,-1678],[461,-177],[1063,89],[327,-331],[603,-2009],[527,-66],[486,662],[1382,132],[803,-1148],[1148,-1147],[695,-1722],[502,6887],[285,-508],[394,22],[334,817],[310,66],[118,-1545],[335,-309],[234,530],[352,5562],[2462,221],[444,1346],[117,1060],[351,1567],[193,-618],[444,331],[879,-3421],[1173,-1589],[1021,-905],[1022,684],[511,66],[460,905],[754,773],[402,1390],[167,0],[-8,2274],[-503,3267],[2756,-994],[552,67],[804,-530],[1106,-397],[535,-1281],[436,-176],[92,1589],[703,-22],[1290,-1744],[486,-44],[226,3885],[1080,-331],[3484,-2230],[377,-5474],[385,-640],[1273,-154],[820,640],[1541,220],[-167,1899],[510,993],[210,1214],[804,1192],[1097,265],[686,3289],[277,8233],[393,751],[-1038,8785],[84,1589],[-386,2561],[679,2229],[837,795],[519,8829],[-460,3334],[326,1081],[427,574],[3007,-1435],[167,-176],[963,-4901],[695,-1677],[1122,-1038],[587,-1037],[1139,817],[669,287],[603,-265],[687,485],[762,265],[1256,-1170],[494,-2031],[1742,-353],[3534,-1214],[117,-2693],[268,-1479],[419,-551],[-17,-685],[-594,-1744],[-17,-1147],[-377,-287],[-444,-1435],[-276,-2296],[536,-2340],[1231,-1434],[-118,-2693],[67,-2804],[235,-1346],[-561,-2119],[-804,-199],[-310,-1015],[-201,-1634],[1072,-3267],[-645,-507],[712,-2296],[1064,-1501],[117,-1435],[586,-750],[1365,-4371],[293,-1435],[-318,-1721],[-143,-1678],[-494,-1523],[-603,-817],[-134,-1390],[118,-1987],[444,-1589],[-9,-1921],[-368,-1898],[-92,-1324],[-888,-3135],[33,-1435],[319,-1766],[117,-1324],[-142,-1413],[753,-132],[745,-486],[955,-331],[1030,-2406],[444,-88],[494,927],[352,177],[770,-199],[1499,88],[561,-198],[285,-2097],[553,-1590],[326,-2273],[-142,-795],[620,-750],[234,-663],[-50,-839],[-377,-1346],[762,-4503],[4991,-1656],[4547,8168],[209,1479],[-33,971],[678,927],[528,-199],[536,-1501],[477,-287],[1449,685],[1038,-861],[1826,1346],[-51,-816],[486,-817],[394,-3532],[762,-2671],[-84,-1391],[544,-2207],[159,-2538],[461,-1325],[1390,-1766],[637,-551],[695,-243],[904,110],[687,662],[536,-2207],[418,-331],[494,-751],[285,-1125],[410,-243],[402,-971],[369,66],[753,-508],[352,-1324],[436,220],[477,707],[678,2031],[251,-530],[461,816],[586,-309],[151,-1258],[653,-2141],[-251,-2847],[67,-1038],[285,-794],[109,-1656],[-268,-1104],[-729,-1125],[-260,375],[-644,-287],[-1139,1722],[-427,1854],[-394,463],[-1440,-1986],[92,-2296],[-578,221],[-1382,-552],[-268,-2384],[-4229,-5033],[-376,640],[-411,111],[285,-14172],[4170,332],[5854,-1833],[-193,-2030],[-1072,-16114],[-511,-7615],[-3182,-18211],[9,-66],[8759,-2848],[2160,-750],[59,-420],[-402,-1103],[-17,-707],[394,-1236],[-327,-1413],[670,-2869],[545,-795],[268,-839],[653,-1280],[686,971],[436,-1103],[393,-44],[-58,-1943],[402,-1280],[527,-1170],[654,-464],[469,221],[644,1148],[687,-265],[-59,-1964],[76,-773],[603,-2031],[544,-883],[293,-2031],[586,-1523],[159,-971],[369,133],[385,1015],[251,-1391],[385,-220],[277,-1148],[-76,-530],[771,-1391],[594,-154],[235,-2097],[494,-331],[469,-1082],[444,-132],[284,-1744],[545,552],[519,-1523],[829,-1082],[1114,-3355],[100,-883],[-167,-2936],[-1281,-2273],[200,-177],[277,-1391],[645,-838],[979,-641],[84,-993],[-343,-1744],[276,-1501],[-326,-1766],[410,-816],[67,-2539],[151,-1214],[234,-44],[905,-1346],[510,-972],[821,-287],[1189,-860],[779,331],[184,728],[553,596],[511,-441],[360,-1369],[954,-110],[168,-817],[703,243],[419,-199],[-168,-1302],[34,-1634],[-142,-618],[75,-1214],[352,-1148],[-427,-1258],[209,-397],[419,-2185],[360,-221],[217,-1413],[428,-508],[293,155],[753,-2163],[76,-1347],[536,-905],[226,-1413],[335,-1214],[460,-375],[-42,-861],[310,-772],[84,-1987],[469,-2318],[368,199],[411,-486],[184,-882],[821,0],[108,-641],[629,-1015],[343,132],[854,-1854],[670,420],[737,-1766],[293,-89],[444,-1280]]],"transform":{"scale":[0.000011941611941611936,0.000004530304530304531],"translate":[140.9993,-29.1792]},"objects":{"qld_southern_ldmg_boundaries_gda2020_simp200m":{"type":"GeometryCollection","geometries":[{"arcs":[[0,1,2,3,4]],"type":"Polygon","properties":{"LGA Code":"300","Abbreviated Name":"Balonne","LGA Name":"Balonne Shire","Area Sq Km":31074.87,"LDMG Name":"Balonne","Source Area Sq Km":31074.95046,"Police Region Name":"Southern Region","Police Region Code":"SR","Police Region Short Name":"Southern","Region Slug":"southern","Layer Id":"qld_southern_ldmg_boundaries_gda2020_simp200m","Layer Group":"per-region","Layer Kind":"ldmg","Source":"Local government area boundaries - Queensland, Department of Natural Resources and Mines, Manufacturing and Regional and Rural Development; ASGS Edition 3 (2021) Local Government Areas, Australian Bureau of Statistics","Source URL":"https://www.data.qld.gov.au/dataset/local-government-area-boundaries-queensland","Licence":"CC BY 4.0","Licence URL":"https://creativecommons.org/licenses/by/4.0/","Dataset Date":"extract of 11/05/2026","Simplification Tolerance M":200,"Coordinate Precision Decimals":4,"CRS":"GDA2020 (EPSG:7844)","Modified":"Simplified and repackaged from the source dataset; see Source URL"},"id":"300"},{"arcs":[[5,6,7]],"type":"Polygon","properties":{"LGA Code":"1750","Abbreviated Name":"Bulloo","LGA Name":"Bulloo Shire","Area Sq Km":73234.53,"LDMG Name":"Bulloo","Source Area Sq Km":73234.89394,"Police Region Name":"Southern Region","Police Region Code":"SR","Police Region Short Name":"Southern","Region Slug":"southern","Layer Id":"qld_southern_ldmg_boundaries_gda2020_simp200m","Layer Group":"per-region","Layer Kind":"ldmg","Source":"Local government area boundaries - Queensland, Department of Natural Resources and Mines, Manufacturing and Regional and Rural Development; ASGS Edition 3 (2021) Local Government Areas, Australian Bureau of Statistics","Source URL":"https://www.data.qld.gov.au/dataset/local-government-area-boundaries-queensland","Licence":"CC BY 4.0","Licence URL":"https://creativecommons.org/licenses/by/4.0/","Dataset Date":"extract of 11/05/2026","Simplification Tolerance M":200,"Coordinate Precision Decimals":4,"CRS":"GDA2020 (EPSG:7844)","Modified":"Simplified and repackaged from the source dataset; see Source URL"},"id":"1750"},{"arcs":[[-2,8,9,10,11]],"type":"Polygon","properties":{"LGA Code":"3610","Abbreviated Name":"Goondiwindi","LGA Name":"Goondiwindi Regional","Area Sq Km":19281.48,"LDMG Name":"Goondiwindi","Source Area Sq Km":19280.68984,"Police Region Name":"Southern Region","Police Region Code":"SR","Police Region Short Name":"Southern","Region Slug":"southern","Layer Id":"qld_southern_ldmg_boundaries_gda2020_simp200m","Layer Group":"per-region","Layer Kind":"ldmg","Source":"Local government area boundaries - Queensland, Department of Natural Resources and Mines, Manufacturing and Regional and Rural Development; ASGS Edition 3 (2021) Local Government Areas, Australian Bureau of Statistics","Source URL":"https://www.data.qld.gov.au/dataset/local-government-area-boundaries-queensland","Licence":"CC BY 4.0","Licence URL":"https://creativecommons.org/licenses/by/4.0/","Dataset Date":"extract of 11/05/2026","Simplification Tolerance M":200,"Coordinate Precision Decimals":4,"CRS":"GDA2020 (EPSG:7844)","Modified":"Simplified and repackaged from the source dataset; see Source URL"},"id":"3610"},{"arcs":[[12,13,14]],"type":"Polygon","properties":{"LGA Code":"3960","Abbreviated Name":"Ipswich","LGA Name":"Ipswich City","Area Sq Km":1092.7,"LDMG Name":"Ipswich","Source Area Sq Km":1093.15869,"Police Region Name":"Southern Region","Police Region Code":"SR","Police Region Short Name":"Southern","Region Slug":"southern","Layer Id":"qld_southern_ldmg_boundaries_gda2020_simp200m","Layer Group":"per-region","Layer Kind":"ldmg","Source":"Local government area boundaries - Queensland, Department of Natural Resources and Mines, Manufacturing and Regional and Rural Development; ASGS Edition 3 (2021) Local Government Areas, Australian Bureau of Statistics","Source URL":"https://www.data.qld.gov.au/dataset/local-government-area-boundaries-queensland","Licence":"CC BY 4.0","Licence URL":"https://creativecommons.org/licenses/by/4.0/","Dataset Date":"extract of 11/05/2026","Simplification Tolerance M":200,"Coordinate Precision Decimals":4,"CRS":"GDA2020 (EPSG:7844)","Modified":"Simplified and repackaged from the source dataset; see Source URL"},"id":"3960"},{"arcs":[[-14,15,16,17,18]],"type":"Polygon","properties":{"LGA Code":"4580","Abbreviated Name":"Lockyer Valley","LGA Name":"Lockyer Valley Regional","Area Sq Km":2268.43,"LDMG Name":"Lockyer Valley","Source Area Sq Km":2269.27913,"Police Region Name":"Southern Region","Police Region Code":"SR","Police Region Short Name":"Southern","Region Slug":"southern","Layer Id":"qld_southern_ldmg_boundaries_gda2020_simp200m","Layer Group":"per-region","Layer Kind":"ldmg","Source":"Local government area boundaries - Queensland, Department of Natural Resources and Mines, Manufacturing and Regional and Rural Development; ASGS Edition 3 (2021) Local Government Areas, Australian Bureau of Statistics","Source URL":"https://www.data.qld.gov.au/dataset/local-government-area-boundaries-queensland","Licence":"CC BY 4.0","Licence URL":"https://creativecommons.org/licenses/by/4.0/","Dataset Date":"extract of 11/05/2026","Simplification Tolerance M":200,"Coordinate Precision Decimals":4,"CRS":"GDA2020 (EPSG:7844)","Modified":"Simplified and repackaged from the source dataset; see Source URL"},"id":"4580"},{"arcs":[[-5,19,20,21,22]],"type":"Polygon","properties":{"LGA Code":"4860","Abbreviated Name":"Maranoa","LGA Name":"Maranoa Regional","Area Sq Km":58713.27,"LDMG Name":"Maranoa","Source Area Sq Km":58712.43381,"Police Region Name":"Southern Region","Police Region Code":"SR","Police Region Short Name":"Southern","Region Slug":"southern","Layer Id":"qld_southern_ldmg_boundaries_gda2020_simp200m","Layer Group":"per-region","Layer Kind":"ldmg","Source":"Local government area boundaries - Queensland, Department of Natural Resources and Mines, Manufacturing and Regional and Rural Development; ASGS Edition 3 (2021) Local Government Areas, Australian Bureau of Statistics","Source URL":"https://www.data.qld.gov.au/dataset/local-government-area-boundaries-queensland","Licence":"CC BY 4.0","Licence URL":"https://creativecommons.org/licenses/by/4.0/","Dataset Date":"extract of 11/05/2026","Simplification Tolerance M":200,"Coordinate Precision Decimals":4,"CRS":"GDA2020 (EPSG:7844)","Modified":"Simplified and repackaged from the source dataset; see Source URL"},"id":"4860"},{"arcs":[[23,-21,24,25]],"type":"Polygon","properties":{"LGA Code":"5600","Abbreviated Name":"Murweh","LGA Name":"Murweh Shire","Area Sq Km":40698.46,"LDMG Name":"Murweh","Source Area Sq Km":40698.93007,"Police Region Name":"Southern Region","Police Region Code":"SR","Police Region Short Name":"Southern","Region Slug":"southern","Layer Id":"qld_southern_ldmg_boundaries_gda2020_simp200m","Layer Group":"per-region","Layer Kind":"ldmg","Source":"Local government area boundaries - Queensland, Department of Natural Resources and Mines, Manufacturing and Regional and Rural Development; ASGS Edition 3 (2021) Local Government Areas, Australian Bureau of Statistics","Source URL":"https://www.data.qld.gov.au/dataset/local-government-area-boundaries-queensland","Licence":"CC BY 4.0","Licence URL":"https://creativecommons.org/licenses/by/4.0/","Dataset Date":"extract of 11/05/2026","Simplification Tolerance M":200,"Coordinate Precision Decimals":4,"CRS":"GDA2020 (EPSG:7844)","Modified":"Simplified and repackaged from the source dataset; see Source URL"},"id":"5600"},{"arcs":[[-4,26,-7,27,-25,-20]],"type":"Polygon","properties":{"LGA Code":"5800","Abbreviated Name":"Paroo","LGA Name":"Paroo Shire","Area Sq Km":47628.77,"LDMG Name":"Paroo","Source Area Sq Km":47628.47582,"Police Region Name":"Southern Region","Police Region Code":"SR","Police Region Short Name":"Southern","Region Slug":"southern","Layer Id":"qld_southern_ldmg_boundaries_gda2020_simp200m","Layer Group":"per-region","Layer Kind":"ldmg","Source":"Local government area boundaries - Queensland, Department of Natural Resources and Mines, Manufacturing and Regional and Rural Development; ASGS Edition 3 (2021) Local Government Areas, Australian Bureau of Statistics","Source URL":"https://www.data.qld.gov.au/dataset/local-government-area-boundaries-queensland","Licence":"CC BY 4.0","Licence URL":"https://creativecommons.org/licenses/by/4.0/","Dataset Date":"extract of 11/05/2026","Simplification Tolerance M":200,"Coordinate Precision Decimals":4,"CRS":"GDA2020 (EPSG:7844)","Modified":"Simplified and repackaged from the source dataset; see Source URL"},"id":"5800"},{"arcs":[[28,-26,-28,-6]],"type":"Polygon","properties":{"LGA Code":"6150","Abbreviated Name":"Quilpie","LGA Name":"Quilpie Shire","Area Sq Km":67456.57,"LDMG Name":"Quilpie","Source Area Sq Km":67456.57279,"Police Region Name":"Southern Region","Police Region Code":"SR","Police Region Short Name":"Southern","Region Slug":"southern","Layer Id":"qld_southern_ldmg_boundaries_gda2020_simp200m","Layer Group":"per-region","Layer Kind":"ldmg","Source":"Local government area boundaries - Queensland, Department of Natural Resources and Mines, Manufacturing and Regional and Rural Development; ASGS Edition 3 (2021) Local Government Areas, Australian Bureau of Statistics","Source URL":"https://www.data.qld.gov.au/dataset/local-government-area-boundaries-queensland","Licence":"CC BY 4.0","Licence URL":"https://creativecommons.org/licenses/by/4.0/","Dataset Date":"extract of 11/05/2026","Simplification Tolerance M":200,"Coordinate Precision Decimals":4,"CRS":"GDA2020 (EPSG:7844)","Modified":"Simplified and repackaged from the source dataset; see Source URL"},"id":"6150"},{"arcs":[[-15,-19,29,30]],"type":"Polygon","properties":{"LGA Code":"6580","Abbreviated Name":"Somerset","LGA Name":"Somerset Regional","Area Sq Km":5373.87,"LDMG Name":"Somerset","Source Area Sq Km":5373.65012,"Police Region Name":"Southern Region","Police Region Code":"SR","Police Region Short Name":"Southern","Region Slug":"southern","Layer Id":"qld_southern_ldmg_boundaries_gda2020_simp200m","Layer Group":"per-region","Layer Kind":"ldmg","Source":"Local government area boundaries - Queensland, Department of Natural Resources and Mines, Manufacturing and Regional and Rural Development; ASGS Edition 3 (2021) Local Government Areas, Australian Bureau of Statistics","Source URL":"https://www.data.qld.gov.au/dataset/local-government-area-boundaries-queensland","Licence":"CC BY 4.0","Licence URL":"https://creativecommons.org/licenses/by/4.0/","Dataset Date":"extract of 11/05/2026","Simplification Tolerance M":200,"Coordinate Precision Decimals":4,"CRS":"GDA2020 (EPSG:7844)","Modified":"Simplified and repackaged from the source dataset; see Source URL"},"id":"6580"},{"arcs":[[-11,31,-17,32]],"type":"Polygon","properties":{"LGA Code":"6660","Abbreviated Name":"Southern Downs","LGA Name":"Southern Downs Regional","Area Sq Km":7089.04,"LDMG Name":"Southern Downs","Source Area Sq Km":7088.86614,"Police Region Name":"Southern Region","Police Region Code":"SR","Police Region Short Name":"Southern","Region Slug":"southern","Layer Id":"qld_southern_ldmg_boundaries_gda2020_simp200m","Layer Group":"per-region","Layer Kind":"ldmg","Source":"Local government area boundaries - Queensland, Department of Natural Resources and Mines, Manufacturing and Regional and Rural Development; ASGS Edition 3 (2021) Local Government Areas, Australian Bureau of Statistics","Source URL":"https://www.data.qld.gov.au/dataset/local-government-area-boundaries-queensland","Licence":"CC BY 4.0","Licence URL":"https://creativecommons.org/licenses/by/4.0/","Dataset Date":"extract of 11/05/2026","Simplification Tolerance M":200,"Coordinate Precision Decimals":4,"CRS":"GDA2020 (EPSG:7844)","Modified":"Simplified and repackaged from the source dataset; see Source URL"},"id":"6660"},{"arcs":[[-10,33,34,-30,-18,-32]],"type":"Polygon","properties":{"LGA Code":"6910","Abbreviated Name":"Toowoomba","LGA Name":"Toowoomba Regional","Area Sq Km":12976.45,"LDMG Name":"Toowoomba","Source Area Sq Km":12976.35649,"Police Region Name":"Southern Region","Police Region Code":"SR","Police Region Short Name":"Southern","Region Slug":"southern","Layer Id":"qld_southern_ldmg_boundaries_gda2020_simp200m","Layer Group":"per-region","Layer Kind":"ldmg","Source":"Local government area boundaries - Queensland, Department of Natural Resources and Mines, Manufacturing and Regional and Rural Development; ASGS Edition 3 (2021) Local Government Areas, Australian Bureau of Statistics","Source URL":"https://www.data.qld.gov.au/dataset/local-government-area-boundaries-queensland","Licence":"CC BY 4.0","Licence URL":"https://creativecommons.org/licenses/by/4.0/","Dataset Date":"extract of 11/05/2026","Simplification Tolerance M":200,"Coordinate Precision Decimals":4,"CRS":"GDA2020 (EPSG:7844)","Modified":"Simplified and repackaged from the source dataset; see Source URL"},"id":"6910"},{"arcs":[[-1,-23,35,-34,-9]],"type":"Polygon","properties":{"LGA Code":"7310","Abbreviated Name":"Western Downs","LGA Name":"Western Downs Regional","Area Sq Km":37942.35,"LDMG Name":"Western Downs","Source Area Sq Km":37943.32474,"Police Region Name":"Southern Region","Police Region Code":"SR","Police Region Short Name":"Southern","Region Slug":"southern","Layer Id":"qld_southern_ldmg_boundaries_gda2020_simp200m","Layer Group":"per-region","Layer Kind":"ldmg","Source":"Local government area boundaries - Queensland, Department of Natural Resources and Mines, Manufacturing and Regional and Rural Development; ASGS Edition 3 (2021) Local Government Areas, Australian Bureau of Statistics","Source URL":"https://www.data.qld.gov.au/dataset/local-government-area-boundaries-queensland","Licence":"CC BY 4.0","Licence URL":"https://creativecommons.org/licenses/by/4.0/","Dataset Date":"extract of 11/05/2026","Simplification Tolerance M":200,"Coordinate Precision Decimals":4,"CRS":"GDA2020 (EPSG:7844)","Modified":"Simplified and repackaged from the source dataset; see Source URL"},"id":"7310"}]}}}