{"type":"FeatureCollection","name":"qld_northern_ddmg_boundaries_gda2020_simp200m","crs":{"type":"name","properties":{"name":"urn:ogc:def:crs:EPSG::7844"}},"features":[{"type":"Feature","properties":{"District Name":"Mount Isa","DDMG Name":"Mount Isa","Area Sq Km":394919.64,"Police Region Name":"Northern Region","Police Region Code":"NR","Police Region Short Name":"Northern","Region Slug":"northern","Layer Id":"qld_northern_ddmg_boundaries_gda2020_simp200m","Layer Group":"per-region","Layer Kind":"ddmg","Source":"QPS Disaster Districts, Queensland Police Service, via the Queensland Government Open Data Portal","Source URL":"https://www.data.qld.gov.au/dataset/qps-disaster-districts","Licence":"CC BY 4.0","Licence URL":"https://creativecommons.org/licenses/by/4.0/","Dataset Date":"19/05/2025","Simplification Tolerance M":200,"Coordinate Precision Decimals":4,"CRS":"GDA2020 (EPSG:7844)","Modified":"Simplified and repackaged from the source dataset; see Source URL"},"geometry":{"type":"MultiPolygon","coordinates":[[[[141.4848,-15.4992],[141.4796,-15.5053],[141.4731,-15.5217],[141.4682,-15.5372],[141.4562,-15.5821],[141.4518,-15.6015],[141.4412,-15.645],[141.4362,-15.6612],[141.4355,-15.6684],[141.4305,-15.6952],[141.4265,-15.7119],[141.4253,-15.7198],[141.4234,-15.7396],[141.4203,-15.7834],[141.4199,-15.7931],[141.416,-15.8313],[141.4126,-15.8553],[141.4085,-15.8715],[141.4012,-15.8895],[141.3947,-15.9013],[141.3947,-15.9038],[141.3906,-15.9123],[141.3843,-15.9154],[141.3792,-15.9196],[141.38,-15.9257],[141.3877,-15.9454],[141.3934,-15.9641],[141.3942,-15.9693],[141.4035,-15.9985],[141.4106,-16.0244],[141.4162,-16.035],[141.4194,-16.0439],[141.4306,-16.0618],[141.433,-16.0727],[141.4306,-16.0834],[141.4237,-16.0997],[141.4096,-16.1271],[141.4006,-16.1433],[141.3906,-16.157],[141.3818,-16.1716],[141.3541,-16.2134],[141.3481,-16.2261],[141.3459,-16.2357],[141.3485,-16.2429],[141.3462,-16.257],[141.3425,-16.2755],[141.3368,-16.2892],[141.3366,-16.2931],[141.3266,-16.3242],[141.3268,-16.3278],[141.3211,-16.3456],[141.3184,-16.3524],[141.3129,-16.3608],[141.3063,-16.3745],[141.3009,-16.3831],[141.2995,-16.3934],[141.2906,-16.4008],[141.2882,-16.4082],[141.288,-16.4216],[141.2911,-16.4274],[141.3001,-16.4372],[141.3057,-16.4491],[141.3078,-16.4651],[141.307,-16.4735],[141.3044,-16.4843],[141.2931,-16.5046],[141.2896,-16.5133],[141.2827,-16.5277],[141.2746,-16.5433],[141.2743,-16.5528],[141.2699,-16.5603],[141.2659,-16.5534],[141.2599,-16.5527],[141.2536,-16.5552],[141.2501,-16.5592],[141.2439,-16.5724],[141.2439,-16.5753],[141.2385,-16.5804],[141.2358,-16.5869],[141.2346,-16.5981],[141.2312,-16.6082],[141.2271,-16.6252],[141.2233,-16.6521],[141.218,-16.6667],[141.2042,-16.6921],[141.2003,-16.6954],[141.1937,-16.7063],[141.1811,-16.7245],[141.1734,-16.7338],[141.154,-16.7555],[141.1433,-16.7666],[141.12,-16.787],[141.1107,-16.7939],[141.1011,-16.7988],[141.0965,-16.8001],[141.0901,-16.7989],[141.0906,-16.8028],[141.0972,-16.8025],[141.0967,-16.8078],[141.0914,-16.8088],[141.0848,-16.8059],[141.0823,-16.807],[141.078,-16.8196],[141.0767,-16.8418],[141.0737,-16.8513],[141.0684,-16.863],[141.0527,-16.8882],[141.0424,-16.9029],[141.0199,-16.9304],[141.01,-16.941],[141.0009,-16.9498],[140.9842,-16.9631],[140.9742,-16.9731],[140.9643,-16.9912],[140.9589,-16.9985],[140.9527,-17.0144],[140.9495,-17.0256],[140.9462,-17.0422],[140.948,-17.0485],[140.9515,-17.0507],[140.9501,-17.0628],[140.9537,-17.0745],[140.956,-17.0904],[140.953,-17.0973],[140.9554,-17.1006],[140.9553,-17.1049],[140.9489,-17.1448],[140.9502,-17.1518],[140.9472,-17.1556],[140.9394,-17.1745],[140.9395,-17.1866],[140.9317,-17.1902],[140.9242,-17.2012],[140.9236,-17.2077],[140.9256,-17.21],[140.9236,-17.2152],[140.9172,-17.225],[140.9138,-17.2323],[140.9104,-17.2504],[140.91,-17.2596],[140.9077,-17.278],[140.9051,-17.2798],[140.905,-17.2914],[140.9005,-17.3045],[140.8992,-17.3141],[140.8995,-17.3236],[140.8937,-17.343],[140.8935,-17.3494],[140.8895,-17.3602],[140.8884,-17.3679],[140.8841,-17.3748],[140.8836,-17.3818],[140.8749,-17.3926],[140.8727,-17.3937],[140.8633,-17.4062],[140.8618,-17.4096],[140.8516,-17.4231],[140.8462,-17.4369],[140.8345,-17.4482],[140.8274,-17.458],[140.8142,-17.4646],[140.8094,-17.4649],[140.7902,-17.4729],[140.7701,-17.478],[140.7701,-17.4819],[140.7594,-17.4877],[140.7442,-17.5018],[140.7403,-17.5105],[140.7372,-17.5146],[140.7333,-17.5161],[140.7292,-17.5134],[140.7235,-17.5136],[140.7133,-17.5092],[140.7109,-17.5096],[140.7064,-17.515],[140.7011,-17.518],[140.6926,-17.5197],[140.685,-17.5252],[140.6799,-17.5272],[140.6776,-17.5319],[140.6644,-17.5425],[140.6577,-17.5503],[140.6411,-17.566],[140.619,-17.5811],[140.6083,-17.5871],[140.6032,-17.5911],[140.5981,-17.5924],[140.5897,-17.5984],[140.5835,-17.5983],[140.5723,-17.6022],[140.5661,-17.6027],[140.5598,-17.6057],[140.5447,-17.6191],[140.5255,-17.63],[140.5067,-17.6365],[140.4875,-17.6424],[140.461,-17.6458],[140.4567,-17.6428],[140.4518,-17.6421],[140.4463,-17.646],[140.4345,-17.6498],[140.4264,-17.657],[140.4083,-17.666],[140.3884,-17.6751],[140.3665,-17.68],[140.3507,-17.6855],[140.3298,-17.6879],[140.3111,-17.6888],[140.3062,-17.6904],[140.2883,-17.694],[140.2834,-17.6956],[140.2775,-17.6951],[140.2685,-17.6962],[140.2628,-17.6985],[140.2557,-17.6973],[140.2489,-17.6981],[140.2288,-17.7029],[140.2167,-17.7077],[140.2101,-17.7035],[140.2046,-17.7031],[140.1892,-17.7059],[140.1831,-17.7082],[140.1737,-17.7086],[140.1618,-17.7116],[140.1597,-17.7137],[140.155,-17.712],[140.1421,-17.7141],[140.1238,-17.7189],[140.0899,-17.7232],[140.0448,-17.7223],[140.0305,-17.7213],[140.0068,-17.7162],[139.9926,-17.7119],[139.9825,-17.7062],[139.9728,-17.6997],[139.9577,-17.687],[139.9447,-17.6724],[139.9402,-17.6647],[139.9381,-17.659],[139.9386,-17.648],[139.935,-17.6456],[139.9444,-17.6409],[139.9422,-17.6351],[139.9353,-17.6297],[139.9209,-17.6225],[139.9073,-17.6181],[139.903,-17.6176],[139.8817,-17.611],[139.8475,-17.5962],[139.8437,-17.5958],[139.8417,-17.6015],[139.8454,-17.6052],[139.8338,-17.6054],[139.8341,-17.5967],[139.8392,-17.5922],[139.839,-17.588],[139.828,-17.578],[139.8264,-17.5735],[139.8189,-17.5695],[139.8097,-17.5738],[139.8014,-17.5724],[139.796,-17.5791],[139.7916,-17.5798],[139.7851,-17.5751],[139.7725,-17.5738],[139.7521,-17.5774],[139.7541,-17.5714],[139.7522,-17.5671],[139.7478,-17.5696],[139.7429,-17.569],[139.7383,-17.564],[139.7346,-17.5627],[139.731,-17.5573],[139.7198,-17.5528],[139.714,-17.5555],[139.7078,-17.5551],[139.7074,-17.5505],[139.6978,-17.5507],[139.6962,-17.5494],[139.6781,-17.5456],[139.6712,-17.5458],[139.6546,-17.5404],[139.6462,-17.5396],[139.6385,-17.5338],[139.6336,-17.5286],[139.6182,-17.5221],[139.6113,-17.5157],[139.6085,-17.5104],[139.6032,-17.5113],[139.6037,-17.5073],[139.5988,-17.5031],[139.5958,-17.4975],[139.5916,-17.4861],[139.5853,-17.4815],[139.5803,-17.4795],[139.575,-17.4807],[139.5699,-17.4772],[139.5661,-17.4781],[139.5634,-17.4746],[139.5529,-17.472],[139.5401,-17.4647],[139.5442,-17.4628],[139.5513,-17.4626],[139.5496,-17.4584],[139.5397,-17.448],[139.5317,-17.4406],[139.516,-17.4335],[139.5071,-17.4287],[139.4957,-17.417],[139.4771,-17.4041],[139.4636,-17.3982],[139.4495,-17.3951],[139.4417,-17.3888],[139.4222,-17.379],[139.4159,-17.3752],[139.4073,-17.3735],[139.3879,-17.3735],[139.3738,-17.3752],[139.361,-17.3756],[139.3499,-17.3751],[139.3386,-17.3756],[139.3339,-17.3718],[139.3193,-17.3663],[139.3083,-17.3641],[139.2968,-17.357],[139.2886,-17.3532],[139.2848,-17.3529],[139.2826,-17.3496],[139.2544,-17.3332],[139.2417,-17.3248],[139.2373,-17.3226],[139.2209,-17.307],[139.2166,-17.304],[139.2074,-17.2882],[139.2039,-17.285],[139.2014,-17.2719],[139.1961,-17.2601],[139.1879,-17.2462],[139.1825,-17.2321],[139.1739,-17.2162],[139.1691,-17.2041],[139.1671,-17.203],[139.1664,-17.1967],[139.1599,-17.1841],[139.1597,-17.1792],[139.1558,-17.1708],[139.1534,-17.1477],[139.151,-17.1339],[139.1486,-17.1281],[139.1483,-17.1219],[139.1461,-17.117],[139.1454,-17.1111],[139.1405,-17.0945],[139.1396,-17.0879],[139.1401,-17.0766],[139.1436,-17.0604],[139.1462,-17.0526],[139.1525,-17.0422],[139.1562,-17.03],[139.1475,-17.0253],[139.1402,-17.024],[139.1153,-17.0168],[139.1061,-17.0115],[139.0957,-17.0067],[139.0921,-17.0069],[139.0788,-16.991],[139.0696,-16.9728],[139.0454,-16.9563],[139.0386,-16.9479],[139.0342,-16.9377],[139.0334,-16.9305],[139.0312,-16.9285],[139.035,-16.9219],[139.0385,-16.9194],[139.0378,-16.9133],[139.0305,-16.9115],[139.0249,-16.9088],[139.0091,-16.8985],[139.0032,-16.8967],[138.9988,-16.9014],[138.9928,-16.8951],[138.9836,-16.8927],[138.9817,-16.8901],[138.9628,-16.8887],[138.9488,-16.8871],[138.9292,-16.8839],[138.9225,-16.8813],[138.9097,-16.8777],[138.889,-16.8791],[138.8819,-16.8781],[138.8716,-16.8754],[138.8471,-16.87],[138.8365,-16.8653],[138.8296,-16.8608],[138.8252,-16.8548],[138.8201,-16.8528],[138.8078,-16.8501],[138.7868,-16.8447],[138.7739,-16.8402],[138.7584,-16.833],[138.7528,-16.8277],[138.7365,-16.821],[138.7312,-16.8204],[138.728,-16.8169],[138.7124,-16.8125],[138.6906,-16.8049],[138.6701,-16.7953],[138.6643,-16.791],[138.655,-16.7794],[138.6508,-16.7761],[138.6377,-16.7723],[138.6338,-16.7721],[138.6291,-16.7691],[138.6262,-16.7713],[138.6093,-16.774],[138.6008,-16.7747],[138.5837,-16.7781],[138.5821,-16.7794],[138.5742,-16.7779],[138.5404,-16.7803],[138.5372,-16.7846],[138.5289,-16.7823],[138.5105,-16.782],[138.4911,-16.7798],[138.4866,-16.7808],[138.4845,-16.7844],[138.4771,-16.7837],[138.4644,-16.7785],[138.4589,-16.7782],[138.4536,-16.7729],[138.446,-16.7721],[138.4361,-16.7727],[138.4306,-16.7746],[138.4252,-16.7746],[138.4131,-16.7683],[138.4014,-16.7591],[138.3871,-16.7516],[138.3668,-16.7427],[138.3615,-16.7413],[138.3305,-16.7406],[138.33,-16.7447],[138.3195,-16.7476],[138.3145,-16.7438],[138.2971,-16.7387],[138.2881,-16.7338],[138.2734,-16.7209],[138.2677,-16.7189],[138.2394,-16.7126],[138.2249,-16.7086],[138.2056,-16.7019],[138.1954,-16.6976],[138.1795,-16.6897],[138.1698,-16.684],[138.1621,-16.6784],[138.1561,-16.68],[138.1571,-16.673],[138.1529,-16.6694],[138.1431,-16.6652],[138.1282,-16.6558],[138.115,-16.6484],[138.109,-16.642],[138.0956,-16.6304],[138.0856,-16.6203],[138.0811,-16.6204],[138.0813,-16.6156],[138.079,-16.6129],[138.06,-16.6006],[138.0505,-16.5832],[138.0441,-16.5761],[138.0391,-16.573],[138.0293,-16.5695],[138.0281,-16.5641],[138.0173,-16.5551],[138.0042,-16.5475],[137.9947,-16.5387],[137.9947,-16.6952],[137.9948,-16.8407],[137.9949,-16.9861],[137.995,-17.1315],[137.995,-17.2137],[137.995,-17.4508],[137.9953,-17.6563],[137.9954,-17.7858],[137.9955,-17.9311],[137.9956,-18.0765],[137.9956,-18.2073],[137.9957,-18.3964],[137.9957,-18.4837],[137.9958,-18.6174],[137.9959,-18.658],[137.996,-18.8034],[137.9961,-18.9487],[137.9962,-19.0602],[137.996,-19.1567],[137.996,-19.2395],[137.996,-19.3849],[137.9961,-19.5304],[137.9962,-19.6758],[137.9963,-19.7485],[137.9963,-19.894],[137.9964,-20.0394],[137.9965,-20.1848],[137.9966,-20.3302],[137.9967,-20.4756],[137.9968,-20.621],[137.9968,-20.7564],[137.9969,-20.839],[137.997,-20.9844],[137.997,-21.1298],[137.9971,-21.2751],[137.9972,-21.3478],[137.9972,-21.4932],[137.9974,-21.6385],[137.9975,-21.7693],[137.9976,-21.9094],[137.9976,-22.0019],[137.9977,-22.1472],[137.9978,-22.2893],[137.9979,-22.3797],[137.9979,-22.4523],[137.998,-22.5831],[137.998,-22.6557],[137.998,-22.7863],[137.9981,-22.8735],[137.9983,-22.9985],[137.9983,-23.0624],[137.9984,-23.1641],[137.9985,-23.3094],[137.9985,-23.4547],[137.9986,-23.5273],[137.9987,-23.6726],[137.9987,-23.7469],[137.9988,-23.8906],[137.9988,-24.0358],[137.9988,-24.1811],[137.9988,-24.3264],[137.9988,-24.399],[137.9988,-24.5443],[137.9989,-24.6169],[137.9989,-24.7622],[137.9989,-24.8348],[137.9989,-24.98],[137.9989,-25.1253],[137.9989,-25.2705],[137.9989,-25.4158],[137.9989,-25.561],[137.9989,-25.6336],[137.999,-25.7789],[137.999,-25.9242],[137.9991,-25.9968],[138.1059,-25.9968],[138.2666,-25.9968],[138.4272,-25.9968],[138.5879,-25.9968],[138.7486,-25.9967],[138.9093,-25.9967],[139.07,-25.9967],[139.2085,-25.9966],[139.3111,-25.9966],[139.3915,-25.9966],[139.4718,-25.9967],[139.5523,-25.9966],[139.6327,-25.9966],[139.7934,-25.9965],[139.8738,-25.9965],[140.0346,-25.9965],[140.115,-25.9965],[140.2758,-25.9965],[140.4366,-25.9965],[140.5974,-25.9965],[140.7582,-25.9964],[140.9096,-25.9964],[140.9255,-25.838],[140.9377,-25.716],[140.9209,-25.7146],[140.9228,-25.6805],[140.8969,-25.6789],[140.9115,-25.5246],[140.881,-25.4675],[140.8755,-25.4704],[140.8748,-25.4732],[140.8675,-25.476],[140.8599,-25.4833],[140.8446,-25.4881],[140.8372,-25.4948],[140.8389,-25.4982],[140.8343,-25.5087],[140.8253,-25.5249],[140.775,-25.4743],[140.6779,-25.4666],[140.6864,-25.3785],[140.7012,-25.21],[140.7148,-25.2138],[140.8571,-25.2261],[140.8701,-25.087],[140.879,-24.9926],[140.8024,-24.9862],[140.8051,-24.9481],[140.811,-24.8407],[140.8722,-24.845],[140.8831,-24.6982],[140.8367,-24.6946],[140.8387,-24.6689],[140.9616,-24.6735],[141.0845,-24.6742],[141.2425,-24.686],[141.2389,-24.7251],[141.3611,-24.6291],[141.3755,-24.4829],[141.4301,-24.4835],[141.518,-24.5776],[141.5233,-24.5793],[141.5231,-24.5836],[141.7083,-24.631],[141.7311,-24.6367],[141.7345,-24.6335],[141.7461,-24.631],[141.7631,-24.6332],[141.77,-24.6296],[141.7733,-24.625],[141.7886,-24.6219],[141.7943,-24.623],[141.7969,-24.621],[141.8115,-24.6192],[141.8225,-24.6122],[141.8295,-24.6037],[141.8396,-24.5984],[141.843,-24.5943],[141.8544,-24.5882],[141.8582,-24.5853],[141.8605,-24.5791],[141.8678,-24.5731],[141.8731,-24.564],[141.8787,-24.56],[141.893,-24.5581],[141.9014,-24.556],[141.9083,-24.5494],[141.9156,-24.5451],[141.924,-24.5417],[141.9305,-24.5375],[141.9363,-24.5384],[141.9484,-24.5364],[141.956,-24.5341],[141.9647,-24.5281],[141.9671,-24.5228],[141.9705,-24.5199],[141.8636,-24.4031],[141.93,-24.3526],[141.9221,-24.3433],[141.9647,-24.3108],[141.9314,-24.2785],[141.8465,-24.195],[141.8058,-24.1548],[141.9193,-24.0574],[142.0238,-24.1677],[142.0527,-24.1334],[142.1005,-24.0952],[142.1118,-23.9946],[142.1214,-23.9096],[142.1351,-23.7889],[142.1429,-23.7179],[142.145,-23.7008],[142.0058,-23.6939],[141.9892,-23.6924],[141.9879,-23.7063],[141.8288,-23.6918],[141.6804,-23.6909],[141.6794,-23.7055],[141.6038,-23.6975],[141.531,-23.6894],[141.4558,-23.6048],[141.3882,-23.5334],[141.3926,-23.5299],[141.3842,-23.5264],[141.377,-23.5276],[141.306,-23.4514],[141.3003,-23.4473],[141.2967,-23.4416],[141.2613,-23.4043],[141.2414,-23.3854],[141.1551,-23.2908],[141.0472,-23.375],[141.0338,-23.3841],[141.0314,-23.3838],[141.0019,-23.3529],[140.9751,-23.3251],[140.9441,-23.2911],[140.8294,-23.1702],[140.8222,-23.1615],[140.947,-23.0678],[140.9402,-23.06],[140.9246,-23.0444],[140.9792,-22.9998],[141.0464,-22.9476],[141.0227,-22.9233],[140.9892,-22.9132],[140.988,-22.9122],[140.9899,-22.9],[140.9991,-22.8984],[141.1223,-22.8045],[141.1145,-22.7745],[141.1204,-22.7522],[141.1229,-22.7492],[141.1173,-22.7027],[141.104,-22.6918],[141.1028,-22.6901],[141.0949,-22.6419],[141.0919,-22.6372],[141.0896,-22.6282],[141.0909,-22.6182],[141.099,-22.6183],[141.1339,-22.6213],[141.1456,-22.6333],[141.1989,-22.5975],[141.1305,-22.5214],[141.0797,-22.4656],[141.1533,-22.4076],[141.2457,-22.3354],[141.2537,-22.3216],[141.2285,-22.2979],[141.1827,-22.2494],[141.1986,-22.0552],[141.2943,-22.0619],[141.2937,-22.054],[141.2902,-22.0451],[141.2914,-22.0324],[141.2886,-22.0263],[141.2908,-22.0239],[141.2842,-22.01],[141.2846,-21.9888],[141.2884,-21.9839],[141.2903,-21.978],[141.3097,-21.9397],[141.4833,-21.9472],[141.5081,-21.752],[141.5826,-21.7581],[141.5792,-21.7943],[141.7389,-21.8072],[141.7404,-21.7914],[141.9392,-21.8072],[142.0483,-21.8158],[142.0574,-21.7548],[142.0661,-21.6977],[142.0675,-21.6535],[142.0692,-21.6104],[142.0645,-21.6084],[142.0647,-21.6043],[142.0694,-21.6047],[142.0709,-21.5632],[142.072,-21.5407],[142.0737,-21.5233],[142.0383,-21.5201],[142.0803,-21.4883],[142.0917,-21.3826],[142.064,-21.3799],[142.1377,-21.3235],[142.0473,-21.2243],[142.0577,-21.2165],[142.1577,-21.2347],[142.2499,-21.2362],[142.2553,-21.1697],[142.2224,-21.1674],[142.2316,-21.0701],[142.2324,-21.0703],[142.2378,-21.0141],[142.1991,-21.0108],[142.2031,-20.9875],[142.2919,-20.9949],[142.2956,-20.9526],[142.3019,-20.8842],[142.3209,-20.8862],[142.331,-20.7941],[142.3549,-20.7964],[142.3634,-20.7199],[142.3099,-20.7147],[142.3347,-20.6651],[142.3391,-20.6656],[142.3449,-20.6006],[142.3411,-20.6003],[142.3424,-20.5857],[142.3445,-20.5712],[142.3472,-20.5715],[142.3616,-20.5685],[142.3738,-20.4397],[142.3707,-20.4395],[142.3806,-20.334],[142.3358,-20.3303],[142.347,-20.2115],[142.3539,-20.1382],[142.3609,-20.0626],[142.3689,-19.9755],[142.3794,-19.8617],[142.3493,-19.8592],[142.363,-19.7255],[142.3752,-19.5999],[142.6022,-19.62],[142.6096,-19.5478],[142.5921,-19.5466],[142.6048,-19.4032],[142.5611,-19.4002],[142.3967,-19.3884],[142.3953,-19.4023],[142.3744,-19.4004],[142.3831,-19.3114],[142.4007,-19.1265],[142.3538,-19.1226],[142.3523,-19.1475],[142.2364,-19.136],[142.2351,-19.1495],[142.1594,-19.142],[142.1766,-18.9721],[142.1291,-18.9695],[142.1267,-18.9934],[141.9415,-18.9784],[141.9311,-19.0896],[141.7711,-19.0782],[141.7622,-19.1918],[141.7532,-19.1932],[141.7445,-19.1917],[141.7391,-19.1851],[141.7345,-19.184],[141.729,-19.179],[141.7155,-19.1791],[141.709,-19.1727],[141.7042,-19.1707],[141.6965,-19.1596],[141.6904,-19.1561],[141.6861,-19.1572],[141.6787,-19.1555],[141.669,-19.1591],[141.6583,-19.1571],[141.6439,-19.1572],[141.6396,-19.1547],[141.6359,-19.1557],[141.6285,-19.1506],[141.6237,-19.1505],[141.6214,-19.1459],[141.6153,-19.1427],[141.6167,-19.1384],[141.6128,-19.1378],[141.6112,-19.13],[141.6132,-19.1242],[141.61,-19.1212],[141.6089,-19.1134],[141.6201,-19.1146],[141.6362,-18.9671],[141.6682,-18.9697],[141.6814,-18.8263],[141.692,-18.7136],[141.6224,-18.7076],[141.5581,-18.7008],[141.364,-18.6814],[141.37,-18.6255],[141.315,-18.6204],[141.2992,-18.6098],[141.3028,-18.6055],[141.3016,-18.6022],[141.3022,-18.5952],[141.2999,-18.5887],[141.2946,-18.5852],[141.2921,-18.5779],[141.2936,-18.5752],[141.2917,-18.5666],[141.2967,-18.5659],[141.3003,-18.5633],[141.2987,-18.5565],[141.2923,-18.5486],[141.2881,-18.5464],[141.2882,-18.5412],[141.2855,-18.53],[141.2862,-18.5229],[141.2837,-18.5187],[141.2856,-18.5149],[141.2848,-18.5054],[141.2904,-18.5002],[141.2977,-18.4996],[141.2993,-18.4929],[141.2929,-18.4851],[141.2929,-18.48],[141.2986,-18.4755],[141.2938,-18.4676],[141.2965,-18.4634],[141.2961,-18.4585],[141.301,-18.4557],[141.3008,-18.4503],[141.3048,-18.4478],[141.3013,-18.4375],[141.3026,-18.4295],[141.3007,-18.4265],[141.2924,-18.4251],[141.2894,-18.4215],[141.2806,-18.416],[141.2839,-18.4096],[141.2825,-18.4052],[141.2838,-18.3982],[141.2815,-18.3912],[141.2748,-18.3887],[141.2694,-18.3821],[141.2674,-18.3778],[141.2661,-18.3688],[141.2618,-18.3653],[141.2545,-18.364],[141.2499,-18.3537],[141.2498,-18.3505],[141.2419,-18.3464],[141.2384,-18.3368],[141.2229,-18.3285],[141.2233,-18.3246],[141.2207,-18.3165],[141.2175,-18.3145],[141.22,-18.3097],[141.2183,-18.302],[141.2199,-18.2951],[141.2125,-18.2884],[141.2108,-18.2826],[141.2131,-18.2794],[141.2108,-18.2748],[141.2114,-18.2703],[141.2094,-18.2628],[141.205,-18.2596],[141.2047,-18.2554],[141.2015,-18.2528],[141.1937,-18.2536],[141.1894,-18.2464],[141.1906,-18.2385],[141.1897,-18.2323],[141.1866,-18.23],[141.1869,-18.2247],[141.181,-18.2158],[141.1801,-18.2119],[141.17,-18.2071],[141.1666,-18.2037],[141.1627,-18.2046],[141.1575,-18.196],[141.1473,-18.1929],[141.1445,-18.1956],[141.137,-18.1889],[141.1379,-18.1797],[141.1433,-18.1695],[141.144,-18.1648],[141.1432,-18.1571],[141.1394,-18.1495],[141.1389,-18.145],[141.1349,-18.1377],[141.1359,-18.132],[141.1341,-18.1253],[141.1363,-18.1223],[141.1405,-18.1127],[141.1468,-18.1104],[141.1921,-18.1133],[141.1999,-18.0154],[141.2838,-18.0232],[141.2817,-18.0467],[141.3952,-18.0571],[141.4002,-18.004],[141.3951,-18.004],[141.3883,-18.0066],[141.3921,-17.9479],[141.3931,-17.9348],[141.4661,-17.939],[141.4682,-17.9104],[141.3044,-17.8989],[141.3169,-17.7367],[141.3283,-17.7332],[141.3388,-17.7445],[141.348,-17.7432],[141.3574,-17.7441],[141.3596,-17.7465],[141.3593,-17.7544],[141.3621,-17.7555],[141.3744,-17.7521],[141.3829,-17.7514],[141.3934,-17.7532],[141.3986,-17.7569],[141.4041,-17.7633],[141.4134,-17.7616],[141.4219,-17.7557],[141.433,-17.7493],[141.4383,-17.6798],[141.3782,-17.6766],[141.3822,-17.608],[141.4066,-17.6099],[141.4137,-17.5348],[141.4223,-17.4438],[141.5727,-17.4584],[141.5764,-17.4204],[141.7287,-17.4329],[141.7256,-17.4695],[141.8367,-17.4825],[141.7853,-17.4224],[141.8909,-17.3364],[141.8977,-17.3307],[142.0123,-17.4712],[142.0578,-17.4343],[142.1784,-17.5662],[142.2677,-17.4918],[142.2679,-17.4873],[142.263,-17.4806],[142.259,-17.4712],[142.2525,-17.4658],[142.2514,-17.4628],[142.2447,-17.4579],[142.2386,-17.4574],[142.2296,-17.4517],[142.2254,-17.4456],[142.2172,-17.4418],[142.206,-17.4423],[142.1933,-17.4405],[142.1843,-17.4379],[142.175,-17.4324],[142.3406,-17.2862],[142.4016,-17.3553],[142.5011,-17.2267],[142.5407,-17.1755],[142.5351,-17.1768],[142.522,-17.1752],[142.5196,-17.1717],[142.513,-17.1704],[142.5083,-17.1621],[142.5053,-17.1605],[142.4936,-17.1489],[142.487,-17.1458],[142.4859,-17.1423],[142.4742,-17.1365],[142.4673,-17.129],[142.4667,-17.1262],[142.4617,-17.1223],[142.4623,-17.1182],[142.4588,-17.1161],[142.4559,-17.1083],[142.4513,-17.1058],[142.4452,-17.105],[142.4402,-17.1012],[142.4359,-17.1008],[142.4287,-17.096],[142.4275,-17.0923],[142.4214,-17.0874],[142.508,-16.9721],[142.5231,-16.8114],[142.5467,-16.5577],[142.5795,-16.3141],[142.5961,-16.1907],[142.6372,-16.1324],[142.699,-16.1732],[142.7422,-16.112],[142.7423,-16.1095],[142.7346,-16.1025],[142.7225,-16.0891],[142.711,-16.0794],[142.7061,-16.074],[142.6986,-16.0704],[142.6884,-16.0704],[142.6801,-16.0695],[142.6718,-16.0665],[142.6603,-16.0608],[142.6488,-16.0501],[142.6412,-16.038],[142.6365,-16.0279],[142.6309,-16.0206],[142.622,-16.0169],[142.6305,-15.9545],[142.6958,-15.8965],[142.7063,-15.7477],[142.7701,-15.7524],[142.7798,-15.6131],[142.8904,-15.6196],[142.9031,-15.4747],[142.9596,-15.4793],[142.9724,-15.3331],[142.8392,-15.3237],[142.6674,-15.3114],[142.6517,-15.443],[142.6501,-15.4605],[142.5351,-15.4501],[142.2401,-15.4231],[142.1927,-15.3476],[142.0931,-15.1902],[142.0245,-15.3788],[142.0189,-15.3795],[142.0123,-15.373],[142.0012,-15.3681],[141.9958,-15.3647],[141.9841,-15.3624],[141.9757,-15.3578],[141.9683,-15.3556],[141.9631,-15.3655],[141.9565,-15.3802],[141.944,-15.3861],[141.9403,-15.3906],[141.9402,-15.3976],[141.945,-15.4047],[141.951,-15.4059],[141.956,-15.411],[141.9573,-15.4169],[141.9645,-15.4189],[141.969,-15.422],[141.9712,-15.4267],[141.9825,-15.438],[141.9839,-15.4422],[141.9917,-15.4476],[141.9953,-15.4535],[141.9726,-15.5691],[141.7992,-15.5547],[141.639,-15.5411],[141.6281,-15.5438],[141.6262,-15.5404],[141.6173,-15.5364],[141.6042,-15.5354],[141.5988,-15.5292],[141.5981,-15.5252],[141.5929,-15.5207],[141.5871,-15.5217],[141.5816,-15.5193],[141.5794,-15.5261],[141.5742,-15.5261],[141.5654,-15.5305],[141.5631,-15.5347],[141.5562,-15.5309],[141.5569,-15.5233],[141.5598,-15.5169],[141.5518,-15.5177],[141.5519,-15.5125],[141.5494,-15.5108],[141.5431,-15.5124],[141.5385,-15.5108],[141.5355,-15.5069],[141.531,-15.5087],[141.5319,-15.5136],[141.5217,-15.5128],[141.5222,-15.5212],[141.5281,-15.522],[141.5282,-15.5268],[141.5218,-15.5268],[141.5187,-15.5227],[141.5121,-15.5196],[141.5098,-15.522],[141.5031,-15.5191],[141.5027,-15.5162],[141.507,-15.5144],[141.5051,-15.5073],[141.5024,-15.5056],[141.4961,-15.5101],[141.4961,-15.5164],[141.4926,-15.5153],[141.4922,-15.508],[141.4994,-15.5019],[141.5073,-15.4922],[141.5025,-15.4914],[141.4997,-15.4855],[141.493,-15.4881],[141.4915,-15.4969],[141.4848,-15.4992]]],[[[141.6507,-15.0689],[141.6453,-15.0704],[141.6434,-15.0788],[141.6445,-15.0837],[141.6493,-15.09],[141.6549,-15.092],[141.6666,-15.1023],[141.6742,-15.1118],[141.686,-15.1103],[141.6884,-15.1042],[141.6929,-15.1007],[141.6969,-15.1005],[141.7007,-15.104],[141.7015,-15.1094],[141.7064,-15.1078],[141.7098,-15.1124],[141.71,-15.1205],[141.7139,-15.1222],[141.7195,-15.1214],[141.7207,-15.1245],[141.7174,-15.127],[141.7204,-15.1302],[141.7232,-15.1397],[141.7306,-15.1422],[141.7311,-15.1452],[141.7382,-15.1456],[141.7412,-15.1499],[141.7466,-15.1489],[141.746,-15.1422],[141.7535,-15.1449],[141.7584,-15.1397],[141.7643,-15.1405],[141.7684,-15.1427],[141.7731,-15.1405],[141.775,-15.1421],[141.7776,-15.14],[141.7827,-15.1407],[141.7865,-15.146],[141.7952,-15.1444],[141.8054,-15.1409],[141.805,-15.1378],[141.8116,-15.1345],[141.8187,-15.1326],[141.8233,-15.1365],[141.8367,-15.1306],[141.8436,-15.1267],[141.8482,-15.1274],[141.8517,-15.1262],[141.8602,-15.1273],[141.8662,-15.1246],[141.8715,-15.1262],[141.8747,-15.1223],[141.8802,-15.12],[141.8837,-15.1214],[141.8919,-15.1163],[141.897,-15.115],[141.8996,-15.1164],[141.9128,-15.1157],[141.9138,-15.1122],[141.9202,-15.1105],[141.9253,-15.1113],[141.9282,-15.1148],[141.9343,-15.114],[141.9408,-15.1065],[141.9457,-15.1067],[141.9561,-15.1049],[141.9611,-15.1013],[141.9666,-15.0995],[141.9708,-15.0963],[141.9775,-15.0941],[141.9834,-15.0894],[141.9898,-15.0863],[141.9955,-15.0925],[142.0008,-15.094],[142.0124,-15.0914],[142.0146,-15.0879],[142.0184,-15.0872],[142.0248,-15.0818],[142.0307,-15.0812],[142.0353,-15.0781],[142.0393,-15.0787],[142.0482,-15.0769],[142.0527,-15.0775],[142.0573,-15.0712],[142.0641,-15.0689],[142.0706,-15.0605],[142.0746,-15.0582],[142.0789,-15.0582],[142.0866,-15.0474],[142.0989,-15.0397],[142.0993,-15.0336],[142.1139,-15.02],[142.112,-15.0164],[142.1133,-15.0101],[142.1108,-15.009],[142.1044,-15.0188],[142.0931,-15.0313],[142.0927,-15.0356],[142.0864,-15.0433],[142.0866,-15.0453],[142.0815,-15.0504],[142.0595,-15.0624],[142.0594,-15.0678],[142.047,-15.0706],[142.0432,-15.0736],[142.0372,-15.0706],[142.031,-15.0728],[142.0229,-15.0778],[142.0182,-15.0783],[142.0036,-15.0878],[141.9956,-15.087],[141.9928,-15.0843],[141.9847,-15.0886],[141.9742,-15.0882],[141.9689,-15.0916],[141.9629,-15.0932],[141.9582,-15.0924],[141.9549,-15.0951],[141.9467,-15.0983],[141.9339,-15.1136],[141.9296,-15.1142],[141.9256,-15.1109],[141.9192,-15.1099],[141.9143,-15.1108],[141.9124,-15.1147],[141.9038,-15.1159],[141.8973,-15.1141],[141.8918,-15.1158],[141.8839,-15.1207],[141.8794,-15.1195],[141.8729,-15.1229],[141.8711,-15.1256],[141.8663,-15.1243],[141.8582,-15.1258],[141.8525,-15.1257],[141.8496,-15.1269],[141.8432,-15.1254],[141.8368,-15.13],[141.8317,-15.1312],[141.8233,-15.1356],[141.8187,-15.1318],[141.8047,-15.1368],[141.8049,-15.14],[141.7863,-15.1446],[141.784,-15.1405],[141.7792,-15.1393],[141.7748,-15.141],[141.771,-15.1396],[141.7657,-15.1407],[141.763,-15.1368],[141.7561,-15.1359],[141.7543,-15.1408],[141.7424,-15.1388],[141.7321,-15.1417],[141.7284,-15.1389],[141.7242,-15.1391],[141.7217,-15.1269],[141.7252,-15.1198],[141.7197,-15.1167],[141.7149,-15.1208],[141.7101,-15.1182],[141.7125,-15.1144],[141.7194,-15.1156],[141.7208,-15.1102],[141.7185,-15.1077],[141.7137,-15.1073],[141.7102,-15.11],[141.7061,-15.1057],[141.6963,-15.0986],[141.6903,-15.1],[141.6867,-15.1039],[141.6847,-15.1096],[141.6739,-15.11],[141.6707,-15.1036],[141.6633,-15.0957],[141.6513,-15.0815],[141.6507,-15.0689]]],[[[139.8477,-16.664],[139.85,-16.6653],[139.8555,-16.6739],[139.8587,-16.6722],[139.8603,-16.6678],[139.8674,-16.6635],[139.8724,-16.6639],[139.8779,-16.6579],[139.886,-16.6528],[139.8768,-16.6493],[139.8747,-16.6452],[139.868,-16.6486],[139.8694,-16.6557],[139.8647,-16.6601],[139.8604,-16.6613],[139.8526,-16.6612],[139.8477,-16.664]]],[[[139.8424,-16.7075],[139.8428,-16.7079],[139.8434,-16.7071],[139.8429,-16.7068],[139.8424,-16.7075]]],[[[139.8411,-16.7096],[139.8416,-16.7098],[139.8418,-16.709],[139.8411,-16.7096]]],[[[139.8256,-16.7034],[139.8321,-16.7033],[139.8396,-16.7004],[139.8337,-16.6975],[139.8256,-16.7034]]],[[[139.8031,-16.4881],[139.8071,-16.4945],[139.8095,-16.4911],[139.8031,-16.4881]]],[[[139.808,-16.5025],[139.8096,-16.5026],[139.8088,-16.5014],[139.808,-16.5025]]],[[[139.7012,-16.475],[139.7039,-16.4823],[139.7106,-16.4914],[139.7151,-16.4921],[139.7217,-16.4908],[139.7263,-16.4932],[139.7267,-16.4958],[139.7326,-16.5012],[139.734,-16.4932],[139.7332,-16.4848],[139.7352,-16.4784],[139.7303,-16.4725],[139.729,-16.462],[139.7306,-16.4564],[139.7269,-16.4522],[139.7178,-16.4509],[139.7127,-16.4581],[139.712,-16.4665],[139.7082,-16.4723],[139.7012,-16.475]]],[[[139.1605,-16.6098],[139.1618,-16.6172],[139.1594,-16.6235],[139.1534,-16.6295],[139.15,-16.6345],[139.1542,-16.639],[139.1584,-16.6489],[139.1588,-16.6583],[139.1625,-16.6661],[139.1665,-16.668],[139.1733,-16.6666],[139.1804,-16.6685],[139.1899,-16.667],[139.193,-16.6693],[139.1969,-16.6791],[139.1975,-16.6862],[139.1953,-16.6938],[139.199,-16.7075],[139.205,-16.7071],[139.2076,-16.6961],[139.2163,-16.6906],[139.2176,-16.6934],[139.2109,-16.6999],[139.2095,-16.708],[139.218,-16.7099],[139.2234,-16.715],[139.2264,-16.7234],[139.2265,-16.7277],[139.2293,-16.7327],[139.2327,-16.732],[139.2433,-16.7264],[139.2509,-16.7249],[139.2642,-16.7259],[139.2681,-16.7319],[139.2742,-16.7339],[139.281,-16.7328],[139.2882,-16.735],[139.2934,-16.7303],[139.3011,-16.7255],[139.3048,-16.7246],[139.3114,-16.7306],[139.3139,-16.7302],[139.3169,-16.7233],[139.3249,-16.7103],[139.3282,-16.7097],[139.3351,-16.7026],[139.345,-16.6953],[139.3507,-16.6896],[139.3514,-16.6836],[139.3461,-16.6784],[139.3471,-16.6755],[139.3571,-16.6779],[139.3653,-16.6865],[139.3679,-16.6841],[139.3656,-16.6777],[139.369,-16.6709],[139.378,-16.663],[139.3812,-16.6562],[139.3728,-16.6476],[139.3719,-16.6433],[139.3718,-16.6282],[139.369,-16.6207],[139.3744,-16.6202],[139.374,-16.6166],[139.3644,-16.6092],[139.3637,-16.6045],[139.3667,-16.6034],[139.3735,-16.6058],[139.3807,-16.6124],[139.3865,-16.614],[139.3778,-16.6216],[139.3843,-16.6242],[139.3935,-16.6361],[139.3993,-16.6375],[139.4033,-16.6413],[139.4092,-16.6513],[139.4091,-16.6542],[139.4161,-16.663],[139.4139,-16.6699],[139.4335,-16.6708],[139.4381,-16.6724],[139.4401,-16.67],[139.4485,-16.6674],[139.4486,-16.657],[139.4499,-16.6519],[139.4465,-16.6457],[139.4414,-16.6417],[139.4396,-16.6362],[139.4363,-16.6353],[139.4373,-16.631],[139.4475,-16.6285],[139.4554,-16.6283],[139.4604,-16.6301],[139.4653,-16.6291],[139.4719,-16.6178],[139.4718,-16.6137],[139.4664,-16.6064],[139.4712,-16.59],[139.4699,-16.5856],[139.4642,-16.5826],[139.4544,-16.5812],[139.4574,-16.5728],[139.4713,-16.5631],[139.4795,-16.5597],[139.4884,-16.5588],[139.4946,-16.563],[139.4953,-16.5678],[139.4992,-16.5717],[139.5005,-16.5762],[139.5063,-16.5767],[139.5064,-16.5687],[139.514,-16.5617],[139.5153,-16.5566],[139.514,-16.5464],[139.5124,-16.5447],[139.5039,-16.5445],[139.4983,-16.5466],[139.4908,-16.5476],[139.4833,-16.5459],[139.4799,-16.5403],[139.4725,-16.5325],[139.4696,-16.5317],[139.4702,-16.5265],[139.4762,-16.5207],[139.4807,-16.5214],[139.4809,-16.5246],[139.4927,-16.5238],[139.4994,-16.5156],[139.5041,-16.5128],[139.5088,-16.513],[139.5127,-16.5171],[139.5188,-16.5162],[139.5303,-16.5176],[139.5325,-16.5126],[139.5292,-16.5092],[139.5315,-16.5057],[139.5368,-16.5022],[139.5407,-16.495],[139.5423,-16.4882],[139.5603,-16.481],[139.562,-16.4844],[139.5578,-16.4872],[139.5592,-16.4931],[139.5626,-16.4963],[139.572,-16.4994],[139.5779,-16.5037],[139.5804,-16.5082],[139.5759,-16.5172],[139.5783,-16.5216],[139.5793,-16.5286],[139.5883,-16.5326],[139.588,-16.5422],[139.5928,-16.5465],[139.5921,-16.5517],[139.5949,-16.5553],[139.6153,-16.5414],[139.6233,-16.5382],[139.6276,-16.5341],[139.6337,-16.532],[139.6392,-16.5326],[139.6432,-16.5275],[139.6523,-16.5258],[139.6572,-16.5202],[139.6705,-16.5189],[139.6816,-16.5204],[139.6864,-16.5265],[139.6879,-16.5358],[139.7002,-16.5348],[139.7054,-16.5353],[139.7112,-16.5335],[139.7092,-16.5224],[139.701,-16.5187],[139.6978,-16.5157],[139.6995,-16.5118],[139.6988,-16.4977],[139.7018,-16.4898],[139.6982,-16.4796],[139.6933,-16.4776],[139.6906,-16.469],[139.6865,-16.4683],[139.6807,-16.4705],[139.6787,-16.4653],[139.6812,-16.4588],[139.6784,-16.4538],[139.6726,-16.4516],[139.6614,-16.4523],[139.6517,-16.451],[139.6432,-16.446],[139.6334,-16.4339],[139.6248,-16.4269],[139.6161,-16.4216],[139.6042,-16.4045],[139.5895,-16.4014],[139.5693,-16.3995],[139.5564,-16.3962],[139.5496,-16.3919],[139.5424,-16.3977],[139.537,-16.3991],[139.5381,-16.4047],[139.5352,-16.4097],[139.5271,-16.4143],[139.518,-16.4182],[139.4986,-16.4249],[139.4857,-16.4308],[139.4827,-16.4358],[139.4748,-16.4392],[139.4746,-16.4422],[139.4672,-16.4458],[139.4563,-16.4485],[139.445,-16.4492],[139.4301,-16.4486],[139.4226,-16.4464],[139.4005,-16.4482],[139.3868,-16.4525],[139.3797,-16.452],[139.3631,-16.4531],[139.359,-16.4593],[139.3604,-16.4607],[139.3722,-16.4646],[139.3703,-16.4687],[139.3599,-16.464],[139.356,-16.4581],[139.3476,-16.4626],[139.3331,-16.4661],[139.3254,-16.4652],[139.3157,-16.4612],[139.3095,-16.4613],[139.302,-16.465],[139.2981,-16.4686],[139.2904,-16.4789],[139.2788,-16.4853],[139.2636,-16.4947],[139.2554,-16.4973],[139.2483,-16.5022],[139.2412,-16.5053],[139.2433,-16.509],[139.2413,-16.5191],[139.2371,-16.5242],[139.2302,-16.5293],[139.2194,-16.5351],[139.2208,-16.5398],[139.213,-16.5506],[139.217,-16.5561],[139.2165,-16.5603],[139.21,-16.5712],[139.2002,-16.5795],[139.1911,-16.5851],[139.181,-16.5928],[139.1751,-16.5988],[139.1684,-16.603],[139.1605,-16.6098]]],[[[139.5954,-17.1119],[139.5971,-17.1138],[139.5986,-17.1293],[139.6058,-17.138],[139.6153,-17.1383],[139.6142,-17.1276],[139.6124,-17.122],[139.6139,-17.1176],[139.6199,-17.1077],[139.6295,-17.0902],[139.6336,-17.0858],[139.6345,-17.0813],[139.64,-17.0769],[139.6389,-17.073],[139.6342,-17.0659],[139.6262,-17.0619],[139.6239,-17.0668],[139.6259,-17.0731],[139.6251,-17.0784],[139.6215,-17.0808],[139.6193,-17.0872],[139.6137,-17.0928],[139.6157,-17.0991],[139.6151,-17.1053],[139.6058,-17.1112],[139.5954,-17.1119]]],[[[139.3939,-17.0825],[139.3965,-17.0926],[139.4006,-17.0989],[139.4009,-17.1059],[139.41,-17.1135],[139.4109,-17.1222],[139.4138,-17.1251],[139.4255,-17.1258],[139.4213,-17.1216],[139.4222,-17.1174],[139.4262,-17.1113],[139.4281,-17.1034],[139.4332,-17.1007],[139.4379,-17.1015],[139.4612,-17.0954],[139.474,-17.0959],[139.4774,-17.1003],[139.4751,-17.1073],[139.4766,-17.1131],[139.4824,-17.1162],[139.4952,-17.1151],[139.5027,-17.1171],[139.5082,-17.1203],[139.5102,-17.1161],[139.5149,-17.1117],[139.5198,-17.1048],[139.5369,-17.0996],[139.5498,-17.0987],[139.5522,-17.0996],[139.5598,-17.0949],[139.5673,-17.0924],[139.5745,-17.0919],[139.571,-17.0826],[139.5605,-17.0741],[139.5577,-17.0697],[139.5518,-17.0565],[139.5501,-17.0463],[139.555,-17.0397],[139.5568,-17.0345],[139.5487,-17.035],[139.5435,-17.0315],[139.5386,-17.0248],[139.5315,-17.0177],[139.5226,-17.011],[139.5094,-16.9972],[139.5063,-16.9924],[139.505,-16.9868],[139.4976,-16.9833],[139.4949,-16.9804],[139.4913,-16.9811],[139.4949,-16.9911],[139.4932,-16.9964],[139.4957,-17.0022],[139.4938,-17.0096],[139.4945,-17.0142],[139.4905,-17.02],[139.4836,-17.0264],[139.4761,-17.0285],[139.4739,-17.0318],[139.4648,-17.03],[139.4587,-17.0303],[139.4551,-17.0398],[139.4562,-17.0435],[139.4536,-17.054],[139.4467,-17.0601],[139.4344,-17.0662],[139.4238,-17.079],[139.4135,-17.0836],[139.4049,-17.0843],[139.3939,-17.0825]]],[[[139.5526,-17.1148],[139.5537,-17.1196],[139.5501,-17.1251],[139.5501,-17.1298],[139.5548,-17.1305],[139.5543,-17.1245],[139.5592,-17.1195],[139.5526,-17.1148]]],[[[139.4438,-16.6823],[139.4383,-16.6969],[139.4409,-16.6983],[139.4403,-16.7042],[139.4437,-16.7064],[139.4537,-16.7074],[139.4581,-16.7035],[139.4647,-16.6999],[139.466,-16.6933],[139.472,-16.6829],[139.476,-16.6803],[139.4754,-16.6761],[139.4714,-16.6698],[139.4657,-16.6686],[139.4631,-16.6711],[139.4527,-16.6749],[139.4481,-16.6804],[139.4438,-16.6823]]],[[[139.4735,-16.6107],[139.4736,-16.611],[139.4742,-16.6111],[139.4743,-16.6107],[139.4735,-16.6107]]],[[[139.4579,-16.6691],[139.459,-16.6691],[139.4592,-16.6684],[139.4579,-16.6691]]],[[[139.453,-16.6642],[139.4542,-16.6674],[139.4564,-16.665],[139.453,-16.6642]]],[[[139.3649,-17.0693],[139.3655,-17.0718],[139.3807,-17.0753],[139.3864,-17.0734],[139.3736,-17.0685],[139.3649,-17.0693]]],[[[139.3774,-17.0309],[139.3801,-17.0304],[139.3814,-17.0291],[139.3827,-17.0258],[139.3814,-17.0252],[139.3815,-17.0272],[139.3806,-17.0297],[139.3774,-17.0309]]],[[[139.3784,-16.6401],[139.3832,-16.6413],[139.3809,-16.6359],[139.3784,-16.6401]]],[[[139.3707,-17.0019],[139.3719,-17.0054],[139.3744,-17.0078],[139.3753,-17.0062],[139.3707,-17.0019]]],[[[139.361,-16.954],[139.3611,-16.9565],[139.3631,-16.9574],[139.364,-16.9555],[139.361,-16.954]]],[[[139.2884,-16.744],[139.2884,-16.7476],[139.2915,-16.7492],[139.2934,-16.7527],[139.2956,-16.7497],[139.2884,-16.744]]],[[[139.2795,-16.2634],[139.2802,-16.2642],[139.2809,-16.2635],[139.2801,-16.263],[139.2795,-16.2634]]],[[[139.2606,-16.9905],[139.2627,-16.9948],[139.2616,-16.9986],[139.2712,-16.9988],[139.2738,-16.9968],[139.273,-16.9918],[139.2688,-16.9891],[139.2606,-16.9905]]],[[[139.2714,-16.2684],[139.2742,-16.275],[139.2776,-16.2696],[139.2714,-16.2684]]],[[[139.206,-17.0065],[139.2052,-17.0109],[139.2077,-17.0162],[139.2125,-17.0221],[139.2152,-17.0338],[139.2189,-17.0315],[139.224,-17.0319],[139.2276,-17.0405],[139.2309,-17.0448],[139.236,-17.0479],[139.2457,-17.0459],[139.2511,-17.0509],[139.2509,-17.056],[139.2643,-17.0546],[139.2526,-17.0465],[139.245,-17.0381],[139.2416,-17.0311],[139.2289,-17.0233],[139.2247,-17.0175],[139.2182,-17.0139],[139.2123,-17.0061],[139.206,-17.0065]]],[[[139.2519,-16.2299],[139.2517,-16.2308],[139.253,-16.2326],[139.2536,-16.2301],[139.2519,-16.2299]]],[[[139.195,-16.993],[139.1999,-16.9946],[139.1998,-16.9926],[139.195,-16.993]]],[[[139.1451,-16.6944],[139.1441,-16.7014],[139.1398,-16.7094],[139.1402,-16.716],[139.143,-16.7191],[139.1464,-16.7308],[139.1422,-16.745],[139.1394,-16.7506],[139.14,-16.7543],[139.1465,-16.7497],[139.1527,-16.7482],[139.1617,-16.749],[139.1598,-16.7417],[139.1607,-16.7379],[139.1655,-16.7324],[139.1714,-16.7284],[139.1781,-16.7281],[139.1861,-16.7191],[139.185,-16.7127],[139.181,-16.7015],[139.1813,-16.6982],[139.1849,-16.6928],[139.1875,-16.6792],[139.1835,-16.6748],[139.177,-16.6725],[139.1708,-16.6718],[139.1514,-16.6866],[139.1451,-16.6944]]],[[[139.1616,-16.7405],[139.1615,-16.7417],[139.163,-16.7444],[139.1643,-16.7457],[139.1625,-16.7403],[139.1616,-16.7405]]],[[[139.153,-16.7752],[139.1544,-16.7749],[139.1549,-16.7742],[139.1535,-16.7746],[139.153,-16.7752]]],[[[139.151,-16.7825],[139.151,-16.7828],[139.1509,-16.783],[139.1508,-16.7837],[139.1511,-16.7831],[139.1511,-16.7825],[139.151,-16.7825]]],[[[139.0933,-16.8153],[139.0947,-16.8194],[139.0908,-16.827],[139.0918,-16.835],[139.095,-16.8435],[139.104,-16.8342],[139.1129,-16.8305],[139.1151,-16.831],[139.1194,-16.8254],[139.1222,-16.8271],[139.129,-16.8238],[139.1334,-16.8255],[139.139,-16.8254],[139.1441,-16.827],[139.1493,-16.8206],[139.1461,-16.8159],[139.138,-16.811],[139.1345,-16.8017],[139.1308,-16.7991],[139.1263,-16.8025],[139.0933,-16.8153]]],[[[139.1476,-16.8256],[139.1477,-16.8257],[139.1478,-16.8257],[139.1477,-16.8256],[139.1476,-16.8256]]],[[[139.14,-16.7582],[139.1402,-16.7627],[139.146,-16.7629],[139.1431,-16.7567],[139.14,-16.7582]]],[[[139.1377,-16.7894],[139.1381,-16.7898],[139.1383,-16.7898],[139.1389,-16.7899],[139.1388,-16.7897],[139.138,-16.7895],[139.1377,-16.7894]]],[[[139.133,-16.7912],[139.1331,-16.7912],[139.1332,-16.7911],[139.1332,-16.791],[139.133,-16.7912]]],[[[139.12,-16.86],[139.1204,-16.8611],[139.1204,-16.8614],[139.1206,-16.8615],[139.1203,-16.8602],[139.12,-16.86]]],[[[139.0522,-16.8884],[139.0541,-16.8922],[139.0599,-16.8978],[139.0646,-16.8983],[139.069,-16.9039],[139.0719,-16.9021],[139.0686,-16.8935],[139.0598,-16.8886],[139.0577,-16.8851],[139.0522,-16.8884]]],[[[139.0572,-16.8701],[139.0591,-16.8761],[139.0661,-16.8722],[139.0652,-16.8654],[139.0632,-16.8646],[139.0572,-16.8701]]]]},"id":"Mount Isa"},{"type":"Feature","properties":{"District Name":"Townsville","DDMG Name":"Townsville","Area Sq Km":175353.69,"Police Region Name":"Northern Region","Police Region Code":"NR","Police Region Short Name":"Northern","Region Slug":"northern","Layer Id":"qld_northern_ddmg_boundaries_gda2020_simp200m","Layer Group":"per-region","Layer Kind":"ddmg","Source":"QPS Disaster Districts, Queensland Police Service, via the Queensland Government Open Data Portal","Source URL":"https://www.data.qld.gov.au/dataset/qps-disaster-districts","Licence":"CC BY 4.0","Licence URL":"https://creativecommons.org/licenses/by/4.0/","Dataset Date":"19/05/2025","Simplification Tolerance M":200,"Coordinate Precision Decimals":4,"CRS":"GDA2020 (EPSG:7844)","Modified":"Simplified and repackaged from the source dataset; see Source URL"},"geometry":{"type":"Polygon","coordinates":[[[145.7575,-18.3958],[145.7596,-18.4032],[145.7692,-18.4094],[145.7558,-18.408],[145.7551,-18.4143],[145.7601,-18.4239],[145.7578,-18.4294],[145.7545,-18.4311],[145.755,-18.4385],[145.747,-18.4455],[145.7442,-18.4505],[145.7396,-18.45],[145.7361,-18.4573],[145.7292,-18.4535],[145.7324,-18.4617],[145.7281,-18.4659],[145.715,-18.4684],[145.7081,-18.4709],[145.7143,-18.4802],[145.7163,-18.4884],[145.6238,-18.477],[145.5012,-18.4619],[145.4945,-18.5764],[145.39,-18.565],[145.3835,-18.5702],[145.3573,-18.5357],[145.2968,-18.464],[145.3017,-18.4552],[145.2792,-18.4395],[145.2864,-18.43],[145.2599,-18.4273],[145.2679,-18.355],[145.1952,-18.3477],[145.1944,-18.3495],[145.1666,-18.3467],[145.1589,-18.3523],[145.1558,-18.3645],[145.1483,-18.3645],[145.1401,-18.3579],[145.1376,-18.3625],[145.1344,-18.362],[145.1324,-18.3715],[145.1352,-18.376],[145.133,-18.3781],[145.1344,-18.3852],[145.1386,-18.3902],[145.1433,-18.3907],[145.1487,-18.3936],[145.1613,-18.3908],[145.1637,-18.3957],[145.1612,-18.3983],[145.1617,-18.4065],[145.1642,-18.415],[145.1721,-18.4233],[145.1775,-18.4251],[145.1832,-18.4313],[145.18,-18.4466],[145.1823,-18.4492],[145.182,-18.4725],[145.1857,-18.4802],[145.1781,-18.4795],[145.1721,-18.4884],[145.1738,-18.4938],[145.1842,-18.4948],[145.1825,-18.5106],[145.1774,-18.5113],[145.1726,-18.5168],[145.1718,-18.5208],[145.1596,-18.5348],[145.1574,-18.5383],[145.1567,-18.5455],[145.1486,-18.553],[145.1404,-18.5656],[145.1407,-18.5727],[145.1354,-18.5747],[145.1308,-18.573],[145.1335,-18.5691],[145.1334,-18.5643],[145.1277,-18.5575],[145.1199,-18.5558],[145.1159,-18.5574],[145.1075,-18.5638],[145.1011,-18.5667],[145.0905,-18.5661],[145.0858,-18.5598],[145.0798,-18.5606],[145.076,-18.5546],[145.0686,-18.5536],[145.0635,-18.5545],[145.0534,-18.5488],[145.0551,-18.5397],[145.0518,-18.5361],[145.0526,-18.5305],[145.0505,-18.5286],[145.0511,-18.5174],[145.0467,-18.5132],[144.981,-18.507],[144.9822,-18.4985],[144.9812,-18.4936],[144.9766,-18.4921],[144.9737,-18.4833],[144.9715,-18.4723],[144.9683,-18.4696],[144.963,-18.4732],[144.9645,-18.4815],[144.9606,-18.4861],[144.9562,-18.4819],[144.9549,-18.4753],[144.9514,-18.4773],[144.9532,-18.4821],[144.9514,-18.4893],[144.9469,-18.4977],[144.9512,-18.5042],[144.9217,-18.5013],[144.9224,-18.505],[144.9202,-18.5128],[144.9206,-18.5188],[144.9241,-18.5228],[144.8782,-18.5179],[144.8804,-18.4973],[144.8367,-18.4931],[144.8414,-18.4524],[144.8375,-18.44],[144.8446,-18.408],[144.8516,-18.4],[144.8552,-18.3695],[144.8496,-18.3696],[144.8435,-18.3718],[144.8346,-18.3688],[144.8224,-18.3691],[144.8172,-18.3717],[144.7998,-18.3592],[144.7801,-18.3579],[144.7741,-18.3588],[144.7712,-18.3575],[144.7604,-18.3564],[144.7473,-18.3305],[144.7463,-18.3267],[144.7411,-18.3174],[144.6777,-18.311],[144.6762,-18.4234],[144.66,-18.5686],[144.6516,-18.6266],[144.7641,-18.6384],[144.7871,-18.6613],[144.7417,-18.7027],[144.7469,-18.7075],[144.7439,-18.7125],[144.7452,-18.7218],[144.751,-18.7251],[144.7556,-18.7252],[144.758,-18.7285],[144.7654,-18.7285],[144.7725,-18.7366],[144.7775,-18.7407],[144.7868,-18.734],[144.792,-18.7332],[144.8025,-18.7444],[144.8016,-18.7509],[144.8059,-18.7523],[144.8068,-18.7573],[144.8046,-18.7617],[144.8076,-18.7645],[144.8084,-18.7696],[144.7454,-18.818],[144.7903,-18.871],[144.7214,-18.9212],[144.7075,-18.9359],[144.698,-18.996],[144.6997,-19.0051],[144.7153,-19.0168],[144.7744,-19.148],[144.7944,-19.1622],[144.8044,-19.1572],[144.8105,-19.1558],[144.8238,-19.1568],[144.8314,-19.1598],[144.7711,-19.2047],[144.7501,-19.1808],[144.6297,-19.2884],[144.6225,-19.2973],[144.619,-19.306],[144.6174,-19.3209],[144.5978,-19.319],[144.5908,-19.3841],[144.4774,-19.3709],[144.4705,-19.4479],[144.4508,-19.4412],[144.3875,-19.4307],[144.3696,-19.4301],[144.3517,-19.4239],[144.3449,-19.5015],[144.3026,-19.4974],[144.2994,-19.5306],[144.2957,-19.5664],[144.2926,-19.569],[144.2795,-19.576],[144.2732,-19.5759],[144.2619,-19.5829],[144.2551,-19.5855],[144.248,-19.5942],[144.2389,-19.6085],[144.2315,-19.6159],[144.2264,-19.6187],[144.2123,-19.61],[144.2065,-19.6037],[144.197,-19.5998],[144.187,-19.5974],[144.18,-19.5944],[144.1747,-19.5884],[144.1722,-19.5764],[144.1569,-19.5676],[144.147,-19.5657],[144.1393,-19.5656],[144.1241,-19.5719],[144.1172,-19.5717],[144.1127,-19.5761],[144.1036,-19.5797],[144.0889,-19.5782],[144.072,-19.5746],[144.0606,-19.5708],[144.0543,-19.5705],[144.0448,-19.5836],[144.0289,-19.5978],[144.0142,-19.6149],[144.0039,-19.6213],[144.0003,-19.6221],[143.9882,-19.6218],[143.9765,-19.6229],[143.9673,-19.6205],[143.9557,-19.6196],[143.9475,-19.622],[143.938,-19.6273],[143.9251,-19.6308],[143.896,-19.6339],[143.8518,-19.637],[143.8245,-19.6304],[143.797,-19.6175],[143.7757,-19.6057],[143.752,-19.5963],[143.7342,-19.5899],[143.7152,-19.5853],[143.6823,-19.597],[143.6775,-19.5971],[143.6541,-19.5875],[143.6467,-19.5838],[143.619,-19.5599],[143.6173,-19.5571],[143.6054,-19.5303],[143.6005,-19.5218],[143.5905,-19.5072],[143.5832,-19.5016],[143.5798,-19.4969],[143.5653,-19.4856],[143.5496,-19.4766],[143.5355,-19.4718],[143.5233,-19.476],[143.5138,-19.48],[143.5077,-19.4839],[143.5111,-19.4916],[143.5132,-19.5053],[143.5094,-19.516],[143.5014,-19.5244],[143.4899,-19.5309],[143.4663,-19.54],[143.4619,-19.5449],[143.4581,-19.5467],[143.4537,-19.5559],[143.4473,-19.5588],[143.4438,-19.566],[143.4341,-19.5653],[143.4299,-19.5632],[143.417,-19.5671],[143.4132,-19.5644],[143.4029,-19.5702],[143.398,-19.5752],[143.394,-19.5766],[143.3947,-19.5863],[143.3943,-19.5968],[143.3831,-19.6126],[143.3728,-19.6139],[143.3677,-19.6127],[143.3514,-19.6043],[143.3461,-19.6037],[143.3419,-19.6056],[143.3367,-19.6167],[143.333,-19.6211],[143.3172,-19.6285],[143.3107,-19.6332],[143.3058,-19.6395],[143.2984,-19.6563],[143.2896,-19.6697],[143.2885,-19.6842],[143.2854,-19.6895],[143.275,-19.6964],[143.2701,-19.6942],[143.2656,-19.6866],[143.2616,-19.6825],[143.2567,-19.6818],[143.2497,-19.6899],[143.1976,-19.6855],[143.03,-19.6712],[142.9745,-19.6669],[142.7936,-19.6518],[142.6007,-19.6355],[142.6022,-19.62],[142.3752,-19.5999],[142.363,-19.7255],[142.3493,-19.8592],[142.3794,-19.8617],[142.3689,-19.9755],[142.3609,-20.0626],[142.3539,-20.1382],[142.347,-20.2115],[142.3358,-20.3303],[142.3806,-20.334],[142.3707,-20.4395],[142.3738,-20.4397],[142.3616,-20.5685],[142.3472,-20.5715],[142.3445,-20.5712],[142.3424,-20.5857],[142.3411,-20.6003],[142.3449,-20.6006],[142.3391,-20.6656],[142.3347,-20.6651],[142.3099,-20.7147],[142.3634,-20.7199],[142.3549,-20.7964],[142.331,-20.7941],[142.3209,-20.8862],[142.3019,-20.8842],[142.2956,-20.9526],[142.2919,-20.9949],[142.2031,-20.9875],[142.1991,-21.0108],[142.2378,-21.0141],[142.2324,-21.0703],[142.2316,-21.0701],[142.2224,-21.1674],[142.2553,-21.1697],[142.2499,-21.2362],[142.1577,-21.2347],[142.0577,-21.2165],[142.0473,-21.2243],[142.1377,-21.3235],[142.064,-21.3799],[142.0917,-21.3826],[142.0803,-21.4883],[142.0383,-21.5201],[142.0737,-21.5233],[142.072,-21.5407],[142.1634,-21.5432],[142.2319,-21.5509],[142.2282,-21.5963],[142.3354,-21.6071],[142.3338,-21.6201],[142.3326,-21.6363],[142.3786,-21.6385],[142.4912,-21.6442],[142.4956,-21.598],[142.5631,-21.6035],[142.5651,-21.6027],[142.6566,-21.6104],[142.6516,-21.6677],[142.7185,-21.6149],[142.694,-21.5878],[142.7554,-21.5399],[142.8155,-21.4926],[142.8368,-21.517],[142.8621,-21.545],[142.9425,-21.4818],[142.9532,-21.4937],[142.9984,-21.4557],[143.002,-21.4574],[143.007,-21.4536],[143.0076,-21.4485],[143.0363,-21.4264],[143.0851,-21.3885],[143.188,-21.3086],[143.2365,-21.313],[143.2366,-21.3112],[143.3595,-21.322],[143.3498,-21.4127],[143.3398,-21.5064],[143.3318,-21.5769],[143.3292,-21.6087],[143.3299,-21.6115],[143.3577,-21.6142],[143.358,-21.616],[143.4483,-21.6246],[143.45,-21.6229],[143.5303,-21.6302],[143.6101,-21.6377],[143.6493,-21.6412],[143.6424,-21.7052],[143.6308,-21.7974],[143.709,-21.8055],[143.7818,-21.8141],[143.7821,-21.8111],[143.9295,-21.82],[143.9342,-21.8221],[144.0446,-21.8303],[144.0389,-21.8947],[144.0574,-21.8983],[144.0685,-21.8979],[144.0925,-21.8989],[144.1117,-21.9018],[144.1114,-21.9063],[144.1843,-21.9133],[144.186,-21.9137],[144.1833,-21.9549],[144.1803,-21.9895],[144.2634,-21.9974],[144.2701,-22.0326],[144.2685,-22.0479],[144.4172,-22.0617],[144.4133,-22.0981],[144.4028,-22.1133],[144.3978,-22.157],[144.5018,-22.1651],[144.5005,-22.1856],[144.5361,-22.1882],[144.5541,-22.1899],[144.6374,-22.1955],[144.665,-22.1979],[144.7172,-22.2038],[144.7235,-22.2021],[144.7398,-22.2117],[144.7469,-22.1484],[144.7463,-22.1481],[144.7523,-22.0948],[144.753,-22.0943],[144.7964,-22.0984],[144.8009,-22.0454],[144.943,-22.0591],[144.9505,-21.9906],[144.9563,-21.9303],[145.0822,-21.9426],[145.0843,-21.9102],[145.074,-21.8995],[145.075,-21.8912],[145.1528,-21.8987],[145.1526,-21.9005],[145.1858,-21.9038],[145.1829,-21.9008],[145.184,-21.8975],[145.1825,-21.8917],[145.1855,-21.8905],[145.1863,-21.8858],[145.1923,-21.8773],[145.1922,-21.8712],[145.1807,-21.851],[145.1848,-21.8202],[145.1642,-21.8039],[145.1662,-21.7849],[145.2545,-21.7937],[145.2622,-21.8285],[145.3705,-21.8405],[145.4185,-21.8461],[145.4351,-21.692],[145.5293,-21.7018],[145.5329,-21.6582],[145.6785,-21.6682],[145.6758,-21.6947],[145.6738,-21.7193],[145.6632,-21.719],[145.6458,-21.7975],[145.7287,-21.8168],[145.7083,-21.8765],[145.6968,-21.8755],[145.6859,-21.9158],[145.7351,-21.9272],[145.7249,-21.9382],[145.6274,-21.9244],[145.6174,-22.0369],[145.7698,-22.0475],[145.7693,-22.0664],[145.8418,-22.0756],[145.8804,-22.0803],[145.8802,-22.0848],[146.0066,-22.1009],[146.0308,-22.1042],[146.0395,-22.0233],[146.0669,-22.0266],[146.0721,-21.9974],[146.1232,-22.0012],[146.2015,-22.0076],[146.2023,-22.0009],[146.2107,-21.9149],[146.2126,-21.9007],[146.1489,-21.8967],[146.1261,-21.8946],[146.1106,-21.8942],[146.1268,-21.8133],[146.0692,-21.8087],[146.0765,-21.7141],[146.0844,-21.6101],[146.0852,-21.5983],[146.0934,-21.5099],[146.1323,-21.514],[146.1505,-21.5],[146.3467,-21.5181],[146.3409,-21.5702],[146.3974,-21.6633],[146.4465,-21.6681],[146.4838,-21.6806],[146.4872,-21.6501],[146.4883,-21.6473],[146.4901,-21.6201],[146.4927,-21.5888],[146.49,-21.5868],[146.4921,-21.567],[146.6565,-21.5826],[146.6473,-21.5957],[146.6511,-21.5969],[146.6526,-21.6044],[146.7535,-21.6358],[146.8324,-21.6431],[146.8344,-21.6426],[146.837,-21.6361],[146.8347,-21.632],[146.8366,-21.6229],[146.8341,-21.618],[146.8351,-21.6142],[146.8328,-21.6051],[146.8386,-21.5847],[146.8351,-21.5794],[146.8354,-21.5736],[146.8472,-21.5609],[146.8494,-21.5538],[146.8492,-21.5482],[146.8565,-21.5408],[146.8612,-21.5332],[146.8664,-21.5309],[146.8704,-21.5262],[146.8691,-21.5193],[146.8663,-21.5138],[146.8666,-21.5105],[146.8722,-21.5047],[146.8771,-21.4957],[146.8841,-21.4878],[146.8964,-21.4763],[146.9013,-21.4705],[146.9074,-21.466],[146.909,-21.4593],[146.9118,-21.4538],[146.9098,-21.4411],[146.905,-21.4363],[146.8984,-21.4347],[146.8959,-21.4248],[146.8912,-21.4217],[146.8822,-21.4111],[146.8753,-21.3931],[146.8756,-21.3825],[146.8822,-21.3733],[146.8788,-21.3709],[146.8828,-21.3621],[146.8953,-21.3572],[146.9046,-21.3503],[146.9057,-21.3452],[146.9093,-21.3408],[146.9109,-21.3347],[146.9178,-21.3254],[146.9286,-21.3217],[146.9342,-21.3153],[146.9467,-21.3045],[146.9566,-21.302],[146.9633,-21.2947],[146.9661,-21.2787],[146.9656,-21.2748],[146.9597,-21.2626],[146.9605,-21.2521],[146.9571,-21.2469],[146.9497,-21.2396],[146.932,-21.2384],[146.9266,-21.2322],[146.915,-21.2268],[146.907,-21.2242],[146.8966,-21.2239],[146.8909,-21.2218],[146.8857,-21.2177],[146.8739,-21.2036],[146.867,-21.1939],[146.8659,-21.1881],[146.868,-21.1834],[146.8822,-21.1733],[146.8826,-21.1703],[146.8741,-21.1615],[146.872,-21.1509],[146.8626,-21.1378],[146.8618,-21.1334],[146.8617,-21.1189],[146.8595,-21.1149],[146.8532,-21.1081],[146.8488,-21.1009],[146.8521,-21.0946],[146.8549,-21.0845],[146.8555,-21.0775],[146.8537,-21.0725],[146.8612,-21.0642],[146.8611,-21.059],[146.863,-21.0479],[146.8599,-21.0409],[146.8604,-21.0312],[146.8638,-21.0252],[146.8691,-21.0208],[146.8823,-21.0058],[146.8837,-20.9976],[146.8779,-20.9908],[146.876,-20.9841],[146.8764,-20.978],[146.8733,-20.9695],[146.8669,-20.9552],[146.866,-20.9465],[146.8636,-20.9386],[146.8564,-20.9267],[146.8535,-20.9192],[146.8542,-20.9121],[146.8631,-20.9022],[146.8622,-20.8951],[146.866,-20.886],[146.8564,-20.8711],[146.8562,-20.8677],[146.861,-20.86],[146.8628,-20.8473],[146.8583,-20.8366],[146.858,-20.8307],[146.8528,-20.8191],[146.8518,-20.8129],[146.8562,-20.8035],[146.8616,-20.7965],[146.8659,-20.7969],[146.8713,-20.8017],[146.8762,-20.8012],[146.8882,-20.7913],[146.9012,-20.7903],[146.9099,-20.7867],[146.9137,-20.7808],[146.9155,-20.7747],[146.917,-20.7615],[146.9204,-20.7574],[146.9274,-20.7552],[146.9391,-20.754],[146.944,-20.752],[146.9601,-20.7418],[146.9621,-20.7384],[146.9623,-20.7292],[146.9649,-20.7213],[146.9656,-20.7144],[146.9645,-20.7023],[146.9609,-20.6887],[146.9613,-20.6844],[146.9648,-20.676],[146.9758,-20.6736],[146.9827,-20.6693],[146.9855,-20.6649],[146.9858,-20.6584],[146.9795,-20.6493],[146.9732,-20.6347],[146.9721,-20.6293],[146.9727,-20.6236],[146.976,-20.6197],[147.0022,-20.6093],[147.0119,-20.606],[147.0165,-20.6066],[147.0212,-20.6095],[147.0224,-20.6167],[147.0244,-20.6208],[147.0308,-20.6263],[147.0363,-20.6293],[147.0427,-20.6309],[147.0482,-20.6304],[147.052,-20.6271],[147.0581,-20.6257],[147.0651,-20.6304],[147.0733,-20.6489],[147.0805,-20.6533],[147.0864,-20.6522],[147.0958,-20.6438],[147.0987,-20.6408],[147.1057,-20.6368],[147.1118,-20.6359],[147.1242,-20.6377],[147.1331,-20.6411],[147.1486,-20.6518],[147.1561,-20.6517],[147.1595,-20.6492],[147.1631,-20.643],[147.1646,-20.6352],[147.171,-20.6242],[147.178,-20.6186],[147.1787,-20.6064],[147.1841,-20.6022],[147.1861,-20.6039],[147.1938,-20.5991],[147.1962,-20.5938],[147.2096,-20.5871],[147.2146,-20.5767],[147.2225,-20.5765],[147.228,-20.5814],[147.2346,-20.584],[147.2414,-20.5844],[147.2513,-20.5729],[147.258,-20.567],[147.2641,-20.5598],[147.267,-20.5579],[147.2745,-20.5572],[147.2795,-20.5524],[147.2799,-20.544],[147.2831,-20.5363],[147.2848,-20.5246],[147.2885,-20.5178],[147.2993,-20.508],[147.301,-20.5038],[147.3009,-20.4972],[147.2917,-20.4801],[147.2905,-20.4727],[147.2945,-20.4565],[147.2978,-20.4474],[147.3005,-20.4442],[147.3086,-20.4383],[147.3199,-20.4334],[147.3308,-20.4308],[147.3388,-20.4269],[147.3424,-20.422],[147.345,-20.4133],[147.3476,-20.4006],[147.3472,-20.3938],[147.3391,-20.3859],[147.3316,-20.382],[147.3208,-20.3715],[147.3144,-20.3603],[147.3105,-20.3499],[147.306,-20.3334],[147.3006,-20.3217],[147.299,-20.3143],[147.3002,-20.3052],[147.3083,-20.2861],[147.3106,-20.2742],[147.3113,-20.2621],[147.3092,-20.2217],[147.3076,-20.2116],[147.3019,-20.1926],[147.3006,-20.1825],[147.2961,-20.166],[147.2919,-20.1555],[147.279,-20.1348],[147.2748,-20.1258],[147.2752,-20.1147],[147.2809,-20.0976],[147.2844,-20.089],[147.2927,-20.0755],[147.2947,-20.069],[147.2939,-20.0647],[147.2853,-20.046],[147.2734,-20.0284],[147.279,-20.026],[147.2863,-20.0203],[147.3004,-20.0147],[147.3038,-20.0162],[147.2993,-20.0229],[147.2995,-20.0283],[147.3025,-20.0329],[147.3124,-20.0385],[147.3174,-20.0481],[147.3212,-20.0529],[147.3281,-20.0556],[147.3377,-20.0575],[147.3477,-20.0613],[147.3568,-20.0589],[147.3672,-20.0608],[147.3793,-20.0667],[147.3863,-20.0682],[147.3906,-20.0708],[147.3916,-20.0769],[147.386,-20.0872],[147.3916,-20.0881],[147.4671,-20.0958],[147.4799,-19.9817],[147.4789,-19.9816],[147.4844,-19.9328],[147.4868,-19.9308],[147.4855,-19.9235],[147.4914,-19.8714],[147.5098,-19.8734],[147.511,-19.8579],[147.5083,-19.8507],[147.5155,-19.8469],[147.5215,-19.841],[147.5262,-19.8395],[147.5294,-19.8358],[147.5374,-19.833],[147.5362,-19.8246],[147.5343,-19.8229],[147.5362,-19.8162],[147.5408,-19.813],[147.5453,-19.8137],[147.5476,-19.8112],[147.5669,-19.809],[147.5765,-19.8027],[147.602,-19.7993],[147.6078,-19.8001],[147.6634,-19.8109],[147.6713,-19.7926],[147.7178,-19.6983],[147.8387,-19.6984],[148.0,-19.6983],[148.25,-19.6983],[148.5,-19.6983],[148.75,-19.6983],[149.0011,-19.6984],[150.0052,-19.6976],[149.9835,-19.6846],[149.9502,-19.6482],[149.8793,-19.6235],[149.8713,-19.6165],[149.8666,-19.6152],[149.8615,-19.6079],[149.6521,-19.4616],[149.6425,-19.4578],[149.4209,-19.3337],[149.3256,-19.2984],[149.0976,-19.214],[149.0306,-19.2006],[149.0254,-19.1954],[149.0191,-19.1924],[148.9664,-19.1829],[148.9631,-19.1795],[148.9233,-19.1151],[148.9159,-19.1066],[148.7009,-19.0715],[148.5656,-19.0274],[148.5639,-19.0251],[148.4334,-18.9808],[148.4263,-18.9734],[148.4182,-18.9722],[148.3815,-18.953],[148.3778,-18.9493],[148.3451,-18.9281],[148.1638,-18.851],[148.1175,-18.8351],[148.0664,-18.8376],[148.0309,-18.814],[147.984,-18.7948],[147.9547,-18.765],[147.9499,-18.7518],[147.9393,-18.7456],[147.9288,-18.7418],[147.8699,-18.6949],[147.854,-18.6892],[147.7247,-18.6546],[147.7121,-18.6488],[147.6151,-18.6093],[147.6116,-18.6028],[147.6058,-18.5965],[147.5994,-18.5818],[147.2813,-18.582],[147.0011,-18.5818],[147.0011,-18.4984],[146.7368,-18.4988],[146.6345,-18.4988],[146.4849,-18.4987],[146.3975,-18.4986],[146.2972,-18.4985],[146.277,-18.4975],[146.2511,-18.4924],[146.2415,-18.4923],[146.2299,-18.4895],[146.2242,-18.4941],[146.2104,-18.5082],[146.2069,-18.5165],[146.1994,-18.5218],[146.1954,-18.5211],[146.1907,-18.5236],[146.1909,-18.5283],[146.1834,-18.5323],[146.1805,-18.5298],[146.1796,-18.5247],[146.1749,-18.5213],[146.165,-18.5174],[146.1559,-18.5188],[146.1473,-18.5171],[146.1381,-18.5125],[146.1217,-18.5079],[146.1171,-18.5013],[146.1154,-18.4952],[146.1167,-18.4894],[146.122,-18.4845],[146.1185,-18.48],[146.1142,-18.478],[146.1141,-18.4725],[146.1073,-18.4632],[146.1043,-18.4535],[146.1011,-18.4514],[146.0938,-18.4513],[146.0914,-18.4478],[146.0935,-18.4401],[146.1016,-18.4327],[146.0984,-18.4264],[146.098,-18.4209],[146.1003,-18.4152],[146.0926,-18.4116],[146.085,-18.4008],[146.0742,-18.4034],[146.0526,-18.3951],[146.0492,-18.3926],[146.0464,-18.3967],[146.0367,-18.3881],[146.0265,-18.3918],[146.0205,-18.3895],[146.0106,-18.3889],[146.0089,-18.3911],[146.001,-18.3936],[145.992,-18.3938],[145.9836,-18.3971],[145.9804,-18.3954],[145.9741,-18.3959],[145.9618,-18.3944],[145.9473,-18.3643],[145.9334,-18.3705],[145.9293,-18.3697],[145.919,-18.3782],[145.9165,-18.378],[145.9087,-18.3853],[145.9086,-18.3879],[145.8981,-18.3968],[145.8911,-18.3999],[145.8865,-18.4046],[145.8796,-18.4074],[145.8776,-18.4032],[145.8735,-18.4],[145.8709,-18.4025],[145.8656,-18.4023],[145.8567,-18.4057],[145.8477,-18.4047],[145.8388,-18.4062],[145.8328,-18.4021],[145.8256,-18.407],[145.8188,-18.4031],[145.816,-18.3979],[145.8182,-18.3952],[145.8193,-18.3869],[145.8113,-18.3783],[145.8068,-18.3781],[145.8049,-18.3807],[145.8069,-18.386],[145.7939,-18.39],[145.7937,-18.3975],[145.7954,-18.4012],[145.7924,-18.4034],[145.7878,-18.4024],[145.7825,-18.3942],[145.7757,-18.3989],[145.769,-18.3995],[145.7623,-18.3939],[145.7575,-18.3958]]]},"id":"Townsville"}]}